No errors
No warnings
571 ms
data source=metars
4744 results
raw_text,station_id,observation_time,latitude,longitude,temp_c,dewpoint_c,wind_dir_degrees,wind_speed_kt,wind_gust_kt,visibility_statute_mi,altim_in_hg,sea_level_pressure_mb,corrected,auto,auto_station,maintenance_indicator_on,no_signal,lightning_sensor_off,freezing_rain_sensor_off,present_weather_sensor_off,wx_string,sky_cover,cloud_base_ft_agl,sky_cover,cloud_base_ft_agl,sky_cover,cloud_base_ft_agl,sky_cover,cloud_base_ft_agl,flight_category,three_hr_pressure_tendency_mb,maxT_c,minT_c,maxT24hr_c,minT24hr_c,precip_in,pcp3hr_in,pcp6hr_in,pcp24hr_in,snow_in,vert_vis_ft,metar_type,elevation_m
UASS 190209Z 03002MPS 360V070 0200 R26/0450N FG VV002 01/01 Q1025 NOSIG RMK QBB070 QFE750/1001,UASS,2021-10-19T02:09:00Z,50.35,80.23,1.0,1.0,30,4,,0.12,30.265747,,,,,,TRUE,,,,FG,OVX,0,,,,,,,LIFR,,,,,,,,,,,200,SPECI,215.0
SAVC 190209Z 27020G32KT CAVOK 19/05 Q1014,SAVC,2021-10-19T02:09:00Z,-45.78,-67.47,19.0,5.0,270,20,32,6.21,29.940945,,,,,,,,,,,CAVOK,,,,,,,,VFR,,,,,,,,,,,,METAR,58.0
MHTG 190208Z 33006KT 6000 3000SW -RA FEW005 BKN030 OVC080 20/19 Q1019 A3009 BECMG 6000 RA,MHTG,2021-10-19T02:08:00Z,14.07,-87.22,20.0,19.0,330,6,,3.73,30.088583,,,,,,,,,,-RA,FEW,500,BKN,3000,OVC,8000,,,MVFR,,,,,,,,,,,,SPECI,1001.0
CYHK 190208Z AUTO 30010KT 6SM -SN FEW005 OVC031 M02/M02 A2926 RMK SLP915,CYHK,2021-10-19T02:08:00Z,68.62,-95.85,-2.0,-2.0,300,10,,6.0,29.258858,991.5,,TRUE,,,,,,,-SN,FEW,500,OVC,3100,,,,,VFR,,,,,,,,,,,,SPECI,36.0
PAWI 190207Z AUTO 13007KT 4SM BR FEW001 M19/M21 A2985 RMK AO2 T11891206 TSNO,PAWI,2021-10-19T02:07:00Z,70.63,-160.02,-18.9,-20.6,130,7,,4.0,29.84941,,,TRUE,TRUE,,,TRUE,,,BR,FEW,100,,,,,,,MVFR,,,,,,,,,,,,METAR,12.0
PACZ 190207Z AUTO 14021G29KT 10SM -SN FEW042 SCT048 BKN070 BKN080 M02/M05 A2939 RMK AO2 SLP961,PACZ,2021-10-19T02:07:00Z,61.78,-166.03,-2.0,-5.0,140,21,29,10.0,29.388779,996.1,,TRUE,TRUE,,,,,,-SN,FEW,4200,SCT,4800,BKN,7000,BKN,8000,VFR,,,,,,,,,,,,SPECI,129.0
CWRH 190207Z AUTO 14023G31KT ////SM FEW007 OVC018 M01/M01 A2996,CWRH,2021-10-19T02:07:00Z,61.58,-64.65,-1.0,-1.0,140,23,31,,29.958662,,,TRUE,,,,,,,,FEW,700,OVC,1800,,,,,,,,,,,,,,,,,SPECI,343.0
RODN 190206Z AUTO 35013KT 10SM FEW019 SCT024 BKN047 BKN055 25/21 A3001 RMK AO2 SLP168 $,RODN,2021-10-19T02:06:00Z,26.35,127.77,25.0,21.0,350,13,,10.0,30.008858,1016.8,,TRUE,TRUE,TRUE,,,,,,FEW,1900,SCT,2400,BKN,4700,BKN,5500,VFR,,,,,,,,,,,,SPECI,38.0
KLSF 190206Z AUTO 00000KT 1 7/8SM HZ CLR 11/09 A3016 RMK AO2 VIS 1 7/8V9 SLPNO $,KLSF,2021-10-19T02:06:00Z,32.32,-84.97,11.0,9.0,0,0,,1.88,30.159449,,,TRUE,TRUE,TRUE,,,,,HZ,CLR,,,,,,,,IFR,,,,,,,,,,,,SPECI,68.0
KBCE 190206Z AUTO 26012KT 9SM OVC031 M02/M05 A2989 RMK AO2 SNE05 P0000 T10221050,KBCE,2021-10-19T02:06:00Z,37.7,-112.15,-2.2,-5.0,260,12,,9.0,29.890747,,,TRUE,TRUE,,,,,,,OVC,3100,,,,,,,VFR,,,,,,0.005,,,,,,SPECI,2311.0
YPLM 190205Z AUTO 25015G25KT 9999 // BKN023 OVC029 22/18 Q1014,YPLM,2021-10-19T02:05:00Z,-22.23,114.08,22.0,18.0,250,15,25,6.21,29.940945,,,TRUE,,,,,,,,BKN,2300,OVC,2900,,,,,MVFR,,,,,,,,,,,,SPECI,5.0
YGEL 190205Z AUTO 31019G29KT 9999 // SCT017 BKN025 OVC031 18/15 Q1004,YGEL,2021-10-19T02:05:00Z,-28.8,114.7,18.0,15.0,310,19,29,6.21,29.64567,,,TRUE,,,,,,,,SCT,1700,BKN,2500,OVC,3100,,,MVFR,,,,,,,,,,,,SPECI,32.0
YCBA 190205Z AUTO 20010KT 9999 // SCT093 25/06 Q1017,YCBA,2021-10-19T02:05:00Z,-31.53,145.8,25.0,6.0,200,10,,6.21,30.029528,,,TRUE,,,,,,,,SCT,9300,,,,,,,VFR,,,,,,,,,,,,SPECI,219.0
PAPO 190205Z AUTO 09010KT 4SM HZ CLR M08/M14 A2968 RMK AO2 FZRANO PNO $,PAPO,2021-10-19T02:05:00Z,68.35,-166.8,-8.0,-14.0,90,10,,4.0,29.681103,,,TRUE,TRUE,TRUE,,,TRUE,,HZ,CLR,,,,,,,,MVFR,,,,,,,,,,,,METAR,4.0
PAKI 190205Z AUTO 13010KT 10SM FEW018 BKN042 OVC065 00/M01 A2952 RMK AO2 PWINO FZRANO $,PAKI,2021-10-19T02:05:00Z,59.93,-164.03,0.0,-1.0,130,10,,10.0,29.518702,,,TRUE,TRUE,TRUE,,,TRUE,TRUE,,FEW,1800,BKN,4200,OVC,6500,,,VFR,,,,,,,,,,,,METAR,4.0
NLWW 190205Z 11010KT 090V150 9999 FEW028 30/25 Q1012 NOSIG,NLWW,2021-10-19T02:05:00Z,-13.23,-176.18,30.0,25.0,110,10,,6.21,29.88189,,,,,,TRUE,,,,,FEW,2800,,,,,,,VFR,,,,,,,,,,,,METAR,24.0
MMDO 190205Z 27005KT 6SM SCT017CB OVC070 18/11 A3025 RMK 8/36/ RAB55,MMDO,2021-10-19T02:05:00Z,24.12,-104.52,18.0,11.0,270,5,,6.0,30.250984,,,,,,,,,,,SCT,1700,OVC,7000,,,,,VFR,,,,,,,,,,,,METAR,1863.0
RJOI 1019 DH0200/PPH 0.00,RJOI,2021-10-19T02:04:02Z,34.13,132.23,,,,,,,,,,,,,,,,,,,,,,,,,,,,,,,,,,,,,,METAR,2.0
PAPB 190204Z AUTO 20025G31KT 2SM -RA BKN008 OVC012 A2939 RMK AO2 PK WND 20031/0158 UPB0155E03 CIG 006V011 P0000 TSNO,PAPB,2021-10-19T02:04:00Z,56.58,-169.67,,,200,25,31,2.0,29.388779,,,TRUE,TRUE,,,TRUE,,,-RA,BKN,800,OVC,1200,,,,,IFR,,,,,,0.005,,,,,,METAR,33.0
PAEH 190204Z AUTO VRB05KT 10SM BKN014 BKN150 03/00 A2959 RMK AO2 SLP028,PAEH,2021-10-19T02:04:00Z,58.65,-162.07,3.0,0.0,0,5,,10.0,29.589567,1002.8,,TRUE,TRUE,,,,,,,BKN,1400,BKN,15000,,,,,MVFR,,,,,,,,,,,,SPECI,101.0
KIRK 190204Z AUTO 16006KT 2 1/2SM HZ FEW002 11/07 A3005 RMK AO2 VIS 1 1/2V5 T01060067 TSNO,KIRK,2021-10-19T02:04:00Z,40.1,-92.55,10.6,6.7,160,6,,2.5,30.050198,,,TRUE,TRUE,,,TRUE,,,HZ,FEW,200,,,,,,,IFR,,,,,,,,,,,,SPECI,292.0
EBDT 190204Z AUTO 18008KT 9999 DZ OVC012/// 14/13 Q1018 GRN,EBDT,2021-10-19T02:04:00Z,51.02,5.07,14.0,13.0,180,8,,6.21,30.059055,,,TRUE,,,,,,,DZ,OVC,1200,,,,,,,MVFR,,,,,,,,,,,,SPECI,25.0
CYGW 190204Z AUTO 31009KT 3SM -RA BR BKN010 BKN015 OVC019 06/06 A2971 RMK VIS VRB 2 1/4-3 SLP061,CYGW,2021-10-19T02:04:00Z,55.27,-77.77,6.0,6.0,310,9,,3.0,29.71063,1006.1,,TRUE,,,,,,,-RA BR,BKN,1000,BKN,1500,OVC,1900,,,MVFR,,,,,,,,,,,,SPECI,13.0
YCAR 190203Z AUTO 31018G28KT 9999 // SCT024 SCT039 BKN060 18/16 Q1012,YCAR,2021-10-19T02:03:00Z,-24.88,113.67,18.0,16.0,310,18,28,6.21,29.88189,,,TRUE,,,,,,,,SCT,2400,SCT,3900,BKN,6000,,,VFR,,,,,,,,,,,,SPECI,4.0
SVVA 190203Z AUTO 21002KT NCD ///// Q1014,SVVA,2021-10-19T02:03:00Z,10.15,-67.92,,,210,2,,,29.940945,,,TRUE,,,,,,,,CLR,,,,,,,,,,,,,,,,,,,,SPECI,428.0
SVSR 190203Z AUTO NIL,SVSR,2021-10-19T02:03:00Z,7.87,-67.43,,,,,,,,,,TRUE,,,,,,,,,,,,,,,,,,,,,,,,,,,,SPECI,49.0
SVPA 190203Z AUTO NIL,SVPA,2021-10-19T02:03:00Z,5.62,-67.6,,,,,,,,,,TRUE,,,,,,,,,,,,,,,,,,,,,,,,,,,,METAR,77.0
SVMI 190203Z AUTO 09004KT NCD ///// Q1013,SVMI,2021-10-19T02:03:00Z,10.6,-67.0,,,90,4,,,29.911417,,,TRUE,,,,,,,,CLR,,,,,,,,,,,,,,,,,,,,SPECI,48.0
SVMG 190203Z AUTO 10010KT NCD 28/25 Q1012,SVMG,2021-10-19T02:03:00Z,10.92,-63.97,28.0,25.0,100,10,,,29.88189,,,TRUE,,,,,,,,CLR,,,,,,,,,,,,,,,,,,,,METAR,16.0
SVMC 190203Z AUTO NIL,SVMC,2021-10-19T02:03:00Z,10.57,-71.72,,,,,,,,,,TRUE,,,,,,,,,,,,,,,,,,,,,,,,,,,,SPECI,76.0
SVLO 190203Z AUTO NIL,SVLO,2021-10-19T02:03:00Z,11.8,-66.18,,,,,,,,,,TRUE,,,,,,,,,,,,,,,,,,,,,,,,,,,,SPECI,3.0
SVJM 190203Z AUTO 03003KT NCD 23/22 Q1013,SVJM,2021-10-19T02:03:00Z,9.92,-67.38,23.0,22.0,30,3,,,29.911417,,,TRUE,,,,,,,,CLR,,,,,,,,,,,,,,,,,,,,METAR,448.0
SVGU 190203Z AUTO 31002KT NCD 27/25 Q1012,SVGU,2021-10-19T02:03:00Z,9.03,-69.75,27.0,25.0,310,2,,,29.88189,,,TRUE,,,,,,,,CLR,,,,,,,,,,,,,,,,,,,,METAR,165.0
SVGD 190203Z AUTO NIL,SVGD,2021-10-19T02:03:00Z,7.22,-70.75,,,,,,,,,,TRUE,,,,,,,,,,,,,,,,,,,,,,,,,,,,SPECI,129.0
SVFM 190203Z AUTO NIL,SVFM,2021-10-19T02:03:00Z,10.48,-66.83,,,,,,,,,,TRUE,,,,,,,,,,,,,,,,,,,,,,,,,,,,METAR,852.0
SVCS 190203Z AUTO NIL,SVCS,2021-10-19T02:03:00Z,10.3,-66.82,,,,,,,,,,TRUE,,,,,,,,,,,,,,,,,,,,,,,,,,,,METAR,656.0
SVCJ 190203Z AUTO NIL,SVCJ,2021-10-19T02:03:00Z,9.65,-68.58,,,,,,,,,,TRUE,,,,,,,,,,,,,,,,,,,,,,,,,,,,METAR,156.0
SVBS 190203Z AUTO 06003KT NCD 24/// Q1015,SVBS,2021-10-19T02:03:00Z,10.25,-67.65,,,60,3,,,29.970472,,,TRUE,,,,,,,,CLR,,,,,,,,,,,,,,,,,,,,METAR,435.0
SVBM 190203Z AUTO 11006KT NCD 18/22 Q1015,SVBM,2021-10-19T02:03:00Z,10.05,-69.37,18.0,22.0,110,6,,,29.970472,,,TRUE,,,,,,,,CLR,,,,,,,,,,,,,,,,,,,,METAR,624.0
SVBI 190203Z AUTO NIL,SVBI,2021-10-19T02:03:00Z,8.62,-70.22,,,,,,,,,,TRUE,,,,,,,,,,,,,,,,,,,,,,,,,,,,METAR,185.0
SVBC 190203Z AUTO NIL,SVBC,2021-10-19T02:03:00Z,10.12,-64.68,,,,,,,,,,TRUE,,,,,,,,,,,,,,,,,,,,,,,,,,,,SPECI,7.0
KOWB 190203Z 00000KT 10SM CLR 13/07 A3017 RMK AO2 $,KOWB,2021-10-19T02:03:00Z,37.72,-87.17,13.0,7.0,0,0,,10.0,30.171259,,,,TRUE,TRUE,,,,,,CLR,,,,,,,,VFR,,,,,,,,,,,,SPECI,121.0
EHVK 190203Z AUTO 18007KT 150V210 9999 SCT018 BKN021 BKN025 14/13 Q1018 WHT,EHVK,2021-10-19T02:03:00Z,51.65,5.7,14.0,13.0,180,7,,6.21,30.059055,,,TRUE,,,,,,,,SCT,1800,BKN,2100,BKN,2500,,,MVFR,,,,,,,,,,,,SPECI,20.0
EHGR 190203Z AUTO 17008KT 130V210 4100 -RA FEW005 SCT006 BKN007 14/14 Q1017 YLO,EHGR,2021-10-19T02:03:00Z,51.55,4.93,14.0,14.0,170,8,,2.55,30.029528,,,TRUE,,,,,,,-RA,FEW,500,SCT,600,BKN,700,,,IFR,,,,,,,,,,,,SPECI,12.0
CYNA 190203Z AUTO 08016G26KT 6SM BR OVC012 09/08 A2940 RMK SLP957,CYNA,2021-10-19T02:03:00Z,50.18,-61.78,9.0,8.0,80,16,26,6.0,29.40059,995.7,,TRUE,,,,,,,BR,OVC,1200,,,,,,,MVFR,,,,,,,,,,,,SPECI,9.0
PAHX 190202Z AUTO 04006KT 10SM CLR M02/M05 A2960 RMK AO2 SLP023 T10171050 PWINO FZRANO,PAHX,2021-10-19T02:02:00Z,62.7,-159.57,-1.7,-5.0,40,6,,10.0,29.601377,1002.3,,TRUE,TRUE,,,,TRUE,TRUE,,CLR,,,,,,,,VFR,,,,,,,,,,,,METAR,20.0
KCVC 190202Z AUTO 00000KT 10SM CLR 11/09 A3017 RMK AO2,KCVC,2021-10-19T02:02:00Z,33.63,-83.85,11.0,9.0,0,0,,10.0,30.171259,,,TRUE,TRUE,,,,,,,CLR,,,,,,,,VFR,,,,,,,,,,,,METAR,240.0
EHWO 190202Z AUTO 20008KT 140V250 5000 BR BKN006 BKN008 OVC009 15/14 Q1017 BLACKYLO,EHWO,2021-10-19T02:02:00Z,51.45,4.33,15.0,14.0,200,8,,3.11,30.029528,,,TRUE,,,,,,,BR,BKN,600,BKN,800,OVC,900,,,IFR,,,,,,,,,,,,SPECI,15.0
EHVL 190202Z AUTO 20013KT 7000 BR OVC006 13/12 Q1015 YLO,EHVL,2021-10-19T02:02:00Z,53.28,5.08,13.0,12.0,200,13,,4.35,29.970472,,,TRUE,,,,,,,BR,OVC,600,,,,,,,IFR,,,,,,,,,,,,SPECI,2.0
EHKD 190202Z AUTO 20012KT 4100 BR OVC006 14/13 Q1015 YLO,EHKD,2021-10-19T02:02:00Z,52.92,4.77,14.0,13.0,200,12,,2.55,29.970472,,,TRUE,,,,,,,BR,OVC,600,,,,,,,IFR,,,,,,,,,,,,SPECI,1.0
CPIN 190202Z AUTO 28021KT ////SM SCT006 BKN011 OVC017 M02/M03 A2987,CPIN,2021-10-19T02:02:00Z,,,-2.0,-3.0,280,21,,,29.870079,,,TRUE,,,,,,,,SCT,600,BKN,1100,OVC,1700,,,,,,,,,,,,,,,SPECI,
BGTL 190202Z AUTO 14047G59KT 9999 CLR M01/M03 A2981 RMK AO2 UPE02 SLP081 TSNO $,BGTL,2021-10-19T02:02:00Z,76.53,-68.75,-1.0,-3.0,140,47,59,6.21,29.811024,1008.1,,TRUE,TRUE,TRUE,,TRUE,,,,CLR,,,,,,,,VFR,,,,,,,,,,,,SPECI,79.0
PASN 190201Z AUTO 21022G30KT 1 1/2SM -RA BR OVC007 06/06 A2933 RMK AO2 PK WND 21030/0155 P0000 T00610056 TSNO,PASN,2021-10-19T02:01:00Z,57.15,-170.22,6.1,5.6,210,22,30,1.5,29.329725,,,TRUE,TRUE,,,TRUE,,,-RA BR,OVC,700,,,,,,,IFR,,,,,,0.005,,,,,,SPECI,8.0
PAFS 190201Z AUTO 00000KT 10SM CLR M02/M06 A2962 RMK AO2 SLP042 T10221061 FZRANO,PAFS,2021-10-19T02:01:00Z,63.02,-154.35,-2.2,-6.1,0,0,,10.0,29.619095,1004.2,,TRUE,TRUE,,,,TRUE,,,CLR,,,,,,,,VFR,,,,,,,,,,,,METAR,131.0
LHDC 190201Z AUTO 00000KT 0900 FG NCD 04/04 Q1028,LHDC,2021-10-19T02:01:00Z,47.48,21.62,4.0,4.0,0,0,,0.56,30.35433,,,TRUE,,,,,,,FG,CLR,,,,,,,,LIFR,,,,,,,,,,,,SPECI,105.0
KMYP 190201Z AUTO 20020G29KT 10SM CLR 02/M10 A3023 RMK AO2,KMYP,2021-10-19T02:01:00Z,38.48,-106.32,2.0,-10.0,200,20,29,10.0,30.230314,,,TRUE,TRUE,,,,,,,CLR,,,,,,,,VFR,,,,,,,,,,,,METAR,3629.0
KLNQ 190201Z AUTO 10SM CLR 23/17 A3012 RMK AO2 T02320167,KLNQ,2021-10-19T02:01:00Z,29.35,-89.43,23.2,16.7,,,,10.0,30.121063,,,TRUE,TRUE,,,,,,,CLR,,,,,,,,VFR,,,,,,,,,,,,METAR,1.0
KIDA 190201Z AUTO 32010KT 7SM -RA FEW017 BKN028 OVC040 09/04 A2982 RMK AO2 WSHFT 0147 P0002 T00940044,KIDA,2021-10-19T02:01:00Z,43.52,-112.07,9.4,4.4,320,10,,7.0,29.819881,,,TRUE,TRUE,,,,,,-RA,FEW,1700,BKN,2800,OVC,4000,,,MVFR,,,,,,0.02,,,,,,METAR,1444.0
KAVX 190201Z AUTO 27011KT 10SM SCT008 11/08 A2996 RMK AO2 T01110083,KAVX,2021-10-19T02:01:00Z,33.4,-118.42,11.1,8.3,270,11,,10.0,29.958662,,,TRUE,TRUE,,,,,,,SCT,800,,,,,,,VFR,,,,,,,,,,,,METAR,482.0
KACV 190201Z AUTO 00000KT 1 1/4SM BR BKN005 09/08 A3001 RMK AO2 T00890078,KACV,2021-10-19T02:01:00Z,40.98,-124.1,8.9,7.8,0,0,,1.25,30.008858,,,TRUE,TRUE,,,,,,BR,BKN,500,,,,,,,IFR,,,,,,,,,,,,METAR,63.0
ETIK 190201Z AUTO 00000KT 6000 BR FEW230 02/02 A3026 RMK AO2 SLP257 $,ETIK,2021-10-19T02:01:00Z,49.47,10.38,2.0,2.0,0,0,,3.73,30.259842,1025.7,,TRUE,TRUE,TRUE,,,,,BR,FEW,23000,,,,,,,MVFR,,,,,,,,,,,,SPECI,326.0
ZYTX 190200Z 03005MPS 350V080 CAVOK 07/M10 Q1030 NOSIG,ZYTX,2021-10-19T02:00:00Z,41.63,123.48,7.0,-10.0,30,10,,6.21,30.413385,,,,,,TRUE,,,,,CAVOK,,,,,,,,VFR,,,,,,,,,,,,METAR,56.0
ZYTL 190200Z 01006G11MPS 320V040 CAVOK 08/M06 Q1030 NOSIG,ZYTL,2021-10-19T02:00:00Z,38.97,121.55,8.0,-6.0,10,12,21,6.21,30.413385,,,,,,TRUE,,,,,CAVOK,,,,,,,,VFR,,,,,,,,,,,,METAR,33.0
ZYHB 190200Z 23004MPS 200V270 CAVOK 05/M08 Q1028 NOSIG,ZYHB,2021-10-19T02:00:00Z,45.62,126.25,5.0,-8.0,230,8,,6.21,30.35433,,,,,,TRUE,,,,,CAVOK,,,,,,,,VFR,,,,,,,,,,,,METAR,134.0
ZYCC 190200Z VRB02MPS CAVOK 04/M10 Q1029 NOSIG,ZYCC,2021-10-19T02:00:00Z,43.98,125.68,4.0,-10.0,0,4,,6.21,30.383858,,,,,,TRUE,,,,,CAVOK,,,,,,,,VFR,,,,,,,,,,,,METAR,211.0
ZWWW 190200Z VRB01MPS CAVOK 09/M02 Q1023 NOSIG,ZWWW,2021-10-19T02:00:00Z,43.9,87.47,9.0,-2.0,0,2,,6.21,30.206694,,,,,,TRUE,,,,,CAVOK,,,,,,,,VFR,,,,,,,,,,,,METAR,654.0
ZWSH 190200Z 32004MPS 9999 FEW040 10/M07 Q1022 NOSIG,ZWSH,2021-10-19T02:00:00Z,39.55,76.02,10.0,-7.0,320,8,,6.21,30.177166,,,,,,TRUE,,,,,FEW,4000,,,,,,,VFR,,,,,,,,,,,,METAR,1374.0
ZUUU 190200Z 23001MPS 4500 -RA BR FEW012 SCT026 15/14 Q1021 NOSIG,ZUUU,2021-10-19T02:00:00Z,30.58,103.95,15.0,14.0,230,2,,2.8,30.147638,,,,,,TRUE,,,,-RA BR,FEW,1200,SCT,2600,,,,,IFR,,,,,,,,,,,,METAR,494.0
ZUTF 190200Z VRB01MPS 3500 BR FEW033 SCT050 15/14 Q1021 NOSIG,ZUTF,2021-10-19T02:00:00Z,,,15.0,14.0,0,2,,2.17,30.147638,,,,,,TRUE,,,,BR,FEW,3300,SCT,5000,,,,,IFR,,,,,,,,,,,,METAR,
ZUGY 190200Z VRB01MPS 5000 BR SCT006 BKN015 OVC030 14/12 Q1021 NOSIG,ZUGY,2021-10-19T02:00:00Z,26.53,106.8,14.0,12.0,0,2,,3.11,30.147638,,,,,,TRUE,,,,BR,SCT,600,BKN,1500,OVC,3000,,,MVFR,,,,,,,,,,,,METAR,1130.0
ZUCK 190200Z 01002MPS 4000 BR FEW033 15/14 Q1021 NOSIG,ZUCK,2021-10-19T02:00:00Z,29.72,106.63,15.0,14.0,10,4,,2.49,30.147638,,,,,,TRUE,,,,BR,FEW,3300,,,,,,,IFR,,,,,,,,,,,,METAR,416.0
ZSSS 190200Z 34005MPS CAVOK 18/11 Q1024 NOSIG,ZSSS,2021-10-19T02:00:00Z,31.2,121.33,18.0,11.0,340,10,,6.21,30.236221,,,,,,TRUE,,,,,CAVOK,,,,,,,,VFR,,,,,,,,,,,,METAR,2.0
ZSQD 190200Z 02007MPS CAVOK 13/03 Q1029 NOSIG,ZSQD,2021-10-19T02:00:00Z,36.27,120.38,13.0,3.0,20,14,,6.21,30.383858,,,,,,TRUE,,,,,CAVOK,,,,,,,,VFR,,,,,,,,,,,,METAR,8.0
ZSPD 190200Z 34007MPS CAVOK 19/11 Q1024 NOSIG,ZSPD,2021-10-19T02:00:00Z,31.15,121.8,19.0,11.0,340,14,,6.21,30.236221,,,,,,TRUE,,,,,CAVOK,,,,,,,,VFR,,,,,,,,,,,,METAR,4.0
ZSOF 190200Z 34002MPS 290V010 5000 BR NSC 15/11 Q1026 NOSIG,ZSOF,2021-10-19T02:00:00Z,31.98,116.97,15.0,11.0,340,4,,3.11,30.295275,,,,,,TRUE,,,,BR,CLR,,,,,,,,MVFR,,,,,,,,,,,,METAR,23.0
ZSNJ 190200Z 33002MPS 290V360 CAVOK 16/11 Q1026 NOSIG,ZSNJ,2021-10-19T02:00:00Z,31.75,118.87,16.0,11.0,330,4,,6.21,30.295275,,,,,,TRUE,,,,,CAVOK,,,,,,,,VFR,,,,,,,,,,,,METAR,27.0
ZSNB 190200Z 33005MPS 9999 BKN030 18/12 Q1024 NOSIG,ZSNB,2021-10-19T02:00:00Z,29.83,121.47,18.0,12.0,330,10,,6.21,30.236221,,,,,,TRUE,,,,,BKN,3000,,,,,,,MVFR,,,,,,,,,,,,METAR,5.0
ZSHC 190200Z 34005MPS 310V010 CAVOK 19/10 Q1025 NOSIG,ZSHC,2021-10-19T02:00:00Z,30.22,120.43,19.0,10.0,340,10,,6.21,30.265747,,,,,,TRUE,,,,,CAVOK,,,,,,,,VFR,,,,,,,,,,,,METAR,8.0
ZSFZ 190200Z 36003MPS 300V040 9999 FEW026 23/17 Q1021 NOSIG,ZSFZ,2021-10-19T02:00:00Z,25.93,119.67,23.0,17.0,360,6,,6.21,30.147638,,,,,,TRUE,,,,,FEW,2600,,,,,,,VFR,,,,,,,,,,,,METAR,14.0
ZSAM 190200Z 04002MPS 330V090 CAVOK 26/18 Q1020 NOSIG,ZSAM,2021-10-19T02:00:00Z,24.53,118.13,26.0,18.0,40,4,,6.21,30.11811,,,,,,TRUE,,,,,CAVOK,,,,,,,,VFR,,,,,,,,,,,,METAR,13.0
ZPPP 190200Z 22008MPS 9999 FEW020 18/14 Q1028 NOSIG,ZPPP,2021-10-19T02:00:00Z,25.0,102.65,18.0,14.0,220,16,,6.21,30.35433,,,,,,TRUE,,,,,FEW,2000,,,,,,,VFR,,,,,,,,,,,,METAR,1885.0
ZMUB 190200Z VRB01MPS CAVOK M04/M10 Q1027 NOSIG RMK QFE661.6 57,ZMUB,2021-10-19T02:00:00Z,47.83,106.75,-4.0,-10.0,0,2,,6.21,30.324802,,,,,,TRUE,,,,,CAVOK,,,,,,,,VFR,,,,,,,,,,,,SPECI,1300.0
ZMCK 190200Z 09003MPS CAVOK 02/M09 Q1026 NOSIG RMK QFE653.0 45,ZMCK,2021-10-19T02:00:00Z,,,2.0,-9.0,90,6,,6.21,30.295275,,,,,,TRUE,,,,,CAVOK,,,,,,,,VFR,,,,,,,,,,,,METAR,
ZLXY 190200Z 06005MPS 3500 BR NSC 13/11 Q1022 NOSIG,ZLXY,2021-10-19T02:00:00Z,34.43,108.75,13.0,11.0,60,10,,2.17,30.177166,,,,,,TRUE,,,,BR,CLR,,,,,,,,IFR,,,,,,,,,,,,METAR,478.0
ZLLL 190200Z VRB01MPS 9999 -RA FEW016 OVC033 04/02 Q1023 NOSIG,ZLLL,2021-10-19T02:00:00Z,36.52,103.62,4.0,2.0,0,2,,6.21,30.206694,,,,,,TRUE,,,,-RA,FEW,1600,OVC,3300,,,,,VFR,,,,,,,,,,,,METAR,1939.0
ZJSY 190200Z 11004MPS 080V140 6000 -SHRA SCT015 FEW026CB BKN050 27/25 Q1017 BECMG AT0250 2800 SHRA,ZJSY,2021-10-19T02:00:00Z,18.3,109.42,27.0,25.0,110,8,,3.73,30.029528,,,,,,,,,,-SHRA,SCT,1500,FEW,2600,BKN,5000,,,MVFR,,,,,,,,,,,,SPECI,27.0
ZJHK 190200Z 08005MPS 9999 SCT009 BKN016 27/25 Q1018 NOSIG,ZJHK,2021-10-19T02:00:00Z,19.93,110.43,27.0,25.0,80,10,,6.21,30.059055,,,,,,TRUE,,,,,SCT,900,BKN,1600,,,,,MVFR,,,,,,,,,,,,METAR,21.0
ZHHH 190200Z 06003MPS 7000 NSC 14/11 Q1025 NOSIG,ZHHH,2021-10-19T02:00:00Z,30.78,114.22,14.0,11.0,60,6,,4.35,30.265747,,,,,,TRUE,,,,,CLR,,,,,,,,MVFR,,,,,,,,,,,,METAR,33.0
ZHCC 190200Z 04008MPS 4000 HZ NSC 12/06 Q1028 NOSIG,ZHCC,2021-10-19T02:00:00Z,34.52,113.83,12.0,6.0,40,16,,2.49,30.35433,,,,,,TRUE,,,,HZ,CLR,,,,,,,,IFR,,,,,,,,,,,,METAR,149.0
ZGSZ 190200Z VRB02MPS CAVOK 26/19 Q1019 NOSIG,ZGSZ,2021-10-19T02:00:00Z,22.63,113.8,26.0,19.0,0,4,,6.21,30.088583,,,,,,TRUE,,,,,CAVOK,,,,,,,,VFR,,,,,,,,,,,,METAR,18.0
ZGOW 190200Z 09003MPS 030V130 9999 FEW023 25/18 Q1020 NOSIG,ZGOW,2021-10-19T02:00:00Z,23.55,116.5,25.0,18.0,90,6,,6.21,30.11811,,,,,,TRUE,,,,,FEW,2300,,,,,,,VFR,,,,,,,,,,,,METAR,4.0
ZGNN 190200Z 36002MPS 9999 OVC023 20/18 Q1020 NOSIG,ZGNN,2021-10-19T02:00:00Z,22.62,108.17,20.0,18.0,360,4,,6.21,30.11811,,,,,,TRUE,,,,,OVC,2300,,,,,,,MVFR,,,,,,,,,,,,METAR,128.0
ZGKL 190200Z 00000MPS 4000 HZ BKN033 OVC046 19/14 Q1022 NOSIG,ZGKL,2021-10-19T02:00:00Z,25.22,110.03,19.0,14.0,0,0,,2.49,30.177166,,,,,,TRUE,,,,HZ,BKN,3300,OVC,4600,,,,,IFR,,,,,,,,,,,,METAR,151.0
ZGHA 190200Z 06002MPS 030V090 5000 -RA BR FEW005 BKN009 OVC040 15/14 Q1024 BECMG TL0300 SCT009 OVC040,ZGHA,2021-10-19T02:00:00Z,28.18,113.22,15.0,14.0,60,4,,3.11,30.236221,,,,,,,,,,-RA BR,FEW,500,BKN,900,OVC,4000,,,IFR,,,,,,,,,,,,SPECI,61.0
ZGGG 190200Z VRB01MPS CAVOK 25/17 Q1020 NOSIG,ZGGG,2021-10-19T02:00:00Z,23.4,113.3,25.0,17.0,0,2,,6.21,30.11811,,,,,,TRUE,,,,,CAVOK,,,,,,,,VFR,,,,,,,,,,,,METAR,11.0
ZBYN 190200Z 08006MPS 050V110 5000 HZ NSC 08/00 Q1030 NOSIG,ZBYN,2021-10-19T02:00:00Z,37.73,112.63,8.0,0.0,80,12,,3.11,30.413385,,,,,,TRUE,,,,HZ,CLR,,,,,,,,MVFR,,,,,,,,,,,,METAR,778.0
ZBTJ 190200Z 03005MPS 350V060 CAVOK 11/M06 Q1033 NOSIG,ZBTJ,2021-10-19T02:00:00Z,39.12,117.35,11.0,-6.0,30,10,,6.21,30.501968,,,,,,TRUE,,,,,CAVOK,,,,,,,,VFR,,,,,,,,,,,,METAR,4.0
ZBSJ 190200Z 06002MPS 020V110 CAVOK 09/M04 Q1034 NOSIG,ZBSJ,2021-10-19T02:00:00Z,38.28,114.7,9.0,-4.0,60,4,,6.21,30.531496,,,,,,TRUE,,,,,CAVOK,,,,,,,,VFR,,,,,,,,,,,,METAR,70.0
ZBHH 190200Z 09004MPS 060V130 CAVOK 04/M12 Q1029 NOSIG,ZBHH,2021-10-19T02:00:00Z,40.85,111.82,4.0,-12.0,90,8,,6.21,30.383858,,,,,,TRUE,,,,,CAVOK,,,,,,,,VFR,,,,,,,,,,,,METAR,1081.0
ZBAD 190200Z 05006MPS CAVOK 11/M09 Q1034 NOSIG,ZBAD,2021-10-19T02:00:00Z,39.5,116.42,11.0,-9.0,50,12,,6.21,30.531496,,,,,,TRUE,,,,,CAVOK,,,,,,,,VFR,,,,,,,,,,,,METAR,25.0
ZBAA 190200Z VRB03MPS CAVOK 11/M09 Q1034 NOSIG,ZBAA,2021-10-19T02:00:00Z,40.07,116.6,11.0,-9.0,0,6,,6.21,30.531496,,,,,,TRUE,,,,,CAVOK,,,,,,,,VFR,,,,,,,,,,,,METAR,31.0
YWLM 190200Z 13006KT CAVOK 26/09 Q1013,YWLM,2021-10-19T02:00:00Z,-32.8,151.83,26.0,9.0,130,6,,6.21,29.911417,,,,,,,,,,,CAVOK,,,,,,,,VFR,,,,,,,,,,,,METAR,7.0
YWHA 190200Z AUTO 15008KT 9999 // NCD 24/10 Q1019,YWHA,2021-10-19T02:00:00Z,-33.07,137.52,24.0,10.0,150,8,,6.21,30.088583,,,TRUE,,,,,,,,CLR,,,,,,,,VFR,,,,,,,,,,,,SPECI,12.0
YWGT 190200Z AUTO 23006KT 180V290 9999 // NCD 18/07 Q1018,YWGT,2021-10-19T02:00:00Z,-36.42,146.3,18.0,7.0,230,6,,6.21,30.059055,,,TRUE,,,,,,,,CLR,,,,,,,,VFR,,,,,,,,,,,,SPECI,152.0
YTRE 190200Z AUTO 12009KT 9999 // NCD 25/12 Q1014,YTRE,2021-10-19T02:00:00Z,-31.88,152.52,25.0,12.0,120,9,,6.21,29.940945,,,TRUE,,,,,,,,CLR,,,,,,,,VFR,,,,,,,,,,,,SPECI,8.0
YTNK 190200Z AUTO 33010KT 270V360 9999 // NCD 39/11 Q1013,YTNK,2021-10-19T02:00:00Z,-19.63,134.18,39.0,11.0,330,10,,6.21,29.911417,,,TRUE,,,,,,,,CLR,,,,,,,,VFR,,,,,,,,,,,,SPECI,368.0
YTEF 190200Z AUTO 27011KT 250V310 9999 // NCD 35/// Q1014,YTEF,2021-10-19T02:00:00Z,-21.72,122.23,,,270,11,,6.21,29.940945,,,TRUE,,,,,,,,CLR,,,,,,,,VFR,,,,,,,,,,,,SPECI,298.0
YSWG 190200Z AUTO 21008KT 9999 // SCT042 SCT048 SCT055 19/07 Q1017,YSWG,2021-10-19T02:00:00Z,-35.15,147.47,19.0,7.0,210,8,,6.21,30.029528,,,TRUE,,,,,,,,SCT,4200,SCT,4800,SCT,5500,,,VFR,,,,,,,,,,,,SPECI,212.0
YSTW 190200Z AUTO 32003KT 9999 // NCD 24/10 Q1016 RF00.0/000.0,YSTW,2021-10-19T02:00:00Z,-31.08,150.85,24.0,10.0,320,3,,6.21,30.0,,,TRUE,,,,,,,,CLR,,,,,,,,VFR,,,,,,,,,,,,SPECI,404.0
YSRI 190200Z AUTO 05010KT 9999 // SCT028 SCT053 SCT086 25/13 Q1013,YSRI,2021-10-19T02:00:00Z,-33.6,150.77,25.0,13.0,50,10,,6.21,29.911417,,,TRUE,,,,,,,,SCT,2800,SCT,5300,SCT,8600,,,VFR,,,,,,,,,,,,SPECI,19.0
YSNW 190200Z 17013KT 9999 BKN015 14/11 Q1017,YSNW,2021-10-19T02:00:00Z,-34.95,150.53,14.0,11.0,170,13,,6.21,30.029528,,,,,,,,,,,BKN,1500,,,,,,,MVFR,,,,,,,,,,,,SPECI,109.0
YSNF 190200Z 09013KT 9999 BKN012 20/18 Q1021,YSNF,2021-10-19T02:00:00Z,-29.03,167.93,20.0,18.0,90,13,,6.21,30.147638,,,,,,,,,,,BKN,1200,,,,,,,MVFR,,,,,,,,,,,,SPECI,113.0
YSDU 190200Z AUTO 27009KT 240V300 //// // SCT094 23/08 Q1016,YSDU,2021-10-19T02:00:00Z,-32.22,148.57,23.0,8.0,270,9,,,30.0,,,TRUE,,,,,,,,SCT,9400,,,,,,,,,,,,,,,,,,,SPECI,285.0
YSCB 190200Z AUTO 16011KT 9999 // BKN035 14/05 Q1018,YSCB,2021-10-19T02:00:00Z,-35.3,149.18,14.0,5.0,160,11,,6.21,30.059055,,,TRUE,,,,,,,,BKN,3500,,,,,,,VFR,,,,,,,,,,,,SPECI,577.0
YPXM 190200Z AUTO 27007KT 240V300 9999 // SCT013 27/22 Q1016,YPXM,2021-10-19T02:00:00Z,-10.45,105.68,27.0,22.0,270,7,,6.21,30.0,,,TRUE,,,,,,,,SCT,1300,,,,,,,VFR,,,,,,,,,,,,SPECI,262.0
YPWR 190200Z AUTO 08013KT 9999 // NCD 29/05 Q1017 RF00.0/000.0,YPWR,2021-10-19T02:00:00Z,-31.15,136.82,29.0,5.0,80,13,,6.21,30.029528,,,TRUE,,,,,,,,CLR,,,,,,,,VFR,,,,,,,,,,,,METAR,169.0
YPTN 190200Z AUTO 27005KT 220V310 9999 // NCD 36/19 Q1012 RF00.0/000.0,YPTN,2021-10-19T02:00:00Z,-14.52,132.38,36.0,19.0,270,5,,6.21,29.88189,,,TRUE,,,,,,,,CLR,,,,,,,,VFR,,,,,,,,,,,,SPECI,135.0
YPPH 190200Z 02019KT 9999 -SHRA BKN009 BKN012 BKN020 16/15 Q0999,YPPH,2021-10-19T02:00:00Z,-31.93,115.98,16.0,15.0,20,19,,6.21,29.498032,,,,,,,,,,-SHRA,BKN,900,BKN,1200,BKN,2000,,,IFR,,,,,,,,,,,,SPECI,16.0
YPPD 190200Z AUTO 31013KT 9999 // NCD 30/20 Q1014 RF00.0/000.0,YPPD,2021-10-19T02:00:00Z,-20.37,118.62,30.0,20.0,310,13,,6.21,29.940945,,,TRUE,,,,,,,,CLR,,,,,,,,VFR,,,,,,,,,,,,SPECI,6.0
YPKU 190200Z AUTO 03006KT 350V070 9999 // NCD 38/16 Q1012 RF00.0/000.0,YPKU,2021-10-19T02:00:00Z,-15.77,128.7,38.0,16.0,30,6,,6.21,29.88189,,,TRUE,,,,,,,,CLR,,,,,,,,VFR,,,,,,,,,,,,SPECI,42.0
YPKG 190200Z AUTO 34006KT 310V010 9999 // SCT046 SCT078 SCT095 24/11 Q1006,YPKG,2021-10-19T02:00:00Z,-30.78,121.45,24.0,11.0,340,6,,6.21,29.704725,,,TRUE,,,,,,,,SCT,4600,SCT,7800,SCT,9500,,,VFR,,,,,,,,,,,,SPECI,372.0
YPJT 190200Z AUTO 01019KT 9999 SHRA SCT015 SCT040 SCT060 17/16 Q0998,YPJT,2021-10-19T02:00:00Z,-32.1,115.88,17.0,16.0,10,19,,6.21,29.468504,,,TRUE,,,,,,,SHRA,SCT,1500,SCT,4000,SCT,6000,,,VFR,,,,,,,,,,,,METAR,29.0
YPGV 190200Z 05009KT CAVOK 34/21 Q1013,YPGV,2021-10-19T02:00:00Z,-12.27,136.82,34.0,21.0,50,9,,6.21,29.911417,,,,,,,,,,,CAVOK,,,,,,,,VFR,,,,,,,,,,,,METAR,53.0
YPEA 190200Z 01015KT 9999 -SHRA SCT017 BKN080 16/15 Q0999,YPEA,2021-10-19T02:00:00Z,-31.67,116.02,16.0,15.0,10,15,,6.21,29.498032,,,,,,,,,,-SHRA,SCT,1700,BKN,8000,,,,,VFR,,,,,,,,,,,,METAR,38.0
YPDN 190200Z 30008KT 9999 FEW027 SCT145 33/24 Q1013,YPDN,2021-10-19T02:00:00Z,-12.42,130.9,33.0,24.0,300,8,,6.21,29.911417,,,,,,,,,,,FEW,2700,SCT,14500,,,,,VFR,,,,,,,,,,,,METAR,32.0
YPBO 190200Z AUTO 30019G29KT 9999 // NCD 29/14 Q1014,YPBO,2021-10-19T02:00:00Z,-23.17,117.75,29.0,14.0,300,19,29,6.21,29.940945,,,TRUE,,,,,,,,CLR,,,,,,,,VFR,,,,,,,,,,,,SPECI,425.0
YPAD 190200Z 09005KT 010V160 CAVOK 20/10 Q1020,YPAD,2021-10-19T02:00:00Z,-34.95,138.52,20.0,10.0,90,5,,6.21,30.11811,,,,,,,,,,,CAVOK,,,,,,,,VFR,,,,,,,,,,,,METAR,2.0
YMML 190200Z 21011KT 9999 FEW020 SCT033 15/08 Q1022,YMML,2021-10-19T02:00:00Z,-37.67,144.82,15.0,8.0,210,11,,6.21,30.177166,,,,,,,,,,,FEW,2000,SCT,3300,,,,,VFR,,,,,,,,,,,,METAR,115.0
YMLT 190200Z AUTO 16018KT 9999 // NCD 13/06 Q1024 RF00.0/000.0,YMLT,2021-10-19T02:00:00Z,-41.53,147.2,13.0,6.0,160,18,,6.21,30.236221,,,TRUE,,,,,,,,CLR,,,,,,,,VFR,,,,,,,,,,,,SPECI,167.0
YMHB 190200Z 14010KT 9999 FEW050 BKN060 12/02 Q1027,YMHB,2021-10-19T02:00:00Z,-42.83,147.52,12.0,2.0,140,10,,6.21,30.324802,,,,,,,,,,,FEW,5000,BKN,6000,,,,,VFR,,,,,,,,,,,,METAR,2.0
YMAV 190200Z AUTO 18007KT 9999 // SCT018 SCT028 BKN039 14/10 Q1023,YMAV,2021-10-19T02:00:00Z,-38.03,144.48,14.0,10.0,180,7,,6.21,30.206694,,,TRUE,,,,,,,,SCT,1800,SCT,2800,BKN,3900,,,VFR,,,,,,,,,,,,SPECI,11.0
YLHI 190200Z 04013KT 9999 FEW016 SCT023 BKN330 21/21 Q1018 RF00.0/000.0,YLHI,2021-10-19T02:00:00Z,-31.53,159.07,21.0,21.0,40,13,,6.21,30.059055,,,,,,,,,,,FEW,1600,SCT,2300,BKN,33000,,,VFR,,,,,,,,,,,,METAR,2.0
YHID 190200Z AUTO 10015KT 9999 // NCD 32/22 Q1013 RF00.0/000.0,YHID,2021-10-19T02:00:00Z,-10.58,142.3,32.0,22.0,100,15,,6.21,29.911417,,,TRUE,,,,,,,,CLR,,,,,,,,VFR,,,,,,,,,,,,METAR,5.0
YGLA 190200Z AUTO 05011KT 9999 // SCT030 SCT038 27/17 Q1015,YGLA,2021-10-19T02:00:00Z,-23.87,151.22,27.0,17.0,50,11,,6.21,29.970472,,,TRUE,,,,,,,,SCT,3000,SCT,3800,,,,,VFR,,,,,,,,,,,,METAR,17.0
YFRT 190200Z AUTO 36021KT 9999 // NCD 37/01 Q1007 RF00.0/000.0,YFRT,2021-10-19T02:00:00Z,-30.83,128.12,37.0,1.0,360,21,,6.21,29.734253,,,TRUE,,,,,,,,CLR,,,,,,,,VFR,,,,,,,,,,,,SPECI,159.0
YCOM 190200Z AUTO 21011KT 9999 // BKN011 BKN018 OVC021 07/06 Q1019,YCOM,2021-10-19T02:00:00Z,-36.3,148.97,7.0,6.0,210,11,,6.21,30.088583,,,TRUE,,,,,,,,BKN,1100,BKN,1800,OVC,2100,,,MVFR,,,,,,,,,,,,SPECI,930.0
YCIN 190200Z AUTO 27006KT 240V300 9999 // NCD 36/14 Q1013 RF00.0/000.0,YCIN,2021-10-19T02:00:00Z,-17.58,123.83,36.0,14.0,270,6,,6.21,29.911417,,,TRUE,,,,,,,,CLR,,,,,,,,VFR,,,,,,,,,,,,SPECI,83.0
YCFS 190200Z AUTO 04014KT 9999 // NCD 24/16 Q1014 RF00.0/000.0,YCFS,2021-10-19T02:00:00Z,-30.32,153.12,24.0,16.0,40,14,,6.21,29.940945,,,TRUE,,,,,,,,CLR,,,,,,,,VFR,,,,,,,,,,,,METAR,2.0
YCCY 190200Z AUTO 33005KT 9999 // NCD 38/05 Q1012,YCCY,2021-10-19T02:00:00Z,-20.67,140.5,38.0,5.0,330,5,,6.21,29.88189,,,TRUE,,,,,,,,CLR,,,,,,,,VFR,,,,,,,,,,,,METAR,188.0
YCBP 190200Z AUTO 05020KT 9999 // NCD 32/03 Q1016,YCBP,2021-10-19T02:00:00Z,-29.03,134.72,32.0,3.0,50,20,,6.21,30.0,,,TRUE,,,,,,,,CLR,,,,,,,,VFR,,,,,,,,,,,,METAR,227.0
YCBB 190200Z AUTO 24009KT 170V260 9999 // NCD 23/03 Q1017,YCBB,2021-10-19T02:00:00Z,-31.33,149.27,23.0,3.0,240,9,,6.21,30.029528,,,TRUE,,,,,,,,CLR,,,,,,,,VFR,,,,,,,,,,,,METAR,644.0
YCAS 190200Z AUTO 32004KT 290V360 //// // ////// 24/13 Q1014,YCAS,2021-10-19T02:00:00Z,-28.88,153.07,24.0,13.0,320,4,,,29.940945,,,TRUE,,,,,,,,,,,,,,,,,,,,,,,,,,,,METAR,25.0
YBWX 190200Z AUTO 32018KT //// // ////// 28/21 Q1014,YBWX,2021-10-19T02:00:00Z,-20.85,115.4,28.0,21.0,320,18,,,29.940945,,,TRUE,,,,,,,,,,,,,,,,,,,,,,,,,,,,METAR,5.0
YBWW 190200Z AUTO 18004KT 130V280 9999 // NCD 25/11 Q1015 RF00.0/000.0,YBWW,2021-10-19T02:00:00Z,-27.55,151.8,25.0,11.0,180,4,,6.21,29.970472,,,TRUE,,,,,,,,CLR,,,,,,,,VFR,,,,,,,,,,,,METAR,460.0
YBWP 190200Z AUTO 05009KT 9999 // NCD 35/20 Q1012,YBWP,2021-10-19T02:00:00Z,-12.68,141.92,35.0,20.0,50,9,,6.21,29.88189,,,TRUE,,,,,,,,CLR,,,,,,,,VFR,,,,,,,,,,,,METAR,21.0
YBUD 190200Z AUTO 06011KT 9999 // NCD 26/18 Q1014,YBUD,2021-10-19T02:00:00Z,-24.9,152.32,26.0,18.0,60,11,,6.21,29.940945,,,TRUE,,,,,,,,CLR,,,,,,,,VFR,,,,,,,,,,,,METAR,30.0
YBTL 190200Z 03010KT 9999 FEW030 32/22 Q1014,YBTL,2021-10-19T02:00:00Z,-19.25,146.75,32.0,22.0,30,10,,6.21,29.940945,,,,,,,,,,,FEW,3000,,,,,,,VFR,,,,,,,,,,,,METAR,4.0
YBRM 190200Z 27009KT CAVOK 31/20 Q1015,YBRM,2021-10-19T02:00:00Z,-17.93,122.23,31.0,20.0,270,9,,6.21,29.970472,,,,,,,,,,,CAVOK,,,,,,,,VFR,,,,,,,,,,,,METAR,11.0
YBRK 190200Z 04002KT 9999 FEW040 29/18 Q1014,YBRK,2021-10-19T02:00:00Z,-23.37,150.47,29.0,18.0,40,2,,6.21,29.940945,,,,,,,,,,,FEW,4000,,,,,,,VFR,,,,,,,,,,,,METAR,10.0
YBMA 190200Z AUTO 11005KT 060V160 9999 // NCD 39/10 Q1013 RF00.0/000.0,YBMA,2021-10-19T02:00:00Z,-20.67,139.48,39.0,10.0,110,5,,6.21,29.911417,,,TRUE,,,,,,,,CLR,,,,,,,,VFR,,,,,,,,,,,,SPECI,346.0
YBLN 190200Z AUTO 04013KT //// // SCT097 BKN125 16/15 Q0994,YBLN,2021-10-19T02:00:00Z,-33.68,115.4,16.0,15.0,40,13,,,29.350393,,,TRUE,,,,,,,,SCT,9700,BKN,12500,,,,,,,,,,,,,,,,,METAR,17.0
YBHM 190200Z AUTO 32016KT 9999 // NCD 29/22 Q1014 RF00.0/000.2,YBHM,2021-10-19T02:00:00Z,-20.35,148.95,29.0,22.0,320,16,,6.21,29.940945,,,TRUE,,,,,,,,CLR,,,,,,,,VFR,,,,,,,,,,,,SPECI,4.0
YBDV 190200Z AUTO 08015KT 9999 // NCD 36/02 Q1013,YBDV,2021-10-19T02:00:00Z,-25.9,139.35,36.0,2.0,80,15,,6.21,29.911417,,,TRUE,,,,,,,,CLR,,,,,,,,VFR,,,,,,,,,,,,METAR,46.0
YBCV 190200Z AUTO 21008KT 9999 // NCD 31/M03 Q1014,YBCV,2021-10-19T02:00:00Z,-26.4,146.27,31.0,-3.0,210,8,,6.21,29.940945,,,TRUE,,,,,,,,CLR,,,,,,,,VFR,,,,,,,,,,,,METAR,306.0
YBCS 190200Z AUTO 02008KT 9999 // NCD 30/22 Q1014,YBCS,2021-10-19T02:00:00Z,-16.87,145.75,30.0,22.0,20,8,,6.21,29.940945,,,TRUE,,,,,,,,CLR,,,,,,,,VFR,,,,,,,,,,,,SPECI,2.0
YBCG 190200Z AUTO 05011KT 9999 // NCD 23/16 Q1014,YBCG,2021-10-19T02:00:00Z,-28.17,153.5,23.0,16.0,50,11,,6.21,29.940945,,,TRUE,,,,,,,,CLR,,,,,,,,VFR,,,,,,,,,,,,SPECI,5.0
YBBN 190200Z 05010KT 9999 FEW040 25/12 Q1014,YBBN,2021-10-19T02:00:00Z,-27.38,153.13,25.0,12.0,50,10,,6.21,29.940945,,,,,,,,,,,FEW,4000,,,,,,,VFR,,,,,,,,,,,,METAR,3.0
YBAS 190200Z AUTO 33013KT 9999 // NCD 38/07 Q1014,YBAS,2021-10-19T02:00:00Z,-23.8,133.9,38.0,7.0,330,13,,6.21,29.940945,,,TRUE,,,,,,,,CLR,,,,,,,,VFR,,,,,,,,,,,,SPECI,549.0
YAYE 190200Z AUTO 21010KT 140V290 9999 // NCD 38/05 Q1014,YAYE,2021-10-19T02:00:00Z,-25.18,130.98,38.0,5.0,210,10,,6.21,29.940945,,,TRUE,,,,,,,,CLR,,,,,,,,VFR,,,,,,,,,,,,SPECI,489.0
YARG 190200Z AUTO 22004KT 170V260 9999 // NCD 40/13 Q1013,YARG,2021-10-19T02:00:00Z,-16.63,128.45,40.0,13.0,220,4,,6.21,29.911417,,,TRUE,,,,,,,,CLR,,,,,,,,VFR,,,,,,,,,,,,METAR,157.0
YAMB 190200Z 19005KT 150V240 9999 FEW042 25/14 Q1014,YAMB,2021-10-19T02:00:00Z,-27.63,152.72,25.0,14.0,190,5,,6.21,29.940945,,,,,,,,,,,FEW,4200,,,,,,,VFR,,,,,,,,,,,,METAR,26.0
YABA 190200Z AUTO 35010KT 9999 // OVC055 18/15 Q0996,YABA,2021-10-19T02:00:00Z,-34.93,117.8,18.0,15.0,350,10,,6.21,29.409449,,,TRUE,,,,,,,,OVC,5500,,,,,,,VFR,,,,,,,,,,,,METAR,67.0
WSSS 190200Z 19005KT 130V230 9999 SCT018 BKN300 29/25 Q1014 NOSIG,WSSS,2021-10-19T02:00:00Z,1.37,103.97,29.0,25.0,190,5,,6.21,29.940945,,,,,,TRUE,,,,,SCT,1800,BKN,30000,,,,,VFR,,,,,,,,,,,,METAR,17.0
WSSL 190200Z VRB03KT 9999 SCT018 BKN300 31/24 Q1014,WSSL,2021-10-19T02:00:00Z,1.42,103.87,31.0,24.0,0,3,,6.21,29.940945,,,,,,,,,,,SCT,1800,BKN,30000,,,,,VFR,,,,,,,,,,,,METAR,11.0
WSAP 190200Z 18005KT 9999 SCT018 BKN300 30/25 Q1014,WSAP,2021-10-19T02:00:00Z,1.37,103.92,30.0,25.0,180,5,,6.21,29.940945,,,,,,,,,,,SCT,1800,BKN,30000,,,,,VFR,,,,,,,,,,,,METAR,20.0
WMSA 190200Z 14005KT 100V190 9999 FEW018 30/23 Q1014,WMSA,2021-10-19T02:00:00Z,3.13,101.55,30.0,23.0,140,5,,6.21,29.940945,,,,,,,,,,,FEW,1800,,,,,,,VFR,,,,,,,,,,,,METAR,19.0
WMKP 190200Z AUTO 21008KT //// // ////// 26/25 Q1014 NOSIG,WMKP,2021-10-19T02:00:00Z,5.28,100.27,26.0,25.0,210,8,,,29.940945,,,TRUE,,,TRUE,,,,,,,,,,,,,,,,,,,,,,,,,METAR,4.0
WMKN 190200Z VRB02KT 9999 SCT018 30/26 Q1013,WMKN,2021-10-19T02:00:00Z,5.37,103.1,30.0,26.0,0,2,,6.21,29.911417,,,,,,,,,,,SCT,1800,,,,,,,VFR,,,,,,,,,,,,METAR,12.0
WMKM 190200Z 10004KT 050V160 9999 FEW020 29/25 Q1014,WMKM,2021-10-19T02:00:00Z,2.27,102.25,29.0,25.0,100,4,,6.21,29.940945,,,,,,,,,,,FEW,2000,,,,,,,VFR,,,,,,,,,,,,METAR,9.0
WMKL 190200Z VRB02KT 9999 FEW020 31/27 Q1014,WMKL,2021-10-19T02:00:00Z,6.32,99.72,31.0,27.0,0,2,,6.21,29.940945,,,,,,,,,,,FEW,2000,,,,,,,VFR,,,,,,,,,,,,METAR,4.0
WMKJ 190200Z 13004KT 060V190 9999 FEW018 30/27 Q1014,WMKJ,2021-10-19T02:00:00Z,1.63,103.67,30.0,27.0,130,4,,6.21,29.940945,,,,,,,,,,,FEW,1800,,,,,,,VFR,,,,,,,,,,,,METAR,38.0
WMKI 190200Z VRB03KT 9999 SCT019 30/24 Q1014,WMKI,2021-10-19T02:00:00Z,4.57,101.08,30.0,24.0,0,3,,6.21,29.940945,,,,,,,,,,,SCT,1900,,,,,,,VFR,,,,,,,,,,,,METAR,37.0
WMKE 190200Z VRB01KT 9999 SCT017 31/25 Q1013,WMKE,2021-10-19T02:00:00Z,4.53,103.43,31.0,25.0,0,1,,6.21,29.911417,,,,,,,,,,,SCT,1700,,,,,,,VFR,,,,,,,,,,,,METAR,5.0
WMKD 190200Z VRB02KT 9999 FEW019 29/25 Q1014 NOSIG,WMKD,2021-10-19T02:00:00Z,3.77,103.22,29.0,25.0,0,2,,6.21,29.940945,,,,,,TRUE,,,,,FEW,1900,,,,,,,VFR,,,,,,,,,,,,METAR,18.0
WMKC 190200Z VRB03KT 9999 FEW017CB 27/26 Q1014,WMKC,2021-10-19T02:00:00Z,6.17,102.28,27.0,26.0,0,3,,6.21,29.940945,,,,,,,,,,,FEW,1700,,,,,,,VFR,,,,,,,,,,,,METAR,7.0
WMKB 190200Z VRB02KT 6000 FEW017CB SCT024 28/25 Q1014 NOSIG,WMKB,2021-10-19T02:00:00Z,5.47,100.38,28.0,25.0,0,2,,3.73,29.940945,,,,,,TRUE,,,,,FEW,1700,SCT,2400,,,,,MVFR,,,,,,,,,,,,METAR,4.0
WMKA 190200Z VRB03KT 9999 FEW020 30/26 Q1013,WMKA,2021-10-19T02:00:00Z,6.2,100.4,30.0,26.0,0,3,,6.21,29.911417,,,,,,,,,,,FEW,2000,,,,,,,VFR,,,,,,,,,,,,METAR,5.0
WMBA 190200Z VRB02KT 9999 FEW017CB 29/25 Q1014,WMBA,2021-10-19T02:00:00Z,4.22,100.7,29.0,25.0,0,2,,6.21,29.940945,,,,,,,,,,,FEW,1700,,,,,,,VFR,,,,,,,,,,,,METAR,9.0
WMAU 190200Z VRB02KT 9999 SCT025 29/25 Q1014,WMAU,2021-10-19T02:00:00Z,2.38,103.88,29.0,25.0,0,2,,6.21,29.940945,,,,,,,,,,,SCT,2500,,,,,,,VFR,,,,,,,,,,,,METAR,5.0
WIII 190200Z 26008KT 9999 FEW020 29/25 Q1015 NOSIG,WIII,2021-10-19T02:00:00Z,-6.13,106.67,29.0,25.0,260,8,,6.21,29.970472,,,,,,TRUE,,,,,FEW,2000,,,,,,,VFR,,,,,,,,,,,,METAR,9.0
WBSB 190200Z 31005KT 9999 SCT015 FEW016CB BKN300 30/27 Q1014 NOSIG,WBSB,2021-10-19T02:00:00Z,4.93,114.92,30.0,27.0,310,5,,6.21,29.940945,,,,,,TRUE,,,,,SCT,1500,FEW,1600,BKN,30000,,,VFR,,,,,,,,,,,,METAR,15.0
WBKW 190200Z VRB02KT 9999 TS FEW015CB SCT016 29/27 Q1013,WBKW,2021-10-19T02:00:00Z,4.32,118.12,29.0,27.0,0,2,,6.21,29.911417,,,,,,,,,,TS,FEW,1500,SCT,1600,,,,,VFR,,,,,,,,,,,,METAR,17.0
WBKT 190200Z 00000KT 9999 FEW014 28/26 Q1013,WBKT,2021-10-19T02:00:00Z,6.92,116.83,28.0,26.0,0,0,,6.21,29.911417,,,,,,,,,,,FEW,1400,,,,,,,VFR,,,,,,,,,,,,METAR,11.0
WBKS 190200Z VRB02KT 9999 SCT015 31/26 Q1013,WBKS,2021-10-19T02:00:00Z,5.9,118.07,31.0,26.0,0,2,,6.21,29.911417,,,,,,,,,,,SCT,1500,,,,,,,VFR,,,,,,,,,,,,METAR,13.0
WBKL 190200Z VRB01KT 9999 FEW014 FEW015CB 30/25 Q1013,WBKL,2021-10-19T02:00:00Z,5.3,115.25,30.0,25.0,0,1,,6.21,29.911417,,,,,,,,,,,FEW,1400,FEW,1500,,,,,VFR,,,,,,,,,,,,METAR,29.0
WBKK 190200Z 31003KT 230V020 9999 FEW015 31/26 Q1013 NOSIG,WBKK,2021-10-19T02:00:00Z,5.93,116.05,31.0,26.0,310,3,,6.21,29.911417,,,,,,TRUE,,,,,FEW,1500,,,,,,,VFR,,,,,,,,,,,,METAR,9.0
WBGY 190200Z 15003KT 090V220 9999 -RA SCT002 SCT020 25/25 Q1015,WBGY,2021-10-19T02:00:00Z,1.22,111.45,25.0,25.0,150,3,,6.21,29.970472,,,,,,,,,,-RA,SCT,200,SCT,2000,,,,,VFR,,,,,,,,,,,,METAR,13.0
WBGS 190200Z VRB02KT 9999 SCT016 29/26 Q1014,WBGS,2021-10-19T02:00:00Z,2.27,111.98,29.0,26.0,0,2,,6.21,29.940945,,,,,,,,,,,SCT,1600,,,,,,,VFR,,,,,,,,,,,,METAR,26.0
WBGR 190200Z 03003KT 320V110 9999 FEW014 30/25 Q1013,WBGR,2021-10-19T02:00:00Z,4.32,113.98,30.0,25.0,30,3,,6.21,29.911417,,,,,,,,,,,FEW,1400,,,,,,,VFR,,,,,,,,,,,,METAR,18.0
WBGG 190200Z VRB02KT 9999 FEW014 FEW015CB 30/25 Q1014 NOSIG,WBGG,2021-10-19T02:00:00Z,1.48,110.35,30.0,25.0,0,2,,6.21,29.940945,,,,,,TRUE,,,,,FEW,1400,FEW,1500,,,,,VFR,,,,,,,,,,,,METAR,26.0
WBGB 190200Z VRB03KT 9999 SCT014 FEW015CB 30/26 Q1014,WBGB,2021-10-19T02:00:00Z,3.12,113.02,30.0,26.0,0,3,,6.21,29.940945,,,,,,,,,,,SCT,1400,FEW,1500,,,,,VFR,,,,,,,,,,,,METAR,34.0
WAMM 190200Z 17003KT 090V250 9000 SCT020 33/24 Q1014 NOSIG,WAMM,2021-10-19T02:00:00Z,1.55,124.92,33.0,24.0,170,3,,5.59,29.940945,,,,,,TRUE,,,,,SCT,2000,,,,,,,VFR,,,,,,,,,,,,METAR,86.0
WAJJ 190200Z 13009KT 9999 FEW013 34/22 Q1011 NOSIG,WAJJ,2021-10-19T02:00:00Z,-2.58,140.52,34.0,22.0,130,9,,6.21,29.852362,,,,,,TRUE,,,,,FEW,1300,,,,,,,VFR,,,,,,,,,,,,METAR,93.0
WADL 190200Z 16005KT 120V180 8000 SCT016 31/24 Q1015 NOSIG,WADL,2021-10-19T02:00:00Z,-8.75,116.28,31.0,24.0,160,5,,4.97,29.970472,,,,,,TRUE,,,,,SCT,1600,,,,,,,MVFR,,,,,,,,,,,,METAR,97.0
VVTS 190200Z 14007KT 100V220 9999 R25L/900VP2000D BKN017 30/25 Q1014 NOSIG,VVTS,2021-10-19T02:00:00Z,10.82,106.67,30.0,25.0,140,7,,6.21,29.940945,,,,,,TRUE,,,,,BKN,1700,,,,,,,MVFR,,,,,,,,,,,,SPECI,10.0
VVPQ 190200Z 04002KT 9999 FEW015 SCT040 29/25 Q1014 NOSIG,VVPQ,2021-10-19T02:00:00Z,10.23,103.97,29.0,25.0,40,2,,6.21,29.940945,,,,,,TRUE,,,,,FEW,1500,SCT,4000,,,,,VFR,,,,,,,,,,,,METAR,8.0
VVPB 190200Z 25004KT 3000 -RA BR SCT006 SCT013 BKN030 23/22 Q1019 NOSIG,VVPB,2021-10-19T02:00:00Z,16.38,107.7,23.0,22.0,250,4,,1.86,30.088583,,,,,,TRUE,,,,-RA BR,SCT,600,SCT,1300,BKN,3000,,,IFR,,,,,,,,,,,,METAR,15.0
VVDN 190200Z 31004KT 6000 -RA FEW007 SCT013 FEW017CB BKN050 25/24 Q1017 NOSIG,VVDN,2021-10-19T02:00:00Z,16.03,108.2,25.0,24.0,310,4,,3.73,30.029528,,,,,,TRUE,,,,-RA,FEW,700,SCT,1300,FEW,1700,BKN,5000,MVFR,,,,,,,,,,,,METAR,7.0
VVCT 190200Z VRB02KT 9999 FEW013 FEW015TCU 29/25 Q1014 NOSIG TCU/SW,VVCT,2021-10-19T02:00:00Z,10.08,105.72,29.0,25.0,0,2,,6.21,29.940945,,,,,,TRUE,,,,,FEW,1300,FEW,1500,,,,,VFR,,,,,,,,,,,,METAR,6.0
VVCR 190200Z 05006KT 9999 FEW015 30/24 Q1016 NOSIG,VVCR,2021-10-19T02:00:00Z,12.0,109.22,30.0,24.0,50,6,,6.21,30.0,,,,,,TRUE,,,,,FEW,1500,,,,,,,VFR,,,,,,,,,,,,METAR,12.0
VTUW 190200Z VRB02KT CAVOK 27/22 Q1016 NOSIG,VTUW,2021-10-19T02:00:00Z,17.38,104.63,27.0,22.0,0,2,,6.21,30.0,,,,,,TRUE,,,,,CAVOK,,,,,,,,VFR,,,,,,,,,,,,METAR,167.0
VTUV 190200Z 03003KT 330V070 9999 SCT030 BKN060 26/22 Q1016 NOSIG,VTUV,2021-10-19T02:00:00Z,16.12,103.78,26.0,22.0,30,3,,6.21,30.0,,,,,,TRUE,,,,,SCT,3000,BKN,6000,,,,,VFR,,,,,,,,,,,,METAR,136.0
VTUU 190200Z 02004KT 330V060 9999 FEW020 27/24 Q1016 NOSIG,VTUU,2021-10-19T02:00:00Z,15.25,104.87,27.0,24.0,20,4,,6.21,30.0,,,,,,TRUE,,,,,FEW,2000,,,,,,,VFR,,,,,,,,,,,,METAR,123.0
VTUQ 190200Z 03004KT 9999 SCT020 BKN080 24/24 Q1017 NOSIG,VTUQ,2021-10-19T02:00:00Z,14.95,102.32,24.0,24.0,30,4,,6.21,30.029528,,,,,,TRUE,,,,,SCT,2000,BKN,8000,,,,,VFR,,,,,,,,,,,,METAR,225.0
VTUO 190200Z 05003KT 350V140 9999 FEW010 SCT040 25/25 Q1016 NOSIG,VTUO,2021-10-19T02:00:00Z,15.23,103.25,25.0,25.0,50,3,,6.21,30.0,,,,,,TRUE,,,,,FEW,1000,SCT,4000,,,,,VFR,,,,,,,,,,,,METAR,182.0
VTUL 190200Z 00000KT 9999 FEW010 OVC035 25/23 Q1018 NOSIG,VTUL,2021-10-19T02:00:00Z,17.43,101.72,25.0,23.0,0,0,,6.21,30.059055,,,,,,TRUE,,,,,FEW,1000,OVC,3500,,,,,VFR,,,,,,,,,,,,METAR,257.0
VTUK 190200Z 04005KT 350V090 9999 FEW020 BKN080 27/22 Q1017 NOSIG,VTUK,2021-10-19T02:00:00Z,16.47,102.78,27.0,22.0,40,5,,6.21,30.029528,,,,,,TRUE,,,,,FEW,2000,BKN,8000,,,,,VFR,,,,,,,,,,,,METAR,190.0
VTUI 190200Z VRB02KT 9999 FEW025 BKN060 27/21 Q1016 NOSIG,VTUI,2021-10-19T02:00:00Z,17.2,104.12,27.0,21.0,0,2,,6.21,30.0,,,,,,TRUE,,,,,FEW,2500,BKN,6000,,,,,VFR,,,,,,,,,,,,METAR,162.0
VTUD 190200Z 09004KT 040V130 9999 SCT035 27/20 Q1017 NOSIG,VTUD,2021-10-19T02:00:00Z,17.37,102.78,27.0,20.0,90,4,,6.21,30.029528,,,,,,TRUE,,,,,SCT,3500,,,,,,,VFR,,,,,,,,,,,,METAR,177.0
VTST 190200Z 02004KT 340V070 9999 FEW030 29/27 Q1013 NOSIG,VTST,2021-10-19T02:00:00Z,7.52,99.62,29.0,27.0,20,4,,6.21,29.911417,,,,,,TRUE,,,,,FEW,3000,,,,,,,VFR,,,,,,,,,,,,METAR,17.0
VTSS 190200Z 06004KT 270V080 9999 FEW020 SCT100 29/24 Q1014 NOSIG,VTSS,2021-10-19T02:00:00Z,6.92,100.38,29.0,24.0,60,4,,6.21,29.940945,,,,,,TRUE,,,,,FEW,2000,SCT,10000,,,,,VFR,,,,,,,,,,,,METAR,28.0
VTSR 190200Z 24003KT 9999 SCT020 28/25 Q1012 NOSIG,VTSR,2021-10-19T02:00:00Z,9.78,98.58,28.0,25.0,240,3,,6.21,29.88189,,,,,,TRUE,,,,,SCT,2000,,,,,,,VFR,,,,,,,,,,,,METAR,23.0
VTSP 190200Z 08008KT 010V110 9999 FEW020 29/25 Q1013 NOSIG,VTSP,2021-10-19T02:00:00Z,8.12,98.32,29.0,25.0,80,8,,6.21,29.911417,,,,,,TRUE,,,,,FEW,2000,,,,,,,VFR,,,,,,,,,,,,METAR,12.0
VTSM 190200Z 02005KT 9999 FEW020 30/25 Q1014 NOSIG,VTSM,2021-10-19T02:00:00Z,9.55,100.07,30.0,25.0,20,5,,6.21,29.940945,,,,,,TRUE,,,,,FEW,2000,,,,,,,VFR,,,,,,,,,,,,METAR,12.0
VTSG 190200Z VRB04KT 9999 FEW011 SCT100 28/26 Q1014 NOSIG,VTSG,2021-10-19T02:00:00Z,8.1,98.98,28.0,26.0,0,4,,6.21,29.940945,,,,,,TRUE,,,,,FEW,1100,SCT,10000,,,,,VFR,,,,,,,,,,,,METAR,32.0
VTSF 190200Z 23002KT 9999 BKN018 31/25 Q1014 NOSIG,VTSF,2021-10-19T02:00:00Z,8.53,99.95,31.0,25.0,230,2,,6.21,29.940945,,,,,,TRUE,,,,,BKN,1800,,,,,,,MVFR,,,,,,,,,,,,METAR,6.0
VTSE 190200Z 08005KT 030V120 9999 SCT020 30/26 Q1013 NOSIG,VTSE,2021-10-19T02:00:00Z,10.72,99.37,30.0,26.0,80,5,,6.21,29.911417,,,,,,TRUE,,,,,SCT,2000,,,,,,,VFR,,,,,,,,,,,,METAR,8.0
VTSC 190200Z VRB02KT 9999 -RA SCT018 28/25 Q1014 NOSIG,VTSC,2021-10-19T02:00:00Z,6.52,101.75,28.0,25.0,0,2,,6.21,29.940945,,,,,,TRUE,,,,-RA,SCT,1800,,,,,,,VFR,,,,,,,,,,,,METAR,5.0
VTSB 190200Z 05004KT 340V100 9999 SCT018 30/26 Q1014 NOSIG,VTSB,2021-10-19T02:00:00Z,9.12,99.15,30.0,26.0,50,4,,6.21,29.940945,,,,,,TRUE,,,,,SCT,1800,,,,,,,VFR,,,,,,,,,,,,METAR,10.0
VTPT 190200Z /////KT 5000 BR FEW015 BKN026 25/24 Q//// NOSIG,VTPT,2021-10-19T02:00:00Z,16.88,99.25,25.0,24.0,,,,3.11,,,,,,,TRUE,,,,BR,FEW,1500,BKN,2600,,,,,MVFR,,,,,,,,,,,,METAR,148.0
VTPP 190200Z 35003KT 310V040 9999 BKN015 26/25 Q1015 NOSIG,VTPP,2021-10-19T02:00:00Z,16.78,100.28,26.0,25.0,350,3,,6.21,29.970472,,,,,,TRUE,,,,,BKN,1500,,,,,,,MVFR,,,,,,,,,,,,METAR,45.0
VTPO 190200Z VRB02KT 5000 BR FEW010 BKN020 24/32 Q1015 NOSIG,VTPO,2021-10-19T02:00:00Z,17.23,99.82,24.0,32.0,0,2,,3.11,29.970472,,,,,,TRUE,,,,BR,FEW,1000,BKN,2000,,,,,MVFR,,,,,,,,,,,,METAR,58.0
VTPM 190200Z 00000KT 9999 FEW012 BKN020 BKN075 26/23 Q1015 NOSIG,VTPM,2021-10-19T02:00:00Z,16.7,98.53,26.0,23.0,0,0,,6.21,29.970472,,,,,,TRUE,,,,,FEW,1200,BKN,2000,BKN,7500,,,MVFR,,,,,,,,,,,,METAR,211.0
VTPH 190200Z 34005KT 280V010 9999 FEW030 26/23 Q1014 NOSIG,VTPH,2021-10-19T02:00:00Z,12.63,99.95,26.0,23.0,340,5,,6.21,29.940945,,,,,,TRUE,,,,,FEW,3000,,,,,,,VFR,,,,,,,,,,,,METAR,12.0
VTPB 190200Z 36003KT 270V050 9999 FEW015 SCT030 27/23 Q1016 NOSIG,VTPB,2021-10-19T02:00:00Z,16.67,101.2,27.0,23.0,360,3,,6.21,30.0,,,,,,TRUE,,,,,FEW,1500,SCT,3000,,,,,VFR,,,,,,,,,,,,METAR,134.0
VTCT 190200Z 36007KT 9999 SCT045 BKN065 25/22 Q1018 NOSIG,VTCT,2021-10-19T02:00:00Z,19.95,99.88,25.0,22.0,360,7,,6.21,30.059055,,,,,,TRUE,,,,,SCT,4500,BKN,6500,,,,,VFR,,,,,,,,,,,,METAR,389.0
VTCP 190200Z 34003KT 9999 FEW035 27/23 Q1016 NOSIG,VTCP,2021-10-19T02:00:00Z,18.13,100.17,27.0,23.0,340,3,,6.21,30.0,,,,,,TRUE,,,,,FEW,3500,,,,,,,VFR,,,,,,,,,,,,METAR,166.0
VTCN 190200Z 04003KT 010V070 9999 BKN045 25/23 Q1017 NOSIG,VTCN,2021-10-19T02:00:00Z,18.82,100.78,25.0,23.0,40,3,,6.21,30.029528,,,,,,TRUE,,,,,BKN,4500,,,,,,,VFR,,,,,,,,,,,,METAR,211.0
VTCL 190200Z 00000KT 9999 SCT025 BKN100 28/23 Q1017 NOSIG,VTCL,2021-10-19T02:00:00Z,18.27,99.52,28.0,23.0,0,0,,6.21,30.029528,,,,,,TRUE,,,,,SCT,2500,BKN,10000,,,,,VFR,,,,,,,,,,,,METAR,240.0
VTCH 190200Z VRB02KT 9000 FEW015 BKN025 25/23 Q1016 NOSIG,VTCH,2021-10-19T02:00:00Z,19.3,97.98,25.0,23.0,0,2,,5.59,30.0,,,,,,TRUE,,,,,FEW,1500,BKN,2500,,,,,MVFR,,,,,,,,,,,,METAR,266.0
VTCC 190200Z 34004KT 300V020 9999 FEW015 BKN035 25/23 Q1017 NOSIG,VTCC,2021-10-19T02:00:00Z,18.77,98.97,25.0,23.0,340,4,,6.21,30.029528,,,,,,TRUE,,,,,FEW,1500,BKN,3500,,,,,VFR,,,,,,,,,,,,METAR,308.0
VTBU 190200Z VRB02KT 9999 FEW020 28/23 Q1015 NOSIG,VTBU,2021-10-19T02:00:00Z,12.68,101.0,28.0,23.0,0,2,,6.21,29.970472,,,,,,TRUE,,,,,FEW,2000,,,,,,,VFR,,,,,,,,,,,,METAR,12.0
VTBS 190200Z 35004KT 310V030 9999 FEW018 SCT040 BKN090 27/23 Q1015 NOSIG,VTBS,2021-10-19T02:00:00Z,13.68,100.75,27.0,23.0,350,4,,6.21,29.970472,,,,,,TRUE,,,,,FEW,1800,SCT,4000,BKN,9000,,,VFR,,,,,,,,,,,,METAR,1.0
VTBO 190200Z 06002KT 9999 FEW020 29/26 Q1014,VTBO,2021-10-19T02:00:00Z,12.28,102.32,29.0,26.0,60,2,,6.21,29.940945,,,,,,,,,,,FEW,2000,,,,,,,VFR,,,,,,,,,,,,METAR,25.0
VTBD 190200Z 03004KT 340V080 9999 FEW020 SCT040 26/24 Q1015 NOSIG,VTBD,2021-10-19T02:00:00Z,13.92,100.6,26.0,24.0,30,4,,6.21,29.970472,,,,,,TRUE,,,,,FEW,2000,SCT,4000,,,,,VFR,,,,,,,,,,,,METAR,6.0
VQPR 190200Z 29003KT 4000 RA FEW006 SCT010 OVC050 13/13 Q1027,VQPR,2021-10-19T02:00:00Z,27.4,89.43,13.0,13.0,290,3,,2.49,30.324802,,,,,,,,,,RA,FEW,600,SCT,1000,OVC,5000,,,IFR,,,,,,,,,,,,METAR,2227.0
VOVZ 190200Z VRB02KT 2000 BR FEW016 FEW025CB SCT080 BKN220 28/27 Q1008 TEMPO DZ,VOVZ,2021-10-19T02:00:00Z,17.72,83.22,28.0,27.0,0,2,,1.24,29.763779,,,,,,,,,,BR,FEW,1600,FEW,2500,SCT,8000,BKN,22000,IFR,,,,,,,,,,,,METAR,4.0
VOTV 190200Z 33006KT 3000 BR FEW015 27/24 Q1011 BECMG 4000 HZ,VOTV,2021-10-19T02:00:00Z,8.48,76.92,27.0,24.0,330,6,,1.86,29.852362,,,,,,,,,,BR,FEW,1500,,,,,,,IFR,,,,,,,,,,,,SPECI,9.0
VOTR 190200Z 29010KT 3000 BR FEW016 27/23 Q1010 NOSIG,VOTR,2021-10-19T02:00:00Z,10.77,78.72,27.0,23.0,290,10,,1.86,29.822834,,,,,,TRUE,,,,BR,FEW,1600,,,,,,,IFR,,,,,,,,,,,,METAR,90.0
VOTP 190200Z 30004KT 5000 BR FEW020 28/25 Q1009 NOSIG,VOTP,2021-10-19T02:00:00Z,13.63,79.55,28.0,25.0,300,4,,3.11,29.793306,,,,,,TRUE,,,,BR,FEW,2000,,,,,,,MVFR,,,,,,,,,,,,METAR,103.0
VOTK 190200Z 28006KT 6000 NSC 29/23 Q1010 NOSIG,VOTK,2021-10-19T02:00:00Z,8.72,78.02,29.0,23.0,280,6,,3.73,29.822834,,,,,,TRUE,,,,,CLR,,,,,,,,MVFR,,,,,,,,,,,,METAR,25.0
VOSR 190200Z 05004KT 4000 HZ FEW020 SCT025 25/23 Q1012 NOSIG,VOSR,2021-10-19T02:00:00Z,,,25.0,23.0,50,4,,2.49,29.88189,,,,,,TRUE,,,,HZ,FEW,2000,SCT,2500,,,,,IFR,,,,,,,,,,,,METAR,
VOSM 190200Z 34003KT 4000 BR FEW020 SCT100 25/22 Q1011 NOSIG,VOSM,2021-10-19T02:00:00Z,11.78,78.07,25.0,22.0,340,3,,2.49,29.852362,,,,,,TRUE,,,,BR,FEW,2000,SCT,10000,,,,,IFR,,,,,,,,,,,,METAR,301.0
VORY 190200Z 03003KT 1500 BR FEW020 FEW030CB BKN090 28/27 Q1008 NOSIG,VORY,2021-10-19T02:00:00Z,17.1,81.82,28.0,27.0,30,3,,0.93,29.763779,,,,,,TRUE,,,,BR,FEW,2000,FEW,3000,BKN,9000,,,LIFR,,,,,,,,,,,,METAR,47.0
VOMY 190200Z 28005KT 6000 FEW008 SCT080 22/21 Q1015,VOMY,2021-10-19T02:00:00Z,12.23,76.65,22.0,21.0,280,5,,3.73,29.970472,,,,,,,,,,,FEW,800,SCT,8000,,,,,MVFR,,,,,,,,,,,,METAR,727.0
VOMM 190200Z 26005KT 4000 BR FEW020 29/26 Q1009 NOSIG,VOMM,2021-10-19T02:00:00Z,13.0,80.17,29.0,26.0,260,5,,2.49,29.793306,,,,,,TRUE,,,,BR,FEW,2000,,,,,,,IFR,,,,,,,,,,,,METAR,7.0
VOML 190200Z 00000KT 1000 R24/1500 BR FEW002 SCT080 24/23 Q1011 BECMG 1500 BR,VOML,2021-10-19T02:00:00Z,12.97,74.88,24.0,23.0,0,0,,0.62,29.852362,,,,,,,,,,BR,FEW,200,SCT,8000,,,,,LIFR,,,,,,,,,,,,METAR,100.0
VOMD 190200Z 00000KT 5000 BR FEW020 28/25 Q1010 NOSIG,VOMD,2021-10-19T02:00:00Z,9.83,78.08,28.0,25.0,0,0,,3.11,29.822834,,,,,,TRUE,,,,BR,FEW,2000,,,,,,,MVFR,,,,,,,,,,,,METAR,135.0
VOKN 190200Z VRB03KT 2000 BR FEW006 SCT012 24/23 Q1011 BECMG 3000,VOKN,2021-10-19T02:00:00Z,11.92,75.55,24.0,23.0,0,3,,1.24,29.852362,,,,,,,,,,BR,FEW,600,SCT,1200,,,,,IFR,,,,,,,,,,,,METAR,105.0
VOHS 190200Z 30009KT 5000 BR FEW015 24/21 Q1014 NOSIG,VOHS,2021-10-19T02:00:00Z,17.23,78.43,24.0,21.0,300,9,,3.11,29.940945,,,,,,TRUE,,,,BR,FEW,1500,,,,,,,MVFR,,,,,,,,,,,,METAR,607.0
VOHB 190200Z 29004KT 4000 BR FEW008 22/22 Q1015,VOHB,2021-10-19T02:00:00Z,15.37,75.08,22.0,22.0,290,4,,2.49,29.970472,,,,,,,,,,BR,FEW,800,,,,,,,IFR,,,,,,,,,,,,METAR,661.0
VOGB 190200Z 28004KT 5000 BR FEW015 BKN080 23/21 Q1013,VOGB,2021-10-19T02:00:00Z,17.35,76.85,23.0,21.0,280,4,,3.11,29.911417,,,,,,,,,,BR,FEW,1500,BKN,8000,,,,,MVFR,,,,,,,,,,,,METAR,458.0
VOCL 190200Z 07002KT 0200 FG SCT002 SCT012 BKN080 24/24 Q1011 NOSIG,VOCL,2021-10-19T02:00:00Z,11.13,75.95,24.0,24.0,70,2,,0.12,29.852362,,,,,,TRUE,,,,FG,SCT,200,SCT,1200,BKN,8000,,,LIFR,,,,,,,,,,,,METAR,104.0
VOCI 190200Z 11002KT 3000 BR SCT012 BKN080 25/24 Q1011 NOSIG,VOCI,2021-10-19T02:00:00Z,10.15,76.4,25.0,24.0,110,2,,1.86,29.852362,,,,,,TRUE,,,,BR,SCT,1200,BKN,8000,,,,,IFR,,,,,,,,,,,,METAR,8.0
VOCB 190200Z 23006KT 2500 BR FEW012 24/22 Q1013 NOSIG,VOCB,2021-10-19T02:00:00Z,11.02,77.03,24.0,22.0,230,6,,1.55,29.911417,,,,,,TRUE,,,,BR,FEW,1200,,,,,,,IFR,,,,,,,,,,,,METAR,394.0
VOBZ 190200Z VRB02KT 2000 BR FEW020 SCT100 27/26 Q1008 NOSIG,VOBZ,2021-10-19T02:00:00Z,16.52,80.78,27.0,26.0,0,2,,1.24,29.763779,,,,,,TRUE,,,,BR,FEW,2000,SCT,10000,,,,,IFR,,,,,,,,,,,,METAR,26.0
VOBM 190200Z 00000KT 5000 BR NSC 20/18 Q1015,VOBM,2021-10-19T02:00:00Z,15.85,74.62,20.0,18.0,0,0,,3.11,29.970472,,,,,,,,,,BR,CLR,,,,,,,,MVFR,,,,,,,,,,,,METAR,758.0
VOBL 190200Z 27007KT 2000 BR SCT008 SCT012 21/20 Q1016 NOSIG,VOBL,2021-10-19T02:00:00Z,13.2,77.7,21.0,20.0,270,7,,1.24,30.0,,,,,,TRUE,,,,BR,SCT,800,SCT,1200,,,,,IFR,,,,,,,,,,,,METAR,908.0
VOBG 190200Z 29005KT 3500 BR SCT010 SCT080 23/22 Q1015 NOSIG,VOBG,2021-10-19T02:00:00Z,12.95,77.65,23.0,22.0,290,5,,2.17,29.970472,,,,,,TRUE,,,,BR,SCT,1000,SCT,8000,,,,,IFR,,,,,,,,,,,,METAR,884.0
VOAR 190200Z 26003KT 5000 BR SCT020 BKN100 28/24 Q1010 NOSIG,VOAR,2021-10-19T02:00:00Z,13.07,79.68,28.0,24.0,260,3,,3.11,29.822834,,,,,,TRUE,,,,BR,SCT,2000,BKN,10000,,,,,MVFR,,,,,,,,,,,,METAR,81.0
VMMC 190200Z 35008KT CAVOK 26/20 Q1019 NOSIG,VMMC,2021-10-19T02:00:00Z,22.15,113.58,26.0,20.0,350,8,,6.21,30.088583,,,,,,TRUE,,,,,CAVOK,,,,,,,,VFR,,,,,,,,,,,,METAR,1.0
VLVT 190200Z 22004KT 9999 FEW016 BKN040 29/24 Q1016 NOSIG,VLVT,2021-10-19T02:00:00Z,17.98,102.57,29.0,24.0,220,4,,6.21,30.0,,,,,,TRUE,,,,,FEW,1600,BKN,4000,,,,,VFR,,,,,,,,,,,,METAR,171.0
VLSK 190200Z 36002KT 6000 SCT040 BKN093 24/20 Q1017 NOSIG,VLSK,2021-10-19T02:00:00Z,16.55,104.75,24.0,20.0,360,2,,3.73,30.029528,,,,,,TRUE,,,,,SCT,4000,BKN,9300,,,,,MVFR,,,,,,,,,,,,METAR,148.0
VLPS 190200Z 36002KT 9999 FEW015 FEW200 28/24 Q1015 NOSIG,VLPS,2021-10-19T02:00:00Z,15.13,105.78,28.0,24.0,360,2,,6.21,29.970472,,,,,,TRUE,,,,,FEW,1500,FEW,20000,,,,,VFR,,,,,,,,,,,,METAR,102.0
VLLN 190200Z 04002KT 6000 SCT020 SCT100 25/22 Q1020 NOSIG,VLLN,2021-10-19T02:00:00Z,20.97,101.4,25.0,22.0,40,2,,3.73,30.11811,,,,,,TRUE,,,,,SCT,2000,SCT,10000,,,,,MVFR,,,,,,,,,,,,METAR,548.0
VLLB 190200Z 09004KT 9999 SCT010 SCT060 BKN080 24/21 Q1016 NOSIG,VLLB,2021-10-19T02:00:00Z,19.9,102.17,24.0,21.0,90,4,,6.21,30.0,,,,,,TRUE,,,,,SCT,1000,SCT,6000,BKN,8000,,,VFR,,,,,,,,,,,,METAR,297.0
VILK 190200Z 11008KT 2500 -RA SCT012 SCT018 FEW030CB OVC090 25/24 Q1005 NOSIG,VILK,2021-10-19T02:00:00Z,26.75,80.88,25.0,24.0,110,8,,1.55,29.675198,,,,,,TRUE,,,,-RA,SCT,1200,SCT,1800,FEW,3000,OVC,9000,IFR,,,,,,,,,,,,METAR,121.0
VIJP 190200Z VRB02KT 2500 BR FEW100 22/19 Q1010 NOSIG,VIJP,2021-10-19T02:00:00Z,26.82,75.8,22.0,19.0,0,2,,1.55,29.822834,,,,,,TRUE,,,,BR,FEW,10000,,,,,,,IFR,,,,,,,,,,,,METAR,383.0
VIDP 190200Z 28005KT 1200 R28/2000 R29/2000 BR FEW100 21/20 Q1009 NOSIG,VIDP,2021-10-19T02:00:00Z,28.57,77.12,21.0,20.0,280,5,,0.75,29.793306,,,,,,TRUE,,,,BR,FEW,10000,,,,,,,LIFR,,,,,,,,,,,,SPECI,236.0
VIAR 190200Z VRB02KT 1800 R34/P2000 BR NSC 19/19 Q1008 NOSIG,VIAR,2021-10-19T02:00:00Z,31.7,74.8,19.0,19.0,0,2,,1.12,29.763779,,,,,,TRUE,,,,BR,CLR,,,,,,,,IFR,,,,,,,,,,,,SPECI,226.0
VHHH 190200Z 05007KT 9999 FEW035 27/19 Q1019 NOSIG,VHHH,2021-10-19T02:00:00Z,22.32,113.92,27.0,19.0,50,7,,6.21,30.088583,,,,,,TRUE,,,,,FEW,3500,,,,,,,VFR,,,,,,,,,,,,METAR,9.0
VGHS 190200Z 15007KT 2800 DZ BKN010 BKN100 27/26 Q1012 TEMPO RA,VGHS,2021-10-19T02:00:00Z,23.85,90.4,27.0,26.0,150,7,,1.74,29.88189,,,,,,,,,,DZ,BKN,1000,BKN,10000,,,,,IFR,,,,,,,,,,,,METAR,11.0
VERP 190200Z 25007KT 3000 HZ FEW020 BKN090 26/24 Q1009 NOSIG,VERP,2021-10-19T02:00:00Z,21.18,81.73,26.0,24.0,250,7,,1.86,29.793306,,,,,,TRUE,,,,HZ,FEW,2000,BKN,9000,,,,,IFR,,,,,,,,,,,,METAR,318.0
VERC 190200Z 19008KT 1500 BR SCT012 SCT015 BKN100 24/23 Q1011 NOSIG,VERC,2021-10-19T02:00:00Z,23.32,85.32,24.0,23.0,190,8,,0.93,29.852362,,,,,,TRUE,,,,BR,SCT,1200,SCT,1500,BKN,10000,,,LIFR,,,,,,,,,,,,METAR,646.0
VEPT 190200Z 29004KT 2500 -RA FEW010 SCT015 OVC080 23/22 Q1005 NOSIG,VEPT,2021-10-19T02:00:00Z,25.6,85.08,23.0,22.0,290,4,,1.55,29.675198,,,,,,TRUE,,,,-RA,FEW,1000,SCT,1500,OVC,8000,,,IFR,,,,,,,,,,,,METAR,53.0
VEMN 190200Z 12004KT 3000 BR FEW010 SCT020 FEW025CB BKN100 25/24 Q1014 NOSIG,VEMN,2021-10-19T02:00:00Z,27.47,95.02,25.0,24.0,120,4,,1.86,29.940945,,,,,,TRUE,,,,BR,FEW,1000,SCT,2000,FEW,2500,BKN,10000,IFR,,,,,,,,,,,,METAR,111.0
VELR 190200Z 07004KT 6000 BR SCT018 BKN090 24/23 Q1005,VELR,2021-10-19T02:00:00Z,27.3,94.1,24.0,23.0,70,4,,3.73,29.675198,,,,,,,,,,BR,SCT,1800,BKN,9000,,,,,MVFR,,,,,,,,,,,,METAR,101.0
VELP 190200Z 08003KT 0800 MIFG SCT008 SCT018 BKN100 24/23 Q1015 BECMG 1500 BR,VELP,2021-10-19T02:00:00Z,23.83,92.62,24.0,23.0,80,3,,0.5,29.970472,,,,,,,,,,MIFG,SCT,800,SCT,1800,BKN,10000,,,LIFR,,,,,,,,,,,,METAR,429.0
VEJS 190200Z 11003KT 1200 BR SCT015 FEW030CB OVC090 26/25 Q1008,VEJS,2021-10-19T02:00:00Z,22.82,86.17,26.0,25.0,110,3,,0.75,29.763779,,,,,,,,,,BR,SCT,1500,FEW,3000,OVC,9000,,,LIFR,,,,,,,,,,,,METAR,151.0
VEGY 190200Z 27003KT 2000 BR SCT018 BKN100 25/25 Q1006,VEGY,2021-10-19T02:00:00Z,24.75,84.95,25.0,25.0,270,3,,1.24,29.704725,,,,,,,,,,BR,SCT,1800,BKN,10000,,,,,IFR,,,,,,,,,,,,METAR,115.0
VEGT 190200Z 00000KT 3000 -RA FEW010 SCT018 BKN100 26/24 Q1013 NOSIG,VEGT,2021-10-19T02:00:00Z,26.1,91.58,26.0,24.0,0,0,,1.86,29.911417,,,,,,TRUE,,,,-RA,FEW,1000,SCT,1800,BKN,10000,,,IFR,,,,,,,,,,,,METAR,50.0
VECC 190200Z 14005KT 2500 -RA SCT010 BKN015 FEW025CB OVC080 26/24 Q1010 NOSIG,VECC,2021-10-19T02:00:00Z,22.65,88.43,26.0,24.0,140,5,,1.55,29.822834,,,,,,TRUE,,,,-RA,SCT,1000,BKN,1500,FEW,2500,OVC,8000,IFR,,,,,,,,,,,,METAR,11.0
VEBN 190200Z 10006KT 3000 BR SCT010 BKN020 OVC080 26/24 Q1005 NOSIG,VEBN,2021-10-19T02:00:00Z,25.45,82.85,26.0,24.0,100,6,,1.86,29.675198,,,,,,TRUE,,,,BR,SCT,1000,BKN,2000,OVC,8000,,,IFR,,,,,,,,,,,,METAR,81.0
VEBI 190200Z 07001KT 4000 BR FEW004 SCT018 FEW025CB BKN080 22/21 Q1018,VEBI,2021-10-19T02:00:00Z,25.7,91.98,22.0,21.0,70,1,,2.49,30.059055,,,,,,,,,,BR,FEW,400,SCT,1800,FEW,2500,BKN,8000,IFR,,,,,,,,,,,,METAR,892.0
VEAT 190200Z 00000KT 4500 BR SCT018 BKN100 26/25 Q1013 BECMG 5000 BR,VEAT,2021-10-19T02:00:00Z,23.88,91.25,26.0,25.0,0,0,,2.8,29.911417,,,,,,,,,,BR,SCT,1800,BKN,10000,,,,,IFR,,,,,,,,,,,,METAR,20.0
VDSV 190200Z /////KT 9999 FEW015 ///// Q////,VDSV,2021-10-19T02:00:00Z,10.58,103.63,,,,,,6.21,,,,,,,,,,,,FEW,1500,,,,,,,VFR,,,,,,,,,,,,METAR,1.0
VDSR 190200Z 02001KT 9999 SCT015 SCT040 27/27 Q1014,VDSR,2021-10-19T02:00:00Z,13.42,103.8,27.0,27.0,20,1,,6.21,29.940945,,,,,,,,,,,SCT,1500,SCT,4000,,,,,VFR,,,,,,,,,,,,METAR,16.0
VDPP 190200Z VRB02KT 9999 SCT017 SCT040 29/25 Q1014,VDPP,2021-10-19T02:00:00Z,11.55,104.83,29.0,25.0,0,2,,6.21,29.940945,,,,,,,,,,,SCT,1700,SCT,4000,,,,,VFR,,,,,,,,,,,,METAR,10.0
VAUD 190200Z 30002KT 2000 BR NSC 20/17 Q1011 NOSIG,VAUD,2021-10-19T02:00:00Z,24.62,73.9,20.0,17.0,300,2,,1.24,29.852362,,,,,,TRUE,,,,BR,CLR,,,,,,,,IFR,,,,,,,,,,,,METAR,506.0
VASU 190200Z 00000KT 1500 BR NSC 23/21 Q1010 NOSIG,VASU,2021-10-19T02:00:00Z,21.12,72.73,23.0,21.0,0,0,,0.93,29.822834,,,,,,TRUE,,,,BR,CLR,,,,,,,,LIFR,,,,,,,,,,,,METAR,6.0
VAPR 190200Z 34006KT 5000 HZ NSC 22/21 Q1010,VAPR,2021-10-19T02:00:00Z,21.63,69.67,22.0,21.0,340,6,,3.11,29.822834,,,,,,,,,,HZ,CLR,,,,,,,,MVFR,,,,,,,,,,,,METAR,8.0
VAOZ 190200Z 25002KT 0300 FG NSC 17/17 Q1015 BECMG 1500 BR,VAOZ,2021-10-19T02:00:00Z,20.12,73.92,17.0,17.0,250,2,,0.19,29.970472,,,,,,,,,,FG,CLR,,,,,,,,LIFR,,,,,,,,,,,,METAR,598.0
VANP 190200Z 26003KT 4000 HZ FEW090 SCT250 25/25 Q1010 NOSIG,VANP,2021-10-19T02:00:00Z,21.08,79.05,25.0,25.0,260,3,,2.49,29.822834,,,,,,TRUE,,,,HZ,FEW,9000,SCT,25000,,,,,IFR,,,,,,,,,,,,METAR,309.0
VAJJ 190200Z 00000KT 2500 HZ FEW020 26/24 Q1011 NOSIG,VAJJ,2021-10-19T02:00:00Z,19.08,72.83,26.0,24.0,0,0,,1.55,29.852362,,,,,,TRUE,,,,HZ,FEW,2000,,,,,,,IFR,,,,,,,,,,,,METAR,1.0
VAJB 190200Z 26008KT 3000 BR SCT007 BKN018 OVC080 23/22 Q1010,VAJB,2021-10-19T02:00:00Z,23.18,80.05,23.0,22.0,260,8,,1.86,29.822834,,,,,,,,,,BR,SCT,700,BKN,1800,OVC,8000,,,IFR,,,,,,,,,,,,METAR,489.0
VABP 190200Z 27007KT 2000 BR SCT006 BKN018 22/21 Q1011 NOSIG,VABP,2021-10-19T02:00:00Z,23.28,77.33,22.0,21.0,270,7,,1.24,29.852362,,,,,,TRUE,,,,BR,SCT,600,BKN,1800,,,,,IFR,,,,,,,,,,,,METAR,520.0
VABO 190200Z 00000KT 4000 HZ NSC 25/19 Q1010 BECMG 5000,VABO,2021-10-19T02:00:00Z,22.33,73.22,25.0,19.0,0,0,,2.49,29.822834,,,,,,,,,,HZ,CLR,,,,,,,,IFR,,,,,,,,,,,,METAR,36.0
VABB 190200Z 11005KT 2500 HZ FEW020 27/25 Q1011 NOSIG,VABB,2021-10-19T02:00:00Z,19.1,72.87,27.0,25.0,110,5,,1.55,29.852362,,,,,,TRUE,,,,HZ,FEW,2000,,,,,,,IFR,,,,,,,,,,,,METAR,14.0
VAAH 190200Z 30003KT 3500 FU NSC 24/14 Q1009 NOSIG,VAAH,2021-10-19T02:00:00Z,23.07,72.63,24.0,14.0,300,3,,2.17,29.793306,,,,,,TRUE,,,,FU,CLR,,,,,,,,IFR,,,,,,,,,,,,METAR,52.0
UWWW 190200Z 29003MPS 9999 FEW033 06/01 Q1008 R33/290150 NOSIG RMK QFE745/0994,UWWW,2021-10-19T02:00:00Z,53.5,50.17,6.0,1.0,290,6,,6.21,29.763779,,,,,,TRUE,,,,,FEW,3300,,,,,,,VFR,,,,,,,,,,,,SPECI,124.0
UWUU 190200Z 18004MPS 9999 -SHRA OVC040CB 07/05 Q1006 R14R/290146 NOSIG,UWUU,2021-10-19T02:00:00Z,54.57,55.87,7.0,5.0,180,8,,6.21,29.704725,,,,,,TRUE,,,,-SHRA,OVC,4000,,,,,,,VFR,,,,,,,,,,,,SPECI,137.0
UWSG 190200Z 28004MPS CAVOK 02/00 Q1011 R26/CLRD70 NOSIG RMK QFE756/1008,UWSG,2021-10-19T02:00:00Z,51.72,46.17,2.0,0.0,280,8,,6.21,29.852362,,,,,,TRUE,,,,,CAVOK,,,,,,,,VFR,,,,,,,,,,,,METAR,31.0
UWOR 190200Z 15005MPS CAVOK 00/M08 Q1013 R07/CLRD65 NOSIG RMK QFE735/0980,UWOR,2021-10-19T02:00:00Z,51.07,58.6,0.0,-8.0,150,10,,6.21,29.911417,,,,,,TRUE,,,,,CAVOK,,,,,,,,VFR,,,,,,,,,,,,SPECI,270.0
UWOO 190200Z VRB01MPS 9999 SCT049 08/M02 Q1010 R08/60D NOSIG RMK QFE747/0996,UWOO,2021-10-19T02:00:00Z,51.8,55.47,8.0,-2.0,0,2,,6.21,29.822834,,,,,,TRUE,,,,,SCT,4900,,,,,,,VFR,,,,,,,,,,,,METAR,90.0
UWLW 190200Z 30034MPS CAVOK 04/01 Q1009 R20/CLRD60 NOSIG RMK QFE751,UWLW,2021-10-19T02:00:00Z,54.4,48.8,4.0,1.0,300,66,,6.21,29.793306,,,,,,TRUE,,,,,CAVOK,,,,,,,,VFR,,,,,,,,,,,,SPECI,67.0
UWKS 190200Z 26004MPS 9999 SCT013 01/M00 Q1007 R24/190060 NOSIG RMK QFE741,UWKS,2021-10-19T02:00:00Z,56.08,47.35,1.0,0.0,260,8,,6.21,29.734253,,,,,,TRUE,,,,,SCT,1300,,,,,,,VFR,,,,,,,,,,,,METAR,165.0
UWKE 190200Z 27005MPS 9999 BKN026 06/01 Q1005 R21/090070 NOSIG RMK QFE737/0983,UWKE,2021-10-19T02:00:00Z,55.57,52.08,6.0,1.0,270,10,,6.21,29.675198,,,,,,TRUE,,,,,BKN,2600,,,,,,,MVFR,,,,,,,,,,,,SPECI,193.0
UWKD 190200Z 31007MPS 9999 BKN023 03/M02 Q1007 R29/70D NOSIG RMK QFE744/0992,UWKD,2021-10-19T02:00:00Z,55.62,49.28,3.0,-2.0,310,14,,6.21,29.734253,,,,,,TRUE,,,,,BKN,2300,,,,,,,MVFR,,,,,,,,,,,,METAR,114.0
UWGG 190200Z 22002MPS 9999 BKN010 01/00 Q1008 R18L/190060 NOSIG,UWGG,2021-10-19T02:00:00Z,56.23,43.78,1.0,0.0,220,4,,6.21,29.763779,,,,,,TRUE,,,,,BKN,1000,,,,,,,MVFR,,,,,,,,,,,,METAR,73.0
UUYY 190200Z 02004MPS 0900 R36/1800U +SN OVC003 00/00 Q0994 R36/550345 TEMPO 0500 +SN RMK QBB100 QFE737/0983,UUYY,2021-10-19T02:00:00Z,61.65,50.83,0.0,0.0,20,8,,0.56,29.350393,,,,,,,,,,+SN,OVC,300,,,,,,,LIFR,,,,,,,,,,,,METAR,107.0
UUWW 190200Z 28004MPS 9999 BKN008 03/00 Q1011 R24/290050 NOSIG,UUWW,2021-10-19T02:00:00Z,55.6,37.27,3.0,0.0,280,8,,6.21,29.852362,,,,,,TRUE,,,,,BKN,800,,,,,,,IFR,,,,,,,,,,,,METAR,195.0
UUOO 190200Z 28004MPS CAVOK 04/02 Q1014 R30/290150 NOSIG RMK QFE747,UUOO,2021-10-19T02:00:00Z,51.82,39.23,4.0,2.0,280,8,,6.21,29.940945,,,,,,TRUE,,,,,CAVOK,,,,,,,,VFR,,,,,,,,,,,,SPECI,154.0
UUOL 190200Z 27003MPS CAVOK 02/01 Q1013 R15/090060 NOSIG,UUOL,2021-10-19T02:00:00Z,52.7,39.53,2.0,1.0,270,6,,6.21,29.911417,,,,,,TRUE,,,,,CAVOK,,,,,,,,VFR,,,,,,,,,,,,METAR,176.0
UUOK 190200Z 31003MPS CAVOK 02/M00 Q1016 R30/CLRD65 NOSIG RMK QFE743/0991,UUOK,2021-10-19T02:00:00Z,51.75,36.28,2.0,0.0,310,6,,6.21,30.0,,,,,,TRUE,,,,,CAVOK,,,,,,,,VFR,,,,,,,,,,,,METAR,203.0
UUOB 190200Z 29004MPS 9000 NSC 03/02 Q1016 R29/010060 NOSIG,UUOB,2021-10-19T02:00:00Z,50.65,36.58,3.0,2.0,290,8,,5.59,30.0,,,,,,TRUE,,,,,CLR,,,,,,,,VFR,,,,,,,,,,,,METAR,218.0
UUMO 190200Z 28005MPS 9999 SCT012 03/02 Q1011 R25/090060 NOSIG RMK QFE743/0991,UUMO,2021-10-19T02:00:00Z,55.52,37.5,3.0,2.0,280,10,,6.21,29.852362,,,,,,TRUE,,,,,SCT,1200,,,,,,,VFR,,,,,,,,,,,,METAR,167.0
UUEE 190200Z 29006MPS 9999 SCT010 BKN025CB 03/01 Q1011 R88/290051 NOSIG,UUEE,2021-10-19T02:00:00Z,55.97,37.42,3.0,1.0,290,12,,6.21,29.852362,,,,,,TRUE,,,,,SCT,1000,BKN,2500,,,,,MVFR,,,,,,,,,,,,METAR,186.0
UUDL 190200Z 28004MPS 9999 OVC023 02/00 Q1008 R23/190055 NOSIG RMK QFE747,UUDL,2021-10-19T02:00:00Z,57.57,40.17,2.0,0.0,280,8,,6.21,29.763779,,,,,,TRUE,,,,,OVC,2300,,,,,,,MVFR,,,,,,,,,,,,METAR,88.0
UUDD 190200Z 29005MPS 9999 BKN013 03/00 Q1011 R32L/CLRD60 NOSIG,UUDD,2021-10-19T02:00:00Z,55.4,37.9,3.0,0.0,290,10,,6.21,29.852362,,,,,,TRUE,,,,,BKN,1300,,,,,,,MVFR,,,,,,,,,,,,METAR,165.0
UUBW 190200Z 27003MPS 9999 BKN016 03/02 Q1011 R30/290050 NOSIG,UUBW,2021-10-19T02:00:00Z,55.55,38.15,3.0,2.0,270,6,,6.21,29.852362,,,,,,TRUE,,,,,BKN,1600,,,,,,,MVFR,,,,,,,,,,,,METAR,111.0
UUBP 190200Z 28003MPS 9999 FEW020 00/M01 Q1016 R34/190060 NOSIG RMK QFE744/0993,UUBP,2021-10-19T02:00:00Z,53.22,34.18,0.0,-1.0,280,6,,6.21,30.0,,,,,,TRUE,,,,,FEW,2000,,,,,,,VFR,,,,,,,,,,,,SPECI,197.0
UUBC 190200Z AUTO 29004MPS 9999 // ///008/// 02/02 Q1013 RMK QFE742/0989,UUBC,2021-10-19T02:00:00Z,54.55,36.37,2.0,2.0,290,8,,6.21,29.911417,,,TRUE,,,,,,,,,,,,,,,,,,,,,,,,,,,,METAR,198.0
UTDT 190200Z 00000MPS 9999 NSC 07/02 Q1015 R35/////// RMK QFE722/0963,UTDT,2021-10-19T02:00:00Z,37.87,68.87,7.0,2.0,0,0,,6.21,29.970472,,,,,,,,,,,CLR,,,,,,,,VFR,,,,,,,,,,,,METAR,443.0
UTDL 190200Z 24002MPS 2600 BR NSC 06/04 Q1015 R08/CLRD70 NOSIG RMK QFE722/0963,UTDL,2021-10-19T02:00:00Z,40.22,69.7,6.0,4.0,240,4,,1.62,29.970472,,,,,,TRUE,,,,BR,CLR,,,,,,,,IFR,,,,,,,,,,,,SPECI,436.0
UTDK 190200Z 03004MPS 9999 NSC 11/M00 Q1017 R01/09//70 RMK QFE705/0940,UTDK,2021-10-19T02:00:00Z,37.98,69.8,11.0,0.0,30,8,,6.21,30.029528,,,,,,,,,,,CLR,,,,,,,,VFR,,,,,,,,,,,,METAR,675.0
UTDD 190200Z VRB02MPS 9000 NSC 11/M01 Q1017 R09/D NOSIG RMK QFE694/0926,UTDD,2021-10-19T02:00:00Z,38.53,68.82,11.0,-1.0,0,4,,5.59,30.029528,,,,,,TRUE,,,,,CLR,,,,,,,,VFR,,,,,,,,,,,,METAR,785.0
UTAV 190200Z 17006KT CAVOK 06/M06 Q1014 R31/CLRD70 NOSIG,UTAV,2021-10-19T02:00:00Z,39.08,63.62,6.0,-6.0,170,6,,6.21,29.940945,,,,,,TRUE,,,,,CAVOK,,,,,,,,VFR,,,,,,,,,,,,SPECI,187.0
UTAT 190200Z 06002KT CAVOK 04/M02 Q1013 R08/CLRD70 NOSIG,UTAT,2021-10-19T02:00:00Z,41.77,59.83,4.0,-2.0,60,2,,6.21,29.911417,,,,,,TRUE,,,,,CAVOK,,,,,,,,VFR,,,,,,,,,,,,SPECI,84.0
UTAM 190200Z 32004KT CAVOK 09/00 Q1014 R88/CLRD70 NOSIG,UTAM,2021-10-19T02:00:00Z,37.62,61.9,9.0,0.0,320,4,,6.21,29.940945,,,,,,TRUE,,,,,CAVOK,,,,,,,,VFR,,,,,,,,,,,,METAR,218.0
UTAK 190200Z 05004KT 5000BR FEW100 09/07 Q1013 R16R/CLRD70 NOSIG,UTAK,2021-10-19T02:00:00Z,40.05,53.0,9.0,7.0,50,4,,,29.911417,,,,,,TRUE,,,,BR,FEW,10000,,,,,,,,,,,,,,,,,,,SPECI,83.0
UTAA 190200Z 19004KT 9999 SCT100 15/04 Q1014 R88/CLRD70 NOSIG,UTAA,2021-10-19T02:00:00Z,37.98,58.37,15.0,4.0,190,4,,6.21,29.940945,,,,,,TRUE,,,,,SCT,10000,,,,,,,VFR,,,,,,,,,,,,SPECI,207.0
USTR 190200Z 18004MPS CAVOK 07/M01 Q1010 R21/CLRD65 R12/CLRD65 NOSIG,USTR,2021-10-19T02:00:00Z,57.18,65.32,7.0,-1.0,180,8,,6.21,29.822834,,,,,,TRUE,,,,,CAVOK,,,,,,,,VFR,,,,,,,,,,,,SPECI,93.0
USSS 190200Z 16002MPS 130V190 9999 FEW048 07/01 Q1007 R26L/220060 R26R/290035 NOSIG RMK QFE735/0980,USSS,2021-10-19T02:00:00Z,56.75,60.78,7.0,1.0,160,4,,6.21,29.734253,,,,,,TRUE,,,,,FEW,4800,,,,,,,VFR,,,,,,,,,,,,SPECI,222.0
USRR 190200Z 22003MPS CAVOK 04/02 Q1012 R25/CLRD60 NOSIG RMK QFE753,USRR,2021-10-19T02:00:00Z,61.33,73.42,4.0,2.0,220,6,,6.21,29.88189,,,,,,TRUE,,,,,CAVOK,,,,,,,,VFR,,,,,,,,,,,,SPECI,52.0
USPP 190200Z 24005MPS 210V270 5000 -DZ BR OVC006 07/06 Q1002 R21/290150 NOSIG RMK QBB200 QFE741,USPP,2021-10-19T02:00:00Z,57.92,56.02,7.0,6.0,240,10,,3.11,29.586615,,,,,,TRUE,,,,-DZ BR,OVC,600,,,,,,,IFR,,,,,,,,,,,,SPECI,120.0
USNN 190200Z 22003MPS CAVOK 05/03 Q1013 R21/19//61 NOSIG RMK QFE755,USNN,2021-10-19T02:00:00Z,60.95,76.48,5.0,3.0,220,6,,6.21,29.911417,,,,,,TRUE,,,,,CAVOK,,,,,,,,VFR,,,,,,,,,,,,SPECI,52.0
USHH 190200Z 17003MPS 0350 0300NE R24/0550N FG VV001 02/02 Q1009 R24/010060 TEMPO 0100 FG OVC001 RMK QBB050,USHH,2021-10-19T02:00:00Z,61.03,69.08,2.0,2.0,170,6,,0.22,29.793306,,,,,,,,,,FG,OVX,0,,,,,,,LIFR,,,,,,,,,,,100,METAR,46.0
USCM 190200Z 15003MPS 9999 SCT040 03/M04 Q1010 R18/090060 NOSIG RMK QFE720,USCM,2021-10-19T02:00:00Z,53.4,58.75,3.0,-4.0,150,6,,6.21,29.822834,,,,,,TRUE,,,,,SCT,4000,,,,,,,VFR,,,,,,,,,,,,METAR,425.0
USCC 190200Z 16003MPS CAVOK 07/M02 Q1010 R27/000060 NOSIG RMK QFE737,USCC,2021-10-19T02:00:00Z,55.3,61.5,7.0,-2.0,160,6,,6.21,29.822834,,,,,,TRUE,,,,,CAVOK,,,,,,,,VFR,,,,,,,,,,,,SPECI,227.0
URWW 190200Z 24002MPS CAVOK 03/01 Q1014 R24/010070 TEMPO 0300 FG OVC002,URWW,2021-10-19T02:00:00Z,48.78,44.33,3.0,1.0,240,4,,6.21,29.940945,,,,,,,,,,,CAVOK,,,,,,,,VFR,,,,,,,,,,,,SPECI,131.0
URWI 190200Z AUTO 27004MPS 9999 // ///////// 07/03 Q1015,URWI,2021-10-19T02:00:00Z,46.37,44.33,7.0,3.0,270,8,,6.21,29.970472,,,TRUE,,,,,,,,,,,,,,,,,,,,,,,,,,,,SPECI,145.0
URWA 190200Z 29003MPS CAVOK 08/05 Q1014 R27/010070 NOSIG RMK QFE762/1017,URWA,2021-10-19T02:00:00Z,46.28,47.98,8.0,5.0,290,6,,6.21,29.940945,,,,,,TRUE,,,,,CAVOK,,,,,,,,VFR,,,,,,,,,,,,SPECI,-19.0
URSS 190200Z 02002MPS 9999 SCT040CB OVC110 12/12 Q1019 R02/290060 R06/290063 NOSIG RMK R06/00000MPS MT OBSC QFE763,URSS,2021-10-19T02:00:00Z,43.45,39.92,12.0,12.0,20,4,,6.21,30.088583,,,,,,TRUE,,,,,SCT,4000,OVC,11000,,,,,VFR,,,,,,,,,,,,METAR,4.0
URRP 190200Z 29003MPS CAVOK 07/02 Q1017 R23/CLRD70 NOSIG RMK QFE755/1006,URRP,2021-10-19T02:00:00Z,47.5,39.92,7.0,2.0,290,6,,6.21,30.029528,,,,,,TRUE,,,,,CAVOK,,,,,,,,VFR,,,,,,,,,,,,METAR,73.0
URMT 190200Z 29004MPS CAVOK 08/05 Q1018 R25/010070 NOSIG RMK QFE724,URMT,2021-10-19T02:00:00Z,45.12,42.12,8.0,5.0,290,8,,6.21,30.059055,,,,,,TRUE,,,,,CAVOK,,,,,,,,VFR,,,,,,,,,,,,SPECI,448.0
URMO 190200Z AUTO 19003MPS 9999 -DZ ///062/// 11/10 Q1018 RMK QFE720/0960,URMO,2021-10-19T02:00:00Z,43.2,44.6,11.0,10.0,190,6,,6.21,30.059055,,,TRUE,,,,,,,-DZ,,,,,,,,,,,,,,,,,,,,,METAR,505.0
URMN 190200Z 17002MPS 9999 OVC028CB 11/09 Q1017 R24/////// NOSIG RMK QFE726,URMN,2021-10-19T02:00:00Z,43.52,43.63,11.0,9.0,170,4,,6.21,30.029528,,,,,,TRUE,,,,,OVC,2800,,,,,,,MVFR,,,,,,,,,,,,SPECI,424.0
URMM 190200Z 28004MPS 9999 NSC 10/06 Q1018 R30/090070 NOSIG RMK QFE735/0980,URMM,2021-10-19T02:00:00Z,44.22,43.07,10.0,6.0,280,8,,6.21,30.059055,,,,,,TRUE,,,,,CLR,,,,,,,,VFR,,,,,,,,,,,,METAR,318.0
URML 190200Z 35004MPS 9000 SCT051CB 16/13 Q1016 R32/290060 NOSIG RMK QFE762/1016,URML,2021-10-19T02:00:00Z,42.82,47.65,16.0,13.0,350,8,,5.59,30.0,,,,,,TRUE,,,,,SCT,5100,,,,,,,VFR,,,,,,,,,,,,SPECI,4.0
URMG 190200Z 29004MPS 9999 BKN/// OVC069 13/12 Q1017 R26/290250 NOSIG RMK QFE748/0998,URMG,2021-10-19T02:00:00Z,43.38,45.7,13.0,12.0,290,8,,6.21,30.029528,,,,,,TRUE,,,,,OVC,6900,,,,,,,VFR,,,,,,,,,,,,METAR,160.0
URKK 190200Z 23002MPS 8000 NSC 06/06 Q1020 R23L/CLRD70 TEMPO 0500 FG SCT002 RMK QFE762,URKK,2021-10-19T02:00:00Z,45.03,39.15,6.0,6.0,230,4,,4.97,30.11811,,,,,,,,,,,CLR,,,,,,,,MVFR,,,,,,,,,,,,SPECI,29.0
URKA 190200Z AUTO 00000MPS 9999 // NCD 08/06 Q1021 RMK QFE762/1016,URKA,2021-10-19T02:00:00Z,45.0,37.35,8.0,6.0,0,0,,6.21,30.147638,,,TRUE,,,,,,,,CLR,,,,,,,,VFR,,,,,,,,,,,,METAR,41.0
URFF 190200Z 17003MPS 9999 BKN056 05/02 Q1023 R19/090095 NOSIG,URFF,2021-10-19T02:00:00Z,45.03,33.98,5.0,2.0,170,6,,6.21,30.206694,,,,,,TRUE,,,,,BKN,5600,,,,,,,VFR,,,,,,,,,,,,METAR,190.0
UOOO 190200Z 21006MPS 4400 -SHSN BR SCT002 BKN018CB 00/00 Q0999 R19/690245 NOSIG RMK QFE733/0978,UOOO,2021-10-19T02:00:00Z,69.32,87.33,0.0,0.0,210,12,,2.73,29.498032,,,,,,TRUE,,,,-SHSN BR,SCT,200,BKN,1800,,,,,IFR,,,,,,,,,,,,SPECI,177.0
UNTT 190200Z 19004MPS CAVOK 02/M01 Q1024 R21/090060 NOSIG RMK QFE753,UNTT,2021-10-19T02:00:00Z,56.38,85.22,2.0,-1.0,190,8,,6.21,30.236221,,,,,,TRUE,,,,,CAVOK,,,,,,,,VFR,,,,,,,,,,,,METAR,179.0
UNOO 190200Z 16002MPS CAVOK 03/M01 Q1021 R25/CLRD60 NOSIG RMK QFE757,UNOO,2021-10-19T02:00:00Z,54.97,73.32,3.0,-1.0,160,4,,6.21,30.147638,,,,,,TRUE,,,,,CAVOK,,,,,,,,VFR,,,,,,,,,,,,SPECI,85.0
UNNT 190200Z 16003MPS CAVOK 02/M00 Q1026 R25/090070 R16/////// NOSIG RMK QFE759/1012,UNNT,2021-10-19T02:00:00Z,55.02,82.65,2.0,0.0,160,6,,6.21,30.295275,,,,,,TRUE,,,,,CAVOK,,,,,,,,VFR,,,,,,,,,,,,SPECI,106.0
UNKL 190200Z VRB02MPS CAVOK 06/M01 Q1026 R29/CLRD65 NOSIG RMK QFE743,UNKL,2021-10-19T02:00:00Z,56.17,92.48,6.0,-1.0,0,4,,6.21,30.295275,,,,,,TRUE,,,,,CAVOK,,,,,,,,VFR,,,,,,,,,,,,SPECI,278.0
UNEE 190200Z 14003MPS 9000 NSC M01/M02 Q1026 R23/CLRD60 NOSIG RMK QFE746,UNEE,2021-10-19T02:00:00Z,55.27,86.1,-1.0,-2.0,140,6,,5.59,30.295275,,,,,,TRUE,,,,,CLR,,,,,,,,VFR,,,,,,,,,,,,SPECI,261.0
UNBB 190200Z 17003MPS CAVOK 02/M02 Q1027 R24/CLRD66 NOSIG RMK QFE747,UNBB,2021-10-19T02:00:00Z,53.37,83.53,2.0,-2.0,170,6,,6.21,30.324802,,,,,,TRUE,,,,,CAVOK,,,,,,,,VFR,,,,,,,,,,,,SPECI,249.0
UNAA 190200Z 00000MPS 0650 0150N R02/2000N FZFG BKN008 M05/M06 Q1029 R02/CLRD65 NOSIG RMK QFE749,UNAA,2021-10-19T02:00:00Z,53.75,91.4,-5.0,-6.0,0,0,,0.4,30.383858,,,,,,TRUE,,,,FZFG,BKN,800,,,,,,,LIFR,,,,,,,,,,,,SPECI,249.0
UMMS 190200Z 30003MPS CAVOK M01/M02 Q1021 R31R/CLRD// R31L/////// NOSIG,UMMS,2021-10-19T02:00:00Z,53.88,28.03,-1.0,-2.0,300,6,,6.21,30.147638,,,,,,TRUE,,,,,CAVOK,,,,,,,,VFR,,,,,,,,,,,,METAR,196.0
UMKK 190200Z 20001MPS CAVOK M00/M01 Q1024 R24/CLRD95 NOSIG RMK QFE767/1022,UMKK,2021-10-19T02:00:00Z,54.88,20.57,0.0,-1.0,200,2,,6.21,30.236221,,,,,,TRUE,,,,,CAVOK,,,,,,,,VFR,,,,,,,,,,,,SPECI,6.0
UMIO 190200Z 34003MPS 9999 OVC013 03/00 Q1018 R05/////// NOSIG RMK QFE746/0995,UMIO,2021-10-19T02:00:00Z,,,3.0,0.0,340,6,,6.21,30.059055,,,,,,TRUE,,,,,OVC,1300,,,,,,,MVFR,,,,,,,,,,,,METAR,
UMGG 190200Z 26004MPS CAVOK 00/M02 Q1020 R28/CLRD// NOSIG,UMGG,2021-10-19T02:00:00Z,52.53,31.02,0.0,-2.0,260,8,,6.21,30.11811,,,,,,TRUE,,,,,CAVOK,,,,,,,,VFR,,,,,,,,,,,,SPECI,135.0
ULPB 190200Z AUTO 31004MPS 270V330 9999 // ///020/// 02/M01 Q1010 RMK QFE753/1004,ULPB,2021-10-19T02:00:00Z,61.88,34.15,2.0,-1.0,310,8,,6.21,29.822834,,,TRUE,,,,,,,,,,,,,,,,,,,,,,,,,,,,METAR,41.0
ULOO 190200Z 27002MPS 220V320 9999 SCT019 02/00 Q1017 R01/290050 NOSIG RMK QFE758,ULOO,2021-10-19T02:00:00Z,57.78,28.4,2.0,0.0,270,4,,6.21,30.029528,,,,,,TRUE,,,,,SCT,1900,,,,,,,VFR,,,,,,,,,,,,SPECI,46.0
ULMM 190200Z 31005MPS 9999 SCT017CB M01/M02 Q1010 R31/690150 NOSIG RMK QFE750,ULMM,2021-10-19T02:00:00Z,68.78,32.75,-1.0,-2.0,310,10,,6.21,29.822834,,,,,,TRUE,,,,,SCT,1700,,,,,,,VFR,,,,,,,,,,,,SPECI,79.0
ULLI 190200Z 31006MPS 9999 -SHRA SCT011 BKN023CB OVC046 04/01 Q1013 R28L/290050 TEMPO 1000 SHRASN BKN007 BKN016CB,ULLI,2021-10-19T02:00:00Z,59.8,30.27,4.0,1.0,310,12,,6.21,29.911417,,,,,,,,,,-SHRA,SCT,1100,BKN,2300,OVC,4600,,,MVFR,,,,,,,,,,,,METAR,25.0
ULAA 190200Z 30001MPS 9999 BKN022CB 01/01 Q1000 R26/290060 NOSIG RMK QFE749/0998,ULAA,2021-10-19T02:00:00Z,64.6,40.72,1.0,1.0,300,2,,6.21,29.52756,,,,,,TRUE,,,,,BKN,2200,,,,,,,MVFR,,,,,,,,,,,,SPECI,10.0
UKOO 190200Z 30002MPS 270V330 CAVOK 07/03 Q1024 R34/090095 NOSIG,UKOO,2021-10-19T02:00:00Z,46.42,30.68,7.0,3.0,300,4,,6.21,30.236221,,,,,,TRUE,,,,,CAVOK,,,,,,,,VFR,,,,,,,,,,,,SPECI,52.0
UKON 190200Z 31003MPS 280V350 CAVOK 08/04 Q1022 NOSIG,UKON,2021-10-19T02:00:00Z,47.05,31.92,8.0,4.0,310,6,,6.21,30.177166,,,,,,TRUE,,,,,CAVOK,,,,,,,,VFR,,,,,,,,,,,,METAR,48.0
UKLU 190200Z 00000MPS 9999 NSC 05/05 Q1028 NOSIG,UKLU,2021-10-19T02:00:00Z,48.63,22.27,5.0,5.0,0,0,,6.21,30.35433,,,,,,TRUE,,,,,CLR,,,,,,,,VFR,,,,,,,,,,,,METAR,111.0
UKLL 190200Z 25002MPS 220V280 2900 -SHRA BR BKN003 BKN020CB 08/07 Q1025 R31/290055 NOSIG,UKLL,2021-10-19T02:00:00Z,49.82,23.95,8.0,7.0,250,4,,1.8,30.265747,,,,,,TRUE,,,,-SHRA BR,BKN,300,BKN,2000,,,,,LIFR,,,,,,,,,,,,SPECI,316.0
UKKM 190200Z AUTO 29004MPS 9999 // ///043/// 02/01 Q1022,UKKM,2021-10-19T02:00:00Z,50.6,30.2,2.0,1.0,290,8,,6.21,30.177166,,,TRUE,,,,,,,,,,,,,,,,,,,,,,,,,,,,SPECI,156.0
UKKK 190200Z 29003MPS CAVOK 03/03 Q1022 R26/CLRD70 NOSIG,UKKK,2021-10-19T02:00:00Z,50.4,30.45,3.0,3.0,290,6,,6.21,30.177166,,,,,,TRUE,,,,,CAVOK,,,,,,,,VFR,,,,,,,,,,,,SPECI,175.0
UKHH 190200Z 32004MPS CAVOK 06/02 Q1017 R25/0///81 NOSIG,UKHH,2021-10-19T02:00:00Z,49.92,36.28,6.0,2.0,320,8,,6.21,30.029528,,,,,,TRUE,,,,,CAVOK,,,,,,,,VFR,,,,,,,,,,,,SPECI,149.0
UKDR 190200Z 28002MPS CAVOK 06/02 Q1020 R36/09//70 NOSIG,UKDR,2021-10-19T02:00:00Z,48.05,33.22,6.0,2.0,280,4,,6.21,30.11811,,,,,,TRUE,,,,,CAVOK,,,,,,,,VFR,,,,,,,,,,,,SPECI,119.0
UKDE 190200Z 26002MPS CAVOK 05/01 Q1019 R20/090070 NOSIG,UKDE,2021-10-19T02:00:00Z,47.87,35.32,5.0,1.0,260,4,,6.21,30.088583,,,,,,TRUE,,,,,CAVOK,,,,,,,,VFR,,,,,,,,,,,,SPECI,106.0
UKDD 190200Z 27004MPS CAVOK 04/02 Q1018 R26/090070 NOSIG,UKDD,2021-10-19T02:00:00Z,48.37,35.1,4.0,2.0,270,8,,6.21,30.059055,,,,,,TRUE,,,,,CAVOK,,,,,,,,VFR,,,,,,,,,,,,SPECI,147.0
UKBB 190200Z 31003MPS 9999 FEW040 01/01 Q1021 R88/CLRD// NOSIG,UKBB,2021-10-19T02:00:00Z,50.33,30.9,1.0,1.0,310,6,,6.21,30.147638,,,,,,TRUE,,,,,FEW,4000,,,,,,,VFR,,,,,,,,,,,,SPECI,125.0
UIUU 190200Z 00000MPS 7000 NSC M02/M06 Q1027 R26/60D NOSIG RMK QFE725/0967,UIUU,2021-10-19T02:00:00Z,51.8,107.45,-2.0,-6.0,0,0,,4.35,30.324802,,,,,,TRUE,,,,,CLR,,,,,,,,MVFR,,,,,,,,,,,,METAR,508.0
UIII 190200Z 00000MPS 9999 BKN002 M02/M02 Q1027 R12/CLRD60 NOSIG RMK QBB070 QFE727/0970,UIII,2021-10-19T02:00:00Z,52.27,104.37,-2.0,-2.0,0,0,,6.21,30.324802,,,,,,TRUE,,,,,BKN,200,,,,,,,LIFR,,,,,,,,,,,,SPECI,480.0
UIBB 190200Z 26003MPS 9999 NSC 01/M02 Q1023 R30/CLRD60 NOSIG RMK QFE724/0966,UIBB,2021-10-19T02:00:00Z,56.37,101.7,1.0,-2.0,260,6,,6.21,30.206694,,,,,,TRUE,,,,,CLR,,,,,,,,VFR,,,,,,,,,,,,SPECI,485.0
UIAA 190200Z 21002MPS 9999 NSC M02/M06 Q1024 R29/70D NOSIG RMK QFE709/0945,UIAA,2021-10-19T02:00:00Z,52.02,113.32,-2.0,-6.0,210,4,,6.21,30.236221,,,,,,TRUE,,,,,CLR,,,,,,,,VFR,,,,,,,,,,,,METAR,650.0
UHWW 190200Z 03009MPS 9999 SCT043 04/M09 Q1023 R07R/0///70 NOSIG RMK QFE767,UHWW,2021-10-19T02:00:00Z,43.4,132.15,4.0,-9.0,30,17,,6.21,30.206694,,,,,,TRUE,,,,,SCT,4300,,,,,,,VFR,,,,,,,,,,,,METAR,11.0
UHSS 190200Z 35008MPS 9999 -SHRA SCT005 BKN016CB 01/M00 Q1018 R01/250555 NOSIG RMK MT OBSC QFE762/1016,UHSS,2021-10-19T02:00:00Z,46.88,142.72,1.0,0.0,350,16,,6.21,30.059055,,,,,,TRUE,,,,-SHRA,SCT,500,BKN,1600,,,,,MVFR,,,,,,,,,,,,METAR,14.0
UHPP 190200Z 31009MPS 9999 -SHRA BKN033CB BKN073 03/M04 Q1012 R34L/CLRD70 NOSIG RMK MT OBSC QFE756/1008,UHPP,2021-10-19T02:00:00Z,53.17,158.45,3.0,-4.0,310,17,,6.21,29.88189,,,,,,TRUE,,,,-SHRA,BKN,3300,BKN,7300,,,,,VFR,,,,,,,,,,,,METAR,33.0
UHMM 190200Z 01004G09MPS 320V060 9999 BKN053 M07/M22 Q1003 R10/70D NOSIG RMK QFE738 R28/04004G09MPS 360V080,UHMM,2021-10-19T02:00:00Z,59.92,150.72,-7.0,-22.0,10,8,17,6.21,29.616142,,,,,,TRUE,,,,,BKN,5300,,,,,,,VFR,,,,,,,,,,,,METAR,175.0
UHMD 190200Z 08009G14MPS 1000 SN VV002 M01/M03 Q0989 RMK QBB070 MT OBSC QFE741/0988,UHMD,2021-10-19T02:00:00Z,64.38,-173.23,-1.0,-3.0,80,17,27,0.62,29.202755,,,,,,,,,,SN,OVX,0,,,,,,,LIFR,,,,,,,,,,,200,SPECI,40.0
UHMA 190200Z 09016MPS 5000 2000N BLSN FEW003 SCT012 01/M01 Q0977 R01/690345 NOSIG RMK TDZ R01/09016G20MPS END R01/09021G25MPS QFE729/0972,UHMA,2021-10-19T02:00:00Z,64.73,177.73,1.0,-1.0,90,31,,3.11,28.848425,,,,,,TRUE,,,,BLSN,FEW,300,SCT,1200,,,,,MVFR,,,,,,,,,,,,METAR,53.0
UHHH 190200Z 25006MPS CAVOK 01/M13 Q1022 R23R/090060 NOSIG RMK QFE760/1014,UHHH,2021-10-19T02:00:00Z,48.52,135.18,1.0,-13.0,250,12,,6.21,30.177166,,,,,,TRUE,,,,,CAVOK,,,,,,,,VFR,,,,,,,,,,,,METAR,74.0
UHBB 190200Z 27006MPS 9999 FEW033 02/M12 Q1022 R36/090060 TEMPO 29007MPS RMK QFE749/0998,UHBB,2021-10-19T02:00:00Z,50.43,127.42,2.0,-12.0,270,12,,6.21,30.177166,,,,,,,,,,,FEW,3300,,,,,,,VFR,,,,,,,,,,,,METAR,185.0
UGTB 190200Z 32012KT CAVOK 13/08 Q1018 NOSIG,UGTB,2021-10-19T02:00:00Z,41.67,44.95,13.0,8.0,320,12,,6.21,30.059055,,,,,,TRUE,,,,,CAVOK,,,,,,,,VFR,,,,,,,,,,,,METAR,468.0
UGSB 190200Z AUTO 16005KT 4300 RA OVC026 14/13 Q1021 R13/////// NOSIG,UGSB,2021-10-19T02:00:00Z,41.62,41.6,14.0,13.0,160,5,,2.67,30.147638,,,TRUE,,,TRUE,,,,RA,OVC,2600,,,,,,,IFR,,,,,,,,,,,,METAR,32.0
UGMS 190200Z AUTO VRB01KT //// ////// 06/06 Q1021,UGMS,2021-10-19T02:00:00Z,43.05,42.75,6.0,6.0,0,1,,,30.147638,,,TRUE,,,,,,,,,,,,,,,,,,,,,,,,,,,,METAR,1442.0
UGKO 190200Z 22004KT 5000 -SHRA SCT015CB OVC037 14/13 Q1019 R07/29//50 NOSIG,UGKO,2021-10-19T02:00:00Z,42.18,42.48,14.0,13.0,220,4,,3.11,30.088583,,,,,,TRUE,,,,-SHRA,SCT,1500,OVC,3700,,,,,MVFR,,,,,,,,,,,,METAR,44.0
UGAM 190200Z AUTO 28002KT //// ////// 11/11 Q1019,UGAM,2021-10-19T02:00:00Z,42.53,43.13,11.0,11.0,280,2,,,30.088583,,,TRUE,,,,,,,,,,,,,,,,,,,,,,,,,,,,METAR,544.0
UERR 190200Z 26007MPS 9999 -SHSN SCT010 OVC025CB 01/M01 Q1013 R25/690542 NOSIG RMK QFE728/0971,UERR,2021-10-19T02:00:00Z,62.53,114.05,1.0,-1.0,260,14,,6.21,29.911417,,,,,,TRUE,,,,-SHSN,SCT,1000,OVC,2500,,,,,MVFR,,,,,,,,,,,,SPECI,352.0
UERP 190200Z 26004MPS 9999 BKN016CB OVC100 01/M00 Q1005 R35/592029 NOSIG RMK QFE709,UERP,2021-10-19T02:00:00Z,66.4,112.03,1.0,0.0,260,8,,6.21,29.675198,,,,,,TRUE,,,,,BKN,1600,OVC,10000,,,,,MVFR,,,,,,,,,,,,SPECI,514.0
UEEE 190200Z 06002MPS CAVOK M09/M13 Q1012 R23L/42//60 NOSIG RMK QFE750,UEEE,2021-10-19T02:00:00Z,62.08,129.77,-9.0,-13.0,60,4,,6.21,29.88189,,,,,,TRUE,,,,,CAVOK,,,,,,,,VFR,,,,,,,,,,,,METAR,106.0
UDYZ 190200Z 04002KT 9999 FEW046 08/06 Q1018 R09/190065 NOSIG,UDYZ,2021-10-19T02:00:00Z,40.15,44.4,8.0,6.0,40,2,,6.21,30.059055,,,,,,TRUE,,,,,FEW,4600,,,,,,,VFR,,,,,,,,,,,,SPECI,851.0
UDSG 190200Z 06001KT 8000 BKN040 06/05 Q1019 RMK R02/29//55 NOSIG,UDSG,2021-10-19T02:00:00Z,40.75,43.87,6.0,5.0,60,1,,4.97,30.088583,,,,,,,,,,,BKN,4000,,,,,,,MVFR,,,,,,,,,,,,METAR,1515.0
UCFO 190200Z 19003MPS 3400 FU NSC 08/04 Q1015 R12/0///95 NOSIG,UCFO,2021-10-19T02:00:00Z,40.6,72.8,8.0,4.0,190,6,,2.11,29.970472,,,,,,TRUE,,,,FU,CLR,,,,,,,,IFR,,,,,,,,,,,,METAR,881.0
UCFM 190200Z 15002MPS 2200 1300E R08/P1500D BR FU NSC 04/03 Q1015 R08/0///95 TEMPO 1200 BR FU,UCFM,2021-10-19T02:00:00Z,43.07,74.48,4.0,3.0,150,4,,1.37,29.970472,,,,,,,,,,FU BR,CLR,,,,,,,,IFR,,,,,,,,,,,,METAR,632.0
UCFL 190200Z 36004MPS 9999 SCT030CB BKN130 06/M00 Q1019 R07/CLRD95,UCFL,2021-10-19T02:00:00Z,42.58,76.7,6.0,0.0,360,8,,6.21,30.088583,,,,,,,,,,,SCT,3000,BKN,13000,,,,,VFR,,,,,,,,,,,,METAR,1654.0
UBBY 190200Z 07004KT 9999 BKN100 13/11 Q1019 R33/CLRD// NOSIG RMK MT OP,UBBY,2021-10-19T02:00:00Z,41.57,46.67,13.0,11.0,70,4,,6.21,30.088583,,,,,,TRUE,,,,,BKN,10000,,,,,,,VFR,,,,,,,,,,,,METAR,383.0
UBBQ 190200Z 00000KT 9999 BKN019 OVC100 15/13 Q1016 R34/////// NOSIG RMK MT OBSC,UBBQ,2021-10-19T02:00:00Z,40.82,47.72,15.0,13.0,0,0,,6.21,30.0,,,,,,TRUE,,,,,BKN,1900,OVC,10000,,,,,MVFR,,,,,,,,,,,,METAR,339.0
UBBN 190200Z 01004KT 9999 FEW046 SCT100 09/07 Q1017 R88/CLRD// NOSIG RMK MT OP QFE688,UBBN,2021-10-19T02:00:00Z,39.18,45.45,9.0,7.0,10,4,,6.21,30.029528,,,,,,TRUE,,,,,FEW,4600,SCT,10000,,,,,VFR,,,,,,,,,,,,SPECI,857.0
UBBL 190200Z VRB02KT 2200 BR BKN041 16/16 Q1016 R33/CLRD// NOSIG RMK MT OP,UBBL,2021-10-19T02:00:00Z,38.75,48.82,16.0,16.0,0,2,,1.37,30.0,,,,,,TRUE,,,,BR,BKN,4100,,,,,,,IFR,,,,,,,,,,,,METAR,-11.0
UBBG 190200Z 28010KT 9999 FEW033CB BKN083 16/09 Q1017 R30/CLRD// NOSIG,UBBG,2021-10-19T02:00:00Z,40.73,46.32,16.0,9.0,280,10,,6.21,30.029528,,,,,,TRUE,,,,,FEW,3300,BKN,8300,,,,,VFR,,,,,,,,,,,,SPECI,333.0
UBBF 190200Z AUTO 31004KT 9999 // ///048/// 14/13 Q1016,UBBF,2021-10-19T02:00:00Z,,,14.0,13.0,310,4,,6.21,30.0,,,TRUE,,,,,,,,,,,,,,,,,,,,,,,,,,,,METAR,
UBBB 190200Z 33010KT CAVOK 16/14 Q1015 R88/CLRD// NOSIG,UBBB,2021-10-19T02:00:00Z,40.47,50.07,16.0,14.0,330,10,,6.21,29.970472,,,,,,TRUE,,,,,CAVOK,,,,,,,,VFR,,,,,,,,,,,,SPECI,94.0
UAUU 190200Z 13004MPS CAVOK 00/M06 Q1016 R15/CLRD70 NOSIG RMK QFE745/0994,UAUU,2021-10-19T02:00:00Z,53.2,63.55,0.0,-6.0,130,8,,6.21,30.0,,,,,,TRUE,,,,,CAVOK,,,,,,,,VFR,,,,,,,,,,,,SPECI,177.0
UATT 190200Z 13003MPS CAVOK 01/M08 Q1012 R12/70D NOSIG RMK QFE740/0986,UATT,2021-10-19T02:00:00Z,50.25,57.2,1.0,-8.0,130,6,,6.21,29.88189,,,,,,TRUE,,,,,CAVOK,,,,,,,,VFR,,,,,,,,,,,,SPECI,217.0
UATG 190200Z 18002MPS 0400 R14/1100 FG VV001 10/10 Q1011 R14/CLRD70 NOSIG RMK QBB030 QFE760/1013,UATG,2021-10-19T02:00:00Z,47.12,51.83,10.0,10.0,180,4,,0.25,29.852362,,,,,,TRUE,,,,FG,OVX,0,,,,,,,LIFR,,,,,,,,,,,100,SPECI,-23.0
UATE 190200Z 28005MPS 8000 OVC003 14/13 Q1014 R30/0///70 NOSIG RMK QBB090 QFE759/1012,UATE,2021-10-19T02:00:00Z,43.87,51.1,14.0,13.0,280,10,,4.97,29.940945,,,,,,TRUE,,,,,OVC,300,,,,,,,LIFR,,,,,,,,,,,,METAR,21.0
UASP 190200Z 16003MPS CAVOK M01/M02 Q1024 R21/0///70 NOSIG RMK QFE757/1009,UASP,2021-10-19T02:00:00Z,52.2,77.07,-1.0,-2.0,160,6,,6.21,30.236221,,,,,,TRUE,,,,,CAVOK,,,,,,,,VFR,,,,,,,,,,,,SPECI,122.0
UASK 190200Z VRB01MPS 0200 R12/0300 FZFG VV002 M02/M02 Q1025 R12/090060 NOSIG RMK QBB070 QFE743/0991,UASK,2021-10-19T02:00:00Z,50.03,82.5,-2.0,-2.0,0,2,,0.12,30.265747,,,,,,TRUE,,,,FZFG,OVX,0,,,,,,,LIFR,,,,,,,,,,,200,METAR,285.0
UARR 190200Z 31003MPS 9999 BKN040CB 08/06 Q1009 R22/290160 NOSIG RMK QFE753/1004,UARR,2021-10-19T02:00:00Z,51.15,51.53,8.0,6.0,310,6,,6.21,29.793306,,,,,,TRUE,,,,,BKN,4000,,,,,,,VFR,,,,,,,,,,,,SPECI,33.0
UAOO 190200Z 11003MPS CAVOK M01/M08 Q1014 R05/CLRD70 NOSIG RMK QFE749/0998,UAOO,2021-10-19T02:00:00Z,44.7,65.6,-1.0,-8.0,110,6,,6.21,29.940945,,,,,,TRUE,,,,,CAVOK,,,,,,,,VFR,,,,,,,,,,,,SPECI,130.0
UAKK 190200Z 08003MPS CAVOK M07/M08 Q1022 R23/0///70 NOSIG RMK QFE719/0959,UAKK,2021-10-19T02:00:00Z,49.68,73.35,-7.0,-8.0,80,6,,6.21,30.177166,,,,,,TRUE,,,,,CAVOK,,,,,,,,VFR,,,,,,,,,,,,SPECI,532.0
UAIT 190200Z 23002MPS CAVOK 04/M05 Q1014 R05/0///70 NOSIG RMK QFE736/0981,UAIT,2021-10-19T02:00:00Z,,,4.0,-5.0,230,4,,6.21,29.940945,,,,,,TRUE,,,,,CAVOK,,,,,,,,VFR,,,,,,,,,,,,METAR,
UAII 190200Z 15004MPS 6000 NSC 08/M02 Q1015 R28/0///70 NOSIG RMK QFE724/0965,UAII,2021-10-19T02:00:00Z,42.37,69.48,8.0,-2.0,150,8,,3.73,29.970472,,,,,,TRUE,,,,,CLR,,,,,,,,MVFR,,,,,,,,,,,,SPECI,410.0
UADD 190200Z 20005MPS 9999 NSC 06/M00 Q1014 R13/0///65 NOSIG RMK QFE704/0939,UADD,2021-10-19T02:00:00Z,42.85,71.3,6.0,0.0,200,10,,6.21,29.940945,,,,,,TRUE,,,,,CLR,,,,,,,,VFR,,,,,,,,,,,,SPECI,663.0
UACP 190200Z 18005MPS CAVOK 07/M01 Q1018 R23/0/0060 NOSIG RMK QFE751/1001,UACP,2021-10-19T02:00:00Z,54.78,69.18,7.0,-1.0,180,10,,6.21,30.059055,,,,,,TRUE,,,,,CAVOK,,,,,,,,VFR,,,,,,,,,,,,SPECI,134.0
UACK 190200Z 16003MPS CAVOK 02/M02 Q1020 R20/090060 NOSIG RMK QFE741/0989,UACK,2021-10-19T02:00:00Z,53.32,69.58,2.0,-2.0,160,6,,6.21,30.11811,,,,,,TRUE,,,,,CAVOK,,,,,,,,VFR,,,,,,,,,,,,SPECI,261.0
UACC 190200Z 06003MPS 9000 NSC M04/M06 Q1022 R04/0///70 NOSIG RMK QFE735/0980,UACC,2021-10-19T02:00:00Z,51.02,71.47,-4.0,-6.0,60,6,,5.59,30.177166,,,,,,TRUE,,,,,CLR,,,,,,,,VFR,,,,,,,,,,,,METAR,354.0
UAAH 190200Z 05007MPS CAVOK 02/M04 Q1019 R05/0///60 NOSIG RMK QFE727/0969,UAAH,2021-10-19T02:00:00Z,46.9,75.0,2.0,-4.0,50,14,,6.21,30.088583,,,,,,TRUE,,,,,CAVOK,,,,,,,,VFR,,,,,,,,,,,,SPECI,427.0
UAAA 190200Z 00000MPS 5000 BR FU SCT100 BKN200 04/01 Q1016 R05R/CLRD65 NOSIG,UAAA,2021-10-19T02:00:00Z,43.35,77.03,4.0,1.0,0,0,,3.11,30.0,,,,,,TRUE,,,,BR FU,SCT,10000,BKN,20000,,,,,MVFR,,,,,,,,,,,,METAR,673.0
TTPP 190200Z 00000KT 9999 FEW016 26/23 Q1012 NOSIG,TTPP,2021-10-19T02:00:00Z,10.58,-61.35,26.0,23.0,0,0,,6.21,29.88189,,,,,,TRUE,,,,,FEW,1600,,,,,,,VFR,,,,,,,,,,,,METAR,11.0
TTCP 190200Z 07004KT 9999 VCSH FEW012CB 27/23 Q1012 NOSIG RMK CB ESE/NNW,TTCP,2021-10-19T02:00:00Z,11.15,-60.85,27.0,23.0,70,4,,6.21,29.88189,,,,,,TRUE,,,,VCSH,FEW,1200,,,,,,,VFR,,,,,,,,,,,,METAR,13.0
TNCM 190200Z VRB01KT 9999 FEW018 28/25 Q1015 ,TNCM,2021-10-19T02:00:00Z,18.05,-63.12,28.0,25.0,0,1,,6.21,29.970472,,,,,,,,,,,FEW,1800,,,,,,,VFR,,,,,,,,,,,,METAR,9.0
TNCC 190200Z 08010KT 9999 SCT016 29/26 Q1012 NOSIG,TNCC,2021-10-19T02:00:00Z,12.2,-68.97,29.0,26.0,80,10,,6.21,29.88189,,,,,,TRUE,,,,,SCT,1600,,,,,,,VFR,,,,,,,,,,,,METAR,10.0
TNCA 190200Z 07010KT 9999 FEW018 29/25 Q1012 NOSIG,TNCA,2021-10-19T02:00:00Z,12.5,-70.0,29.0,25.0,70,10,,6.21,29.88189,,,,,,TRUE,,,,,FEW,1800,,,,,,,VFR,,,,,,,,,,,,METAR,7.0
TLPL 190200Z 06010KT 9999 FEW015CB 27/24 Q1013 NOSIG,TLPL,2021-10-19T02:00:00Z,13.75,-60.95,27.0,24.0,60,10,,6.21,29.911417,,,,,,TRUE,,,,,FEW,1500,,,,,,,VFR,,,,,,,,,,,,METAR,13.0
TGPY 190200Z VRB02KT 9999 FEW017 26/25 Q1012 NOSIG ADJ SHRA-E,TGPY,2021-10-19T02:00:00Z,12.0,-61.78,26.0,25.0,0,2,,6.21,29.88189,,,,,,TRUE,,,,SHRA,FEW,1700,,,,,,,VFR,,,,,,,,,,,,METAR,12.0
TFFR 190200Z AUTO 00000KT 6000 NSC 25/25 Q1014,TFFR,2021-10-19T02:00:00Z,16.27,-61.53,25.0,25.0,0,0,,3.73,29.940945,,,TRUE,,,,,,,,CLR,,,,,,,,MVFR,,,,,,,,,,,,METAR,6.0
TFFF 190200Z AUTO 13004KT 100V160 8000 3900 +RA FEW005/// BKN023/// BKN030/// ///CB 26/24 Q1014,TFFF,2021-10-19T02:00:00Z,14.6,-61.0,26.0,24.0,130,4,,4.97,29.940945,,,TRUE,,,,,,,+RA,FEW,500,BKN,2300,BKN,3000,,,MVFR,,,,,,,,,,,,METAR,3.0
TBPB 190200Z 09009KT 9999 FEW018 27/23 Q1013 NOSIG,TBPB,2021-10-19T02:00:00Z,13.07,-59.48,27.0,23.0,90,9,,6.21,29.911417,,,,,,TRUE,,,,,FEW,1800,,,,,,,VFR,,,,,,,,,,,,METAR,55.0
TAPA 190200Z 08003KT 9999 FEW018 27/23 Q1014 NOSIG,TAPA,2021-10-19T02:00:00Z,17.13,-61.78,27.0,23.0,80,3,,6.21,29.940945,,,,,,TRUE,,,,,FEW,1800,,,,,,,VFR,,,,,,,,,,,,METAR,15.0
SYCJ 190200Z 21004KT CAVOK 24/24 Q1012 NOSIG,SYCJ,2021-10-19T02:00:00Z,6.5,-58.25,24.0,24.0,210,4,,6.21,29.88189,,,,,,TRUE,,,,,CAVOK,,,,,,,,VFR,,,,,,,,,,,,METAR,30.0
SULS 190200Z 05004KT 010V080 CAVOK 11/09 Q1022,SULS,2021-10-19T02:00:00Z,-34.87,-55.1,11.0,9.0,50,4,,6.21,30.177166,,,,,,,,,,,CAVOK,,,,,,,,VFR,,,,,,,,,,,,METAR,22.0
SPZO 190200Z 00000KT 9999 FEW050 SCT100 13/03 Q1030 NOSIG RMK BIRD HAZARD RWY 28 PP000,SPZO,2021-10-19T02:00:00Z,-13.55,-71.93,13.0,3.0,0,0,,6.21,30.413385,,,,,,TRUE,,,,,FEW,5000,SCT,10000,,,,,VFR,,,,,,,,,,,,SPECI,3249.0
SPST 190200Z 10003KT 9999 FEW020 SCT100 25/24 Q1011 RMK BIRD HAZARD RWY 17/35 PP000,SPST,2021-10-19T02:00:00Z,-6.52,-76.37,25.0,24.0,100,3,,6.21,29.852362,,,,,,,,,,,FEW,2000,SCT,10000,,,,,VFR,,,,,,,,,,,,SPECI,282.0
SPSO 190200Z 21009KT 8000 16/13 Q1015 RMK BR PP000,SPSO,2021-10-19T02:00:00Z,-13.73,-76.22,16.0,13.0,210,9,,4.97,29.970472,,,,,,,,,,,,,,,,,,,,,,,,,,,,,,,METAR,8.0
SPRU 190200Z 14008KT 6000 BCFG FEW005 OVC010 16/14 Q1015 RMK PP000,SPRU,2021-10-19T02:00:00Z,-8.08,-79.12,16.0,14.0,140,8,,3.73,29.970472,,,,,,,,,,BCFG,FEW,500,OVC,1000,,,,,MVFR,,,,,,,,,,,,SPECI,23.0
SPQU 190200Z 00000KT CAVOK 13/M03 Q1027 RMK PP000,SPQU,2021-10-19T02:00:00Z,-16.33,-71.57,13.0,-3.0,0,0,,6.21,30.324802,,,,,,,,,,,CAVOK,,,,,,,,VFR,,,,,,,,,,,,METAR,2527.0
SPQT 190200Z VRB02KT 9999 FEW005 SCT100 23/22 Q1012 NOSIG RMK PP000,SPQT,2021-10-19T02:00:00Z,-3.78,-73.32,23.0,22.0,0,2,,6.21,29.88189,,,,,,TRUE,,,,,FEW,500,SCT,10000,,,,,VFR,,,,,,,,,,,,SPECI,92.0
SPME 190200Z 27005KT 9999 OVC013 22/20 Q1013 RMK BIRD HAZARD RWY 32/14 PP000,SPME,2021-10-19T02:00:00Z,-3.55,-80.4,22.0,20.0,270,5,,6.21,29.911417,,,,,,,,,,,OVC,1300,,,,,,,MVFR,,,,,,,,,,,,SPECI,26.0
SPJC 190200Z 18007KT 9999 OVC009 16/13 Q1015 NOSIG RMK PP000,SPJC,2021-10-19T02:00:00Z,-12.02,-77.12,16.0,13.0,180,7,,6.21,29.970472,,,,,,TRUE,,,,,OVC,900,,,,,,,IFR,,,,,,,,,,,,SPECI,26.0
SPCL 190200Z 07003KT 9999 BKN020 25/23 Q1012 RMK PP000,SPCL,2021-10-19T02:00:00Z,-8.38,-74.58,25.0,23.0,70,3,,6.21,29.88189,,,,,,,,,,,BKN,2000,,,,,,,MVFR,,,,,,,,,,,,SPECI,154.0
SOCA 190200Z AUTO 22003KT 9999 OVC002 25/24 Q1012,SOCA,2021-10-19T02:00:00Z,4.82,-52.37,25.0,24.0,220,3,,6.21,29.88189,,,TRUE,,,,,,,,OVC,200,,,,,,,LIFR,,,,,,,,,,,,METAR,7.0
SMJP 190200Z 08002KT CAVOK 24/23 Q1012 NOSIG,SMJP,2021-10-19T02:00:00Z,5.45,-55.18,24.0,23.0,80,2,,6.21,29.88189,,,,,,TRUE,,,,,CAVOK,,,,,,,,VFR,,,,,,,,,,,,METAR,14.0
SLVR 190200Z 20004KT 9999 BKN023 OVC070 22/19 Q1017,SLVR,2021-10-19T02:00:00Z,-17.63,-63.13,22.0,19.0,200,4,,6.21,30.029528,,,,,,,,,,,BKN,2300,OVC,7000,,,,,MVFR,,,,,,,,,,,,METAR,377.0
SLTJ 190200Z 00000KT 9999 FEW015 OVC025 12/10 Q1027,SLTJ,2021-10-19T02:00:00Z,-21.55,-64.72,12.0,10.0,0,0,,6.21,30.324802,,,,,,,,,,,FEW,1500,OVC,2500,,,,,MVFR,,,,,,,,,,,,METAR,1850.0
SLLP 190200Z 09007KT 9999 FEW070 SCT200 07/03 Q1037,SLLP,2021-10-19T02:00:00Z,-16.52,-68.17,7.0,3.0,90,7,,6.21,30.620079,,,,,,,,,,,FEW,7000,SCT,20000,,,,,VFR,,,,,,,,,,,,METAR,4061.0
SLCB 190200Z 15015KT 9999 FEW033 19/08 Q1023,SLCB,2021-10-19T02:00:00Z,-17.42,-66.18,19.0,8.0,150,15,,6.21,30.206694,,,,,,,,,,,FEW,3300,,,,,,,VFR,,,,,,,,,,,,METAR,2560.0
SKSP 190200Z 08004KT 050V120 9999 FEW014 BKN200 28/25 Q1012 RMK A2988,SKSP,2021-10-19T02:00:00Z,12.58,-81.72,28.0,25.0,80,4,,6.21,29.88189,,,,,,,,,,,FEW,1400,BKN,20000,,,,,VFR,,,,,,,,,,,,SPECI,6.0
SKSM 190200Z 04005KT 9999 FEW020CB BKN100 26/24 Q1012 RMK CB/LTNE/E A2990,SKSM,2021-10-19T02:00:00Z,11.12,-74.22,26.0,24.0,40,5,,6.21,29.88189,,,,,,,,,,,FEW,2000,BKN,10000,,,,,VFR,,,,,,,,,,,,SPECI,5.0
SKRG 190200Z VRB02KT 9999 SCT015 14/13 Q1026 NOSIG RMK A3032,SKRG,2021-10-19T02:00:00Z,6.17,-75.42,14.0,13.0,0,2,,6.21,30.295275,,,,,,TRUE,,,,,SCT,1500,,,,,,,VFR,,,,,,,,,,,,METAR,2132.0
SKPE 190200Z 09008KT 9999 TS FEW015CB 20/17 Q1018 RMK CB/W A3008,SKPE,2021-10-19T02:00:00Z,4.82,-75.73,20.0,17.0,90,8,,6.21,30.059055,,,,,,,,,,TS,FEW,1500,,,,,,,VFR,,,,,,,,,,,,SPECI,1341.0
SKLT 190200Z 08003KT 9999 SCT013 BKN080 25/24 Q1012 RMK A2989,SKLT,2021-10-19T02:00:00Z,-4.2,-69.93,25.0,24.0,80,3,,6.21,29.88189,,,,,,,,,,,SCT,1300,BKN,8000,,,,,VFR,,,,,,,,,,,,SPECI,78.0
SKCL 190200Z VRB02KT 9999 FEW030 20/19 Q1016 NOSIG RMK A3001,SKCL,2021-10-19T02:00:00Z,3.53,-76.37,20.0,19.0,0,2,,6.21,30.0,,,,,,TRUE,,,,,FEW,3000,,,,,,,VFR,,,,,,,,,,,,SPECI,967.0
SKCG 190200Z 30005KT 270V350 9999 BKN015 29/25 Q1011 RMK A2986,SKCG,2021-10-19T02:00:00Z,10.43,-75.52,29.0,25.0,300,5,,6.21,29.852362,,,,,,,,,,,BKN,1500,,,,,,,MVFR,,,,,,,,,,,,SPECI,6.0
SKCC 190200Z 24004KT 9999 SCT020 28/23 Q1014 RMK A2995,SKCC,2021-10-19T02:00:00Z,7.92,-72.52,28.0,23.0,240,4,,6.21,29.940945,,,,,,,,,,,SCT,2000,,,,,,,VFR,,,,,,,,,,,,SPECI,308.0
SKBQ 190200Z 35003KT 280V030 9999 FEW012 28/25 Q1011 NOSIG RMK A2987,SKBQ,2021-10-19T02:00:00Z,10.87,-74.77,28.0,25.0,350,3,,6.21,29.852362,,,,,,TRUE,,,,,FEW,1200,,,,,,,VFR,,,,,,,,,,,,SPECI,23.0
SKBO 190200Z VRB02KT 9999 FEW023 11/10 Q1028 NOSIG RMK A3038,SKBO,2021-10-19T02:00:00Z,4.7,-74.15,11.0,10.0,0,2,,6.21,30.35433,,,,,,TRUE,,,,,FEW,2300,,,,,,,VFR,,,,,,,,,,,,SPECI,2547.0
SKBG 190200Z 29003KT 9999 FEW007 SCT070 21/21 Q1017 RMK A3003,SKBG,2021-10-19T02:00:00Z,7.13,-73.18,21.0,21.0,290,3,,6.21,30.029528,,,,,,,,,,,FEW,700,SCT,7000,,,,,VFR,,,,,,,,,,,,SPECI,1187.0
SGES 190200Z 21008KT CAVOK 20/17 Q1016,SGES,2021-10-19T02:00:00Z,-25.45,-54.85,20.0,17.0,210,8,,6.21,30.0,,,,,,,,,,,CAVOK,,,,,,,,VFR,,,,,,,,,,,,METAR,256.0
SGAS 190200Z 19006KT CAVOK 19/11 Q1018,SGAS,2021-10-19T02:00:00Z,-25.25,-57.52,19.0,11.0,190,6,,6.21,30.059055,,,,,,,,,,,CAVOK,,,,,,,,VFR,,,,,,,,,,,,METAR,83.0
SESA 190200Z 21010KT 9999 SCT012 BKN015 23/19 Q1013 RMK A2995,SESA,2021-10-19T02:00:00Z,-2.2,-80.98,23.0,19.0,210,10,,6.21,29.911417,,,,,,,,,,,SCT,1200,BKN,1500,,,,,MVFR,,,,,,,,,,,,METAR,6.0
SEQM 190200Z 02004KT 9999 BKN030 13/11 Q1027 NOSIG RMK A3034,SEQM,2021-10-19T02:00:00Z,-0.12,-78.35,13.0,11.0,20,4,,6.21,30.324802,,,,,,TRUE,,,,,BKN,3000,,,,,,,MVFR,,,,,,,,,,,,SPECI,2386.0
SEMT 190200Z 23009KT 9999 OVC016 23/21 Q1014 RMK A2994,SEMT,2021-10-19T02:00:00Z,-0.95,-80.67,23.0,21.0,230,9,,6.21,29.940945,,,,,,,,,,,OVC,1600,,,,,,,MVFR,,,,,,,,,,,,SPECI,13.0
SELT 190200Z 09002KT 9999 SCT030 09/08 Q1030,SELT,2021-10-19T02:00:00Z,-0.92,-78.62,9.0,8.0,90,2,,6.21,30.413385,,,,,,,,,,,SCT,3000,,,,,,,VFR,,,,,,,,,,,,METAR,2779.0
SEGU 190200Z 22013KT 9999 FEW013 SCT030 BKN100 24/20 Q1012 NOSIG RMK A2991,SEGU,2021-10-19T02:00:00Z,-2.15,-79.88,24.0,20.0,220,13,,6.21,29.88189,,,,,,TRUE,,,,,FEW,1300,SCT,3000,BKN,10000,,,VFR,,,,,,,,,,,,SPECI,6.0
SECU 190200Z 18002KT 9999 SCT040 SCT100 14/13 Q1026,SECU,2021-10-19T02:00:00Z,-2.88,-78.98,14.0,13.0,180,2,,6.21,30.295275,,,,,,,,,,,SCT,4000,SCT,10000,,,,,VFR,,,,,,,,,,,,METAR,2516.0
SCVM 190200Z 27006KT CAVOK 12/10 Q1016,SCVM,2021-10-19T02:00:00Z,-32.95,-71.48,12.0,10.0,270,6,,6.21,30.0,,,,,,,,,,,CAVOK,,,,,,,,VFR,,,,,,,,,,,,METAR,136.0
SCTN 190200Z AUTO 10002KT CAVOK 11/11 Q1023,SCTN,2021-10-19T02:00:00Z,-42.92,-72.7,11.0,11.0,100,2,,6.21,30.206694,,,TRUE,,,,,,,,CAVOK,,,,,,,,VFR,,,,,,,,,,,,METAR,8.0
SCTE 190200Z VRB02KT 9999 SCT004 BKN006 10/09 Q1023 NOSIG,SCTE,2021-10-19T02:00:00Z,-41.43,-73.08,10.0,9.0,0,2,,6.21,30.206694,,,,,,TRUE,,,,,SCT,400,BKN,600,,,,,IFR,,,,,,,,,,,,METAR,85.0
SCSN 190200Z AUTO 06004KT 050V110 9999 NCD 11/11 Q1015,SCSN,2021-10-19T02:00:00Z,-33.65,-71.62,11.0,11.0,60,4,,6.21,29.970472,,,TRUE,,,,,,,,CLR,,,,,,,,VFR,,,,,,,,,,,,METAR,73.0
SCSE 190200Z 27004KT 9999 OVC010 12/10 Q1016,SCSE,2021-10-19T02:00:00Z,-29.92,-71.2,12.0,10.0,270,4,,6.21,30.0,,,,,,,,,,,OVC,1000,,,,,,,MVFR,,,,,,,,,,,,METAR,141.0
SCQP 190200Z AUTO 02002KT CAVOK 08/08 Q1019,SCQP,2021-10-19T02:00:00Z,-38.92,-72.65,8.0,8.0,20,2,,6.21,30.088583,,,TRUE,,,,,,,,CAVOK,,,,,,,,VFR,,,,,,,,,,,,METAR,97.0
SCPQ 190200Z AUTO VRB01KT CAVOK 09/08 Q1023,SCPQ,2021-10-19T02:00:00Z,-42.33,-73.72,9.0,8.0,0,1,,6.21,30.206694,,,TRUE,,,,,,,,CAVOK,,,,,,,,VFR,,,,,,,,,,,,METAR,166.0
SCON 190200Z AUTO 01003KT 340V070 CAVOK 08/08 Q1023,SCON,2021-10-19T02:00:00Z,-43.13,-73.62,8.0,8.0,10,3,,6.21,30.206694,,,TRUE,,,,,,,,CAVOK,,,,,,,,VFR,,,,,,,,,,,,METAR,11.0
SCJO 190200Z AUTO 18004KT 140V240 CAVOK 14/10 Q1021,SCJO,2021-10-19T02:00:00Z,-40.6,-73.05,14.0,10.0,180,4,,6.21,30.147638,,,TRUE,,,,,,,,CAVOK,,,,,,,,VFR,,,,,,,,,,,,METAR,61.0
SCIP 190200Z 12003KT 050V170 9999 FEW020 BKN040 19/14 Q1026 NOSIG,SCIP,2021-10-19T02:00:00Z,-27.17,-109.43,19.0,14.0,120,3,,6.21,30.295275,,,,,,TRUE,,,,,FEW,2000,BKN,4000,,,,,VFR,,,,,,,,,,,,METAR,48.0
SCIE 190200Z 21006KT CAVOK 13/10 Q1017,SCIE,2021-10-19T02:00:00Z,-36.77,-73.07,13.0,10.0,210,6,,6.21,30.029528,,,,,,,,,,,CAVOK,,,,,,,,VFR,,,,,,,,,,,,METAR,8.0
SCIC 190200Z AUTO 21003KT 9999 NCD 16/09 Q1015,SCIC,2021-10-19T02:00:00Z,-34.97,-71.22,16.0,9.0,210,3,,6.21,29.970472,,,TRUE,,,,,,,,CLR,,,,,,,,VFR,,,,,,,,,,,,METAR,230.0
SCFT 190200Z AUTO 28006KT 9999 FEW050/// OVC140/// 14/08 Q1023,SCFT,2021-10-19T02:00:00Z,-43.18,-71.85,14.0,8.0,280,6,,6.21,30.206694,,,TRUE,,,,,,,,FEW,5000,OVC,14000,,,,,VFR,,,,,,,,,,,,METAR,345.0
SCFA 190200Z 21004KT 9999 OVC015 14/10 Q1016 NOSIG,SCFA,2021-10-19T02:00:00Z,-23.43,-70.43,14.0,10.0,210,4,,6.21,30.0,,,,,,TRUE,,,,,OVC,1500,,,,,,,MVFR,,,,,,,,,,,,METAR,113.0
SCEL 190200Z 14005KT CAVOK 20/04 Q1015 NOSIG,SCEL,2021-10-19T02:00:00Z,-33.38,-70.78,20.0,4.0,140,5,,6.21,29.970472,,,,,,TRUE,,,,,CAVOK,,,,,,,,VFR,,,,,,,,,,,,METAR,478.0
SCDA 190200Z 22007KT 9999 OVC024 15/10 Q1017,SCDA,2021-10-19T02:00:00Z,-20.53,-70.17,15.0,10.0,220,7,,6.21,30.029528,,,,,,,,,,,OVC,2400,,,,,,,MVFR,,,,,,,,,,,,METAR,41.0
SCCY 190200Z AUTO 05003KT 010V070 9999 BKN046 10/07 Q1020,SCCY,2021-10-19T02:00:00Z,-45.58,-72.1,10.0,7.0,50,3,,6.21,30.11811,,,TRUE,,,,,,,,BKN,4600,,,,,,,VFR,,,,,,,,,,,,METAR,301.0
SCCI 190200Z 27011KT CAVOK 07/02 Q1008 NOSIG,SCCI,2021-10-19T02:00:00Z,-53.0,-70.85,7.0,2.0,270,11,,6.21,29.763779,,,,,,TRUE,,,,,CAVOK,,,,,,,,VFR,,,,,,,,,,,,METAR,37.0
SCCH 190200Z AUTO 21007KT //// R/////// NCD 15/08 Q1016,SCCH,2021-10-19T02:00:00Z,-36.57,-72.02,15.0,8.0,210,7,,,30.0,,,TRUE,,,,,,,,CLR,,,,,,,,,,,,,,,,,,,,METAR,148.0
SCAT 190200Z AUTO 27006KT 230V290 9000 OVC015/// 12/09 Q1016,SCAT,2021-10-19T02:00:00Z,-27.27,-70.77,12.0,9.0,270,6,,5.59,30.0,,,TRUE,,,,,,,,OVC,1500,,,,,,,MVFR,,,,,,,,,,,,METAR,209.0
SCAR 190200Z 19006KT 9999 OVC021 16/12 Q1017,SCAR,2021-10-19T02:00:00Z,-18.35,-70.33,16.0,12.0,190,6,,6.21,30.029528,,,,,,,,,,,OVC,2100,,,,,,,MVFR,,,,,,,,,,,,METAR,57.0
SCAP 190200Z AUTO 20008KT 100V260 9999 ////// 14/07 Q1026,SCAP,2021-10-19T02:00:00Z,-43.62,-71.8,14.0,7.0,200,8,,6.21,30.295275,,,TRUE,,,,,,,,,,,,,,,,,,,,,,,,,,,,METAR,252.0
SBRJ 190200Z 14009KT 9999 SCT010 OVC025 20/19 Q1017,SBRJ,2021-10-19T02:00:00Z,-22.9,-43.17,20.0,19.0,140,9,,6.21,30.029528,,,,,,,,,,,SCT,1000,OVC,2500,,,,,MVFR,,,,,,,,,,,,METAR,6.0
SAZS 190200Z 14005KT CAVOK 10/03 Q1021,SAZS,2021-10-19T02:00:00Z,-41.15,-71.17,10.0,3.0,140,5,,6.21,30.147638,,,,,,,,,,,CAVOK,,,,,,,,VFR,,,,,,,,,,,,METAR,843.0
SAZN 190200Z 00000KT CAVOK 17/08 Q1017,SAZN,2021-10-19T02:00:00Z,-38.95,-68.15,17.0,8.0,0,0,,6.21,30.029528,,,,,,,,,,,CAVOK,,,,,,,,VFR,,,,,,,,,,,,METAR,273.0
SAZM 190200Z 02006KT CAVOK 11/10 Q1023,SAZM,2021-10-19T02:00:00Z,-37.92,-57.57,11.0,10.0,20,6,,6.21,30.206694,,,,,,,,,,,CAVOK,,,,,,,,VFR,,,,,,,,,,,,METAR,17.0
SAWH 190200Z 23017KT 9999 SCT048 06/03 Q1005,SAWH,2021-10-19T02:00:00Z,-54.85,-68.3,6.0,3.0,230,17,,6.21,29.675198,,,,,,,,,,,SCT,4800,,,,,,,VFR,,,,,,,,,,,,METAR,22.0
SAWG 190200Z 27007KT CAVOK 07/M01 Q1010,SAWG,2021-10-19T02:00:00Z,-51.62,-69.27,7.0,-1.0,270,7,,6.21,29.822834,,,,,,,,,,,CAVOK,,,,,,,,VFR,,,,,,,,,,,,METAR,15.0
SAWE 190200Z 32013KT CAVOK 04/01 Q1007,SAWE,2021-10-19T02:00:00Z,-53.78,-67.75,4.0,1.0,320,13,,6.21,29.734253,,,,,,,,,,,CAVOK,,,,,,,,VFR,,,,,,,,,,,,METAR,22.0
SASJ 190200Z 33011KT 8000 OVC100 17/12 Q1025,SASJ,2021-10-19T02:00:00Z,-24.38,-65.1,17.0,12.0,330,11,,4.97,30.265747,,,,,,,,,,,OVC,10000,,,,,,,MVFR,,,,,,,,,,,,METAR,913.0
SASA 190200Z 00000KT 9999 OVC050 14/11 Q1026,SASA,2021-10-19T02:00:00Z,-24.85,-65.48,14.0,11.0,0,0,,6.21,30.295275,,,,,,,,,,,OVC,5000,,,,,,,VFR,,,,,,,,,,,,METAR,1235.0
SARP 190200Z 14009KT CAVOK 20/10 Q1018,SARP,2021-10-19T02:00:00Z,-27.38,-55.97,20.0,10.0,140,9,,6.21,30.059055,,,,,,,,,,,CAVOK,,,,,,,,VFR,,,,,,,,,,,,METAR,123.0
SARI 190200Z 20004KT CAVOK 18/15 Q1016,SARI,2021-10-19T02:00:00Z,-25.73,-54.47,18.0,15.0,200,4,,6.21,30.0,,,,,,,,,,,CAVOK,,,,,,,,VFR,,,,,,,,,,,,METAR,268.0
SARF 190200Z 23005KT CAVOK 17/12 Q1019,SARF,2021-10-19T02:00:00Z,-26.22,-58.22,17.0,12.0,230,5,,6.21,30.088583,,,,,,,,,,,CAVOK,,,,,,,,VFR,,,,,,,,,,,,METAR,65.0
SARE 190200Z 23002KT CAVOK 14/09 Q1020,SARE,2021-10-19T02:00:00Z,-27.43,-59.05,14.0,9.0,230,2,,6.21,30.11811,,,,,,,,,,,CAVOK,,,,,,,,VFR,,,,,,,,,,,,METAR,52.0
SARC 190200Z 18003KT CAVOK 17/11 Q1020,SARC,2021-10-19T02:00:00Z,-27.43,-58.77,17.0,11.0,180,3,,6.21,30.11811,,,,,,,,,,,CAVOK,,,,,,,,VFR,,,,,,,,,,,,METAR,60.0
SANT 190200Z 02005KT 8000 FEW091 18/09 Q1022,SANT,2021-10-19T02:00:00Z,-26.85,-65.1,18.0,9.0,20,5,,4.97,30.177166,,,,,,,,,,,FEW,9100,,,,,,,MVFR,,,,,,,,,,,,METAR,446.0
SAME 190200Z 00000KT CAVOK 18/05 Q1018,SAME,2021-10-19T02:00:00Z,-32.82,-68.78,18.0,5.0,0,0,,6.21,30.059055,,,,,,,,,,,CAVOK,,,,,,,,VFR,,,,,,,,,,,,METAR,709.0
SAEZ 190200Z 11005KT CAVOK 11/08 Q1023 NOSIG,SAEZ,2021-10-19T02:00:00Z,-34.82,-58.53,11.0,8.0,110,5,,6.21,30.206694,,,,,,TRUE,,,,,CAVOK,,,,,,,,VFR,,,,,,,,,,,,METAR,16.0
SADF 190200Z 08007KT 060V120 CAVOK 15/10 Q1022,SADF,2021-10-19T02:00:00Z,-34.45,-58.58,15.0,10.0,80,7,,6.21,30.177166,,,,,,,,,,,CAVOK,,,,,,,,VFR,,,,,,,,,,,,METAR,4.0
SACO 190200Z 34009KT CAVOK 13/06 Q1022 NOSIG,SACO,2021-10-19T02:00:00Z,-31.32,-64.22,13.0,6.0,340,9,,6.21,30.177166,,,,,,TRUE,,,,,CAVOK,,,,,,,,VFR,,,,,,,,,,,,METAR,474.0
SABE 190200Z 10012KT CAVOK 16/11 Q1023 NOSIG,SABE,2021-10-19T02:00:00Z,-34.57,-58.42,16.0,11.0,100,12,,6.21,30.206694,,,,,,TRUE,,,,,CAVOK,,,,,,,,VFR,,,,,,,,,,,,METAR,3.0
SAAR 190200Z 12008KT CAVOK 17/08 Q1021,SAAR,2021-10-19T02:00:00Z,-32.92,-60.77,17.0,8.0,120,8,,6.21,30.147638,,,,,,,,,,,CAVOK,,,,,,,,VFR,,,,,,,,,,,,METAR,24.0
RPVM 190200Z 04007KT 9999 FEW020 SCT300 32/25 Q1014 RMK A2994,RPVM,2021-10-19T02:00:00Z,10.32,123.98,32.0,25.0,40,7,,6.21,29.940945,,,,,,,,,,,FEW,2000,SCT,30000,,,,,VFR,,,,,,,,,,,,SPECI,9.0
RPMZ 190200Z 19005KT 140V280 9000 FEW017 BKN300 31/25 Q1013 RMK A2991,RPMZ,2021-10-19T02:00:00Z,6.92,122.07,31.0,25.0,190,5,,5.59,29.911417,,,,,,,,,,,FEW,1700,BKN,30000,,,,,VFR,,,,,,,,,,,,SPECI,8.0
RPMD 190200Z 01004KT 350V050 310V030 9999 FEW016 SCT090 BKN260 29/26 Q1013 RMK A2991,RPMD,2021-10-19T02:00:00Z,7.12,125.65,29.0,26.0,10,4,,6.21,29.911417,,,,,,,,,,,FEW,1600,SCT,9000,BKN,26000,,,VFR,,,,,,,,,,,,SPECI,19.0
RPLL 190200Z VRB05KT 9999 FEW025 31/24 Q1014 NOSIG RMK A2994,RPLL,2021-10-19T02:00:00Z,14.52,121.0,31.0,24.0,0,5,,6.21,29.940945,,,,,,TRUE,,,,,FEW,2500,,,,,,,VFR,,,,,,,,,,,,SPECI,15.0
RPLI 190200Z 31004KT 260V360 9999 FEW018 30/25 Q1014 NOSIG RMK A2994,RPLI,2021-10-19T02:00:00Z,18.17,120.52,30.0,25.0,310,4,,6.21,29.940945,,,,,,TRUE,,,,,FEW,1800,,,,,,,VFR,,,,,,,,,,,,SPECI,5.0
RPLB 190200Z 05009KT 9999 FEW020 31/23 Q1015 NOSIG RMK A2997,RPLB,2021-10-19T02:00:00Z,14.8,120.27,31.0,23.0,50,9,,6.21,29.970472,,,,,,TRUE,,,,,FEW,2000,,,,,,,VFR,,,,,,,,,,,,SPECI,19.0
ROYN 190200Z AUTO 04012KT 9999 FEW031 SCT041 BKN044 27/21 Q1019,ROYN,2021-10-19T02:00:00Z,24.47,122.97,27.0,21.0,40,12,,6.21,30.088583,,,TRUE,,,,,,,,FEW,3100,SCT,4100,BKN,4400,,,VFR,,,,,,,,,,,,METAR,21.0
RORY 190200Z AUTO 04010KT 9999 FEW014 SCT029 BKN080 25/22 Q1016,RORY,2021-10-19T02:00:00Z,27.05,128.4,25.0,22.0,40,10,,6.21,30.0,,,TRUE,,,,,,,,FEW,1400,SCT,2900,BKN,8000,,,VFR,,,,,,,,,,,,METAR,13.0
RORS 190200Z 35014KT 9999 SCT029 28/21 Q1018,RORS,2021-10-19T02:00:00Z,24.82,125.15,28.0,21.0,350,14,,6.21,30.059055,,,,,,,,,,,SCT,2900,,,,,,,VFR,,,,,,,,,,,,METAR,13.0
RORK 190200Z AUTO 04015KT 9999 SCT014 BKN027 OVC036 24/22 Q1015,RORK,2021-10-19T02:00:00Z,25.93,131.32,24.0,22.0,40,15,,6.21,29.970472,,,TRUE,,,,,,,,SCT,1400,BKN,2700,OVC,3600,,,MVFR,,,,,,,,,,,,METAR,11.0
ROMY 190200Z 36009KT 310V030 9999 SCT028 SCT042 27/20 Q1018,ROMY,2021-10-19T02:00:00Z,24.78,125.27,27.0,20.0,360,9,,6.21,30.059055,,,,,,,,,,,SCT,2800,SCT,4200,,,,,VFR,,,,,,,,,,,,METAR,38.0
ROMD 190200Z AUTO 04012KT 9000 -RA BKN011 BKN025 OVC040 23/22 Q1015,ROMD,2021-10-19T02:00:00Z,25.83,131.25,23.0,22.0,40,12,,5.59,29.970472,,,TRUE,,,,,,,-RA,BKN,1100,BKN,2500,OVC,4000,,,MVFR,,,,,,,,,,,,METAR,45.0
ROIG 190200Z 03012KT 9999 SCT032 SCT050 27/20 Q1018,ROIG,2021-10-19T02:00:00Z,24.33,124.18,27.0,20.0,30,12,,6.21,30.059055,,,,,,,,,,,SCT,3200,SCT,5000,,,,,VFR,,,,,,,,,,,,METAR,26.0
ROAH 190200Z 34018KT 9999 -SHRA FEW017 BKN080 26/22 Q1016 RMK 1CU017 6AC080 A3002,ROAH,2021-10-19T02:00:00Z,26.18,127.65,26.0,22.0,340,18,,6.21,30.0,,,,,,,,,,-SHRA,FEW,1700,BKN,8000,,,,,VFR,,,,,,,,,,,,METAR,6.0
RKTU 190200Z 25004KT 9000 FEW010 SCT030 13/10 Q1019,RKTU,2021-10-19T02:00:00Z,36.7,127.5,13.0,10.0,250,4,,5.59,30.088583,,,,,,,,,,,FEW,1000,SCT,3000,,,,,VFR,,,,,,,,,,,,METAR,46.0
RKTN 190200Z 30008KT 9999 FEW050 BKN100 15/05 Q1018,RKTN,2021-10-19T02:00:00Z,35.88,128.65,15.0,5.0,300,8,,6.21,30.059055,,,,,,,,,,,FEW,5000,BKN,10000,,,,,VFR,,,,,,,,,,,,METAR,25.0
RKSS 190200Z 35010KT 9999 BKN025 13/08 Q1020 NOSIG,RKSS,2021-10-19T02:00:00Z,37.55,126.78,13.0,8.0,350,10,,6.21,30.11811,,,,,,TRUE,,,,,BKN,2500,,,,,,,MVFR,,,,,,,,,,,,METAR,18.0
RKSI 190200Z 33011KT 9999 FEW020 BKN120 14/07 Q1020 NOSIG,RKSI,2021-10-19T02:00:00Z,37.47,126.45,14.0,7.0,330,11,,6.21,30.11811,,,,,,TRUE,,,,,FEW,2000,BKN,12000,,,,,VFR,,,,,,,,,,,,METAR,7.0
RKPK 190200Z 33007KT CAVOK 17/03 Q1018,RKPK,2021-10-19T02:00:00Z,35.17,128.93,17.0,3.0,330,7,,6.21,30.059055,,,,,,,,,,,CAVOK,,,,,,,,VFR,,,,,,,,,,,,METAR,3.0
RKPC 190200Z 33008KT 290V010 9999 SCT025 18/11 Q1021 NOSIG,RKPC,2021-10-19T02:00:00Z,33.5,126.48,18.0,11.0,330,8,,6.21,30.147638,,,,,,TRUE,,,,,SCT,2500,,,,,,,VFR,,,,,,,,,,,,METAR,23.0
RKNY 190200Z 28008KT 9999 -RA BKN030 OVC070 13/06 Q1017 NOSIG,RKNY,2021-10-19T02:00:00Z,38.07,128.67,13.0,6.0,280,8,,6.21,30.029528,,,,,,TRUE,,,,-RA,BKN,3000,OVC,7000,,,,,MVFR,,,,,,,,,,,,METAR,76.0
RKJB 190200Z 09003KT 040V140 9999 SCT030 15/09 Q1020 TEMPO -RA SCT015 BKN025,RKJB,2021-10-19T02:00:00Z,34.98,126.38,15.0,9.0,90,3,,6.21,30.11811,,,,,,,,,,,SCT,3000,,,,,,,VFR,,,,,,,,,,,,METAR,16.0
RJTT 190200Z 33010KT 9999 -RA FEW025 BKN027 15/08 Q1017 NOSIG RMK 1CU025 7SC027 A3003 MOD TURB OBS AT 0145Z 10NM E UTIBO BTN FL140 AND 13000FT IN DES BY A320,RJTT,2021-10-19T02:00:00Z,35.55,139.77,15.0,8.0,330,10,,6.21,30.029528,,,,,,TRUE,,,,-RA,FEW,2500,BKN,2700,,,,,MVFR,,,,,,,,,,,,METAR,5.0
RJTO 190200Z 03015KT 9999 FEW007 SCT012 BKN035 15/13 Q1015,RJTO,2021-10-19T02:00:00Z,34.77,139.37,15.0,13.0,30,15,,6.21,29.970472,,,,,,,,,,,FEW,700,SCT,1200,BKN,3500,,,VFR,,,,,,,,,,,,METAR,37.0
RJTI 190200Z 31006KT 280V060 9999 FEW020 BKN025 14/08 Q1017,RJTI,2021-10-19T02:00:00Z,35.63,139.83,14.0,8.0,310,6,,6.21,30.029528,,,,,,,,,,,FEW,2000,BKN,2500,,,,,MVFR,,,,,,,,,,,,METAR,4.0
RJTF 190200Z 34006KT 9999 FEW025 BKN030 BKN080 13/09 Q1017,RJTF,2021-10-19T02:00:00Z,35.67,139.52,13.0,9.0,340,6,,6.21,30.029528,,,,,,,,,,,FEW,2500,BKN,3000,BKN,8000,,,MVFR,,,,,,,,,,,,METAR,37.0
RJSY 190200Z 09010KT 9999 FEW030 SCT/// 17/08 Q1015,RJSY,2021-10-19T02:00:00Z,38.82,139.78,17.0,8.0,90,10,,6.21,29.970472,,,,,,,,,,,FEW,3000,,,,,,,VFR,,,,,,,,,,,,SPECI,17.0
RJSS 190200Z VRB01KT 9999 FEW020 BKN045 14/07 Q1018,RJSS,2021-10-19T02:00:00Z,38.13,140.92,14.0,7.0,0,1,,6.21,30.059055,,,,,,,,,,,FEW,2000,BKN,4500,,,,,VFR,,,,,,,,,,,,METAR,5.0
RJSR 190200Z 03003KT 350V090 9999 FEW030 BKN060 14/08 Q1016,RJSR,2021-10-19T02:00:00Z,40.18,140.37,14.0,8.0,30,3,,6.21,30.0,,,,,,,,,,,FEW,3000,BKN,6000,,,,,VFR,,,,,,,,,,,,METAR,83.0
RJSN 190200Z 14005KT 9999 FEW030 18/08 Q1014,RJSN,2021-10-19T02:00:00Z,37.95,139.12,18.0,8.0,140,5,,6.21,29.940945,,,,,,,,,,,FEW,3000,,,,,,,VFR,,,,,,,,,,,,METAR,4.0
RJSM 190200Z 17008KT 130V210 9999 FEW030 16/06 Q1017,RJSM,2021-10-19T02:00:00Z,40.7,141.37,16.0,6.0,170,8,,6.21,30.029528,,,,,,,,,,,FEW,3000,,,,,,,VFR,,,,,,,,,,,,METAR,31.0
RJSK 190200Z 13008KT 090V170 9999 FEW040 SCT060 BKN/// 16/09 Q1016,RJSK,2021-10-19T02:00:00Z,39.62,140.22,16.0,9.0,130,8,,6.21,30.0,,,,,,,,,,,FEW,4000,SCT,6000,,,,,VFR,,,,,,,,,,,,METAR,95.0
RJSI 190200Z 20004KT 140V250 9999 FEW030 BKN050 BKN/// 14/09 Q1018,RJSI,2021-10-19T02:00:00Z,39.42,141.13,14.0,9.0,200,4,,6.21,30.059055,,,,,,,,,,,FEW,3000,BKN,5000,,,,,VFR,,,,,,,,,,,,METAR,89.0
RJSF 190200Z VRB01KT 9999 FEW008 BKN020 BKN030 09/09 Q1018,RJSF,2021-10-19T02:00:00Z,37.22,140.42,9.0,9.0,0,1,,6.21,30.059055,,,,,,,,,,,FEW,800,BKN,2000,BKN,3000,,,MVFR,,,,,,,,,,,,METAR,373.0
RJSC 190200Z VRB02KT 9999 FEW040 SCT/// 14/09 Q1017,RJSC,2021-10-19T02:00:00Z,38.42,140.37,14.0,9.0,0,2,,6.21,30.029528,,,,,,,,,,,FEW,4000,,,,,,,VFR,,,,,,,,,,,,SPECI,104.0
RJSA 190200Z 07005KT 040V110 9999 FEW030 BKN/// 14/08 Q1015,RJSA,2021-10-19T02:00:00Z,40.72,140.68,14.0,8.0,70,5,,6.21,29.970472,,,,,,,,,,,FEW,3000,,,,,,,VFR,,,,,,,,,,,,METAR,196.0
RJOY 190200Z VRB02KT 9999 FEW020 BKN050 19/11 Q1015,RJOY,2021-10-19T02:00:00Z,34.6,135.6,19.0,11.0,0,2,,6.21,29.970472,,,,,,,,,,,FEW,2000,BKN,5000,,,,,VFR,,,,,,,,,,,,METAR,10.0
RJOW 190200Z 26008KT 9999 -SHRA FEW020 FEW030CB SCT040 BKN070 18/12 Q1016,RJOW,2021-10-19T02:00:00Z,34.67,131.8,18.0,12.0,260,8,,6.21,30.0,,,,,,,,,,-SHRA,FEW,2000,FEW,3000,SCT,4000,BKN,7000,VFR,,,,,,,,,,,,METAR,54.0
RJOT 190200Z 33004KT 290V010 9999 FEW025 BKN110 19/13 Q1016,RJOT,2021-10-19T02:00:00Z,34.22,134.02,19.0,13.0,330,4,,6.21,30.0,,,,,,,,,,,FEW,2500,BKN,11000,,,,,VFR,,,,,,,,,,,,METAR,181.0
RJOS 190200Z 29005KT 250V340 9999 FEW020 BKN040 BKN100 19/12 Q1015,RJOS,2021-10-19T02:00:00Z,34.12,134.62,19.0,12.0,290,5,,6.21,29.970472,,,,,,,,,,,FEW,2000,BKN,4000,BKN,10000,,,VFR,,,,,,,,,,,,METAR,3.0
RJOR 190200Z 18006KT 130V220 9999 FEW035 SCT/// 19/09 Q1015,RJOR,2021-10-19T02:00:00Z,35.52,134.17,19.0,9.0,180,6,,6.21,29.970472,,,,,,,,,,,FEW,3500,,,,,,,VFR,,,,,,,,,,,,SPECI,11.0
RJOO 190200Z VRB01KT 9999 FEW030 BKN050 19/12 Q1015 RMK 1CU030 7SC050 A2999,RJOO,2021-10-19T02:00:00Z,34.78,135.43,19.0,12.0,0,1,,6.21,29.970472,,,,,,,,,,,FEW,3000,BKN,5000,,,,,VFR,,,,,,,,,,,,METAR,11.0
RJOM 190200Z 26003KT 200V290 9999 FEW015 BKN/// 19/11 Q1016,RJOM,2021-10-19T02:00:00Z,33.82,132.68,19.0,11.0,260,3,,6.21,30.0,,,,,,,,,,,FEW,1500,,,,,,,VFR,,,,,,,,,,,,METAR,3.0
RJOK 190200Z 31003KT 240V010 9999 FEW025 SCT050 BKN110 21/11 Q1015,RJOK,2021-10-19T02:00:00Z,33.53,133.67,21.0,11.0,310,3,,6.21,29.970472,,,,,,,,,,,FEW,2500,SCT,5000,BKN,11000,,,VFR,,,,,,,,,,,,METAR,7.0
RJOH 190200Z 23004KT 180V290 9999 FEW030 SCT080 BKN200 19/10 Q1015,RJOH,2021-10-19T02:00:00Z,35.48,133.25,19.0,10.0,230,4,,6.21,29.970472,,,,,,,,,,,FEW,3000,SCT,8000,BKN,20000,,,VFR,,,,,,,,,,,,METAR,6.0
RJOC 190200Z 22010KT 9999 FEW030 SCT060 BKN100 19/11 Q1015,RJOC,2021-10-19T02:00:00Z,35.42,132.88,19.0,11.0,220,10,,6.21,29.970472,,,,,,,,,,,FEW,3000,SCT,6000,BKN,10000,,,VFR,,,,,,,,,,,,METAR,2.0
RJOB 190200Z 23009KT 200V260 9999 FEW025 SCT/// 19/10 Q1016,RJOB,2021-10-19T02:00:00Z,34.75,133.85,19.0,10.0,230,9,,6.21,30.0,,,,,,,,,,,FEW,2500,,,,,,,VFR,,,,,,,,,,,,METAR,242.0
RJOA 190200Z 21005KT 120V270 9999 FEW020 BKN025 17/10 Q1016,RJOA,2021-10-19T02:00:00Z,34.43,132.92,17.0,10.0,210,5,,6.21,30.0,,,,,,,,,,,FEW,2000,BKN,2500,,,,,MVFR,,,,,,,,,,,,METAR,318.0
RJNW 190200Z 23007KT 200V270 9999 FEW020 18/10 Q1014,RJNW,2021-10-19T02:00:00Z,37.3,136.97,18.0,10.0,230,7,,6.21,29.940945,,,,,,,,,,,FEW,2000,,,,,,,VFR,,,,,,,,,,,,METAR,222.0
RJNT 190200Z 33003KT 280V030 9999 FEW030 SCT/// 19/08 Q1014,RJNT,2021-10-19T02:00:00Z,36.63,137.18,19.0,8.0,330,3,,6.21,29.940945,,,,,,,,,,,FEW,3000,,,,,,,VFR,,,,,,,,,,,,METAR,30.0
RJNS 190200Z 04003KT 350V090 9999 VCSH FEW002 BKN090 16/16 Q1015,RJNS,2021-10-19T02:00:00Z,34.8,138.18,16.0,16.0,40,3,,6.21,29.970472,,,,,,,,,,VCSH,FEW,200,BKN,9000,,,,,VFR,,,,,,,,,,,,METAR,133.0
RJNK 190200Z 32005KT 9999 FEW030 SCT230 19/10 Q1014,RJNK,2021-10-19T02:00:00Z,36.38,136.42,19.0,10.0,320,5,,6.21,29.940945,,,,,,,,,,,FEW,3000,SCT,23000,,,,,VFR,,,,,,,,,,,,METAR,7.0
RJKI 190200Z AUTO 03016KT 9999 SCT013 BKN029 OVC060 22/20 Q1016,RJKI,2021-10-19T02:00:00Z,28.32,129.92,22.0,20.0,30,16,,6.21,30.0,,,TRUE,,,,,,,,SCT,1300,BKN,2900,OVC,6000,,,MVFR,,,,,,,,,,,,METAR,6.0
RJKA 190200Z 04014KT 9999 -SHRA FEW015 SCT020 BKN050 23/20 Q1016,RJKA,2021-10-19T02:00:00Z,28.42,129.72,23.0,20.0,40,14,,6.21,30.0,,,,,,,,,,-SHRA,FEW,1500,SCT,2000,BKN,5000,,,VFR,,,,,,,,,,,,METAR,7.0
RJGG 190200Z 28004KT 250V320 9999 FEW025 BKN070 18/10 Q1015 NOSIG,RJGG,2021-10-19T02:00:00Z,34.87,136.8,18.0,10.0,280,4,,6.21,29.970472,,,,,,TRUE,,,,,FEW,2500,BKN,7000,,,,,VFR,,,,,,,,,,,,METAR,5.0
RJFU 190200Z VRB01KT 9999 FEW030 SCT040 BKN100 20/12 Q1017,RJFU,2021-10-19T02:00:00Z,32.92,129.92,20.0,12.0,0,1,,6.21,30.029528,,,,,,,,,,,FEW,3000,SCT,4000,BKN,10000,,,VFR,,,,,,,,,,,,METAR,2.0
RJFT 190200Z 21003KT 170V270 9999 FEW035 SCT050 BKN070 18/11 Q1017,RJFT,2021-10-19T02:00:00Z,32.83,130.85,18.0,11.0,210,3,,6.21,30.029528,,,,,,,,,,,FEW,3500,SCT,5000,BKN,7000,,,VFR,,,,,,,,,,,,METAR,188.0
RJFS 190200Z 22003KT 170V330 9999 FEW035 BKN110 19/11 Q1017,RJFS,2021-10-19T02:00:00Z,33.15,130.3,19.0,11.0,220,3,,6.21,30.029528,,,,,,,,,,,FEW,3500,BKN,11000,,,,,VFR,,,,,,,,,,,,METAR,2.0
RJFR 190200Z 16006KT 120V180 9999 FEW025 BKN120 21/12 Q1016,RJFR,2021-10-19T02:00:00Z,33.83,131.03,21.0,12.0,160,6,,6.21,30.0,,,,,,,,,,,FEW,2500,BKN,12000,,,,,VFR,,,,,,,,,,,,METAR,9.0
RJFO 190200Z 20004KT 140V230 9999 FEW030 SCT100 BKN120 20/11 Q1016,RJFO,2021-10-19T02:00:00Z,33.47,131.73,20.0,11.0,200,4,,6.21,30.0,,,,,,,,,,,FEW,3000,SCT,10000,BKN,12000,,,VFR,,,,,,,,,,,,METAR,3.0
RJFM 190200Z 29005KT 210V360 9999 FEW030 24/11 Q1016,RJFM,2021-10-19T02:00:00Z,31.87,131.43,24.0,11.0,290,5,,6.21,30.0,,,,,,,,,,,FEW,3000,,,,,,,VFR,,,,,,,,,,,,METAR,10.0
RJFK 190200Z VRB02KT 9999 FEW030 SCT130 21/10 Q1017 RMK 1CU030 3AC130 A3004,RJFK,2021-10-19T02:00:00Z,31.8,130.72,21.0,10.0,0,2,,6.21,30.029528,,,,,,,,,,,FEW,3000,SCT,13000,,,,,VFR,,,,,,,,,,,,METAR,271.0
RJFG 190200Z 32004KT 280V350 9999 FEW020 BKN080 19/12 Q1017,RJFG,2021-10-19T02:00:00Z,30.62,130.98,19.0,12.0,320,4,,6.21,30.029528,,,,,,,,,,,FEW,2000,BKN,8000,,,,,VFR,,,,,,,,,,,,METAR,234.0
RJFF 190200Z 17006KT 120V200 9999 FEW030 SCT045 BKN/// 19/09 Q1017 BECMG FM0230 29013KT TEMPO FM0300 29015G25KT RMK 1CU030 3CU045 A3004,RJFF,2021-10-19T02:00:00Z,33.58,130.45,19.0,9.0,170,6,,6.21,30.029528,,,,,,,,,,,FEW,3000,SCT,4500,,,,,VFR,,,,,,,,,,,,METAR,7.0
RJFE 190200Z 34011KT 310V020 9999 FEW040 BKN100 20/11 Q1018,RJFE,2021-10-19T02:00:00Z,32.67,128.82,20.0,11.0,340,11,,6.21,30.059055,,,,,,,,,,,FEW,4000,BKN,10000,,,,,VFR,,,,,,,,,,,,METAR,80.0
RJEC 190200Z 19015G25KT 9999 FEW015 SCT050 BKN/// 11/04 Q1016,RJEC,2021-10-19T02:00:00Z,43.67,142.43,11.0,4.0,190,15,25,6.21,30.0,,,,,,,,,,,FEW,1500,SCT,5000,,,,,VFR,,,,,,,,,,,,METAR,209.0
RJEB 190200Z 16010KT 9999 FEW040 BKN/// 14/03 Q1016,RJEB,2021-10-19T02:00:00Z,44.3,143.4,14.0,3.0,160,10,,6.21,30.0,,,,,,,,,,,FEW,4000,,,,,,,VFR,,,,,,,,,,,,SPECI,24.0
RJDT 190200Z 31010KT 250V340 9999 FEW045 19/05 Q1017,RJDT,2021-10-19T02:00:00Z,34.28,129.32,19.0,5.0,310,10,,6.21,30.029528,,,,,,,,,,,FEW,4500,,,,,,,VFR,,,,,,,,,,,,METAR,61.0
RJDC 190200Z 20005KT 9999 FEW020 BKN120 20/13 Q1016,RJDC,2021-10-19T02:00:00Z,33.92,131.27,20.0,13.0,200,5,,6.21,30.0,,,,,,,,,,,FEW,2000,BKN,12000,,,,,VFR,,,,,,,,,,,,METAR,5.0
RJDB 190200Z AUTO 30010KT 270V350 9999 FEW038 BKN042 BKN130 20/10 Q1017,RJDB,2021-10-19T02:00:00Z,33.75,129.78,20.0,10.0,300,10,,6.21,30.029528,,,TRUE,,,,,,,,FEW,3800,BKN,4200,BKN,13000,,,VFR,,,,,,,,,,,,METAR,13.0
RJCW 190200Z 16004KT 9000 -SHRA FEW012 SCT015 BKN020 08/08 Q1016,RJCW,2021-10-19T02:00:00Z,45.4,141.8,8.0,8.0,160,4,,5.59,30.0,,,,,,,,,,-SHRA,FEW,1200,SCT,1500,BKN,2000,,,MVFR,,,,,,,,,,,,METAR,11.0
RJCO 190200Z 14015KT 9999 FEW020 SCT050 14/09 Q1017,RJCO,2021-10-19T02:00:00Z,43.12,141.37,14.0,9.0,140,15,,6.21,30.029528,,,,,,,,,,,FEW,2000,SCT,5000,,,,,VFR,,,,,,,,,,,,METAR,7.0
RJCN 190200Z 20013KT 150V230 9999 FEW030 SCT050 13/04 Q1019,RJCN,2021-10-19T02:00:00Z,43.57,144.97,13.0,4.0,200,13,,6.21,30.088583,,,,,,,,,,,FEW,3000,SCT,5000,,,,,VFR,,,,,,,,,,,,METAR,62.0
RJCM 190200Z 21010KT 9999 FEW030 SCT045 13/04 Q1018,RJCM,2021-10-19T02:00:00Z,43.88,144.17,13.0,4.0,210,10,,6.21,30.059055,,,,,,,,,,,FEW,3000,SCT,4500,,,,,VFR,,,,,,,,,,,,METAR,30.0
RJCK 190200Z 15005KT 9999 -SHRA FEW020 BKN030 10/06 Q1020,RJCK,2021-10-19T02:00:00Z,43.03,144.18,10.0,6.0,150,5,,6.21,30.11811,,,,,,,,,,-SHRA,FEW,2000,BKN,3000,,,,,MVFR,,,,,,,,,,,,METAR,94.0
RJCH 190200Z 17008KT 140V200 9999 FEW030 BKN050 BKN/// 15/07 Q1016,RJCH,2021-10-19T02:00:00Z,41.77,140.82,15.0,7.0,170,8,,6.21,30.0,,,,,,,,,,,FEW,3000,BKN,5000,,,,,VFR,,,,,,,,,,,,METAR,36.0
RJCC 190200Z 14017KT 9999 FEW020 BKN040 12/10 Q1016 RMK 1CU020 6CU040 A3003,RJCC,2021-10-19T02:00:00Z,42.77,141.68,12.0,10.0,140,17,,6.21,30.0,,,,,,,,,,,FEW,2000,BKN,4000,,,,,VFR,,,,,,,,,,,,SPECI,19.0
RJCB 190200Z VRB02KT 9999 BKN015 07/02 Q1019,RJCB,2021-10-19T02:00:00Z,42.72,143.22,7.0,2.0,0,2,,6.21,30.088583,,,,,,,,,,,BKN,1500,,,,,,,MVFR,,,,,,,,,,,,METAR,149.0
RJBT 190200Z 16004KT 090V200 9999 FEW030 SCT150 17/09 Q1015,RJBT,2021-10-19T02:00:00Z,35.5,134.8,17.0,9.0,160,4,,6.21,29.970472,,,,,,,,,,,FEW,3000,SCT,15000,,,,,VFR,,,,,,,,,,,,METAR,172.0
RJBE 190200Z VRB04KT 9999 VCSH FEW020 BKN050 19/12 Q1015,RJBE,2021-10-19T02:00:00Z,34.63,135.23,19.0,12.0,0,4,,6.21,29.970472,,,,,,,,,,VCSH,FEW,2000,BKN,5000,,,,,VFR,,,,,,,,,,,,METAR,5.0
RJBD 190200Z 30005KT 270V340 9999 FEW020 SCT030 BKN040 20/14 Q1015,RJBD,2021-10-19T02:00:00Z,33.67,135.37,20.0,14.0,300,5,,6.21,29.970472,,,,,,,,,,,FEW,2000,SCT,3000,BKN,4000,,,VFR,,,,,,,,,,,,METAR,91.0
RJBB 190200Z 32004KT 270V020 9999 -SHRA FEW020 BKN040 18/13 Q1016 NOSIG,RJBB,2021-10-19T02:00:00Z,34.43,135.25,18.0,13.0,320,4,,6.21,30.0,,,,,,TRUE,,,,-SHRA,FEW,2000,BKN,4000,,,,,VFR,,,,,,,,,,,,METAR,8.0
RJAW 190200Z 25005KT 220V280 9999 FEW015 BKN080 30/22 Q1013 RMK 2CU015 5AC080 A2991,RJAW,2021-10-19T02:00:00Z,24.78,141.32,30.0,22.0,250,5,,6.21,29.911417,,,,,,,,,,,FEW,1500,BKN,8000,,,,,VFR,,,,,,,,,,,,METAR,116.0
RJAH 190200Z 06010KT 9999 -SHRA FEW020 BKN035 BKN100 14/09 Q1017,RJAH,2021-10-19T02:00:00Z,36.17,140.42,14.0,9.0,60,10,,6.21,30.029528,,,,,,,,,,-SHRA,FEW,2000,BKN,3500,BKN,10000,,,VFR,,,,,,,,,,,,METAR,31.0
RJAF 190200Z VRB03KT 9999 FEW025 14/07 Q1015,RJAF,2021-10-19T02:00:00Z,36.17,137.92,14.0,7.0,0,3,,6.21,29.970472,,,,,,,,,,,FEW,2500,,,,,,,VFR,,,,,,,,,,,,METAR,652.0
RJAA 190200Z 02009KT 9999 -RA FEW015 BKN023 BKN120 15/10 Q1016 NOSIG RMK 1CU015 5SC023 7AC120 A3000 MOD TURB OBS AT 0145Z 40NM SW NARITA BTN 14000FT AND 13000FT IN DES A320 JJP410 P/FR,RJAA,2021-10-19T02:00:00Z,35.77,140.38,15.0,10.0,20,9,,6.21,30.0,,,,,,TRUE,,,,-RA,FEW,1500,BKN,2300,BKN,12000,,,MVFR,,,,,,,,,,,,METAR,36.0
RCTP 190200Z 04012KT 9999 FEW020 BKN035 BKN060 26/19 Q1020 NOSIG RMK A3012,RCTP,2021-10-19T02:00:00Z,25.07,121.22,26.0,19.0,40,12,,6.21,30.11811,,,,,,TRUE,,,,,FEW,2000,BKN,3500,BKN,6000,,,VFR,,,,,,,,,,,,SPECI,33.0
RCSS 190200Z 09013KT 9999 FEW020 SCT040 BKN090 25/15 Q1020 NOSIG RMK A3012,RCSS,2021-10-19T02:00:00Z,25.07,121.55,25.0,15.0,90,13,,6.21,30.11811,,,,,,TRUE,,,,,FEW,2000,SCT,4000,BKN,9000,,,VFR,,,,,,,,,,,,SPECI,8.0
RCNN 190200Z 06005KT 9999 FEW016 SCT120 28/20 Q1018 NOSIG RMK A3007,RCNN,2021-10-19T02:00:00Z,22.93,120.2,28.0,20.0,60,5,,6.21,30.059055,,,,,,TRUE,,,,,FEW,1600,SCT,12000,,,,,VFR,,,,,,,,,,,,SPECI,15.0
RCMQ 190200Z 36011KT 9999 FEW012 26/19 Q1018 NOSIG RMK A3008,RCMQ,2021-10-19T02:00:00Z,24.27,120.62,26.0,19.0,360,11,,6.21,30.059055,,,,,,TRUE,,,,,FEW,1200,,,,,,,VFR,,,,,,,,,,,,SPECI,202.0
RCKH 190200Z 17003KT 070V210 9999 FEW016 SCT025 28/21 Q1018 NOSIG RMK A3006,RCKH,2021-10-19T02:00:00Z,22.57,120.33,28.0,21.0,170,3,,6.21,30.059055,,,,,,TRUE,,,,,FEW,1600,SCT,2500,,,,,VFR,,,,,,,,,,,,SPECI,6.0
RCFN 190200Z 04005KT 340V090 9999 FEW012 SCT070 27/19 Q1020 NOSIG RMK A3012,RCFN,2021-10-19T02:00:00Z,22.77,121.1,27.0,19.0,40,5,,6.21,30.11811,,,,,,TRUE,,,,,FEW,1200,SCT,7000,,,,,VFR,,,,,,,,,,,,SPECI,42.0
PLCH 190200Z 10008KT 9999 SCT020 28/22 Q1010,PLCH,2021-10-19T02:00:00Z,1.98,-157.35,28.0,22.0,100,8,,6.21,29.822834,,,,,,,,,,,SCT,2000,,,,,,,VFR,,,,,,,,,,,,METAR,5.0
PKWA 190200Z AUTO 30003KT 10SM CLR 29/24 A2984 RMK AO2 T02940243,PKWA,2021-10-19T02:00:00Z,8.72,167.72,29.4,24.3,300,3,,10.0,29.840551,,,TRUE,TRUE,,,,,,,CLR,,,,,,,,VFR,,,,,,,,,,,,SPECI,6.0
OTHH 190200Z AUTO 32011KT CAVOK 28/18 Q1010 NOSIG,OTHH,2021-10-19T02:00:00Z,25.27,51.6,28.0,18.0,320,11,,6.21,29.822834,,,TRUE,,,TRUE,,,,,CAVOK,,,,,,,,VFR,,,,,,,,,,,,METAR,3.0
OTBD 190200Z AUTO 31008KT 280V340 CAVOK 29/18 Q1011 NOSIG,OTBD,2021-10-19T02:00:00Z,25.25,51.57,29.0,18.0,310,8,,6.21,29.852362,,,TRUE,,,TRUE,,,,,CAVOK,,,,,,,,VFR,,,,,,,,,,,,METAR,13.0
OSLK 190200Z 10006KT 9999 FEW026 SCT030 BKN100 18/17 Q1016,OSLK,2021-10-19T02:00:00Z,35.4,35.95,18.0,17.0,100,6,,6.21,30.0,,,,,,,,,,,FEW,2600,SCT,3000,BKN,10000,,,VFR,,,,,,,,,,,,METAR,47.0
OSDI 190200Z 22005KT CAVOK 13/10 Q1018,OSDI,2021-10-19T02:00:00Z,33.42,36.52,13.0,10.0,220,5,,6.21,30.059055,,,,,,,,,,,CAVOK,,,,,,,,VFR,,,,,,,,,,,,METAR,614.0
ORSU 190200Z 32005KT CAVOK 12/05 Q1019,ORSU,2021-10-19T02:00:00Z,35.57,45.32,12.0,5.0,320,5,,6.21,30.088583,,,,,,,,,,,CAVOK,,,,,,,,VFR,,,,,,,,,,,,METAR,760.0
ORBI 190200Z 31004KT CAVOK 17/10 Q1015 NOSIG,ORBI,2021-10-19T02:00:00Z,33.27,44.23,17.0,10.0,310,4,,6.21,29.970472,,,,,,TRUE,,,,,CAVOK,,,,,,,,VFR,,,,,,,,,,,,METAR,37.0
OPSK 190200Z 00000KT 1500 BR 17/13 Q1008 TEMPO 1200,OPSK,2021-10-19T02:00:00Z,27.72,68.8,17.0,13.0,0,0,,0.93,29.763779,,,,,,,,,,BR,,,,,,,,,,,,,,,,,,,,,METAR,62.0
OPPS 190200Z 18004KT 4000 HZ 19/13 Q1010,OPPS,2021-10-19T02:00:00Z,33.98,71.52,19.0,13.0,180,4,,2.49,29.822834,,,,,,,,,,HZ,,,,,,,,,,,,,,,,,,,,,METAR,356.0
OPNH 190200Z 00000KT 2000 FU NSC 18/15 Q1007 BECMG 2500 FU,OPNH,2021-10-19T02:00:00Z,26.22,68.38,18.0,15.0,0,0,,1.24,29.734253,,,,,,,,,,FU,CLR,,,,,,,,IFR,,,,,,,,,,,,METAR,30.0
OPMT 190200Z 00000KT 1000 FU NSC 22/18 Q1008 TEMPO 0800,OPMT,2021-10-19T02:00:00Z,30.2,71.42,22.0,18.0,0,0,,0.62,29.763779,,,,,,,,,,FU,CLR,,,,,,,,LIFR,,,,,,,,,,,,SPECI,122.0
OPKC 190200Z 03004KT 4000 FU NSC 18/16 Q1010 NOSIG,OPKC,2021-10-19T02:00:00Z,24.9,67.13,18.0,16.0,30,4,,2.49,29.822834,,,,,,TRUE,,,,FU,CLR,,,,,,,,IFR,,,,,,,,,,,,METAR,20.0
OMSJ 190200Z 20007KT 2500 HZ NSC 28/24 Q1009 NOSIG,OMSJ,2021-10-19T02:00:00Z,25.32,55.52,28.0,24.0,200,7,,1.55,29.793306,,,,,,TRUE,,,,HZ,CLR,,,,,,,,IFR,,,,,,,,,,,,METAR,33.0
OMRK 190200Z 19005KT 7000 NSC 27/22 Q1009 A2981,OMRK,2021-10-19T02:00:00Z,25.62,55.93,27.0,22.0,190,5,,4.35,29.793306,,,,,,,,,,,CLR,,,,,,,,MVFR,,,,,,,,,,,,METAR,18.0
OMFJ 190200Z 31006KT 280V340 6000 NSC 29/22 Q1008 A2979,OMFJ,2021-10-19T02:00:00Z,25.1,56.32,29.0,22.0,310,6,,3.73,29.763779,,,,,,,,,,,CLR,,,,,,,,MVFR,,,,,,,,,,,,METAR,27.0
OMDW 190200Z 17008KT 3500 HZ FEW020 27/25 Q1010 NOSIG,OMDW,2021-10-19T02:00:00Z,24.9,55.17,27.0,25.0,170,8,,2.17,29.822834,,,,,,TRUE,,,,HZ,FEW,2000,,,,,,,IFR,,,,,,,,,,,,METAR,34.0
OMDB 190200Z 19007KT 6000 NSC 28/25 Q1008 TEMPO 4000 HZ,OMDB,2021-10-19T02:00:00Z,25.25,55.37,28.0,25.0,190,7,,3.73,29.763779,,,,,,,,,,,CLR,,,,,,,,MVFR,,,,,,,,,,,,SPECI,5.0
OMAL 190200Z 07003KT 4500 HZ NSC 25/22 Q1011 NOSIG,OMAL,2021-10-19T02:00:00Z,24.25,55.6,25.0,22.0,70,3,,2.8,29.852362,,,,,,TRUE,,,,HZ,CLR,,,,,,,,IFR,,,,,,,,,,,,METAR,247.0
OMAD 190200Z 30004KT 8000 NSC 30/23 Q1009 NOSIG,OMAD,2021-10-19T02:00:00Z,24.42,54.47,30.0,23.0,300,4,,4.97,29.793306,,,,,,TRUE,,,,,CLR,,,,,,,,MVFR,,,,,,,,,,,,METAR,9.0
OMAA 190200Z 17003KT 8000 NSC 28/24 Q1009 NOSIG,OMAA,2021-10-19T02:00:00Z,24.42,54.65,28.0,24.0,170,3,,4.97,29.793306,,,,,,TRUE,,,,,CLR,,,,,,,,MVFR,,,,,,,,,,,,METAR,13.0
OLBA 190200Z 11003KT 8000 SCT042 22/16 Q1018 NOSIG,OLBA,2021-10-19T02:00:00Z,33.82,35.48,22.0,16.0,110,3,,4.97,30.059055,,,,,,TRUE,,,,,SCT,4200,,,,,,,MVFR,,,,,,,,,,,,METAR,29.0
OKBK 190200Z 01007KT CAVOK 26/10 Q1013 NOSIG,OKBK,2021-10-19T02:00:00Z,29.22,47.97,26.0,10.0,10,7,,6.21,29.911417,,,,,,TRUE,,,,,CAVOK,,,,,,,,VFR,,,,,,,,,,,,METAR,55.0
OJAM 190200Z 29006KT 8000 FEW030 16/12 Q1020 NOSIG,OJAM,2021-10-19T02:00:00Z,31.98,35.98,16.0,12.0,290,6,,4.97,30.11811,,,,,,TRUE,,,,,FEW,3000,,,,,,,MVFR,,,,,,,,,,,,METAR,765.0
OJAI 190200Z 29006KT 5000 HZ SCT035 SCT100 13/10 Q1020 NOSIG,OJAI,2021-10-19T02:00:00Z,31.72,36.0,13.0,10.0,290,6,,3.11,30.11811,,,,,,TRUE,,,,HZ,SCT,3500,SCT,10000,,,,,MVFR,,,,,,,,,,,,METAR,723.0
OIZJ 190200Z VRB02KT 6000 NSC 27/24 Q1007,OIZJ,2021-10-19T02:00:00Z,25.65,57.8,27.0,24.0,0,2,,3.73,29.734253,,,,,,,,,,,CLR,,,,,,,,MVFR,,,,,,,,,,,,METAR,6.0
OIZI 190200Z 01006KT CAVOK 20/M05 Q1013,OIZI,2021-10-19T02:00:00Z,27.23,60.72,20.0,-5.0,10,6,,6.21,29.911417,,,,,,,,,,,CAVOK,,,,,,,,VFR,,,,,,,,,,,,METAR,622.0
OIZH 190200Z 00000KT CAVOK 09/M13 Q1018 A3009,OIZH,2021-10-19T02:00:00Z,29.47,60.92,9.0,-13.0,0,0,,6.21,30.059055,,,,,,,,,,,CAVOK,,,,,,,,VFR,,,,,,,,,,,,METAR,1378.0
OIZB 190200Z 11004KT CAVOK 09/M11 Q1015,OIZB,2021-10-19T02:00:00Z,31.1,61.55,9.0,-11.0,110,4,,6.21,29.970472,,,,,,,,,,,CAVOK,,,,,,,,VFR,,,,,,,,,,,,METAR,483.0
OIYY 190200Z 15002KT CAVOK 14/M07 Q1019,OIYY,2021-10-19T02:00:00Z,31.9,54.28,14.0,-7.0,150,2,,6.21,30.088583,,,,,,,,,,,CAVOK,,,,,,,,VFR,,,,,,,,,,,,METAR,1226.0
OITT 190200Z 03004KT 9999 FEW030 08/06 Q1020 A3012,OITT,2021-10-19T02:00:00Z,38.13,46.23,8.0,6.0,30,4,,6.21,30.11811,,,,,,,,,,,FEW,3000,,,,,,,VFR,,,,,,,,,,,,METAR,1353.0
OITR 190200Z 21002KT 9999 FEW040 05/02 Q1018,OITR,2021-10-19T02:00:00Z,37.67,45.07,5.0,2.0,210,2,,6.21,30.059055,,,,,,,,,,,FEW,4000,,,,,,,VFR,,,,,,,,,,,,METAR,1312.0
OITP 190200Z 33006KT 7000 RA FEW030CB BKN035 OVC070 15/14 Q1015,OITP,2021-10-19T02:00:00Z,39.6,47.88,15.0,14.0,330,6,,4.35,29.970472,,,,,,,,,,RA,FEW,3000,BKN,3500,OVC,7000,,,MVFR,,,,,,,,,,,,METAR,72.0
OITM 190200Z 08006KT CAVOK 09/M01 Q1018,OITM,2021-10-19T02:00:00Z,37.35,46.15,9.0,-1.0,80,6,,6.21,30.059055,,,,,,,,,,,CAVOK,,,,,,,,VFR,,,,,,,,,,,,METAR,1340.0
OISY 190200Z 00000KT CAVOK 08/M07 Q1023,OISY,2021-10-19T02:00:00Z,30.7,51.55,8.0,-7.0,0,0,,6.21,30.206694,,,,,,,,,,,CAVOK,,,,,,,,VFR,,,,,,,,,,,,METAR,1800.0
OISS 190200Z 00000KT CAVOK 09/M07 Q1019 A3011,OISS,2021-10-19T02:00:00Z,29.53,52.58,9.0,-7.0,0,0,,6.21,30.088583,,,,,,,,,,,CAVOK,,,,,,,,VFR,,,,,,,,,,,,METAR,1484.0
OISL 190200Z 00000KT CAVOK 19/05 Q1011 A2988,OISL,2021-10-19T02:00:00Z,27.67,54.37,19.0,5.0,0,0,,6.21,29.852362,,,,,,,,,,,CAVOK,,,,,,,,VFR,,,,,,,,,,,,METAR,804.0
OISF 190200Z 35004KT CAVOK 13/M03 Q1017 A3005,OISF,2021-10-19T02:00:00Z,28.9,53.72,13.0,-3.0,350,4,,6.21,30.029528,,,,,,,,,,,CAVOK,,,,,,,,VFR,,,,,,,,,,,,METAR,1305.0
OINR 190200Z 00000KT 9999 SCT025 17/15 Q1013,OINR,2021-10-19T02:00:00Z,36.9,50.67,17.0,15.0,0,0,,6.21,29.911417,,,,,,,,,,,SCT,2500,,,,,,,VFR,,,,,,,,,,,,METAR,-19.0
OINN 190200Z 18002KT 9999 SCT025 18/15 Q1014,OINN,2021-10-19T02:00:00Z,36.67,51.47,18.0,15.0,180,2,,6.21,29.940945,,,,,,,,,,,SCT,2500,,,,,,,VFR,,,,,,,,,,,,METAR,-25.0
OING 190200Z 00000KT 8000 FEW030 18/16 Q1017,OING,2021-10-19T02:00:00Z,36.9,54.4,18.0,16.0,0,0,,4.97,30.029528,,,,,,,,,,,FEW,3000,,,,,,,MVFR,,,,,,,,,,,,METAR,0.0
OINE 190200Z 00000KT 9999 FEW030 SCT100 16/14 Q1015,OINE,2021-10-19T02:00:00Z,37.38,55.45,16.0,14.0,0,0,,6.21,29.970472,,,,,,,,,,,FEW,3000,SCT,10000,,,,,VFR,,,,,,,,,,,,METAR,125.0
OIMQ 190200Z 00000KT CAVOK 13/M11 Q1016,OIMQ,2021-10-19T02:00:00Z,35.27,58.47,13.0,-11.0,0,0,,6.21,30.0,,,,,,,,,,,CAVOK,,,,,,,,VFR,,,,,,,,,,,,METAR,1101.0
OIMN 190200Z 28004KT 5000 BR FEW015 10/08 Q1017,OIMN,2021-10-19T02:00:00Z,37.48,57.3,10.0,8.0,280,4,,3.11,30.029528,,,,,,,,,,BR,FEW,1500,,,,,,,MVFR,,,,,,,,,,,,METAR,1065.0
OIMM 190200Z 20004KT CAVOK 11/M01 Q1016 A3001,OIMM,2021-10-19T02:00:00Z,36.23,59.63,11.0,-1.0,200,4,,6.21,30.0,,,,,,,,,,,CAVOK,,,,,,,,VFR,,,,,,,,,,,,METAR,995.0
OIMD 190200Z 00000KT CAVOK 13/M09 Q1012,OIMD,2021-10-19T02:00:00Z,34.38,58.63,13.0,-9.0,0,0,,6.21,29.88189,,,,,,,,,,,CAVOK,,,,,,,,VFR,,,,,,,,,,,,METAR,1097.0
OIMC 190200Z 33010KT CAVOK 13/M05 Q1013,OIMC,2021-10-19T02:00:00Z,36.5,61.07,13.0,-5.0,330,10,,6.21,29.911417,,,,,,,,,,,CAVOK,,,,,,,,VFR,,,,,,,,,,,,METAR,287.0
OIMB 190200Z 09004KT CAVOK 09/M13 Q1017 A3006,OIMB,2021-10-19T02:00:00Z,32.9,59.28,9.0,-13.0,90,4,,6.21,30.029528,,,,,,,,,,,CAVOK,,,,,,,,VFR,,,,,,,,,,,,METAR,1512.0
OIKQ 190200Z 00000KT 4000 BR FEW010 28/25 Q1007,OIKQ,2021-10-19T02:00:00Z,26.75,55.9,28.0,25.0,0,0,,2.49,29.734253,,,,,,,,,,BR,FEW,1000,,,,,,,IFR,,,,,,,,,,,,METAR,9.0
OIKK 190200Z 21004KT CAVOK 09/M05 Q1020 A3015,OIKK,2021-10-19T02:00:00Z,30.25,56.97,9.0,-5.0,210,4,,6.21,30.11811,,,,,,,,,,,CAVOK,,,,,,,,VFR,,,,,,,,,,,,METAR,1749.0
OIKB 190200Z 01006KT 4000 BR NSC 26/22 Q1008 A2978,OIKB,2021-10-19T02:00:00Z,27.22,56.37,26.0,22.0,10,6,,2.49,29.763779,,,,,,,,,,BR,CLR,,,,,,,,IFR,,,,,,,,,,,,METAR,6.0
OIIP 190200Z 30012KT CAVOK 11/M01 Q1016 A3001,OIIP,2021-10-19T02:00:00Z,35.78,50.83,11.0,-1.0,300,12,,6.21,30.0,,,,,,,,,,,CAVOK,,,,,,,,VFR,,,,,,,,,,,,METAR,1270.0
OIIK 190200Z 29002KT CAVOK 08/M02 Q1016,OIIK,2021-10-19T02:00:00Z,36.25,50.05,8.0,-2.0,290,2,,6.21,30.0,,,,,,,,,,,CAVOK,,,,,,,,VFR,,,,,,,,,,,,METAR,1278.0
OIII 190200Z 31006KT 9999 FEW100 15/M03 Q1016 A3001 NOSIG,OIII,2021-10-19T02:00:00Z,35.68,51.3,15.0,-3.0,310,6,,6.21,30.0,,,,,,TRUE,,,,,FEW,10000,,,,,,,VFR,,,,,,,,,,,,METAR,1182.0
OIIE 190200Z 27006KT CAVOK 14/M03 Q1015,OIIE,2021-10-19T02:00:00Z,35.42,51.15,14.0,-3.0,270,6,,6.21,29.970472,,,,,,,,,,,CAVOK,,,,,,,,VFR,,,,,,,,,,,,METAR,993.0
OIFS 190200Z 19002KT CAVOK M02/M17 Q1023,OIFS,2021-10-19T02:00:00Z,32.28,50.85,-2.0,-17.0,190,2,,6.21,30.206694,,,,,,,,,,,CAVOK,,,,,,,,VFR,,,,,,,,,,,,METAR,2042.0
OIFM 190200Z 33004KT CAVOK 04/M16 Q1020 A3014,OIFM,2021-10-19T02:00:00Z,32.75,51.87,4.0,-16.0,330,4,,6.21,30.11811,,,,,,,,,,,CAVOK,,,,,,,,VFR,,,,,,,,,,,,METAR,1539.0
OICI 190200Z 12006KT CAVOK 10/M01 Q1020,OICI,2021-10-19T02:00:00Z,33.58,46.4,10.0,-1.0,120,6,,6.21,30.11811,,,,,,,,,,,CAVOK,,,,,,,,VFR,,,,,,,,,,,,METAR,1323.0
OICC 190200Z 00000KT CAVOK 10/00 Q1020 A3012,OICC,2021-10-19T02:00:00Z,34.35,47.17,10.0,0.0,0,0,,6.21,30.11811,,,,,,,,,,,CAVOK,,,,,,,,VFR,,,,,,,,,,,,METAR,1310.0
OIBQ 190200Z 34023KT CAVOK 28/17 Q1011 A2986,OIBQ,2021-10-19T02:00:00Z,29.27,50.32,28.0,17.0,340,23,,6.21,29.852362,,,,,,,,,,,CAVOK,,,,,,,,VFR,,,,,,,,,,,,METAR,3.0
OIBL 190200Z 05004KT 3000 BR NSC 26/24 Q1008,OIBL,2021-10-19T02:00:00Z,26.53,54.82,26.0,24.0,50,4,,1.86,29.763779,,,,,,,,,,BR,CLR,,,,,,,,IFR,,,,,,,,,,,,METAR,25.0
OIBK 190200Z 33008KT 4000 BR NSC 28/24 Q1007,OIBK,2021-10-19T02:00:00Z,26.53,53.98,28.0,24.0,330,8,,2.49,29.734253,,,,,,,,,,BR,CLR,,,,,,,,IFR,,,,,,,,,,,,METAR,27.0
OIBB 190200Z 33014KT 7000 NSC 28/12 Q1010 A2985,OIBB,2021-10-19T02:00:00Z,28.93,50.83,28.0,12.0,330,14,,4.35,29.822834,,,,,,,,,,,CLR,,,,,,,,MVFR,,,,,,,,,,,,METAR,15.0
OIAW 190200Z 30006KT CAVOK 22/07 Q1011,OIAW,2021-10-19T02:00:00Z,31.33,48.77,22.0,7.0,300,6,,6.21,29.852362,,,,,,,,,,,CAVOK,,,,,,,,VFR,,,,,,,,,,,,METAR,25.0
OIAM 190200Z 32006KT CAVOK 19/11 Q1012,OIAM,2021-10-19T02:00:00Z,30.55,49.15,19.0,11.0,320,6,,6.21,29.88189,,,,,,,,,,,CAVOK,,,,,,,,VFR,,,,,,,,,,,,METAR,7.0
OIAH 190200Z 00000KT CAVOK 13/M03 Q1016,OIAH,2021-10-19T02:00:00Z,30.33,50.83,13.0,-3.0,0,0,,6.21,30.0,,,,,,,,,,,CAVOK,,,,,,,,VFR,,,,,,,,,,,,METAR,730.0
OIAG 190200Z 35006KT 8000 NSC 18/03 Q1012,OIAG,2021-10-19T02:00:00Z,30.73,49.68,18.0,3.0,350,6,,4.97,29.88189,,,,,,,,,,,CLR,,,,,,,,MVFR,,,,,,,,,,,,METAR,17.0
OIAA 190200Z 33006KT CAVOK 22/08 Q1012,OIAA,2021-10-19T02:00:00Z,30.35,48.22,22.0,8.0,330,6,,6.21,29.88189,,,,,,,,,,,CAVOK,,,,,,,,VFR,,,,,,,,,,,,METAR,4.0
OEYN 190200Z 25006KT CAVOK 25/11 Q1006 NOSIG,OEYN,2021-10-19T02:00:00Z,24.13,38.07,25.0,11.0,250,6,,6.21,29.704725,,,,,,TRUE,,,,,CAVOK,,,,,,,,VFR,,,,,,,,,,,,METAR,20.0
OEWJ 190200Z 32013KT CAVOK 25/21 Q1010 NOSIG,OEWJ,2021-10-19T02:00:00Z,26.18,36.47,25.0,21.0,320,13,,6.21,29.822834,,,,,,TRUE,,,,,CAVOK,,,,,,,,VFR,,,,,,,,,,,,METAR,8.0
OEWD 190200Z 11004KT CAVOK 23/08 Q1015 NOSIG,OEWD,2021-10-19T02:00:00Z,20.5,45.2,23.0,8.0,110,4,,6.21,29.970472,,,,,,TRUE,,,,,CAVOK,,,,,,,,VFR,,,,,,,,,,,,METAR,629.0
OETR 190200Z 31004KT CAVOK 14/10 Q1019 NOSIG,OETR,2021-10-19T02:00:00Z,31.7,38.73,14.0,10.0,310,4,,6.21,30.088583,,,,,,TRUE,,,,,CAVOK,,,,,,,,VFR,,,,,,,,,,,,METAR,854.0
OETF 190200Z 21008KT CAVOK 22/M05 Q1022 NOSIG,OETF,2021-10-19T02:00:00Z,21.47,40.53,22.0,-5.0,210,8,,6.21,30.177166,,,,,,TRUE,,,,,CAVOK,,,,,,,,VFR,,,,,,,,,,,,METAR,1460.0
OETB 190200Z 31003KT CAVOK 19/08 Q1017 NOSIG,OETB,2021-10-19T02:00:00Z,28.37,36.62,19.0,8.0,310,3,,6.21,30.029528,,,,,,TRUE,,,,,CAVOK,,,,,,,,VFR,,,,,,,,,,,,METAR,770.0
OESK 190200Z 04003KT CAVOK 20/05 Q1019,OESK,2021-10-19T02:00:00Z,29.78,40.1,20.0,5.0,40,3,,6.21,30.088583,,,,,,,,,,,CAVOK,,,,,,,,VFR,,,,,,,,,,,,METAR,671.0
OESH 190200Z 00000KT CAVOK 23/00 Q1014 NOSIG,OESH,2021-10-19T02:00:00Z,17.47,47.12,23.0,0.0,0,0,,6.21,29.940945,,,,,,TRUE,,,,,CAVOK,,,,,,,,VFR,,,,,,,,,,,,METAR,720.0
OERR 190200Z 28005KT CAVOK 19/03 Q1016 NOSIG,OERR,2021-10-19T02:00:00Z,30.9,41.13,19.0,3.0,280,5,,6.21,30.0,,,,,,TRUE,,,,,CAVOK,,,,,,,,VFR,,,,,,,,,,,,METAR,554.0
OERK 190200Z 21002KT CAVOK 21/05 Q1017 NOSIG,OERK,2021-10-19T02:00:00Z,24.95,46.72,21.0,5.0,210,2,,6.21,30.029528,,,,,,TRUE,,,,,CAVOK,,,,,,,,VFR,,,,,,,,,,,,METAR,618.0
OERF 190200Z 00000KT CAVOK 19/01 Q1014 NOSIG,OERF,2021-10-19T02:00:00Z,29.62,43.48,19.0,1.0,0,0,,6.21,29.940945,,,,,,TRUE,,,,,CAVOK,,,,,,,,VFR,,,,,,,,,,,,METAR,441.0
OEPA 190200Z 00000KT CAVOK 19/08 Q1015 NOSIG,OEPA,2021-10-19T02:00:00Z,28.33,46.12,19.0,8.0,0,0,,6.21,29.970472,,,,,,TRUE,,,,,CAVOK,,,,,,,,VFR,,,,,,,,,,,,METAR,361.0
OENG 190200Z 00000KT CAVOK 18/00 Q1019 NOSIG,OENG,2021-10-19T02:00:00Z,17.62,44.42,18.0,0.0,0,0,,6.21,30.088583,,,,,,TRUE,,,,,CAVOK,,,,,,,,VFR,,,,,,,,,,,,METAR,1210.0
OEMA 190200Z 00000KT CAVOK 25/M07 Q1016 NOSIG,OEMA,2021-10-19T02:00:00Z,24.55,39.7,25.0,-7.0,0,0,,6.21,30.0,,,,,,TRUE,,,,,CAVOK,,,,,,,,VFR,,,,,,,,,,,,METAR,639.0
OEKM 190200Z 06003KT CAVOK 13/M01 Q1026 NOSIG,OEKM,2021-10-19T02:00:00Z,18.3,42.78,13.0,-1.0,60,3,,6.21,30.295275,,,,,,TRUE,,,,,CAVOK,,,,,,,,VFR,,,,,,,,,,,,METAR,2038.0
OEKJ 190200Z 27006KT CAVOK 22/05 Q1018,OEKJ,2021-10-19T02:00:00Z,24.07,47.58,22.0,5.0,270,6,,6.21,30.059055,,,,,,,,,,,CAVOK,,,,,,,,VFR,,,,,,,,,,,,METAR,487.0
OEJN 190200Z 32002KT 7000 NSC 28/25 Q1008 NOSIG,OEJN,2021-10-19T02:00:00Z,21.68,39.15,28.0,25.0,320,2,,4.35,29.763779,,,,,,TRUE,,,,,CLR,,,,,,,,MVFR,,,,,,,,,,,,METAR,8.0
OEJB 190200Z AUTO 30007KT CAVOK 23/14 Q1012 NOSIG,OEJB,2021-10-19T02:00:00Z,27.05,49.4,23.0,14.0,300,7,,6.21,29.88189,,,TRUE,,,TRUE,,,,,CAVOK,,,,,,,,VFR,,,,,,,,,,,,METAR,6.0
OEHL 190200Z 24006KT CAVOK 20/01 Q1017,OEHL,2021-10-19T02:00:00Z,27.43,41.68,20.0,1.0,240,6,,6.21,30.029528,,,,,,,,,,,CAVOK,,,,,,,,VFR,,,,,,,,,,,,METAR,1002.0
OEGT 190200Z 29006KT CAVOK 14/12 Q1017 NOSIG,OEGT,2021-10-19T02:00:00Z,31.42,37.27,14.0,12.0,290,6,,6.21,30.029528,,,,,,TRUE,,,,,CAVOK,,,,,,,,VFR,,,,,,,,,,,,METAR,512.0
OEGS 190200Z 00000KT CAVOK 21/07 Q1015,OEGS,2021-10-19T02:00:00Z,26.3,43.77,21.0,7.0,0,0,,6.21,29.970472,,,,,,,,,,,CAVOK,,,,,,,,VFR,,,,,,,,,,,,METAR,647.0
OEGN 190200Z 35003KT 7000 NSC 27/25 Q1009 NOSIG,OEGN,2021-10-19T02:00:00Z,16.9,42.58,27.0,25.0,350,3,,4.35,29.793306,,,,,,TRUE,,,,,CLR,,,,,,,,MVFR,,,,,,,,,,,,METAR,5.0
OEDR 190200Z 29008KT CAVOK 25/17 Q1011 NOSIG,OEDR,2021-10-19T02:00:00Z,26.27,50.17,25.0,17.0,290,8,,6.21,29.852362,,,,,,TRUE,,,,,CAVOK,,,,,,,,VFR,,,,,,,,,,,,METAR,17.0
OEDF 190200Z 29009KT CAVOK 23/15 Q1011 NOSIG,OEDF,2021-10-19T02:00:00Z,26.43,49.82,23.0,15.0,290,9,,6.21,29.852362,,,,,,TRUE,,,,,CAVOK,,,,,,,,VFR,,,,,,,,,,,,METAR,15.0
OEBH 190200Z 00000KT CAVOK 16/M01 Q1019 NOSIG,OEBH,2021-10-19T02:00:00Z,19.98,42.62,16.0,-1.0,0,0,,6.21,30.088583,,,,,,TRUE,,,,,CAVOK,,,,,,,,VFR,,,,,,,,,,,,METAR,1167.0
OEBA 190200Z 18004KT CAVOK 19/03 Q1023 NOSIG,OEBA,2021-10-19T02:00:00Z,20.3,41.63,19.0,3.0,180,4,,6.21,30.206694,,,,,,TRUE,,,,,CAVOK,,,,,,,,VFR,,,,,,,,,,,,METAR,1659.0
OEAR 190200Z 08002KT CAVOK 27/14 Q1010,OEAR,2021-10-19T02:00:00Z,,,27.0,14.0,80,2,,6.21,29.822834,,,,,,,,,,,CAVOK,,,,,,,,VFR,,,,,,,,,,,,METAR,
OEAO 190200Z 00000KT CAVOK 23/M04 Q1015,OEAO,2021-10-19T02:00:00Z,26.48,38.12,23.0,-4.0,0,0,,6.21,29.970472,,,,,,,,,,,CAVOK,,,,,,,,VFR,,,,,,,,,,,,METAR,615.0
OEAH 190200Z 31005KT CAVOK 24/08 Q1012 NOSIG,OEAH,2021-10-19T02:00:00Z,25.28,49.48,24.0,8.0,310,5,,6.21,29.88189,,,,,,TRUE,,,,,CAVOK,,,,,,,,VFR,,,,,,,,,,,,METAR,180.0
OEAB 190200Z 00000KT CAVOK 13/M06 Q1026 NOSIG,OEAB,2021-10-19T02:00:00Z,18.23,42.65,13.0,-6.0,0,0,,6.21,30.295275,,,,,,TRUE,,,,,CAVOK,,,,,,,,VFR,,,,,,,,,,,,METAR,2092.0
OBBI 190200Z 33015KT CAVOK 30/17 Q1011 NOSIG,OBBI,2021-10-19T02:00:00Z,26.27,50.63,30.0,17.0,330,15,,6.21,29.852362,,,,,,TRUE,,,,,CAVOK,,,,,,,,VFR,,,,,,,,,,,,METAR,6.0
NZWN 190200Z AUTO 33021KT 300V010 9999 NCD 17/08 Q1016 NOSIG,NZWN,2021-10-19T02:00:00Z,-41.32,174.8,17.0,8.0,330,21,,6.21,30.0,,,TRUE,,,TRUE,,,,,CLR,,,,,,,,VFR,,,,,,,,,,,,METAR,12.0
NZCH 190200Z AUTO 20022KT 9999 NCD 15/09 Q1014 NOSIG,NZCH,2021-10-19T02:00:00Z,-43.48,172.52,15.0,9.0,200,22,,6.21,29.940945,,,TRUE,,,TRUE,,,,,CLR,,,,,,,,VFR,,,,,,,,,,,,METAR,36.0
NZAA 190200Z AUTO 22007KT 180V260 9999 NCD 18/12 Q1023 NOSIG,NZAA,2021-10-19T02:00:00Z,-37.02,174.8,18.0,12.0,220,7,,6.21,30.206694,,,TRUE,,,TRUE,,,,,CLR,,,,,,,,VFR,,,,,,,,,,,,METAR,7.0
NWWW 190200Z AUTO 23008KT 200V260 9999 BKN037 OVC047 28/22 Q1014 TEMPO 4000 SHRA,NWWW,2021-10-19T02:00:00Z,-22.02,166.22,28.0,22.0,230,8,,6.21,29.940945,,,TRUE,,,,,,,,BKN,3700,OVC,4700,,,,,VFR,,,,,,,,,,,,SPECI,16.0
NVVW 190200Z 07005KT 9999 SCT022 BKN045 29/24 Q1015,NVVW,2021-10-19T02:00:00Z,-19.45,169.22,29.0,24.0,70,5,,6.21,29.970472,,,,,,,,,,,SCT,2200,BKN,4500,,,,,VFR,,,,,,,,,,,,METAR,5.0
NVVV 190200Z 05008KT 9999 SCT020 BKN300 30/24 Q1014,NVVV,2021-10-19T02:00:00Z,-17.68,168.3,30.0,24.0,50,8,,6.21,29.940945,,,,,,,,,,,SCT,2000,BKN,30000,,,,,VFR,,,,,,,,,,,,METAR,23.0
NVSS 190200Z 07004KT 9999 SCT020 FEW025CB BKN040 27/22 Q1014,NVSS,2021-10-19T02:00:00Z,-15.52,167.22,27.0,22.0,70,4,,6.21,29.940945,,,,,,,,,,,SCT,2000,FEW,2500,BKN,4000,,,VFR,,,,,,,,,,,,METAR,47.0
NTAA 190200Z 07014KT 9999 VCSH FEW020 SCT040 BKN066 28/21 Q1015 NOSIG,NTAA,2021-10-19T02:00:00Z,-17.55,-149.62,28.0,21.0,70,14,,6.21,29.970472,,,,,,TRUE,,,,VCSH,FEW,2000,SCT,4000,BKN,6600,,,VFR,,,,,,,,,,,,METAR,2.0
NSFA 190200Z 02015KT 9999 SCT022 33/25 Q1012,NSFA,2021-10-19T02:00:00Z,-13.83,-172.0,33.0,25.0,20,15,,6.21,29.88189,,,,,,,,,,,SCT,2200,,,,,,,VFR,,,,,,,,,,,,METAR,6.0
NIUE 190200Z 11014KT 9999 SCT018 BKN030 26/21 Q1017 RMK: VCSH TO THE SSW,NIUE,2021-10-19T02:00:00Z,-19.07,-169.92,26.0,21.0,110,14,,6.21,30.029528,,,,,,,,,,,SCT,1800,BKN,3000,,,,,MVFR,,,,,,,,,,,,METAR,22.0
NGTA 190200Z 06007KT 99 99 FEW,NGTA,2021-10-19T02:00:00Z,1.37,173.13,,,60,7,,,,,,,,,,,,,,,,,,,,,,,,,,,,,,,,,,METAR,8.0
NGFU 190200Z 04010KT 9999 SCT016CB SCT018TCU OVC100 28/24 Q1011,NGFU,2021-10-19T02:00:00Z,-8.52,179.18,28.0,24.0,40,10,,6.21,29.852362,,,,,,,,,,,SCT,1600,SCT,1800,OVC,10000,,,VFR,,,,,,,,,,,,METAR,2.0
NFTV 190200Z 12007KT 9999 FEW010 FEW017TCU BKN040 27/21 Q1017,NFTV,2021-10-19T02:00:00Z,-18.58,-173.97,27.0,21.0,120,7,,6.21,30.029528,,,,,,,,,,,FEW,1000,FEW,1700,BKN,4000,,,VFR,,,,,,,,,,,,METAR,71.0
NFTL 190200Z 10016KT 9999 FEW017 26/17 Q1018 RMK DRY AIR 56%,NFTL,2021-10-19T02:00:00Z,-19.78,-174.33,26.0,17.0,100,16,,6.21,30.059055,,,,,,,,,,,FEW,1700,,,,,,,VFR,,,,,,,,,,,,SPECI,10.0
NFTF 190200Z 11010KT 9999 FEW018 26/23 Q1019,NFTF,2021-10-19T02:00:00Z,-21.23,-175.15,26.0,23.0,110,10,,6.21,30.088583,,,,,,,,,,,FEW,1800,,,,,,,VFR,,,,,,,,,,,,METAR,38.0
NFNA 190200Z 12013KT 9999 BKN020TCU 30/23 Q1016,NFNA,2021-10-19T02:00:00Z,-18.05,178.57,30.0,23.0,120,13,,6.21,30.0,,,,,,,,,,,BKN,2000,,,,,,,MVFR,,,,,,,,,,,,METAR,6.0
NFFN 190200Z 28014KT 9999 SCT028TCU 30/23 Q1014 NOSIG,NFFN,2021-10-19T02:00:00Z,-17.75,177.45,30.0,23.0,280,14,,6.21,29.940945,,,,,,TRUE,,,,,SCT,2800,,,,,,,VFR,,,,,,,,,,,,METAR,14.0
NCSW 190200Z AUTO 08002KT //// ////// 30/24 Q1013,NCSW,2021-10-19T02:00:00Z,,,30.0,24.0,80,2,,,29.911417,,,TRUE,,,,,,,,,,,,,,,,,,,,,,,,,,,,METAR,
NCRK 190200Z AUTO 34001KT //// ////// 28/24 Q1011,NCRK,2021-10-19T02:00:00Z,-10.02,-161.1,28.0,24.0,340,1,,,29.852362,,,TRUE,,,,,,,,,,,,,,,,,,,,,,,,,,,,METAR,7.0
NCRG 190200Z AUTO 18007KT 120V240 9999 BKN065/// 25/17 Q1016,NCRG,2021-10-19T02:00:00Z,-21.2,-159.82,25.0,17.0,180,7,,6.21,30.0,,,TRUE,,,,,,,,BKN,6500,,,,,,,VFR,,,,,,,,,,,,METAR,7.0
NCPY 190200Z AUTO 02006KT //// ////// 29/22 Q1012,NCPY,2021-10-19T02:00:00Z,-9.02,-158.03,29.0,22.0,20,6,,,29.88189,,,TRUE,,,,,,,,,,,,,,,,,,,,,,,,,,,,METAR,2.0
NCPL 190200Z AUTO 10006KT //// ////// 28/23 Q1015,NCPL,2021-10-19T02:00:00Z,1.98,-157.48,28.0,23.0,100,6,,,29.970472,,,TRUE,,,,,,,,,,,,,,,,,,,,,,,,,,,,METAR,3.0
NCPK 190200Z AUTO NIL,NCPK,2021-10-19T02:00:00Z,-10.9,-165.83,,,,,,,,,,TRUE,,,,,,,,,,,,,,,,,,,,,,,,,,,,METAR,5.0
NCNS 190200Z AUTO 03004KT //// ////// 32/24 Q1012,NCNS,2021-10-19T02:00:00Z,,,32.0,24.0,30,4,,,29.88189,,,TRUE,,,,,,,,,,,,,,,,,,,,,,,,,,,,METAR,
NCMR 190200Z AUTO 13004KT //// ////// ///// Q1014,NCMR,2021-10-19T02:00:00Z,-19.85,-157.7,,,130,4,,,29.940945,,,TRUE,,,,,,,,,,,,,,,,,,,,,,,,,,,,METAR,8.0
NCMK 190200Z AUTO 16007KT //// ////// 27/23 Q1013,NCMK,2021-10-19T02:00:00Z,-20.15,-157.33,27.0,23.0,160,7,,,29.911417,,,TRUE,,,,,,,,,,,,,,,,,,,,,,,,,,,,METAR,13.0
NCMH 190200Z AUTO 03002KT //// ////// ///// Q1012,NCMH,2021-10-19T02:00:00Z,-10.38,-161.0,,,30,2,,,29.88189,,,TRUE,,,,,,,,,,,,,,,,,,,,,,,,,,,,METAR,1.0
NCMG 190200Z AUTO 17007KT //// ////// //// Q////,NCMG,2021-10-19T02:00:00Z,-21.88,-157.9,,,170,7,,,,,,TRUE,,,,,,,,,,,,,,,,,,,,,,,,,,,,METAR,14.0
NCAT 190200Z AUTO 16004KT //// ////// ///// Q////,NCAT,2021-10-19T02:00:00Z,-19.97,-158.12,,,160,4,,,,,,TRUE,,,,,,,,,,,,,,,,,,,,,,,,,,,,METAR,11.0
NCAI 190200Z AUTO 18005KT //// ////// ///// Q1014,NCAI,2021-10-19T02:00:00Z,-18.82,-159.77,,,180,5,,,29.940945,,,TRUE,,,,,,,,,,,,,,,,,,,,,,,,,,,,METAR,7.0
MYSM 190200Z AUTO 02009KT 9999 SCT021 26/23 A3000,MYSM,2021-10-19T02:00:00Z,24.05,-74.52,26.0,23.0,20,9,,6.21,30.0,,,TRUE,,,,,,,,SCT,2100,,,,,,,VFR,,,,,,,,,,,,METAR,5.0
MYNN 190200Z 06008KT 020V080 9999 FEW025 26/18 A3005,MYNN,2021-10-19T02:00:00Z,25.03,-77.47,26.0,18.0,60,8,,6.21,30.050198,,,,,,,,,,,FEW,2500,,,,,,,VFR,,,,,,,,,,,,METAR,5.0
MYIG 190200Z AUTO 07006KT //// // NCD ///// A////,MYIG,2021-10-19T02:00:00Z,20.93,-73.67,,,70,6,,,,,,TRUE,,,,,,,,CLR,,,,,,,,,,,,,,,,,,,,METAR,4.0
MYGF 190200Z AUTO 07007KT //// R06///// // NCD 22/17 A3007,MYGF,2021-10-19T02:00:00Z,26.55,-78.7,22.0,17.0,70,7,,,30.070866,,,TRUE,,,,,,,,CLR,,,,,,,,,,,,,,,,,,,,SPECI,2.0
MYAF 190200Z AUTO 03005KT 340V070 9999 FEW038 26/18 A3004,MYAF,2021-10-19T02:00:00Z,24.68,-77.78,26.0,18.0,30,5,,6.21,30.041338,,,TRUE,,,,,,,,FEW,3800,,,,,,,VFR,,,,,,,,,,,,METAR,2.0
MWCR 190200Z 08009KT 9999 FEW016 28/25 Q1013,MWCR,2021-10-19T02:00:00Z,19.3,-81.37,28.0,25.0,80,9,,6.21,29.911417,,,,,,,,,,,FEW,1600,,,,,,,VFR,,,,,,,,,,,,METAR,4.0
MROC 190200Z 02004KT 8000 -RA VCFG SCT020 OVC100 19/19 A3009 NOSIG,MROC,2021-10-19T02:00:00Z,10.0,-84.22,19.0,19.0,20,4,,4.97,30.088583,,,,,,TRUE,,,,-RA VCFG,SCT,2000,OVC,10000,,,,,MVFR,,,,,,,,,,,,METAR,900.0
MRLB 190200Z 15001KT 8000 DZ FEW015 BKN100 OVC150 23/23 A2989,MRLB,2021-10-19T02:00:00Z,10.6,-85.55,23.0,23.0,150,1,,4.97,29.890747,,,,,,,,,,DZ,FEW,1500,BKN,10000,OVC,15000,,,MVFR,,,,,,,,,,,,METAR,79.0
MPTO 190200Z 32003KT 9999 SCT018 SCT090 25/24 Q1011 NOSIG,MPTO,2021-10-19T02:00:00Z,9.05,-79.38,25.0,24.0,320,3,,6.21,29.852362,,,,,,TRUE,,,,,SCT,1800,SCT,9000,,,,,VFR,,,,,,,,,,,,METAR,7.0
MPPA 190200Z 31003KT 9999 FEW017 25/24 Q1011,MPPA,2021-10-19T02:00:00Z,8.92,-79.6,25.0,24.0,310,3,,6.21,29.852362,,,,,,,,,,,FEW,1700,,,,,,,VFR,,,,,,,,,,,,METAR,1.0
MPMG 190200Z 33003KT 290V360 9999 FEW018 SCT090 25/24 Q1011 NOSIG,MPMG,2021-10-19T02:00:00Z,8.98,-79.57,25.0,24.0,330,3,,6.21,29.852362,,,,,,TRUE,,,,,FEW,1800,SCT,9000,,,,,VFR,,,,,,,,,,,,METAR,6.0
MPDA 190200Z VRB01KT 4000 TSRA BKN014CB 24/23 Q1012 RWY WET,MPDA,2021-10-19T02:00:00Z,8.4,-82.43,24.0,23.0,0,1,,2.49,29.88189,,,,,,,,,,TSRA,BKN,1400,,,,,,,IFR,,,,,,,,,,,,SPECI,15.0
MKJS 190200Z VRB02KT 9999 FEW020 FEW022CB 27/23 Q1013,MKJS,2021-10-19T02:00:00Z,18.5,-77.92,27.0,23.0,0,2,,6.21,29.911417,,,,,,,,,,,FEW,2000,FEW,2200,,,,,VFR,,,,,,,,,,,,METAR,3.0
MKJP 190200Z 34006KT 9999 FEW022 27/24 Q1013,MKJP,2021-10-19T02:00:00Z,17.93,-76.78,27.0,24.0,340,6,,6.21,29.911417,,,,,,,,,,,FEW,2200,,,,,,,VFR,,,,,,,,,,,,METAR,3.0
MHRO 190200Z 11013KT 5000 RA SCT020TCU OVC070 27/26 Q1013 A2992 BECMG 9999 NSW,MHRO,2021-10-19T02:00:00Z,16.32,-86.53,27.0,26.0,110,13,,3.11,29.911417,,,,,,,,,,RA,SCT,2000,OVC,7000,,,,,MVFR,,,,,,,,,,,,SPECI,6.0
MHLM 190200Z 05008KT 8000 -RA SCT026 OVC070 24/22 Q1014 A2995 NOSIG,MHLM,2021-10-19T02:00:00Z,15.45,-87.93,24.0,22.0,50,8,,4.97,29.940945,,,,,,TRUE,,,,-RA,SCT,2600,OVC,7000,,,,,MVFR,,,,,,,,,,,,METAR,32.0
MHLC 190200Z 00000KT 9999 FEW025CB BKN070 23/23 Q1013 A2992 NOSIG,MHLC,2021-10-19T02:00:00Z,15.75,-86.85,23.0,23.0,0,0,,6.21,29.911417,,,,,,TRUE,,,,,FEW,2500,BKN,7000,,,,,VFR,,,,,,,,,,,,METAR,13.0
MGPB 190200Z 12004KT 9999 SCT016 BKN080 25/24 Q1013 A2991,MGPB,2021-10-19T02:00:00Z,15.73,-88.58,25.0,24.0,120,4,,6.21,29.911417,,,,,,,,,,,SCT,1600,BKN,8000,,,,,VFR,,,,,,,,,,,,METAR,6.0
MGMM 190200Z VRB03KT 9999 BKN018 24/23 Q1015 A2997,MGMM,2021-10-19T02:00:00Z,16.9,-89.87,24.0,23.0,0,3,,6.21,29.970472,,,,,,,,,,,BKN,1800,,,,,,,MVFR,,,,,,,,,,,,METAR,105.0
MGHT 190200Z 00000KT CAVOK 16/16 BKN080,MGHT,2021-10-19T02:00:00Z,15.32,-91.5,16.0,16.0,0,0,,6.21,,,,,,,,,,,,BKN,8000,,,,,,,VFR,,,,,,,,,,,,METAR,1875.0
MGGT 190200Z 02010KT 9999 BKN015 19/16 Q1021 A3015,MGGT,2021-10-19T02:00:00Z,14.58,-90.53,19.0,16.0,20,10,,6.21,30.147638,,,,,,,,,,,BKN,1500,,,,,,,MVFR,,,,,,,,,,,,METAR,1497.0
MDST 190200Z 00000KT 9999 FEW016CB FEW018 SCT300 23/23 Q1015 CB/SE METAR ,MDST,2021-10-19T02:00:00Z,19.4,-70.6,23.0,23.0,0,0,,6.21,29.970472,,,,,,,,,,,FEW,1600,FEW,1800,SCT,30000,,,VFR,,,,,,,,,,,,SPECI,175.0
MDSD 190200Z 00000KT 9999 FEW016CB FEW016 SCT070 BKN300 25/24 Q1014 RETS CB/SW/W,MDSD,2021-10-19T02:00:00Z,18.42,-69.67,25.0,24.0,0,0,,6.21,29.940945,,,,,,,,,,,FEW,1600,FEW,1600,SCT,7000,BKN,30000,VFR,,,,,,,,,,,,SPECI,18.0
MDPP 190200Z 00000KT 9999 SCT018 25/24 Q1013,MDPP,2021-10-19T02:00:00Z,19.75,-70.57,25.0,24.0,0,0,,6.21,29.911417,,,,,,,,,,,SCT,1800,,,,,,,VFR,,,,,,,,,,,,METAR,9.0
MDPC 190200Z 01004KT 9999 FEW016CB FEW018 SCT300 26/24 Q1014 CB/E,MDPC,2021-10-19T02:00:00Z,18.57,-68.37,26.0,24.0,10,4,,6.21,29.940945,,,,,,,,,,,FEW,1600,FEW,1800,SCT,30000,,,VFR,,,,,,,,,,,,SPECI,10.0
MDLR 190200Z 00000KT 9999 FEW016CB SCT018 SCT070 34/24 Q1013 CB/SW/W/NW,MDLR,2021-10-19T02:00:00Z,18.45,-68.92,34.0,24.0,0,0,,6.21,29.911417,,,,,,,,,,,FEW,1600,SCT,1800,SCT,7000,,,VFR,,,,,,,,,,,,SPECI,66.0
LZZI 190200Z VRB02KT 5000 BR OVC002 06/05 Q1027,LZZI,2021-10-19T02:00:00Z,49.23,18.62,6.0,5.0,0,2,,3.11,30.324802,,,,,,,,,,BR,OVC,200,,,,,,,LIFR,,,,,,,,,,,,METAR,311.0
LZTT 190200Z 26007KT 9999 FEW010 05/04 Q1026,LZTT,2021-10-19T02:00:00Z,49.07,20.25,5.0,4.0,260,7,,6.21,30.295275,,,,,,,,,,,FEW,1000,,,,,,,VFR,,,,,,,,,,,,METAR,693.0
LZPP 190200Z AUTO 32001KT 0200 R01/0400D FG OVC005/// 02/01 Q1028,LZPP,2021-10-19T02:00:00Z,48.62,17.83,2.0,1.0,320,1,,0.12,30.35433,,,TRUE,,,,,,,FG,OVC,500,,,,,,,LIFR,,,,,,,,,,,,SPECI,160.0
LZKZ 190200Z 31004KT CAVOK 04/03 Q1028,LZKZ,2021-10-19T02:00:00Z,48.67,21.23,4.0,3.0,310,4,,6.21,30.35433,,,,,,,,,,,CAVOK,,,,,,,,VFR,,,,,,,,,,,,METAR,227.0
LZIB 190200Z 01002KT CAVOK 04/03 Q1028,LZIB,2021-10-19T02:00:00Z,48.17,17.22,4.0,3.0,10,2,,6.21,30.35433,,,,,,,,,,,CAVOK,,,,,,,,VFR,,,,,,,,,,,,METAR,129.0
LYVR 190200Z AUTO 00000KT 9999 BKN042/// OVC068/// 09/08 Q1027,LYVR,2021-10-19T02:00:00Z,45.13,21.32,9.0,8.0,0,0,,6.21,30.324802,,,TRUE,,,,,,,,BKN,4200,OVC,6800,,,,,VFR,,,,,,,,,,,,METAR,82.0
LYUZ 190200Z AUTO VRB02KT 0900 FG NSC 02/M00 Q1028,LYUZ,2021-10-19T02:00:00Z,43.9,19.67,2.0,0.0,0,2,,0.56,30.35433,,,TRUE,,,,,,,FG,CLR,,,,,,,,LIFR,,,,,,,,,,,,METAR,914.0
LYPG 190200Z 34006KT CAVOK 13/05 Q1025 NOSIG,LYPG,2021-10-19T02:00:00Z,42.37,19.25,13.0,5.0,340,6,,6.21,30.265747,,,,,,TRUE,,,,,CAVOK,,,,,,,,VFR,,,,,,,,,,,,METAR,32.0
LYNI 190200Z VRB02KT 6000 SCT050 03/02 Q1028 BECMG 3000 BR,LYNI,2021-10-19T02:00:00Z,43.33,21.85,3.0,2.0,0,2,,3.73,30.35433,,,,,,,,,,,SCT,5000,,,,,,,MVFR,,,,,,,,,,,,SPECI,197.0
LYKV 190200Z 29001KT 3000 BR NSC 04/03 Q1028 NOSIG,LYKV,2021-10-19T02:00:00Z,43.82,20.58,4.0,3.0,290,1,,1.86,30.35433,,,,,,TRUE,,,,BR,CLR,,,,,,,,IFR,,,,,,,,,,,,METAR,209.0
LYBT 190200Z 24003KT 220V280 CAVOK 08/08 Q1028 NOSIG,LYBT,2021-10-19T02:00:00Z,44.93,20.25,8.0,8.0,240,3,,6.21,30.35433,,,,,,TRUE,,,,,CAVOK,,,,,,,,VFR,,,,,,,,,,,,METAR,78.0
LYBE 190200Z 27004KT CAVOK 08/07 Q1028 NOSIG,LYBE,2021-10-19T02:00:00Z,44.82,20.28,8.0,7.0,270,4,,6.21,30.35433,,,,,,TRUE,,,,,CAVOK,,,,,,,,VFR,,,,,,,,,,,,METAR,93.0
LUKK 190200Z 34004KT 300V010 CAVOK 08/04 Q1025 R26/D NOSIG,LUKK,2021-10-19T02:00:00Z,46.93,28.93,8.0,4.0,340,4,,6.21,30.265747,,,,,,TRUE,,,,,CAVOK,,,,,,,,VFR,,,,,,,,,,,,METAR,102.0
LRTR 190200Z 03002KT CAVOK 04/03 Q1028,LRTR,2021-10-19T02:00:00Z,45.82,21.33,4.0,3.0,30,2,,6.21,30.35433,,,,,,,,,,,CAVOK,,,,,,,,VFR,,,,,,,,,,,,METAR,104.0
LRTM 190200Z AUTO 25004KT 8000 SCT040/// BKN050/// 05/04 Q1028,LRTM,2021-10-19T02:00:00Z,46.47,24.42,5.0,4.0,250,4,,4.97,30.35433,,,TRUE,,,,,,,,SCT,4000,BKN,5000,,,,,MVFR,,,,,,,,,,,,METAR,289.0
LRTC 190200Z AUTO 34005KT 5000 BR FEW065/// 08/07 Q1026,LRTC,2021-10-19T02:00:00Z,45.07,28.72,8.0,7.0,340,5,,3.11,30.295275,,,TRUE,,,,,,,BR,FEW,6500,,,,,,,MVFR,,,,,,,,,,,,METAR,52.0
LRSV 190200Z 32010KT CAVOK 08/06 Q1026,LRSV,2021-10-19T02:00:00Z,47.68,26.35,8.0,6.0,320,10,,6.21,30.295275,,,,,,,,,,,CAVOK,,,,,,,,VFR,,,,,,,,,,,,METAR,406.0
LRSM 190200Z AUTO 20004KT 9999 NCD 03/02 Q1028,LRSM,2021-10-19T02:00:00Z,47.7,22.88,3.0,2.0,200,4,,6.21,30.35433,,,TRUE,,,,,,,,CLR,,,,,,,,VFR,,,,,,,,,,,,METAR,123.0
LRSB 190200Z 23003KT 9999 OVC047 07/05 Q1027,LRSB,2021-10-19T02:00:00Z,45.78,24.08,7.0,5.0,230,3,,6.21,30.324802,,,,,,,,,,,OVC,4700,,,,,,,VFR,,,,,,,,,,,,METAR,442.0
LROP 190200Z 36001KT 5000 NSC 10/10 Q1026 NOSIG,LROP,2021-10-19T02:00:00Z,44.57,26.1,10.0,10.0,360,1,,3.11,30.295275,,,,,,TRUE,,,,,CLR,,,,,,,,MVFR,,,,,,,,,,,,METAR,92.0
LROD 190200Z AUTO 12005KT 9999 NCD 06/04 Q1028,LROD,2021-10-19T02:00:00Z,47.03,21.88,6.0,4.0,120,5,,6.21,30.35433,,,TRUE,,,,,,,,CLR,,,,,,,,VFR,,,,,,,,,,,,METAR,132.0
LRIA 190200Z 31004KT CAVOK 09/05 Q1026,LRIA,2021-10-19T02:00:00Z,47.17,27.62,9.0,5.0,310,4,,6.21,30.295275,,,,,,,,,,,CAVOK,,,,,,,,VFR,,,,,,,,,,,,METAR,71.0
LRCV 190200Z 36003KT 0600 R27/0650D FG SCT001 04/03 Q1025,LRCV,2021-10-19T02:00:00Z,44.32,23.88,4.0,3.0,360,3,,0.37,30.265747,,,,,,,,,,FG,SCT,100,,,,,,,LIFR,,,,,,,,,,,,METAR,192.0
LRCL 190200Z 28005KT 240V300 CAVOK 03/02 Q1028,LRCL,2021-10-19T02:00:00Z,46.78,23.68,3.0,2.0,280,5,,6.21,30.35433,,,,,,,,,,,CAVOK,,,,,,,,VFR,,,,,,,,,,,,METAR,313.0
LRCK 190200Z 30006KT 1500 BR NSC 09/09 Q1026 TEMPO 0800 FG,LRCK,2021-10-19T02:00:00Z,44.37,28.48,9.0,9.0,300,6,,0.93,30.295275,,,,,,,,,,BR,CLR,,,,,,,,LIFR,,,,,,,,,,,,SPECI,108.0
LRBS 190200Z AUTO 00000KT 5000 FG OVC069/// 10/09 Q1026 NOSIG,LRBS,2021-10-19T02:00:00Z,44.5,26.08,10.0,9.0,0,0,,3.11,30.295275,,,TRUE,,,TRUE,,,,FG,OVC,6900,,,,,,,MVFR,,,,,,,,,,,,METAR,91.0
LRBM 190200Z AUTO VRB01KT 5000 BR NCD 01/M00 Q1028,LRBM,2021-10-19T02:00:00Z,47.67,23.47,1.0,0.0,0,1,,3.11,30.35433,,,TRUE,,,,,,,BR,CLR,,,,,,,,MVFR,,,,,,,,,,,,METAR,180.0
LRBC 190200Z 35001KT 9999 OVC050 07/05 Q1027,LRBC,2021-10-19T02:00:00Z,46.52,26.92,7.0,5.0,350,1,,6.21,30.324802,,,,,,,,,,,OVC,5000,,,,,,,VFR,,,,,,,,,,,,METAR,183.0
LRAR 190200Z 00000KT 3000 BR NSC 03/03 Q1028,LRAR,2021-10-19T02:00:00Z,46.18,21.27,3.0,3.0,0,0,,1.86,30.35433,,,,,,,,,,BR,CLR,,,,,,,,IFR,,,,,,,,,,,,METAR,102.0
LQTZ 190200Z 00000KT 0050 R09/0250N FG BKN002 02/02 Q1028,LQTZ,2021-10-19T02:00:00Z,44.47,18.73,2.0,2.0,0,0,,0.03,30.35433,,,,,,,,,,FG,BKN,200,,,,,,,LIFR,,,,,,,,,,,,METAR,242.0
LQMO 190200Z 15004KT CAVOK 07/05 Q1025,LQMO,2021-10-19T02:00:00Z,43.28,17.83,7.0,5.0,150,4,,6.21,30.265747,,,,,,,,,,,CAVOK,,,,,,,,VFR,,,,,,,,,,,,METAR,49.0
LQBK 190200Z 18003KT 2500 BR NSC 03/03 Q1029 NOSIG,LQBK,2021-10-19T02:00:00Z,44.93,17.3,3.0,3.0,180,3,,1.55,30.383858,,,,,,TRUE,,,,BR,CLR,,,,,,,,IFR,,,,,,,,,,,,METAR,114.0
LPPT 190200Z 01003KT CAVOK 18/15 Q1021,LPPT,2021-10-19T02:00:00Z,38.77,-9.13,18.0,15.0,10,3,,6.21,30.147638,,,,,,,,,,,CAVOK,,,,,,,,VFR,,,,,,,,,,,,METAR,98.0
LPPS 190200Z 14002KT 9999 SCT005 20/19 Q1020,LPPS,2021-10-19T02:00:00Z,33.07,-16.35,20.0,19.0,140,2,,6.21,30.11811,,,,,,,,,,,SCT,500,,,,,,,VFR,,,,,,,,,,,,METAR,89.0
LPPR 190200Z 11009KT CAVOK 17/16 Q1020,LPPR,2021-10-19T02:00:00Z,41.23,-8.68,17.0,16.0,110,9,,6.21,30.11811,,,,,,,,,,,CAVOK,,,,,,,,VFR,,,,,,,,,,,,METAR,64.0
LPPD 190200Z 27015KT 9999 FEW025 21/16 Q1013,LPPD,2021-10-19T02:00:00Z,37.73,-25.68,21.0,16.0,270,15,,6.21,29.911417,,,,,,,,,,,FEW,2500,,,,,,,VFR,,,,,,,,,,,,METAR,62.0
LPMT 190200Z 06002KT CAVOK 16/15 Q1020,LPMT,2021-10-19T02:00:00Z,38.7,-9.05,16.0,15.0,60,2,,6.21,30.11811,,,,,,,,,,,CAVOK,,,,,,,,VFR,,,,,,,,,,,,METAR,4.0
LPMR 190200Z 17003KT 8000 NSC 17/16 Q1020,LPMR,2021-10-19T02:00:00Z,39.82,-8.88,17.0,16.0,170,3,,4.97,30.11811,,,,,,,,,,,CLR,,,,,,,,MVFR,,,,,,,,,,,,METAR,50.0
LPMA 190200Z 00000KT 9999 FEW016 20/17 Q1019,LPMA,2021-10-19T02:00:00Z,32.7,-16.77,20.0,17.0,0,0,,6.21,30.088583,,,,,,,,,,,FEW,1600,,,,,,,VFR,,,,,,,,,,,,METAR,54.0
LPLA 190200Z /////KT 9999 FEW025 18/17 Q1012,LPLA,2021-10-19T02:00:00Z,38.77,-27.1,18.0,17.0,,,,6.21,29.88189,,,,,,,,,,,FEW,2500,,,,,,,VFR,,,,,,,,,,,,METAR,60.0
LPFR 190200Z 05005KT CAVOK 21/17 Q1021,LPFR,2021-10-19T02:00:00Z,37.02,-7.97,21.0,17.0,50,5,,6.21,30.147638,,,,,,,,,,,CAVOK,,,,,,,,VFR,,,,,,,,,,,,METAR,3.0
LPBJ 190200Z VRB01KT CAVOK 18/14 Q1021,LPBJ,2021-10-19T02:00:00Z,38.08,-7.93,18.0,14.0,0,1,,6.21,30.147638,,,,,,,,,,,CAVOK,,,,,,,,VFR,,,,,,,,,,,,METAR,196.0
LPAZ 190200Z 26013KT 9999 FEW020 21/17 Q1014,LPAZ,2021-10-19T02:00:00Z,36.97,-25.17,21.0,17.0,260,13,,6.21,29.940945,,,,,,,,,,,FEW,2000,,,,,,,VFR,,,,,,,,,,,,METAR,96.0
LKTB 190200Z 06006KT CAVOK 05/02 Q1026 NOSIG,LKTB,2021-10-19T02:00:00Z,49.15,16.68,5.0,2.0,60,6,,6.21,30.295275,,,,,,TRUE,,,,,CAVOK,,,,,,,,VFR,,,,,,,,,,,,METAR,233.0
LKPR 190200Z 18005KT CAVOK 06/04 Q1025 NOSIG,LKPR,2021-10-19T02:00:00Z,50.1,14.27,6.0,4.0,180,5,,6.21,30.265747,,,,,,TRUE,,,,,CAVOK,,,,,,,,VFR,,,,,,,,,,,,METAR,364.0
LKPD 190200Z VRB01KT CAVOK 04/03 Q1026 RMK BLU,LKPD,2021-10-19T02:00:00Z,50.02,15.73,4.0,3.0,0,1,,6.21,30.295275,,,,,,,,,,,CAVOK,,,,,,,,VFR,,,,,,,,,,,,SPECI,226.0
LKNA 190200Z 09003KT CAVOK 05/03 Q1026 RMK BLU,LKNA,2021-10-19T02:00:00Z,49.17,16.12,5.0,3.0,90,3,,6.21,30.295275,,,,,,,,,,,CAVOK,,,,,,,,VFR,,,,,,,,,,,,SPECI,460.0
LKMT 190200Z 22006KT CAVOK 05/05 Q1026 NOSIG,LKMT,2021-10-19T02:00:00Z,49.68,18.12,5.0,5.0,220,6,,6.21,30.295275,,,,,,TRUE,,,,,CAVOK,,,,,,,,VFR,,,,,,,,,,,,METAR,251.0
LKLN 190200Z AUTO VRB01KT 6000 BKN220 04/03 Q1025,LKLN,2021-10-19T02:00:00Z,49.68,13.27,4.0,3.0,0,1,,3.73,30.265747,,,TRUE,,,,,,,,BKN,22000,,,,,,,MVFR,,,,,,,,,,,,METAR,353.0
LKKV 190200Z 00000KT CAVOK 03/02 Q1024,LKKV,2021-10-19T02:00:00Z,50.2,12.92,3.0,2.0,0,0,,6.21,30.236221,,,,,,,,,,,CAVOK,,,,,,,,VFR,,,,,,,,,,,,METAR,600.0
LKKB 190200Z 20004KT CAVOK 06/04 Q1025,LKKB,2021-10-19T02:00:00Z,50.12,14.53,6.0,4.0,200,4,,6.21,30.265747,,,,,,,,,,,CAVOK,,,,,,,,VFR,,,,,,,,,,,,METAR,281.0
LKCV 190200Z 14006KT CAVOK 04/03 Q1025 NOSIG RMK BLU BLU,LKCV,2021-10-19T02:00:00Z,49.93,15.38,4.0,3.0,140,6,,6.21,30.265747,,,,,,TRUE,,,,,CAVOK,,,,,,,,VFR,,,,,,,,,,,,SPECI,234.0
LJPZ 190200Z AUTO 12006KT 9999 NCD 07/06 Q1027,LJPZ,2021-10-19T02:00:00Z,45.47,13.62,7.0,6.0,120,6,,6.21,30.324802,,,TRUE,,,,,,,,CLR,,,,,,,,VFR,,,,,,,,,,,,METAR,2.0
LJMB 190200Z AUTO 32002KT 1500 BR VV002 02/01 Q1028,LJMB,2021-10-19T02:00:00Z,46.47,15.67,2.0,1.0,320,2,,0.93,30.35433,,,TRUE,,,,,,,BR,OVX,0,,,,,,,LIFR,,,,,,,,,,,200,METAR,263.0
LJLJ 190200Z 09002KT 0500 R30/P2000N FG VV001 05/04 Q1028 NOSIG,LJLJ,2021-10-19T02:00:00Z,46.22,14.47,5.0,4.0,90,2,,0.31,30.35433,,,,,,TRUE,,,,FG,OVX,0,,,,,,,LIFR,,,,,,,,,,,100,METAR,363.0
LJCE 190200Z AUTO 25001KT 0250 R09/0700U FG VV002 04/04 Q1029,LJCE,2021-10-19T02:00:00Z,45.9,15.52,4.0,4.0,250,1,,0.16,30.383858,,,TRUE,,,,,,,FG,OVX,0,,,,,,,LIFR,,,,,,,,,,,200,METAR,153.0
LHBP 190200Z 33002KT 8000 NSC 01/00 Q1028 NOSIG,LHBP,2021-10-19T02:00:00Z,47.43,19.27,1.0,0.0,330,2,,4.97,30.35433,,,,,,TRUE,,,,,CLR,,,,,,,,MVFR,,,,,,,,,,,,METAR,141.0
LGKP 190200Z AUTO 32010KT //// // ////// 19/14 Q1019 RE//,LGKP,2021-10-19T02:00:00Z,35.42,27.15,19.0,14.0,320,10,,,30.088583,,,TRUE,,,,,,,,,,,,,,,,,,,,,,,,,,,,METAR,20.0
LFYR 190200Z AUTO 21004KT 180V240 CAVOK 16/11 Q1022,LFYR,2021-10-19T02:00:00Z,47.32,1.68,16.0,11.0,210,4,,6.21,30.177166,,,TRUE,,,,,,,,CAVOK,,,,,,,,VFR,,,,,,,,,,,,METAR,83.0
LFTW 190200Z AUTO 01003KT 0400 R18/0550U FG VV/// 12/11 Q1027,LFTW,2021-10-19T02:00:00Z,43.75,4.42,12.0,11.0,10,3,,0.25,30.324802,,,TRUE,,,,,,,FG,OVX,0,,,,,,,LIFR,,,,,,,,,,,,SPECI,91.0
LFTH 190200Z AUTO VRB03KT CAVOK 12/11 Q1027 NOSIG,LFTH,2021-10-19T02:00:00Z,43.1,6.15,12.0,11.0,0,3,,6.21,30.324802,,,TRUE,,,TRUE,,,,,CAVOK,,,,,,,,VFR,,,,,,,,,,,,METAR,3.0
LFSX 190200Z AUTO 09005KT CAVOK 08/07 Q1025,LFSX,2021-10-19T02:00:00Z,47.77,6.35,8.0,7.0,90,5,,6.21,30.265747,,,TRUE,,,,,,,,CAVOK,,,,,,,,VFR,,,,,,,,,,,,METAR,266.0
LFST 190200Z AUTO VRB02KT 2000 BR VV/// 07/07 Q1024 TEMPO 0300 FG,LFST,2021-10-19T02:00:00Z,48.53,7.63,7.0,7.0,0,2,,1.24,30.236221,,,TRUE,,,,,,,BR,OVX,0,,,,,,,LIFR,,,,,,,,,,,,SPECI,149.0
LFSO 190200Z AUTO 17008KT 9999 -RA ///TCU 12/10 Q1023,LFSO,2021-10-19T02:00:00Z,48.57,5.97,12.0,10.0,170,8,,6.21,30.206694,,,TRUE,,,,,,,-RA,,,,,,,,,,,,,,,,,,,,,SPECI,328.0
LFSN 190200Z AUTO 16005KT 9999 -RA SCT047/// BKN088/// OVC110/// ///TCU 12/10 Q1023,LFSN,2021-10-19T02:00:00Z,48.68,6.22,12.0,10.0,160,5,,6.21,30.206694,,,TRUE,,,,,,,-RA,SCT,4700,BKN,8800,OVC,11000,,,VFR,,,,,,,,,,,,SPECI,214.0
LFSL 190200Z AUTO 14003KT CAVOK 10/09 Q1024,LFSL,2021-10-19T02:00:00Z,45.03,1.48,10.0,9.0,140,3,,6.21,30.236221,,,TRUE,,,,,,,,CAVOK,,,,,,,,VFR,,,,,,,,,,,,METAR,300.0
LFSI 190200Z AUTO 15002KT 9999 -RA ///TCU 13/12 Q1023,LFSI,2021-10-19T02:00:00Z,48.62,4.9,13.0,12.0,150,2,,6.21,30.206694,,,TRUE,,,,,,,-RA,,,,,,,,,,,,,,,,,,,,,SPECI,136.0
LFSG 190200Z AUTO 20004KT 9999 -RA ///TCU 12/10 Q1024,LFSG,2021-10-19T02:00:00Z,48.33,6.07,12.0,10.0,200,4,,6.21,30.236221,,,TRUE,,,,,,,-RA,,,,,,,,,,,,,,,,,,,,,METAR,320.0
LFSD 190200Z AUTO 00000KT 1400 1200 R35/1300D BR VV/// ///TCU 07/07 Q1025,LFSD,2021-10-19T02:00:00Z,47.27,5.08,7.0,7.0,0,0,,0.87,30.265747,,,TRUE,,,,,,,BR,OVX,0,,,,,,,LIFR,,,,,,,,,,,,SPECI,218.0
LFSB 190200Z AUTO 20005KT 170V240 CAVOK 10/08 Q1025 TEMPO 4000 MIFG,LFSB,2021-10-19T02:00:00Z,47.6,7.52,10.0,8.0,200,5,,6.21,30.265747,,,TRUE,,,,,,,,CAVOK,,,,,,,,VFR,,,,,,,,,,,,SPECI,262.0
LFRZ 190200Z AUTO 21008KT 9999 ////// 16/16 Q1020,LFRZ,2021-10-19T02:00:00Z,47.32,-2.17,16.0,16.0,210,8,,6.21,30.11811,,,TRUE,,,,,,,,,,,,,,,,,,,,,,,,,,,,SPECI,2.0
LFRV 190200Z AUTO 20006KT 170V250 6000 OVC002 17/17 Q1020,LFRV,2021-10-19T02:00:00Z,47.72,-2.72,17.0,17.0,200,6,,3.73,30.11811,,,TRUE,,,,,,,,OVC,200,,,,,,,LIFR,,,,,,,,,,,,METAR,132.0
LFRS 190200Z AUTO 18005KT 5000 0600 R03/0750N R21/P2000 BCFG SCT003 15/15 Q1021 TEMPO 0500 FG VV///,LFRS,2021-10-19T02:00:00Z,47.17,-1.6,15.0,15.0,180,5,,3.11,30.147638,,,TRUE,,,,,,,BCFG,SCT,300,,,,,,,MVFR,,,,,,,,,,,,SPECI,26.0
LFRQ 190200Z AUTO 21013KT 180V240 5000 BR OVC005 17/16 Q1018,LFRQ,2021-10-19T02:00:00Z,47.97,-4.17,17.0,16.0,210,13,,3.11,30.059055,,,TRUE,,,,,,,BR,OVC,500,,,,,,,IFR,,,,,,,,,,,,METAR,94.0
LFRO 190200Z AUTO 20008KT 9999 BKN007 OVC012 18/17 Q1018,LFRO,2021-10-19T02:00:00Z,48.75,-3.47,18.0,17.0,200,8,,6.21,30.059055,,,TRUE,,,,,,,,BKN,700,OVC,1200,,,,,IFR,,,,,,,,,,,,METAR,86.0
LFRN 190200Z AUTO 21008KT 9999 OVC008 18/17 Q1019 TEMPO 0800 FG VV///,LFRN,2021-10-19T02:00:00Z,48.07,-1.73,18.0,17.0,210,8,,6.21,30.088583,,,TRUE,,,,,,,,OVC,800,,,,,,,IFR,,,,,,,,,,,,SPECI,35.0
LFRM 190200Z AUTO 19004KT 150V210 9999 OVC013/// 16/15 Q1021,LFRM,2021-10-19T02:00:00Z,47.95,0.2,16.0,15.0,190,4,,6.21,30.147638,,,TRUE,,,,,,,,OVC,1300,,,,,,,MVFR,,,,,,,,,,,,METAR,51.0
LFRL 190200Z AUTO 20012KT 3500 BR OVC003 16/16 Q1017,LFRL,2021-10-19T02:00:00Z,48.27,-4.43,16.0,16.0,200,12,,2.17,30.029528,,,TRUE,,,,,,,BR,OVC,300,,,,,,,LIFR,,,,,,,,,,,,METAR,80.0
LFRK 190200Z AUTO 20009KT 9999 OVC011 18/17 Q1018,LFRK,2021-10-19T02:00:00Z,49.17,-0.45,18.0,17.0,200,9,,6.21,30.059055,,,TRUE,,,,,,,,OVC,1100,,,,,,,MVFR,,,,,,,,,,,,METAR,66.0
LFRJ 190200Z AUTO 21016KT 3900 BR OVC002 17/17 Q1017,LFRJ,2021-10-19T02:00:00Z,48.52,-4.15,17.0,17.0,210,16,,2.42,30.029528,,,TRUE,,,,,,,BR,OVC,200,,,,,,,LIFR,,,,,,,,,,,,METAR,109.0
LFRI 190200Z AUTO 15004KT 7000 NSC 14/13 Q1021,LFRI,2021-10-19T02:00:00Z,46.7,-1.37,14.0,13.0,150,4,,4.35,30.147638,,,TRUE,,,,,,,,CLR,,,,,,,,MVFR,,,,,,,,,,,,METAR,89.0
LFRH 190200Z AUTO 23013KT 9000 OVC011 17/16 Q1019 TEMPO 0300 FG VV///,LFRH,2021-10-19T02:00:00Z,47.77,-3.45,17.0,16.0,230,13,,5.59,30.088583,,,TRUE,,,,,,,,OVC,1100,,,,,,,MVFR,,,,,,,,,,,,SPECI,46.0
LFRG 190200Z AUTO 19011KT 9999 OVC006 17/16 Q1018,LFRG,2021-10-19T02:00:00Z,49.37,0.15,17.0,16.0,190,11,,6.21,30.059055,,,TRUE,,,,,,,,OVC,600,,,,,,,IFR,,,,,,,,,,,,METAR,146.0
LFRD 190200Z AUTO 21013KT 9999 OVC008 18/17 Q1018 TEMPO 2000 DZRA BR BKN002,LFRD,2021-10-19T02:00:00Z,48.58,-2.07,18.0,17.0,210,13,,6.21,30.059055,,,TRUE,,,,,,,,OVC,800,,,,,,,IFR,,,,,,,,,,,,SPECI,56.0
LFRC 190200Z AUTO 21015KT 7000 OVC003 17/17 Q1016,LFRC,2021-10-19T02:00:00Z,49.63,-1.47,17.0,17.0,210,15,,4.35,30.0,,,TRUE,,,,,,,,OVC,300,,,,,,,LIFR,,,,,,,,,,,,METAR,137.0
LFRB 190200Z AUTO 21018KT 6000 OVC003 17/17 Q1017 TEMPO 2000 RADZ BR VV/// BECMG 20015G25KT,LFRB,2021-10-19T02:00:00Z,48.45,-4.42,17.0,17.0,210,18,,3.73,30.029528,,,TRUE,,,,,,,,OVC,300,,,,,,,LIFR,,,1.5,,,,,,,,,SPECI,91.0
LFQQ 190200Z AUTO 19009KT 7000 OVC004 15/15 Q1017 TEMPO 2000 DZRA BR,LFQQ,2021-10-19T02:00:00Z,50.57,3.1,15.0,15.0,190,9,,4.35,30.029528,,,TRUE,,,,,,,,OVC,400,,,,,,,LIFR,,,,,,,,,,,,SPECI,43.0
LFQB 190200Z AUTO 14006KT 9999 ///TCU 14/12 Q1022,LFQB,2021-10-19T02:00:00Z,48.32,4.02,14.0,12.0,140,6,,6.21,30.177166,,,TRUE,,,,,,,,,,,,,,,,,,,,,,,,,,,,SPECI,107.0
LFQA 190200Z AUTO 14007KT 9999 OVC046 14/13 Q1021,LFQA,2021-10-19T02:00:00Z,49.2,4.15,14.0,13.0,140,7,,6.21,30.147638,,,TRUE,,,,,,,,OVC,4600,,,,,,,VFR,,,,,,,,,,,,METAR,92.0
LFPV 190200Z AUTO 21006KT 180V250 9999 OVC012 16/14 Q1020,LFPV,2021-10-19T02:00:00Z,48.77,2.2,16.0,14.0,210,6,,6.21,30.11811,,,TRUE,,,,,,,,OVC,1200,,,,,,,MVFR,,,,,,,,,,,,METAR,171.0
LFPT 190200Z AUTO 22009KT 9999 // SCT013 BKN058 BKN110 16/15 Q1019,LFPT,2021-10-19T02:00:00Z,49.1,2.03,16.0,15.0,220,9,,6.21,30.088583,,,TRUE,,,,,,,,SCT,1300,BKN,5800,BKN,11000,,,VFR,,,,,,,,,,,,METAR,91.0
LFPO 190200Z 19006KT 9999 FEW015 BKN055 BKN076 16/14 Q1020 NOSIG,LFPO,2021-10-19T02:00:00Z,48.72,2.38,16.0,14.0,190,6,,6.21,30.11811,,,,,,TRUE,,,,,FEW,1500,BKN,5500,BKN,7600,,,VFR,,,,,,,,,,,,METAR,88.0
LFPN 190200Z AUTO 23011KT 9999 FEW009 OVC017 16/14 Q1020,LFPN,2021-10-19T02:00:00Z,48.75,2.12,16.0,14.0,230,11,,6.21,30.11811,,,TRUE,,,,,,,,FEW,900,OVC,1700,,,,,MVFR,,,,,,,,,,,,METAR,152.0
LFPM 190200Z AUTO 21007KT 9999 OVC044/// 16/14 Q1021,LFPM,2021-10-19T02:00:00Z,48.62,2.67,16.0,14.0,210,7,,6.21,30.147638,,,TRUE,,,,,,,,OVC,4400,,,,,,,VFR,,,,,,,,,,,,METAR,91.0
LFPG 190200Z 18009KT 9999 BKN015 BKN050 16/14 Q1020 NOSIG,LFPG,2021-10-19T02:00:00Z,49.02,2.53,16.0,14.0,180,9,,6.21,30.11811,,,,,,TRUE,,,,,BKN,1500,BKN,5000,,,,,MVFR,,,,,,,,,,,,METAR,107.0
LFPB 190200Z AUTO 16005KT 9999 BKN017 BKN026 OVC058 17/14 Q1020 NOSIG,LFPB,2021-10-19T02:00:00Z,48.97,2.42,17.0,14.0,160,5,,6.21,30.11811,,,TRUE,,,TRUE,,,,,BKN,1700,BKN,2600,OVC,5800,,,MVFR,,,,,,,,,,,,METAR,50.0
LFOZ 190200Z AUTO 20005KT CAVOK 16/13 Q1022,LFOZ,2021-10-19T02:00:00Z,47.9,2.17,16.0,13.0,200,5,,6.21,30.177166,,,TRUE,,,,,,,,CAVOK,,,,,,,,VFR,,,,,,,,,,,,METAR,121.0
LFOV 190200Z AUTO 19006KT 160V220 6000 OVC004 17/16 Q1020,LFOV,2021-10-19T02:00:00Z,48.03,-0.75,17.0,16.0,190,6,,3.73,30.11811,,,TRUE,,,,,,,,OVC,400,,,,,,,LIFR,,,,,,,,,,,,METAR,99.0
LFOT 190200Z AUTO 20007KT CAVOK 17/12 Q1022 NOSIG,LFOT,2021-10-19T02:00:00Z,47.43,0.72,17.0,12.0,200,7,,6.21,30.177166,,,TRUE,,,TRUE,,,,,CAVOK,,,,,,,,VFR,,,,,,,,,,,,METAR,107.0
LFOP 190200Z AUTO 20010KT 9000 OVC006 16/15 Q1019,LFOP,2021-10-19T02:00:00Z,49.37,1.17,16.0,15.0,200,10,,5.59,30.088583,,,TRUE,,,,,,,,OVC,600,,,,,,,IFR,,,,,,,,,,,,METAR,149.0
LFOK 190200Z AUTO 18011KT 9999 OVC048 14/13 Q1021 TEMPO 4000 RA,LFOK,2021-10-19T02:00:00Z,48.78,4.15,14.0,13.0,180,11,,6.21,30.147638,,,TRUE,,,,,,,,OVC,4800,,,,,,,VFR,,,,,,,,,,,,SPECI,166.0
LFOJ 190200Z AUTO 20012KT 9999 OVC047 16/12 Q1021,LFOJ,2021-10-19T02:00:00Z,47.98,1.75,16.0,12.0,200,12,,6.21,30.147638,,,TRUE,,,,,,,,OVC,4700,,,,,,,VFR,,,,,,,,,,,,METAR,122.0
LFOH 190200Z AUTO 22012KT 9999 OVC012 17/16 Q1018,LFOH,2021-10-19T02:00:00Z,49.52,0.08,17.0,16.0,220,12,,6.21,30.059055,,,TRUE,,,,,,,,OVC,1200,,,,,,,MVFR,,,,,,,,,,,,METAR,87.0
LFOE 190200Z AUTO 21009KT 9999 OVC008 16/15 Q1019 NOSIG,LFOE,2021-10-19T02:00:00Z,49.02,1.22,16.0,15.0,210,9,,6.21,30.088583,,,TRUE,,,TRUE,,,,,OVC,800,,,,,,,IFR,,,,,,,,,,,,METAR,132.0
LFOB 190200Z AUTO 21009KT 9999 OVC008 16/15 Q1019 TEMPO 2000 DZRA BR BKN004 OVC007,LFOB,2021-10-19T02:00:00Z,49.47,2.12,16.0,15.0,210,9,,6.21,30.088583,,,TRUE,,,,,,,,OVC,800,,,,,,,IFR,,,,,,,,,,,,SPECI,99.0
LFOA 190200Z AUTO 14003KT CAVOK 14/10 Q1023,LFOA,2021-10-19T02:00:00Z,47.05,2.63,14.0,10.0,140,3,,6.21,30.206694,,,TRUE,,,,,,,,CAVOK,,,,,,,,VFR,,,,,,,,,,,,METAR,174.0
LFMY 190200Z AUTO 02002KT 6000 NSC 09/09 Q1027,LFMY,2021-10-19T02:00:00Z,43.6,5.1,9.0,9.0,20,2,,3.73,30.324802,,,TRUE,,,,,,,,CLR,,,,,,,,MVFR,,,,,,,,,,,,METAR,57.0
LFMV 190200Z AUTO 30003KT 7000 NSC 09/08 Q1027,LFMV,2021-10-19T02:00:00Z,43.9,4.9,9.0,8.0,300,3,,4.35,30.324802,,,TRUE,,,,,,,,CLR,,,,,,,,MVFR,,,,,,,,,,,,METAR,33.0
LFMU 190200Z AUTO 02006KT 1100 0900 R09/1700D BCFG VV/// 14/14 Q1027,LFMU,2021-10-19T02:00:00Z,43.32,3.35,14.0,14.0,20,6,,0.68,30.324802,,,TRUE,,,,,,,BCFG,OVX,0,,,,,,,LIFR,,,,,,,,,,,,SPECI,14.0
LFMT 190200Z AUTO 36003KT 330V030 5000 BR OVC002 14/13 Q1027 TEMPO 2000 BR,LFMT,2021-10-19T02:00:00Z,43.57,3.97,14.0,13.0,360,3,,3.11,30.324802,,,TRUE,,,,,,,BR,OVC,200,,,,,,,LIFR,,,,,,,,,,,,SPECI,1.0
LFMP 190200Z AUTO 00000KT 7000 // ////// 16/15 Q1026,LFMP,2021-10-19T02:00:00Z,42.73,2.87,16.0,15.0,0,0,,4.35,30.295275,,,TRUE,,,,,,,,,,,,,,,,,,,,,,,,,,,,SPECI,41.0
LFMO 190200Z AUTO 00000KT 9999 BKN011 08/07 Q1028 TEMPO 3000 BR BECMG NSC,LFMO,2021-10-19T02:00:00Z,44.13,4.87,8.0,7.0,0,0,,6.21,30.35433,,,TRUE,,,,,,,,BKN,1100,,,,,,,MVFR,,,,,,,,,,,,SPECI,56.0
LFMN 190200Z 33008KT CAVOK 14/10 Q1027 NOSIG,LFMN,2021-10-19T02:00:00Z,43.65,7.2,14.0,10.0,330,8,,6.21,30.324802,,,,,,TRUE,,,,,CAVOK,,,,,,,,VFR,,,,,,,,,,,,METAR,4.0
LFML 190200Z AUTO 12003KT 6000 NSC 12/12 Q1027 NOSIG,LFML,2021-10-19T02:00:00Z,43.45,5.22,12.0,12.0,120,3,,3.73,30.324802,,,TRUE,,,TRUE,,,,,CLR,,,,,,,,MVFR,,,,,,,,,,,,METAR,20.0
LFMK 190200Z AUTO 08010KT 9999 BKN023 15/14 Q1025,LFMK,2021-10-19T02:00:00Z,43.22,2.32,15.0,14.0,80,10,,6.21,30.265747,,,TRUE,,,,,,,,BKN,2300,,,,,,,MVFR,,,,,,,,,,,,METAR,124.0
LFMI 190200Z AUTO 04004KT 5000 BR NSC 10/10 Q1027 NOSIG,LFMI,2021-10-19T02:00:00Z,43.52,4.93,10.0,10.0,40,4,,3.11,30.324802,,,TRUE,,,TRUE,,,,BR,CLR,,,,,,,,MVFR,,,,,,,,,,,,METAR,20.0
LFMH 190200Z AUTO 18006KT CAVOK 10/06 Q1025,LFMH,2021-10-19T02:00:00Z,45.52,4.28,10.0,6.0,180,6,,6.21,30.265747,,,TRUE,,,,,,,,CAVOK,,,,,,,,VFR,,,,,,,,,,,,METAR,400.0
LFMD 190200Z AUTO 01005KT 340V040 CAVOK 11/09 Q1027,LFMD,2021-10-19T02:00:00Z,43.53,6.95,11.0,9.0,10,5,,6.21,30.324802,,,TRUE,,,,,,,,CAVOK,,,,,,,,VFR,,,,,,,,,,,,METAR,2.0
LFMC 190200Z AUTO 00000KT 9999 ////// 08/07 Q1027,LFMC,2021-10-19T02:00:00Z,43.37,6.38,8.0,7.0,0,0,,6.21,30.324802,,,TRUE,,,,,,,,,,,,,,,,,,,,,,,,,,,,METAR,79.0
LFLY 190200Z AUTO 24001KT 8000 NSC 09/08 Q1026 TEMPO 4000 BR,LFLY,2021-10-19T02:00:00Z,45.72,4.95,9.0,8.0,240,1,,4.97,30.295275,,,TRUE,,,,,,,,CLR,,,,,,,,MVFR,,,,,,,,,,,,SPECI,197.0
LFLX 190200Z AUTO 18004KT CAVOK 15/09 Q1023 NOSIG,LFLX,2021-10-19T02:00:00Z,46.87,1.73,15.0,9.0,180,4,,6.21,30.206694,,,TRUE,,,TRUE,,,,,CAVOK,,,,,,,,VFR,,,,,,,,,,,,METAR,157.0
LFLW 190200Z AUTO 10006KT CAVOK 07/03 Q1026,LFLW,2021-10-19T02:00:00Z,44.88,2.42,7.0,3.0,100,6,,6.21,30.295275,,,TRUE,,,,,,,,CAVOK,,,,,,,,VFR,,,,,,,,,,,,METAR,638.0
LFLS 190200Z AUTO 08007KT CAVOK 08/06 Q1027,LFLS,2021-10-19T02:00:00Z,45.37,5.32,8.0,6.0,80,7,,6.21,30.324802,,,TRUE,,,,,,,,CAVOK,,,,,,,,VFR,,,,,,,,,,,,METAR,386.0
LFLP 190200Z AUTO VRB03KT CAVOK 07/06 Q1028,LFLP,2021-10-19T02:00:00Z,45.92,6.1,7.0,6.0,0,3,,6.21,30.35433,,,TRUE,,,,,,,,CAVOK,,,,,,,,VFR,,,,,,,,,,,,METAR,460.0
LFLN 190200Z AUTO 00000KT 4300 1300 R33/P2000 BR NSC 08/08 Q1025,LFLN,2021-10-19T02:00:00Z,46.42,4.02,8.0,8.0,0,0,,2.67,30.265747,,,TRUE,,,,,,,BR,CLR,,,,,,,,IFR,,,,,,,,,,,,METAR,238.0
LFLL 190200Z 14005KT CAVOK 11/09 Q1026 NOSIG,LFLL,2021-10-19T02:00:00Z,45.72,5.07,11.0,9.0,140,5,,6.21,30.295275,,,,,,TRUE,,,,,CAVOK,,,,,,,,VFR,,,,,,,,,,,,METAR,234.0
LFLC 190200Z AUTO VRB03KT CAVOK 10/06 Q1025 NOSIG,LFLC,2021-10-19T02:00:00Z,45.78,3.17,10.0,6.0,0,3,,6.21,30.265747,,,TRUE,,,TRUE,,,,,CAVOK,,,,,,,,VFR,,,,,,,,,,,,METAR,325.0
LFLB 190200Z AUTO VRB02KT 9999 // ////// 06/06 Q1027,LFLB,2021-10-19T02:00:00Z,45.63,5.87,6.0,6.0,0,2,,6.21,30.324802,,,TRUE,,,,,,,,,,,,,,,,,,,,,,,,,,,,SPECI,234.0
LFKS 190200Z AUTO 28004KT 250V330 CAVOK 14/06 Q1027,LFKS,2021-10-19T02:00:00Z,41.92,9.4,14.0,6.0,280,4,,6.21,30.324802,,,TRUE,,,,,,,,CAVOK,,,,,,,,VFR,,,,,,,,,,,,METAR,22.0
LFKJ 190200Z AUTO 04007KT CAVOK 12/09 Q1027 NOSIG,LFKJ,2021-10-19T02:00:00Z,41.92,8.8,12.0,9.0,40,7,,6.21,30.324802,,,TRUE,,,TRUE,,,,,CAVOK,,,,,,,,VFR,,,,,,,,,,,,METAR,9.0
LFKF 190200Z AUTO 06002KT CAVOK 06/05 Q1027,LFKF,2021-10-19T02:00:00Z,41.5,9.08,6.0,5.0,60,2,,6.21,30.324802,,,TRUE,,,,,,,,CAVOK,,,,,,,,VFR,,,,,,,,,,,,METAR,15.0
LFKC 190200Z AUTO 18003KT CAVOK 11/07 Q1027,LFKC,2021-10-19T02:00:00Z,42.52,8.8,11.0,7.0,180,3,,6.21,30.324802,,,TRUE,,,,,,,,CAVOK,,,,,,,,VFR,,,,,,,,,,,,METAR,38.0
LFKB 190200Z AUTO 23009KT CAVOK 14/07 Q1027 NOSIG,LFKB,2021-10-19T02:00:00Z,42.55,9.48,14.0,7.0,230,9,,6.21,30.324802,,,TRUE,,,TRUE,,,,,CAVOK,,,,,,,,VFR,,,,,,,,,,,,METAR,7.0
LFJR 190200Z AUTO 18003KT CAVOK 15/14 Q1021,LFJR,2021-10-19T02:00:00Z,47.57,-0.32,15.0,14.0,180,3,,6.21,30.147638,,,TRUE,,,,,,,,CAVOK,,,,,,,,VFR,,,,,,,,,,,,METAR,50.0
LFJL 190200Z AUTO 16012KT 7000 -RA FEW046/// BKN084/// OVC110/// ///TCU 11/10 Q1023 TEMPO 4000 RA BKN008,LFJL,2021-10-19T02:00:00Z,48.97,6.25,11.0,10.0,160,12,,4.35,30.206694,,,TRUE,,,,,,,-RA,FEW,4600,BKN,8400,OVC,11000,,,MVFR,,,,,,,,,,,,SPECI,259.0
LFGJ 190200Z AUTO 07003KT 6000 ///TCU 08/08 Q1025,LFGJ,2021-10-19T02:00:00Z,47.05,5.43,8.0,8.0,70,3,,3.73,30.265747,,,TRUE,,,,,,,,,,,,,,,,,,,,,,,,,,,,SPECI,191.0
LFGA 190200Z AUTO VRB03KT 7000 NSC 06/06 Q1024,LFGA,2021-10-19T02:00:00Z,48.1,7.35,6.0,6.0,0,3,,4.35,30.236221,,,TRUE,,,,,,,,CLR,,,,,,,,MVFR,,,,,,,,,,,,METAR,191.0
LFCR 190200Z AUTO 11004KT CAVOK 09/07 Q1026 NOSIG,LFCR,2021-10-19T02:00:00Z,44.4,2.47,9.0,7.0,110,4,,6.21,30.295275,,,TRUE,,,TRUE,,,,,CAVOK,,,,,,,,VFR,,,,,,,,,,,,METAR,576.0
LFCK 190200Z AUTO 11010KT CAVOK 15/09 Q1025,LFCK,2021-10-19T02:00:00Z,43.55,2.28,15.0,9.0,110,10,,6.21,30.265747,,,TRUE,,,,,,,,CAVOK,,,,,,,,VFR,,,,,,,,,,,,METAR,223.0
LFBZ 190200Z AUTO 15005KT CAVOK 19/11 Q1021 NOSIG,LFBZ,2021-10-19T02:00:00Z,43.47,-1.53,19.0,11.0,150,5,,6.21,30.147638,,,TRUE,,,TRUE,,,,,CAVOK,,,,,,,,VFR,,,,,,,,,,,,METAR,70.0
LFBY 190200Z AUTO 10003KT 9999 // ////// 14/12 Q1022,LFBY,2021-10-19T02:00:00Z,43.68,-1.07,14.0,12.0,100,3,,6.21,30.177166,,,TRUE,,,,,,,,,,,,,,,,,,,,,,,,,,,,METAR,32.0
LFBX 190200Z AUTO 00000KT 5000 BR NSC 08/08 Q1024,LFBX,2021-10-19T02:00:00Z,45.2,0.82,8.0,8.0,0,0,,3.11,30.236221,,,TRUE,,,,,,,BR,CLR,,,,,,,,MVFR,,,,,,,,,,,,METAR,97.0
LFBU 190200Z AUTO VRB03KT CAVOK 14/10 Q1023,LFBU,2021-10-19T02:00:00Z,45.72,0.22,14.0,10.0,0,3,,6.21,30.206694,,,TRUE,,,,,,,,CAVOK,,,,,,,,VFR,,,,,,,,,,,,METAR,124.0
LFBT 190200Z AUTO 18005KT CAVOK 11/09 Q1023 NOSIG,LFBT,2021-10-19T02:00:00Z,43.18,0.0,11.0,9.0,180,5,,6.21,30.206694,,,TRUE,,,TRUE,,,,,CAVOK,,,,,,,,VFR,,,,,,,,,,,,METAR,359.0
LFBP 190200Z AUTO 11004KT CAVOK 13/10 Q1022 NOSIG,LFBP,2021-10-19T02:00:00Z,43.38,-0.42,13.0,10.0,110,4,,6.21,30.177166,,,TRUE,,,TRUE,,,,,CAVOK,,,,,,,,VFR,,,,,,,,,,,,METAR,182.0
LFBO 190200Z AUTO 13014KT CAVOK 15/13 Q1024 TEMPO BKN010,LFBO,2021-10-19T02:00:00Z,43.62,1.37,15.0,13.0,130,14,,6.21,30.236221,,,TRUE,,,,,,,,CAVOK,,,,,,,,VFR,,,,,,,,,,,,SPECI,150.0
LFBM 190200Z AUTO 09004KT CAVOK 12/11 Q1022 NOSIG,LFBM,2021-10-19T02:00:00Z,43.92,-0.5,12.0,11.0,90,4,,6.21,30.177166,,,TRUE,,,TRUE,,,,,CAVOK,,,,,,,,VFR,,,,,,,,,,,,METAR,56.0
LFBL 190200Z AUTO 11004KT CAVOK 13/08 Q1024 NOSIG,LFBL,2021-10-19T02:00:00Z,45.87,1.17,13.0,8.0,110,4,,6.21,30.236221,,,TRUE,,,TRUE,,,,,CAVOK,,,,,,,,VFR,,,,,,,,,,,,METAR,402.0
LFBI 190200Z AUTO 16004KT CAVOK 14/10 Q1022 NOSIG,LFBI,2021-10-19T02:00:00Z,46.58,0.32,14.0,10.0,160,4,,6.21,30.177166,,,TRUE,,,TRUE,,,,,CAVOK,,,,,,,,VFR,,,,,,,,,,,,METAR,117.0
LFBH 190200Z AUTO 16007KT CAVOK 16/13 Q1021 NOSIG,LFBH,2021-10-19T02:00:00Z,46.18,-1.2,16.0,13.0,160,7,,6.21,30.147638,,,TRUE,,,TRUE,,,,,CAVOK,,,,,,,,VFR,,,,,,,,,,,,METAR,18.0
LFBG 190200Z AUTO 12006KT CAVOK 15/11 Q1022,LFBG,2021-10-19T02:00:00Z,45.67,-0.32,15.0,11.0,120,6,,6.21,30.177166,,,TRUE,,,,,,,,CAVOK,,,,,,,,VFR,,,,,,,,,,,,METAR,28.0
LFBE 190200Z AUTO 07007KT CAVOK 10/10 Q1023 TEMPO 3000 BR,LFBE,2021-10-19T02:00:00Z,44.82,0.52,10.0,10.0,70,7,,6.21,30.206694,,,TRUE,,,,,,,,CAVOK,,,,,,,,VFR,,,,,,,,,,,,SPECI,49.0
LFBD 190200Z AUTO 13005KT CAVOK 15/12 Q1022 NOSIG,LFBD,2021-10-19T02:00:00Z,44.82,-0.7,15.0,12.0,130,5,,6.21,30.177166,,,TRUE,,,TRUE,,,,,CAVOK,,,,,,,,VFR,,,,,,,,,,,,METAR,48.0
LFBC 190200Z AUTO 09002KT CAVOK 14/12 Q1021,LFBC,2021-10-19T02:00:00Z,44.52,-1.12,14.0,12.0,90,2,,6.21,30.147638,,,TRUE,,,,,,,,CAVOK,,,,,,,,VFR,,,,,,,,,,,,METAR,22.0
LFBA 190200Z AUTO 11007KT 6000 NSC 10/10 Q1023,LFBA,2021-10-19T02:00:00Z,44.17,0.6,10.0,10.0,110,7,,3.73,30.206694,,,TRUE,,,,,,,,CLR,,,,,,,,MVFR,,,,,,,,,,,,METAR,68.0
LFAT 190200Z AUTO 22009KT 190V250 6000 OVC002 17/17 Q1017,LFAT,2021-10-19T02:00:00Z,50.52,1.62,17.0,17.0,220,9,,3.73,30.029528,,,TRUE,,,,,,,,OVC,200,,,,,,,LIFR,,,,,,,,,,,,METAR,2.0
LFAQ 190200Z AUTO 20008KT 5000 BR OVC003 15/15 Q1018,LFAQ,2021-10-19T02:00:00Z,49.97,2.7,15.0,15.0,200,8,,3.11,30.059055,,,TRUE,,,,,,,BR,OVC,300,,,,,,,LIFR,,,,,,,,,,,,METAR,107.0
LEZL 190200Z AUTO 12003KT 060V150 CAVOK 19/14 Q1021,LEZL,2021-10-19T02:00:00Z,37.42,-5.9,19.0,14.0,120,3,,6.21,30.147638,,,TRUE,,,,,,,,CAVOK,,,,,,,,VFR,,,,,,,,,,,,METAR,26.0
LEZG 190200Z 15006KT CAVOK 14/11 Q1025,LEZG,2021-10-19T02:00:00Z,41.67,-1.02,14.0,11.0,150,6,,6.21,30.265747,,,,,,,,,,,CAVOK,,,,,,,,VFR,,,,,,,,,,,,METAR,245.0
LEXJ 190200Z AUTO 22006KT 190V250 CAVOK 23/15 Q1018,LEXJ,2021-10-19T02:00:00Z,43.42,-3.82,23.0,15.0,220,6,,6.21,30.059055,,,TRUE,,,,,,,,CAVOK,,,,,,,,VFR,,,,,,,,,,,,METAR,1.0
LEVX 190200Z 22008KT CAVOK 17/16 Q1021 NOSIG,LEVX,2021-10-19T02:00:00Z,42.23,-8.62,17.0,16.0,220,8,,6.21,30.147638,,,,,,TRUE,,,,,CAVOK,,,,,,,,VFR,,,,,,,,,,,,METAR,253.0
LEVT 190200Z 23008KT 210V270 CAVOK 15/12 Q1025,LEVT,2021-10-19T02:00:00Z,42.87,-2.72,15.0,12.0,230,8,,6.21,30.265747,,,,,,,,,,,CAVOK,,,,,,,,VFR,,,,,,,,,,,,METAR,501.0
LEVS 190200Z AUTO 08003KT 030V130 CAVOK 16/11 Q1026,LEVS,2021-10-19T02:00:00Z,40.37,-3.78,16.0,11.0,80,3,,6.21,30.295275,,,TRUE,,,,,,,,CAVOK,,,,,,,,VFR,,,,,,,,,,,,METAR,683.0
LEVD 190200Z AUTO 08007KT 6000 NCD 13/12 Q1025,LEVD,2021-10-19T02:00:00Z,41.72,-4.85,13.0,12.0,80,7,,3.73,30.265747,,,TRUE,,,,,,,,CLR,,,,,,,,MVFR,,,,,,,,,,,,METAR,844.0
LEVC 190200Z 30003KT 9999 FEW020 16/14 Q1026 NOSIG,LEVC,2021-10-19T02:00:00Z,39.5,-0.47,16.0,14.0,300,3,,6.21,30.295275,,,,,,TRUE,,,,,FEW,2000,,,,,,,VFR,,,,,,,,,,,,METAR,58.0
LETU 190200Z AUTO 24005KT 9999 NCD 11/10 Q1026,LETU,2021-10-19T02:00:00Z,,,11.0,10.0,240,5,,6.21,30.295275,,,TRUE,,,,,,,,CLR,,,,,,,,VFR,,,,,,,,,,,,METAR,
LETO 190200Z 01006KT CAVOK 13/10 Q1026 NOSIG,LETO,2021-10-19T02:00:00Z,40.48,-3.47,13.0,10.0,10,6,,6.21,30.295275,,,,,,TRUE,,,,,CAVOK,,,,,,,,VFR,,,,,,,,,,,,METAR,598.0
LETL 190200Z AUTO 14006KT 4100 BR SCT006 11/10 Q1028,LETL,2021-10-19T02:00:00Z,40.42,-1.22,11.0,10.0,140,6,,2.55,30.35433,,,TRUE,,,,,,,BR,SCT,600,,,,,,,IFR,,,,,,,,,,,,METAR,1024.0
LESO 190200Z AUTO 21004KT 160V250 CAVOK 19/13 Q1021,LESO,2021-10-19T02:00:00Z,43.35,-1.8,19.0,13.0,210,4,,6.21,30.147638,,,TRUE,,,,,,,,CAVOK,,,,,,,,VFR,,,,,,,,,,,,METAR,3.0
LESB 190200Z AUTO 35004KT 9999 SCT024/// BKN039/// 17/16 Q1026,LESB,2021-10-19T02:00:00Z,39.6,2.7,17.0,16.0,350,4,,6.21,30.295275,,,TRUE,,,,,,,,SCT,2400,BKN,3900,,,,,VFR,,,,,,,,,,,,METAR,48.0
LESA 190200Z AUTO 00000KT 9000 NCD 11/11 Q1025,LESA,2021-10-19T02:00:00Z,40.95,-5.5,11.0,11.0,0,0,,5.59,30.265747,,,TRUE,,,,,,,,CLR,,,,,,,,VFR,,,,,,,,,,,,METAR,788.0
LERS 190200Z AUTO 02004KT 9999 SCT016 14/13 Q1026,LERS,2021-10-19T02:00:00Z,41.13,1.17,14.0,13.0,20,4,,6.21,30.295275,,,TRUE,,,,,,,,SCT,1600,,,,,,,VFR,,,,,,,,,,,,METAR,68.0
LEPP 190200Z AUTO 00000KT CAVOK 13/09 Q1025,LEPP,2021-10-19T02:00:00Z,42.77,-1.65,13.0,9.0,0,0,,6.21,30.265747,,,TRUE,,,,,,,,CAVOK,,,,,,,,VFR,,,,,,,,,,,,METAR,448.0
LEPA 190200Z 36003KT 330V030 9999 FEW025 BKN039 18/17 Q1026 NOSIG,LEPA,2021-10-19T02:00:00Z,39.55,2.73,18.0,17.0,360,3,,6.21,30.295275,,,,,,TRUE,,,,,FEW,2500,BKN,3900,,,,,VFR,,,,,,,,,,,,METAR,8.0
LEMO 190200Z 00000KT CAVOK 17/11 Q1021 NOSIG,LEMO,2021-10-19T02:00:00Z,37.17,-5.62,17.0,11.0,0,0,,6.21,30.147638,,,,,,TRUE,,,,,CAVOK,,,,,,,,VFR,,,,,,,,,,,,METAR,82.0
LEMI 190200Z AUTO 35006KT CAVOK 17/15 Q1026,LEMI,2021-10-19T02:00:00Z,37.8,-1.12,17.0,15.0,350,6,,6.21,30.295275,,,TRUE,,,,,,,,CAVOK,,,,,,,,VFR,,,,,,,,,,,,METAR,193.0
LEMH 190200Z AUTO 09003KT 9999 BKN041/// 17/13 Q1027,LEMH,2021-10-19T02:00:00Z,39.87,4.22,17.0,13.0,90,3,,6.21,30.324802,,,TRUE,,,,,,,,BKN,4100,,,,,,,VFR,,,,,,,,,,,,METAR,82.0
LEMG 190200Z 28007KT 9999 FEW020 18/16 Q1024 NOSIG,LEMG,2021-10-19T02:00:00Z,36.67,-4.47,18.0,16.0,280,7,,6.21,30.236221,,,,,,TRUE,,,,,FEW,2000,,,,,,,VFR,,,,,,,,,,,,METAR,5.0
LEMD 190200Z 10002KT CAVOK 13/11 Q1026 NOSIG,LEMD,2021-10-19T02:00:00Z,40.45,-3.57,13.0,11.0,100,2,,6.21,30.295275,,,,,,TRUE,,,,,CAVOK,,,,,,,,VFR,,,,,,,,,,,,METAR,589.0
LELO 190200Z AUTO VRB02KT CAVOK 11/10 Q1025,LELO,2021-10-19T02:00:00Z,42.45,-2.32,11.0,10.0,0,2,,6.21,30.265747,,,TRUE,,,,,,,,CAVOK,,,,,,,,VFR,,,,,,,,,,,,METAR,352.0
LELN 190200Z AUTO 01001KT 6000 BKN009 14/13 Q1026,LELN,2021-10-19T02:00:00Z,42.58,-5.65,14.0,13.0,10,1,,3.73,30.295275,,,TRUE,,,,,,,,BKN,900,,,,,,,IFR,,,,,,,,,,,,METAR,911.0
LELL 190200Z AUTO 29003KT 6000 NCD 15/14 Q1026,LELL,2021-10-19T02:00:00Z,41.52,2.1,15.0,14.0,290,3,,3.73,30.295275,,,TRUE,,,,,,,,CLR,,,,,,,,MVFR,,,,,,,,,,,,METAR,136.0
LELC 190200Z AUTO 34005KT 9999 FEW024 18/16 Q1025,LELC,2021-10-19T02:00:00Z,37.77,-0.8,18.0,16.0,340,5,,6.21,30.265747,,,TRUE,,,,,,,,FEW,2400,,,,,,,VFR,,,,,,,,,,,,METAR,3.0
LEJR 190200Z AUTO VRB01KT CAVOK 16/11 Q1021,LEJR,2021-10-19T02:00:00Z,36.75,-6.07,16.0,11.0,0,1,,6.21,30.147638,,,TRUE,,,,,,,,CAVOK,,,,,,,,VFR,,,,,,,,,,,,METAR,25.0
LEIB 190200Z 33005KT 9999 SCT025 17/16 Q1026 NOSIG,LEIB,2021-10-19T02:00:00Z,38.87,1.38,17.0,16.0,330,5,,6.21,30.295275,,,,,,TRUE,,,,,SCT,2500,,,,,,,VFR,,,,,,,,,,,,METAR,4.0
LEHC 190200Z AUTO 00000KT CAVOK 13/10 Q1027,LEHC,2021-10-19T02:00:00Z,42.08,-0.32,13.0,10.0,0,0,,6.21,30.324802,,,TRUE,,,,,,,,CAVOK,,,,,,,,VFR,,,,,,,,,,,,METAR,540.0
LEGR 190200Z AUTO 00000KT CAVOK 16/12 Q1025,LEGR,2021-10-19T02:00:00Z,37.18,-3.78,16.0,12.0,0,0,,6.21,30.265747,,,TRUE,,,,,,,,CAVOK,,,,,,,,VFR,,,,,,,,,,,,METAR,560.0
LEGE 190200Z 00000KT 0250 R01/0600N FG SCT002 BKN025 OVC035 15/15 Q1026,LEGE,2021-10-19T02:00:00Z,41.9,2.77,15.0,15.0,0,0,,0.16,30.295275,,,,,,,,,,FG,SCT,200,BKN,2500,OVC,3500,,,LIFR,,,,,,,,,,,,METAR,140.0
LEDA 190200Z AUTO 04006KT CAVOK 13/12 Q1026,LEDA,2021-10-19T02:00:00Z,41.73,0.53,13.0,12.0,40,6,,6.21,30.295275,,,TRUE,,,,,,,,CAVOK,,,,,,,,VFR,,,,,,,,,,,,METAR,352.0
LECO 190200Z AUTO 18009KT CAVOK 18/17 Q1019,LECO,2021-10-19T02:00:00Z,43.3,-8.37,18.0,17.0,180,9,,6.21,30.088583,,,TRUE,,,,,,,,CAVOK,,,,,,,,VFR,,,,,,,,,,,,METAR,80.0
LECH 190200Z AUTO 18003KT 4900 BR NCD 13/13 Q1026,LECH,2021-10-19T02:00:00Z,40.2,0.07,13.0,13.0,180,3,,3.04,30.295275,,,TRUE,,,,,,,BR,CLR,,,,,,,,MVFR,,,,,,,,,,,,METAR,360.0
LEBT 190200Z AUTO 00000KT 9999 FEW020 14/14 Q1026,LEBT,2021-10-19T02:00:00Z,39.58,-0.45,14.0,14.0,0,0,,6.21,30.295275,,,TRUE,,,,,,,,FEW,2000,,,,,,,VFR,,,,,,,,,,,,METAR,50.0
LEBR 190200Z AUTO 11009KT 9999 NCD 14/11 Q1025,LEBR,2021-10-19T02:00:00Z,42.2,-1.43,14.0,11.0,110,9,,6.21,30.265747,,,TRUE,,,,,,,,CLR,,,,,,,,VFR,,,,,,,,,,,,METAR,347.0
LEBL 190200Z 33006KT 9999 FEW018 BKN023 17/15 Q1026 NOSIG,LEBL,2021-10-19T02:00:00Z,41.28,2.07,17.0,15.0,330,6,,6.21,30.295275,,,,,,TRUE,,,,,FEW,1800,BKN,2300,,,,,MVFR,,,,,,,,,,,,METAR,2.0
LEBG 190200Z AUTO VRB01KT 9000 NCD 08/08 Q1026,LEBG,2021-10-19T02:00:00Z,42.37,-3.62,8.0,8.0,0,1,,5.59,30.295275,,,TRUE,,,,,,,,CLR,,,,,,,,VFR,,,,,,,,,,,,METAR,892.0
LEBB 190200Z AUTO VRB07KT CAVOK 23/14 Q1021,LEBB,2021-10-19T02:00:00Z,43.28,-2.92,23.0,14.0,0,7,,6.21,30.147638,,,TRUE,,,,,,,,CAVOK,,,,,,,,VFR,,,,,,,,,,,,METAR,38.0
LEBA 190200Z AUTO VRB02KT CAVOK 18/13 Q1022,LEBA,2021-10-19T02:00:00Z,37.85,-4.83,18.0,13.0,0,2,,6.21,30.177166,,,TRUE,,,,,,,,CAVOK,,,,,,,,VFR,,,,,,,,,,,,METAR,88.0
LEAS 190200Z AUTO 23008KT CAVOK 19/16 Q1019,LEAS,2021-10-19T02:00:00Z,43.57,-6.03,19.0,16.0,230,8,,6.21,30.088583,,,TRUE,,,,,,,,CAVOK,,,,,,,,VFR,,,,,,,,,,,,METAR,120.0
LEAM 190200Z AUTO 01003KT 290V100 CAVOK 20/15 Q1024,LEAM,2021-10-19T02:00:00Z,36.85,-2.37,20.0,15.0,10,3,,6.21,30.236221,,,TRUE,,,,,,,,CAVOK,,,,,,,,VFR,,,,,,,,,,,,METAR,16.0
LEAL 190200Z 01005KT 9999 SCT025 19/16 Q1025 NOSIG,LEAL,2021-10-19T02:00:00Z,38.27,-0.55,19.0,16.0,10,5,,6.21,30.265747,,,,,,TRUE,,,,,SCT,2500,,,,,,,VFR,,,,,,,,,,,,METAR,26.0
LEAG 190200Z AUTO 08012KT 9999 BKN011 BKN016 20/18 Q1023,LEAG,2021-10-19T02:00:00Z,36.12,-5.45,20.0,18.0,80,12,,6.21,30.206694,,,TRUE,,,,,,,,BKN,1100,BKN,1600,,,,,MVFR,,,,,,,,,,,,METAR,4.0
LEAB 190200Z 13006KT 100V160 9999 OVC015 16/13 Q1027 NOSIG,LEAB,2021-10-19T02:00:00Z,38.95,-1.85,16.0,13.0,130,6,,6.21,30.324802,,,,,,TRUE,,,,,OVC,1500,,,,,,,MVFR,,,,,,,,,,,,METAR,704.0
LDZD 190200Z VRB02KT CAVOK 06/05 Q1026 NOSIG,LDZD,2021-10-19T02:00:00Z,44.1,15.33,6.0,5.0,0,2,,6.21,30.295275,,,,,,TRUE,,,,,CAVOK,,,,,,,,VFR,,,,,,,,,,,,METAR,82.0
LDZA 190200Z 23002KT 2000 BCFG NSC 03/02 Q1029 TEMPO 0500 FG,LDZA,2021-10-19T02:00:00Z,45.72,16.07,3.0,2.0,230,2,,1.24,30.383858,,,,,,,,,,BCFG,CLR,,,,,,,,IFR,,,,,,,,,,,,SPECI,103.0
LDSP 190200Z AUTO 35006KT CAVOK 13/04 Q1026 NOSIG,LDSP,2021-10-19T02:00:00Z,43.53,16.3,13.0,4.0,350,6,,6.21,30.295275,,,TRUE,,,TRUE,,,,,CAVOK,,,,,,,,VFR,,,,,,,,,,,,METAR,16.0
LDRI 190200Z 00000KT CAVOK 11/05 Q1027,LDRI,2021-10-19T02:00:00Z,45.22,14.57,11.0,5.0,0,0,,6.21,30.324802,,,,,,,,,,,CAVOK,,,,,,,,VFR,,,,,,,,,,,,METAR,80.0
LDPL 190200Z 07003KT 040V100 CAVOK 07/04 Q1027 NOSIG,LDPL,2021-10-19T02:00:00Z,44.88,13.92,7.0,4.0,70,3,,6.21,30.324802,,,,,,TRUE,,,,,CAVOK,,,,,,,,VFR,,,,,,,,,,,,METAR,63.0
LDOS 190200Z 27004KT CAVOK 04/03 Q1028,LDOS,2021-10-19T02:00:00Z,45.47,18.82,4.0,3.0,270,4,,6.21,30.35433,,,,,,,,,,,CAVOK,,,,,,,,VFR,,,,,,,,,,,,METAR,82.0
LDDU 190200Z VRB09KT CAVOK 15/06 Q1025 NOSIG,LDDU,2021-10-19T02:00:00Z,42.57,18.27,15.0,6.0,0,9,,6.21,30.265747,,,,,,TRUE,,,,,CAVOK,,,,,,,,VFR,,,,,,,,,,,,METAR,156.0
LCPH 190200Z AUTO 01006KT 9999 NCD 18/14 Q1016,LCPH,2021-10-19T02:00:00Z,34.72,32.47,18.0,14.0,10,6,,6.21,30.0,,,TRUE,,,,,,,,CLR,,,,,,,,VFR,,,,,,,,,,,,METAR,8.0
LCLK 190200Z 28003KT 260V320 9999 FEW070 19/13 Q1016 NOSIG,LCLK,2021-10-19T02:00:00Z,34.87,33.62,19.0,13.0,280,3,,6.21,30.0,,,,,,TRUE,,,,,FEW,7000,,,,,,,VFR,,,,,,,,,,,,METAR,2.0
LBWN 190200Z 28003KT 220V010 CAVOK 11/09 Q1025 NOSIG,LBWN,2021-10-19T02:00:00Z,43.22,27.82,11.0,9.0,280,3,,6.21,30.265747,,,,,,TRUE,,,,,CAVOK,,,,,,,,VFR,,,,,,,,,,,,METAR,74.0
LBSF 190200Z 30007KT CAVOK 07/04 Q1027 NOSIG,LBSF,2021-10-19T02:00:00Z,42.65,23.37,7.0,4.0,300,7,,6.21,30.324802,,,,,,TRUE,,,,,CAVOK,,,,,,,,VFR,,,,,,,,,,,,METAR,592.0
LBPL 190200Z 20004KT 9999 SCT100 08/06 Q1027,LBPL,2021-10-19T02:00:00Z,43.45,24.5,8.0,6.0,200,4,,6.21,30.324802,,,,,,,,,,,SCT,10000,,,,,,,VFR,,,,,,,,,,,,METAR,93.0
LBPG 190200Z 36002KT 9999 OVC050 11/11 Q1026,LBPG,2021-10-19T02:00:00Z,42.28,24.72,11.0,11.0,360,2,,6.21,30.295275,,,,,,,,,,,OVC,5000,,,,,,,VFR,,,,,,,,,,,,METAR,198.0
LBPD 190200Z AUTO 30003KT 230V340 9999 SCT049/// BKN070/// 13/10 Q1026,LBPD,2021-10-19T02:00:00Z,42.05,24.85,13.0,10.0,300,3,,6.21,30.295275,,,TRUE,,,,,,,,SCT,4900,BKN,7000,,,,,VFR,,,,,,,,,,,,METAR,182.0
LBIA 190200Z 00000KT 9999 SKC 07/07 Q1026,LBIA,2021-10-19T02:00:00Z,42.45,26.35,7.0,7.0,0,0,,6.21,30.295275,,,,,,,,,,,SKC,,,,,,,,VFR,,,,,,,,,,,,METAR,155.0
LBGO 190200Z AUTO VRB02KT 7000 OVC069/// 07/07 Q1027,LBGO,2021-10-19T02:00:00Z,43.15,25.72,7.0,7.0,0,2,,4.35,30.324802,,,TRUE,,,,,,,,OVC,6900,,,,,,,MVFR,,,,,,,,,,,,METAR,84.0
LBBG 190200Z 27003KT 9999 FEW037 12/12 Q1026 NOSIG,LBBG,2021-10-19T02:00:00Z,42.57,27.52,12.0,12.0,270,3,,6.21,30.295275,,,,,,TRUE,,,,,FEW,3700,,,,,,,VFR,,,,,,,,,,,,METAR,41.0
KWBF 190200Z AUTO 00000KT 10SM SCT042 SCT047 28/18 A3004 RMK A01,KWBF,2021-10-19T02:00:00Z,26.93,-90.5,28.0,18.0,0,0,,10.0,30.041338,,,TRUE,TRUE,,,,,,,SCT,4200,SCT,4700,,,,,VFR,,,,,,,,,,,,SPECI,40.0
KQFX 190200Z AUTO 09001KT 6000 HZ OVC009 12/09 A3010 RMK A02 TSNO,KQFX,2021-10-19T02:00:00Z,,,12.0,9.0,90,1,,3.73,30.100393,,,TRUE,TRUE,,,TRUE,,,HZ,OVC,900,,,,,,,IFR,,,,,,,,,,,,METAR,
KQFW 190200Z AUTO 21001KT 6000 FEW006 BKN016 BKN037 BKN055 10/09 A2994 RMK A02 TSNO,KQFW,2021-10-19T02:00:00Z,,,10.0,9.0,210,1,,3.73,29.940945,,,TRUE,TRUE,,,TRUE,,,,FEW,600,BKN,1600,BKN,3700,BKN,5500,MVFR,,,,,,,,,,,,METAR,
KQFU 190200Z AUTO 34004KT 9999 FEW140 12/06 A3016 RMK A02 TSNO,KQFU,2021-10-19T02:00:00Z,,,12.0,6.0,340,4,,6.21,30.159449,,,TRUE,TRUE,,,TRUE,,,,FEW,14000,,,,,,,VFR,,,,,,,,,,,,METAR,
KQFT 190200Z AUTO 20003KT 9999 BKN018 12/09 A3010 RMK A02 TSNO,KQFT,2021-10-19T02:00:00Z,,,12.0,9.0,200,3,,6.21,30.100393,,,TRUE,TRUE,,,TRUE,,,,BKN,1800,,,,,,,MVFR,,,,,,,,,,,,METAR,
KQFB 190200Z AUTO 31001KT 9999 SCT110 17/05 A3012 RMK A02 TSNO,KQFB,2021-10-19T02:00:00Z,,,17.0,5.0,310,1,,6.21,30.121063,,,TRUE,TRUE,,,TRUE,,,,SCT,11000,,,,,,,VFR,,,,,,,,,,,,METAR,
KQEY 190200Z AUTO 01003KT 9999 CLR 13/08 A2982 RMK A02 TSNO,KQEY,2021-10-19T02:00:00Z,,,13.0,8.0,10,3,,6.21,29.819881,,,TRUE,TRUE,,,TRUE,,,,CLR,,,,,,,,VFR,,,,,,,,,,,,METAR,
KQEX 190200Z AUTO 03001KT 9999 BKN110 12/07 A3002 RMK A02 TSNO,KQEX,2021-10-19T02:00:00Z,,,12.0,7.0,30,1,,6.21,30.02067,,,TRUE,TRUE,,,TRUE,,,,BKN,11000,,,,,,,VFR,,,,,,,,,,,,METAR,
KQEW 190200Z AUTO 26003KT 9999 CLR 14/07 A3008 RMK A02 TSNO,KQEW,2021-10-19T02:00:00Z,,,14.0,7.0,260,3,,6.21,30.079725,,,TRUE,TRUE,,,TRUE,,,,CLR,,,,,,,,VFR,,,,,,,,,,,,METAR,
KQEV 190200Z AUTO 26004KT 9999 FEW011 14/10 A3007 RMK A02 TSNO,KQEV,2021-10-19T02:00:00Z,,,14.0,10.0,260,4,,6.21,30.070866,,,TRUE,TRUE,,,TRUE,,,,FEW,1100,,,,,,,VFR,,,,,,,,,,,,METAR,
KQEQ 190200Z AUTO 21003KT 9999 FEW011 FEW014 SCT023 13/08 A3016 RMK A02 TSNO,KQEQ,2021-10-19T02:00:00Z,,,13.0,8.0,210,3,,6.21,30.159449,,,TRUE,TRUE,,,TRUE,,,,FEW,1100,FEW,1400,SCT,2300,,,VFR,,,,,,,,,,,,METAR,
KQEP 190200Z AUTO 13001KT 6000 HZ OVC013 12/09 A3012 RMK A02 TSNO,KQEP,2021-10-19T02:00:00Z,,,12.0,9.0,130,1,,3.73,30.121063,,,TRUE,TRUE,,,TRUE,,,HZ,OVC,1300,,,,,,,MVFR,,,,,,,,,,,,METAR,
KQEN 190200Z AUTO 23006G16KT 9999 FEW020 FEW026 08/03 A3005 RMK A02 TSNO,KQEN,2021-10-19T02:00:00Z,,,8.0,3.0,230,6,16,6.21,30.050198,,,TRUE,TRUE,,,TRUE,,,,FEW,2000,FEW,2600,,,,,VFR,,,,,,,,,,,,METAR,
KQEJ 190200Z AUTO 16002KT 9999 FEW018 BKN048 11/08 A3007 RMK A02 TSNO,KQEJ,2021-10-19T02:00:00Z,,,11.0,8.0,160,2,,6.21,30.070866,,,TRUE,TRUE,,,TRUE,,,,FEW,1800,BKN,4800,,,,,VFR,,,,,,,,,,,,METAR,
KQEI 190200Z AUTO 9999 /CLR 10/08 / RMK A02 TSNO,KQEI,2021-10-19T02:00:00Z,,,10.0,8.0,,,,6.21,,,,TRUE,TRUE,,,TRUE,,,,CLR,,,,,,,,VFR,,,,,,,,,,,,METAR,
KPO1 190200Z AUTO 36009G15KT 10SM 11/02 A2985 ,KPO1,2021-10-19T02:00:00Z,48.13,-105.17,11.0,2.0,360,9,15,10.0,29.84941,,,TRUE,,,,,,,,,,,,,,,,,,,,,,,,,,,,METAR,621.0
KPIB 190200Z AUTO 00000KT 1 3/4SM BR CLR 11/11 A3016 RMK AO2 VIS 1/2V5 RAE00 P0000,KPIB,2021-10-19T02:00:00Z,31.47,-89.33,11.0,11.0,0,0,,1.75,30.159449,,,TRUE,TRUE,,,,,,BR,CLR,,,,,,,,IFR,,,,,,0.005,,,,,,METAR,91.0
KNEL 190200Z 00000KT 10SM OVC075 08/03 A3000 RMK AO2 SLP156 T00830028 $,KNEL,2021-10-19T02:00:00Z,40.03,-74.33,8.3,2.8,0,0,,10.0,30.0,1015.6,,,TRUE,TRUE,,,,,,OVC,7500,,,,,,,VFR,,,,,,,,,,,,METAR,26.0
KMTK 190200Z AUTO VRB04G11KT SCT035 SCT042 24/16 A3009 RMK A01,KMTK,2021-10-19T02:00:00Z,,,24.0,16.0,0,4,11,,30.088583,,,TRUE,TRUE,,,,,,,SCT,3500,SCT,4200,,,,,,,,,,,,,,,,,METAR,
KJSL 190200Z AUTO 09009G14KT 10SM CLR 26/15 A3002 RMK A01,KJSL,2021-10-19T02:00:00Z,26.23,-95.22,26.0,15.0,90,9,14,10.0,30.02067,,,TRUE,TRUE,,,,,,,CLR,,,,,,,,VFR,,,,,,,,,,,,METAR,45.0
KHDC 190200Z AUTO 00000KT 10SM CLR 14/12 A3013 RMK AO2,KHDC,2021-10-19T02:00:00Z,30.52,-90.42,14.0,12.0,0,0,,10.0,30.129921,,,TRUE,TRUE,,,,,,,CLR,,,,,,,,VFR,,,,,,,,,,,,METAR,12.0
KDSF 190200Z AUTO 04018KT 10SM SCT036 OVC046 25/18 A3008 RMK A01,KDSF,2021-10-19T02:00:00Z,28.35,-88.27,25.0,18.0,40,18,,10.0,30.079725,,,TRUE,TRUE,,,,,,,SCT,3600,OVC,4600,,,,,VFR,,,,,,,,,,,,SPECI,40.0
K79S 190200Z AUTO 30006KT 10SM 10/00 A3002 ,K79S,2021-10-19T02:00:00Z,47.85,-110.63,10.0,0.0,300,6,,10.0,30.02067,,,TRUE,,,,,,,,,,,,,,,,,,,,,,,,,,,,METAR,874.0
K3U3 190200Z AUTO 35013G18KT 10SM 10/M03 A2993 ,K3U3,2021-10-19T02:00:00Z,46.15,-112.87,10.0,-3.0,350,13,18,10.0,29.929134,,,TRUE,,,,,,,,,,,,,,,,,,,,,,,,,,,,METAR,1534.0
K38S 190200Z AUTO 01010KT 10SM 11/M02 A2997 ,K38S,2021-10-19T02:00:00Z,46.38,-112.77,11.0,-2.0,10,10,,10.0,29.970472,,,TRUE,,,,,,,,,,,,,,,,,,,,,,,,,,,,METAR,1430.0
HRYR 190200Z 22003KT 9999 SCT025 SCT100 18/18 Q1018 NOSIG,HRYR,2021-10-19T02:00:00Z,-1.97,30.13,18.0,18.0,220,3,,6.21,30.059055,,,,,,TRUE,,,,,SCT,2500,SCT,10000,,,,,VFR,,,,,,,,,,,,METAR,1493.0
HECA 190200Z 36003KT 9999 SCT025 21/15 Q1019 NOSIG,HECA,2021-10-19T02:00:00Z,30.12,31.4,21.0,15.0,360,3,,6.21,30.088583,,,,,,TRUE,,,,,SCT,2500,,,,,,,VFR,,,,,,,,,,,,METAR,68.0
GVSV 190200Z 06023KT 9999 FEW020 26/20 Q1013 NOSIG,GVSV,2021-10-19T02:00:00Z,16.83,-25.07,26.0,20.0,60,23,,6.21,29.911417,,,,,,TRUE,,,,,FEW,2000,,,,,,,VFR,,,,,,,,,,,,METAR,16.0
GVAC 190200Z 02011KT 9999 FEW013 SCT080 25/22 Q1014 NOSIG,GVAC,2021-10-19T02:00:00Z,16.73,-22.93,25.0,22.0,20,11,,6.21,29.940945,,,,,,TRUE,,,,,FEW,1300,SCT,8000,,,,,VFR,,,,,,,,,,,,METAR,54.0
GQPP 190200Z 36005KT 7000 NSC 21/20 Q1013 NOSIG,GQPP,2021-10-19T02:00:00Z,20.92,-17.02,21.0,20.0,360,5,,4.35,29.911417,,,,,,TRUE,,,,,CLR,,,,,,,,MVFR,,,,,,,,,,,,METAR,5.0
GOTT 190200Z 24006KT CAVOK 25/23 Q1010,GOTT,2021-10-19T02:00:00Z,13.73,-13.65,25.0,23.0,240,6,,6.21,29.822834,,,,,,,,,,,CAVOK,,,,,,,,VFR,,,,,,,,,,,,METAR,53.0
GOBD 190200Z 32004KT 7000 FEW009 26/26 Q1012 NOSIG,GOBD,2021-10-19T02:00:00Z,14.67,-17.07,26.0,26.0,320,4,,4.35,29.88189,,,,,,TRUE,,,,,FEW,900,,,,,,,MVFR,,,,,,,,,,,,METAR,90.0
GMTT 190200Z 08022KT CAVOK 22/17 Q1019 NOSIG,GMTT,2021-10-19T02:00:00Z,35.72,-5.9,22.0,17.0,80,22,,6.21,30.088583,,,,,,TRUE,,,,,CAVOK,,,,,,,,VFR,,,,,,,,,,,,METAR,19.0
GMTN 190200Z AUTO 10007KT 20/18 Q1022,GMTN,2021-10-19T02:00:00Z,35.58,-5.32,20.0,18.0,100,7,,,30.177166,,,TRUE,,,,,,,,,,,,,,,,,,,,,,,,,,,,METAR,10.0
GMTA 190200Z 19003KT 150V230 CAVOK 17/14 Q1022 NOSIG,GMTA,2021-10-19T02:00:00Z,35.17,-3.85,17.0,14.0,190,3,,6.21,30.177166,,,,,,TRUE,,,,,CAVOK,,,,,,,,VFR,,,,,,,,,,,,METAR,14.0
GMMZ 190200Z VRB02KT CAVOK 18/M04 Q1024 NOSIG,GMMZ,2021-10-19T02:00:00Z,30.93,-6.9,18.0,-4.0,0,2,,6.21,30.236221,,,,,,TRUE,,,,,CAVOK,,,,,,,,VFR,,,,,,,,,,,,METAR,1139.0
GMMX 190200Z VRB01KT CAVOK 20/05 Q1018 NOSIG,GMMX,2021-10-19T02:00:00Z,31.62,-8.03,20.0,5.0,0,1,,6.21,30.059055,,,,,,TRUE,,,,,CAVOK,,,,,,,,VFR,,,,,,,,,,,,METAR,465.0
GMMW 190200Z VRB02KT 9999 BKN012 18/14 Q1023 NOSIG,GMMW,2021-10-19T02:00:00Z,34.98,-3.02,18.0,14.0,0,2,,6.21,30.206694,,,,,,TRUE,,,,,BKN,1200,,,,,,,MVFR,,,,,,,,,,,,METAR,174.0
GMMN 190200Z 23002KT CAVOK 15/08 Q1017 NOSIG,GMMN,2021-10-19T02:00:00Z,33.37,-7.58,15.0,8.0,230,2,,6.21,30.029528,,,,,,TRUE,,,,,CAVOK,,,,,,,,VFR,,,,,,,,,,,,METAR,196.0
GMML 190200Z 06012KT CAVOK 19/18 Q1016 NOSIG,GMML,2021-10-19T02:00:00Z,27.13,-13.23,19.0,18.0,60,12,,6.21,30.0,,,,,,TRUE,,,,,CAVOK,,,,,,,,VFR,,,,,,,,,,,,METAR,63.0
GMME 190200Z 00000KT 5000 NSC 13/11 Q1016 NOSIG,GMME,2021-10-19T02:00:00Z,34.05,-6.77,13.0,11.0,0,0,,3.11,30.0,,,,,,TRUE,,,,,CLR,,,,,,,,MVFR,,,,,,,,,,,,METAR,84.0
GMMB 190200Z AUTO 23005KT 9999NDV ////// 17/10 Q1017 NOSIG,GMMB,2021-10-19T02:00:00Z,33.65,-7.22,17.0,10.0,230,5,,,30.029528,,,TRUE,,,TRUE,,,,,,,,,,,,,,,,,,,,,,,,,METAR,191.0
GMFO 190200Z 20004KT CAVOK 14/07 Q1024 NOSIG,GMFO,2021-10-19T02:00:00Z,34.78,-1.92,14.0,7.0,200,4,,6.21,30.236221,,,,,,TRUE,,,,,CAVOK,,,,,,,,VFR,,,,,,,,,,,,METAR,452.0
GMFM 190200Z 09010KT CAVOK 19/07 Q1019 NOSIG,GMFM,2021-10-19T02:00:00Z,33.87,-5.52,19.0,7.0,90,10,,6.21,30.088583,,,,,,TRUE,,,,,CAVOK,,,,,,,,VFR,,,,,,,,,,,,METAR,569.0
GMFK 190200Z VRB02KT CAVOK 18/M01 Q1026 NOSIG,GMFK,2021-10-19T02:00:00Z,31.95,-4.4,18.0,-1.0,0,2,,6.21,30.295275,,,,,,TRUE,,,,,CAVOK,,,,,,,,VFR,,,,,,,,,,,,METAR,1033.0
GMFF 190200Z 05005KT 020V090 CAVOK 19/04 Q1020 NOSIG,GMFF,2021-10-19T02:00:00Z,33.92,-4.97,19.0,4.0,50,5,,6.21,30.11811,,,,,,TRUE,,,,,CAVOK,,,,,,,,VFR,,,,,,,,,,,,METAR,575.0
GMAD 190200Z 00000KT 8000 NSC 15/14 Q1017 NOSIG,GMAD,2021-10-19T02:00:00Z,30.32,-9.42,15.0,14.0,0,0,,4.97,30.029528,,,,,,TRUE,,,,,CLR,,,,,,,,MVFR,,,,,,,,,,,,METAR,66.0
GEML 190200Z AUTO 11004KT 070V130 9999 FEW011 19/17 Q1023,GEML,2021-10-19T02:00:00Z,35.27,-2.95,19.0,17.0,110,4,,6.21,30.206694,,,TRUE,,,,,,,,FEW,1100,,,,,,,VFR,,,,,,,,,,,,METAR,48.0
GECE 190200Z AUTO 05005KT 360V140 9999 FEW007/// SCT010/// BKN017/// 21/19 Q1022,GECE,2021-10-19T02:00:00Z,,,21.0,19.0,50,5,,6.21,30.177166,,,TRUE,,,,,,,,FEW,700,SCT,1000,BKN,1700,,,MVFR,,,,,,,,,,,,METAR,
GCXO 190200Z AUTO 27007KT 250V320 CAVOK 24/M02 Q1020,GCXO,2021-10-19T02:00:00Z,28.48,-16.35,24.0,-2.0,270,7,,6.21,30.11811,,,TRUE,,,,,,,,CAVOK,,,,,,,,VFR,,,,,,,,,,,,METAR,623.0
GCTS 190200Z 04004KT 010V100 CAVOK 25/02 Q1016 NOSIG,GCTS,2021-10-19T02:00:00Z,28.05,-16.57,25.0,2.0,40,4,,6.21,30.0,,,,,,TRUE,,,,,CAVOK,,,,,,,,VFR,,,,,,,,,,,,METAR,59.0
GCRR 190200Z AUTO 04004KT 8000 NCD 20/18 Q1017,GCRR,2021-10-19T02:00:00Z,28.95,-13.58,20.0,18.0,40,4,,4.97,30.029528,,,TRUE,,,,,,,,CLR,,,,,,,,MVFR,,,,,,,,,,,,METAR,9.0
GCLP 190200Z 01013KT CAVOK 24/04 Q1017 NOSIG,GCLP,2021-10-19T02:00:00Z,27.92,-15.38,24.0,4.0,10,13,,6.21,30.029528,,,,,,TRUE,,,,,CAVOK,,,,,,,,VFR,,,,,,,,,,,,METAR,16.0
GCLA 190200Z AUTO 36009KT CAVOK 25/06 Q1018,GCLA,2021-10-19T02:00:00Z,28.62,-17.75,25.0,6.0,360,9,,6.21,30.059055,,,TRUE,,,,,,,,CAVOK,,,,,,,,VFR,,,,,,,,,,,,METAR,20.0
GCHI 190200Z AUTO 35017KT CAVOK 26/12 Q1016,GCHI,2021-10-19T02:00:00Z,27.82,-17.88,26.0,12.0,350,17,,6.21,30.0,,,TRUE,,,,,,,,CAVOK,,,,,,,,VFR,,,,,,,,,,,,METAR,21.0
GCGM 190200Z AUTO VRB03KT CAVOK 30/03 Q1017 RMK R09/VRB06G20KT ARP/VRB07G17KT,GCGM,2021-10-19T02:00:00Z,28.03,-17.22,30.0,3.0,0,3,,6.21,30.029528,,,TRUE,,,,,,,,CAVOK,,,,,,,,VFR,,,,,,,,,,,,METAR,217.0
GCFV 190200Z AUTO 03010KT 360V060 9999 ////// 22/20 Q1017,GCFV,2021-10-19T02:00:00Z,28.43,-13.87,22.0,20.0,30,10,,6.21,30.029528,,,TRUE,,,,,,,,,,,,,,,,,,,,,,,,,,,,METAR,11.0
GBYD 190200Z 00000KT 9999 FEW011 SCT110 26/26 Q1012,GBYD,2021-10-19T02:00:00Z,13.33,-16.65,26.0,26.0,0,0,,6.21,29.88189,,,,,,,,,,,FEW,1100,SCT,11000,,,,,VFR,,,,,,,,,,,,METAR,29.0
FYWW 190200Z AUTO 10013G23KT //// // ////// 16/M16 Q1021,FYWW,2021-10-19T02:00:00Z,-22.57,17.1,16.0,-16.0,100,13,23,,30.147638,,,TRUE,,,,,,,,,,,,,,,,,,,,,,,,,,,,SPECI,1672.0
FYWB 190200Z AUTO 03010KT //// // ////// 13/11 Q1012,FYWB,2021-10-19T02:00:00Z,-22.98,14.65,13.0,11.0,30,10,,,29.88189,,,TRUE,,,,,,,,,,,,,,,,,,,,,,,,,,,,METAR,87.0
FYOA 190200Z AUTO 16005KT //// // ////// 22/02 Q1012,FYOA,2021-10-19T02:00:00Z,-17.88,15.97,22.0,2.0,160,5,,,29.88189,,,TRUE,,,,,,,,,,,,,,,,,,,,,,,,,,,,SPECI,1099.0
FYLZ 190200Z AUTO 07018KT //// // ////// 29/M13 Q1010,FYLZ,2021-10-19T02:00:00Z,-26.68,15.25,29.0,-13.0,70,18,,,29.822834,,,TRUE,,,,,,,,,,,,,,,,,,,,,,,,,,,,METAR,129.0
FYKM 190200Z AUTO 13008KT //// // ////// 23/14 Q1015,FYKM,2021-10-19T02:00:00Z,-17.63,24.18,23.0,14.0,130,8,,,29.970472,,,TRUE,,,,,,,,,,,,,,,,,,,,,,,,,,,,METAR,959.0
FYGF 190200Z AUTO 05004KT //// // ////// 16/M04 Q1018,FYGF,2021-10-19T02:00:00Z,-19.6,18.12,16.0,-4.0,50,4,,,30.059055,,,TRUE,,,,,,,,,,,,,,,,,,,,,,,,,,,,METAR,1407.0
FSIA 190200Z 13009KT 9999 FEW022 27/22 Q1011 NOSIG,FSIA,2021-10-19T02:00:00Z,-4.67,55.52,27.0,22.0,130,9,,6.21,29.852362,,,,,,TRUE,,,,,FEW,2200,,,,,,,VFR,,,,,,,,,,,,METAR,3.0
FQTT 190200Z 14008KT 110V170 9999 SCT020 26/19 Q1016,FQTT,2021-10-19T02:00:00Z,-16.1,33.63,26.0,19.0,140,8,,6.21,30.0,,,,,,,,,,,SCT,2000,,,,,,,VFR,,,,,,,,,,,,METAR,146.0
FQQL 190200Z 14010KT 9999 SCT020 25/23 Q1016,FQQL,2021-10-19T02:00:00Z,-17.87,36.87,25.0,23.0,140,10,,6.21,30.0,,,,,,,,,,,SCT,2000,,,,,,,VFR,,,,,,,,,,,,METAR,5.0
FQNP 190200Z 02006KT CAVOK 20/19 Q1017,FQNP,2021-10-19T02:00:00Z,-15.1,39.27,20.0,19.0,20,6,,6.21,30.029528,,,,,,,,,,,CAVOK,,,,,,,,VFR,,,,,,,,,,,,METAR,434.0
FQCH 190200Z /////KT 6000 DZ BKN010 OVC015 15/16 Q1023,FQCH,2021-10-19T02:00:00Z,-19.15,33.43,15.0,16.0,,,,3.73,30.206694,,,,,,,,,,DZ,BKN,1000,OVC,1500,,,,,MVFR,,,,,,,,,,,,SPECI,695.0
FOOL 190200Z 19005KT 9999 SCT009 26/24 Q1011 NOSIG,FOOL,2021-10-19T02:00:00Z,0.45,9.42,26.0,24.0,190,5,,6.21,29.852362,,,,,,TRUE,,,,,SCT,900,,,,,,,VFR,,,,,,,,,,,,METAR,9.0
FMSD 190200Z 00000KT 9999 SCT016 BKN033 23/21 Q1015,FMSD,2021-10-19T02:00:00Z,-25.03,46.95,23.0,21.0,0,0,,6.21,29.970472,,,,,,,,,,,SCT,1600,BKN,3300,,,,,VFR,,,,,,,,,,,,METAR,7.0
FMNM 190200Z 12005KT 9999 FEW020 21/16 Q1014,FMNM,2021-10-19T02:00:00Z,-15.67,46.35,21.0,16.0,120,5,,6.21,29.940945,,,,,,,,,,,FEW,2000,,,,,,,VFR,,,,,,,,,,,,METAR,18.0
FMMT 190200Z VRB02KT 9999 FEW017 18/17 Q1017 NOSIG,FMMT,2021-10-19T02:00:00Z,-18.12,49.38,18.0,17.0,0,2,,6.21,30.029528,,,,,,TRUE,,,,,FEW,1700,,,,,,,VFR,,,,,,,,,,,,METAR,13.0
FMMI 190200Z 06002KT 9999 FEW017 12/12 Q1021 NOSIG,FMMI,2021-10-19T02:00:00Z,-18.8,47.47,12.0,12.0,60,2,,6.21,30.147638,,,,,,TRUE,,,,,FEW,1700,,,,,,,VFR,,,,,,,,,,,,METAR,1269.0
FMEP 190200Z AUTO 06006KT CAVOK 20/15 Q1019,FMEP,2021-10-19T02:00:00Z,-21.32,55.42,20.0,15.0,60,6,,6.21,30.088583,,,TRUE,,,,,,,,CAVOK,,,,,,,,VFR,,,,,,,,,,,,METAR,21.0
FMEE 190200Z AUTO 13009KT CAVOK 22/18 Q1019 NOSIG,FMEE,2021-10-19T02:00:00Z,-20.88,55.52,22.0,18.0,130,9,,6.21,30.088583,,,TRUE,,,TRUE,,,,,CAVOK,,,,,,,,VFR,,,,,,,,,,,,METAR,20.0
FMCZ 190200Z AUTO 07004KT 9999 FEW016 SCT066 25/22 Q1014 TEMPO 4500 SHRA SCT020TCU,FMCZ,2021-10-19T02:00:00Z,-12.8,45.27,25.0,22.0,70,4,,6.21,29.940945,,,TRUE,,,,,,,,FEW,1600,SCT,6600,,,,,VFR,,,,,,,,,,,,METAR,7.0
FIMP 190200Z 09011KT 8000 VCSH SCT015 SCT050 22/20 Q1020,FIMP,2021-10-19T02:00:00Z,-20.43,57.68,22.0,20.0,90,11,,4.97,30.11811,,,,,,,,,,VCSH,SCT,1500,SCT,5000,,,,,MVFR,,,,,,,,,,,,METAR,57.0
FBSK 190200Z 06013G23KT 9999 BKN025 15/08 Q1023 NOSIG,FBSK,2021-10-19T02:00:00Z,-24.55,25.92,15.0,8.0,60,13,23,6.21,30.206694,,,,,,TRUE,,,,,BKN,2500,,,,,,,MVFR,,,,,,,,,,,,METAR,1007.0
FBMN 190200Z 12010KT CAVOK 17/12 Q1017,FBMN,2021-10-19T02:00:00Z,-19.97,23.42,17.0,12.0,120,10,,6.21,30.029528,,,,,,,,,,,CAVOK,,,,,,,,VFR,,,,,,,,,,,,METAR,946.0
FAUP 190200Z 18001KT CAVOK 09/M12 Q1020 NOSIG,FAUP,2021-10-19T02:00:00Z,-28.38,21.27,9.0,-12.0,180,1,,6.21,30.11811,,,,,,TRUE,,,,,CAVOK,,,,,,,,VFR,,,,,,,,,,,,METAR,845.0
FAPP 190200Z AUTO 07005KT //// // ////// 11/06 Q1025,FAPP,2021-10-19T02:00:00Z,-23.83,29.45,11.0,6.0,70,5,,,30.265747,,,TRUE,,,,,,,,,,,,,,,,,,,,,,,,,,,,SPECI,1238.0
FAPE 190200Z 29004KT CAVOK 09/06 Q1026 NOSIG,FAPE,2021-10-19T02:00:00Z,-33.98,25.6,9.0,6.0,290,4,,6.21,30.295275,,,,,,TRUE,,,,,CAVOK,,,,,,,,VFR,,,,,,,,,,,,METAR,58.0
FAOR 190200Z 06007KT 9999 FEW012 BKN025 09/06 Q1027 NOSIG,FAOR,2021-10-19T02:00:00Z,-26.13,28.23,9.0,6.0,60,7,,6.21,30.324802,,,,,,TRUE,,,,,FEW,1200,BKN,2500,,,,,MVFR,,,,,,,,,,,,METAR,1684.0
FAMM 190200Z AUTO 04008KT //// // ////// 12/09 Q1023,FAMM,2021-10-19T02:00:00Z,-25.8,25.53,12.0,9.0,40,8,,,30.206694,,,TRUE,,,,,,,,,,,,,,,,,,,,,,,,,,,,SPECI,1280.0
FALW 190200Z AUTO 21005KT //// // ////// 09/05 Q1020,FALW,2021-10-19T02:00:00Z,-32.97,18.17,9.0,5.0,210,5,,,30.11811,,,TRUE,,,,,,,,,,,,,,,,,,,,,,,,,,,,SPECI,31.0
FALE 190200Z 21002KT CAVOK 11/08 Q1027 NOSIG,FALE,2021-10-19T02:00:00Z,-29.62,31.12,11.0,8.0,210,2,,6.21,30.324802,,,,,,TRUE,,,,,CAVOK,,,,,,,,VFR,,,,,,,,,,,,METAR,109.0
FAKN 190200Z AUTO 16003KT //// // ////// 11/08 Q1028,FAKN,2021-10-19T02:00:00Z,-25.38,31.1,11.0,8.0,160,3,,,30.35433,,,TRUE,,,,,,,,,,,,,,,,,,,,,,,,,,,,METAR,864.0
FAKM 190200Z AUTO 12006KT //// // ////// 07/M10 Q1023,FAKM,2021-10-19T02:00:00Z,-28.8,24.77,7.0,-10.0,120,6,,,30.206694,,,TRUE,,,,,,,,,,,,,,,,,,,,,,,,,,,,METAR,1203.0
FAHS 190200Z AUTO 17007KT //// // ////// 14/10 Q1027,FAHS,2021-10-19T02:00:00Z,-24.37,31.03,14.0,10.0,170,7,,,30.324802,,,TRUE,,,,,,,,,,,,,,,,,,,,,,,,,,,,METAR,532.0
FAGG 190200Z AUTO 35003KT CAVOK 07/06 Q1026,FAGG,2021-10-19T02:00:00Z,-34.0,22.37,7.0,6.0,350,3,,6.21,30.295275,,,TRUE,,,,,,,,CAVOK,,,,,,,,VFR,,,,,,,,,,,,METAR,196.0
FACT 190200Z 19013KT CAVOK 14/07 Q1021 NOSIG,FACT,2021-10-19T02:00:00Z,-33.97,18.6,14.0,7.0,190,13,,6.21,30.147638,,,,,,TRUE,,,,,CAVOK,,,,,,,,VFR,,,,,,,,,,,,METAR,48.0
FABL 190200Z AUTO VRB02KT 9999 ///////// 06/M02 Q1025,FABL,2021-10-19T02:00:00Z,-29.1,26.3,6.0,-2.0,0,2,,6.21,30.265747,,,TRUE,,,,,,,,,,,,,,,,,,,,,,,,,,,,SPECI,1348.0
EPWR 190200Z 11003KT 4500 MIFG BR NSC 05/05 Q1024,EPWR,2021-10-19T02:00:00Z,51.1,16.88,5.0,5.0,110,3,,2.8,30.236221,,,,,,,,,,MIFG BR,CLR,,,,,,,,IFR,,,,,,,,,,,,METAR,118.0
EPWA 190200Z 09005KT 4700 -RA BR BKN004 BKN011 08/07 Q1024 TEMPO 2500 BR,EPWA,2021-10-19T02:00:00Z,52.17,20.97,8.0,7.0,90,5,,2.92,30.236221,,,,,,,,,,-RA BR,BKN,400,BKN,1100,,,,,LIFR,,,,,,,,,,,,SPECI,107.0
EPSY 190200Z 08002KT 3500 BR NSC 01/01 Q1024,EPSY,2021-10-19T02:00:00Z,53.47,20.93,1.0,1.0,80,2,,2.17,30.236221,,,,,,,,,,BR,CLR,,,,,,,,IFR,,,,,,,,,,,,METAR,136.0
EPSC 190200Z 14006KT CAVOK 09/08 Q1021,EPSC,2021-10-19T02:00:00Z,53.58,14.9,9.0,8.0,140,6,,6.21,30.147638,,,,,,,,,,,CAVOK,,,,,,,,VFR,,,,,,,,,,,,METAR,47.0
EPRZ 190200Z 25008KT 5000 -RA BR OVC034 09/08 Q1026,EPRZ,2021-10-19T02:00:00Z,50.1,22.02,9.0,8.0,250,8,,3.11,30.295275,,,,,,,,,,-RA BR,OVC,3400,,,,,,,MVFR,,,,,,,,,,,,METAR,206.0
EPPO 190200Z 19003KT CAVOK 08/06 Q1023,EPPO,2021-10-19T02:00:00Z,52.42,16.83,8.0,6.0,190,3,,6.21,30.206694,,,,,,,,,,,CAVOK,,,,,,,,VFR,,,,,,,,,,,,METAR,87.0
EPMO 190200Z 09005KT 7000 OVC008 07/07 Q1024,EPMO,2021-10-19T02:00:00Z,52.45,20.65,7.0,7.0,90,5,,4.35,30.236221,,,,,,,,,,,OVC,800,,,,,,,IFR,,,,,,,,,,,,METAR,102.0
EPLL 190200Z VRB02KT 5000 BR NSC 08/08 Q1024,EPLL,2021-10-19T02:00:00Z,51.72,19.4,8.0,8.0,0,2,,3.11,30.236221,,,,,,,,,,BR,CLR,,,,,,,,MVFR,,,,,,,,,,,,METAR,176.0
EPLB 190200Z 29006KT 3000 -RADZ BR OVC005 09/09 Q1024,EPLB,2021-10-19T02:00:00Z,51.23,22.72,9.0,9.0,290,6,,1.86,30.236221,,,,,,,,,,-RA -DZ BR,OVC,500,,,,,,,IFR,,,,,,,,,,,,METAR,206.0
EPKT 190200Z 20009KT 8000 NSC 07/06 Q1025,EPKT,2021-10-19T02:00:00Z,50.47,19.08,7.0,6.0,200,9,,4.97,30.265747,,,,,,,,,,,CLR,,,,,,,,MVFR,,,,,,,,,,,,METAR,296.0
EPKK 190200Z 23003KT 3500 BR NSC 06/05 Q1026,EPKK,2021-10-19T02:00:00Z,50.07,19.8,6.0,5.0,230,3,,2.17,30.295275,,,,,,,,,,BR,CLR,,,,,,,,IFR,,,,,,,,,,,,METAR,237.0
EPGD 190200Z 12003KT 9999 SCT028 06/05 Q1023,EPGD,2021-10-19T02:00:00Z,54.37,18.47,6.0,5.0,120,3,,6.21,30.206694,,,,,,,,,,,SCT,2800,,,,,,,VFR,,,,,,,,,,,,METAR,136.0
EPBY 190200Z 21003KT 3700 BR BKN005 09/09 Q1023,EPBY,2021-10-19T02:00:00Z,53.1,18.0,9.0,9.0,210,3,,2.3,30.206694,,,,,,,,,,BR,BKN,500,,,,,,,IFR,,,,,,,,,,,,METAR,66.0
EINN 190200Z 13008KT 9999 FEW011 BKN013 BKN060 15/14 Q1004 TEMPO BKN009,EINN,2021-10-19T02:00:00Z,52.7,-8.92,15.0,14.0,130,8,,6.21,29.64567,,,,,,,,,,,FEW,1100,BKN,1300,BKN,6000,,,MVFR,,,,,,,,,,,,SPECI,20.0
EIME 190200Z 36002KT CAVOK 15/12 Q1006,EIME,2021-10-19T02:00:00Z,53.3,-6.45,15.0,12.0,360,2,,6.21,29.704725,,,,,,,,,,,CAVOK,,,,,,,,VFR,,,,,,,,,,,,METAR,90.0
EIDW 190200Z 09003KT 9999 FEW019 BKN100 BKN110 14/13 Q1007 NOSIG,EIDW,2021-10-19T02:00:00Z,53.42,-6.28,14.0,13.0,90,3,,6.21,29.734253,,,,,,TRUE,,,,,FEW,1900,BKN,10000,BKN,11000,,,VFR,,,,,,,,,,,,METAR,75.0
EICK 190200Z 16009KT 140V200 0600 R16/1300N R34/1000N -RA FG OVC002 14/14 Q1006 NOSIG,EICK,2021-10-19T02:00:00Z,51.85,-8.47,14.0,14.0,160,9,,0.37,29.704725,,,,,,TRUE,,,,-RA FG,OVC,200,,,,,,,LIFR,,,,,,,,,,,,SPECI,158.0
EHEH 190200Z AUTO 17009KT 9999 -DZ SCT015 BKN024 OVC029 14/13 Q1018 WHT,EHEH,2021-10-19T02:00:00Z,51.45,5.38,14.0,13.0,170,9,,6.21,30.059055,,,TRUE,,,,,,,-DZ,SCT,1500,BKN,2400,OVC,2900,,,MVFR,,,,,,,,,,,,SPECI,20.0
DTTR 190200Z AUTO 03013KT NCD 18/15 Q1022,DTTR,2021-10-19T02:00:00Z,31.7,9.27,18.0,15.0,30,13,,,30.177166,,,TRUE,,,,,,,,CLR,,,,,,,,,,,,,,,,,,,,METAR,253.0
DTTN 190200Z 23004KT 8000 FEW020 11/08 Q1026,DTTN,2021-10-19T02:00:00Z,36.47,8.8,11.0,8.0,230,4,,4.97,30.295275,,,,,,,,,,,FEW,2000,,,,,,,MVFR,,,,,,,,,,,,METAR,145.0
DTTL 190200Z 30003KT 240V010 9999 SCT020 17/16 Q1024,DTTL,2021-10-19T02:00:00Z,36.85,11.07,17.0,16.0,300,3,,6.21,30.236221,,,,,,,,,,,SCT,2000,,,,,,,VFR,,,,,,,,,,,,METAR,18.0
DTTK 190200Z 31003KT 260V020 8000 SCT023 17/12 Q1025,DTTK,2021-10-19T02:00:00Z,35.67,10.08,17.0,12.0,310,3,,4.97,30.265747,,,,,,,,,,,SCT,2300,,,,,,,MVFR,,,,,,,,,,,,METAR,65.0
DTTJ 190200Z 03010KT 9999 FEW016TCU 21/15 Q1023 NOSIG,DTTJ,2021-10-19T02:00:00Z,33.87,10.77,21.0,15.0,30,10,,6.21,30.206694,,,,,,TRUE,,,,,FEW,1600,,,,,,,VFR,,,,,,,,,,,,METAR,3.0
DTTG 190200Z 10006KT 9999 FEW020 17/13 Q1024 NOSIG,DTTG,2021-10-19T02:00:00Z,33.73,9.92,17.0,13.0,100,6,,6.21,30.236221,,,,,,TRUE,,,,,FEW,2000,,,,,,,VFR,,,,,,,,,,,,METAR,120.0
DTTF 190200Z 01011KT CAVOK 14/12 Q1025 NOSIG,DTTF,2021-10-19T02:00:00Z,34.42,8.82,14.0,12.0,10,11,,6.21,30.265747,,,,,,TRUE,,,,,CAVOK,,,,,,,,VFR,,,,,,,,,,,,METAR,314.0
DTTD 190200Z AUTO 07005KT 030V120 NCD 17/13 Q1023,DTTD,2021-10-19T02:00:00Z,32.32,10.4,17.0,13.0,70,5,,,30.206694,,,TRUE,,,,,,,,CLR,,,,,,,,,,,,,,,,,,,,METAR,306.0
DTTB 190200Z 30004KT 8000 SCT020 16/13 Q1025,DTTB,2021-10-19T02:00:00Z,37.25,9.8,16.0,13.0,300,4,,4.97,30.265747,,,,,,,,,,,SCT,2000,,,,,,,MVFR,,,,,,,,,,,,METAR,4.0
DTTA 190200Z 26003KT 220V300 9999 SCT026 17/14 Q1025,DTTA,2021-10-19T02:00:00Z,36.85,10.22,17.0,14.0,260,3,,6.21,30.265747,,,,,,,,,,,SCT,2600,,,,,,,VFR,,,,,,,,,,,,METAR,4.0
DTNH 190200Z 28005KT CAVOK 13/11 Q1025,DTNH,2021-10-19T02:00:00Z,36.07,10.43,13.0,11.0,280,5,,6.21,30.265747,,,,,,,,,,,CAVOK,,,,,,,,VFR,,,,,,,,,,,,METAR,1.0
DTMB 190200Z 34008KT 9999 SCT020 SCT026 20/14 Q1025,DTMB,2021-10-19T02:00:00Z,35.77,10.75,20.0,14.0,340,8,,6.21,30.265747,,,,,,,,,,,SCT,2000,SCT,2600,,,,,VFR,,,,,,,,,,,,METAR,1.0
DTKA 190200Z 08004KT 8000 FEW020 11/10 Q1026 NOSIG,DTKA,2021-10-19T02:00:00Z,36.98,8.88,11.0,10.0,80,4,,4.97,30.295275,,,,,,TRUE,,,,,FEW,2000,,,,,,,MVFR,,,,,,,,,,,,METAR,70.0
DNMM 190200Z VRB02KT 9999 FEW008 24/24 Q1012 NOSIG,DNMM,2021-10-19T02:00:00Z,6.57,3.32,24.0,24.0,0,2,,6.21,29.88189,,,,,,TRUE,,,,,FEW,800,,,,,,,VFR,,,,,,,,,,,,METAR,27.0
DNKN 190200Z 25006KT 9999 TS SCT009 FEW020CB 24/22 Q1013 NOSIG,DNKN,2021-10-19T02:00:00Z,12.05,8.52,24.0,22.0,250,6,,6.21,29.911417,,,,,,TRUE,,,,TS,SCT,900,FEW,2000,,,,,VFR,,,,,,,,,,,,METAR,471.0
DNEN 190200Z 18005KT 9999 -RA FEW010 25/24 Q1011 NOSIG,DNEN,2021-10-19T02:00:00Z,6.47,7.55,25.0,24.0,180,5,,6.21,29.852362,,,,,,TRUE,,,,-RA,FEW,1000,,,,,,,VFR,,,,,,,,,,,,METAR,142.0
DNAA 190200Z 32002KT 9999 FEW009 25/24 Q1012 NOSIG,DNAA,2021-10-19T02:00:00Z,9.0,7.27,25.0,24.0,320,2,,6.21,29.88189,,,,,,TRUE,,,,,FEW,900,,,,,,,VFR,,,,,,,,,,,,METAR,338.0
DIYO 190200Z 24006KT 8000 BKN010 25/24 Q1012 NOSIG,DIYO,2021-10-19T02:00:00Z,6.9,-5.35,25.0,24.0,240,6,,4.97,29.88189,,,,,,TRUE,,,,,BKN,1000,,,,,,,MVFR,,,,,,,,,,,,METAR,202.0
DIAP 190200Z 22011KT 9000 -RA FEW011 BKN021 27/25 Q1011 NOSIG,DIAP,2021-10-19T02:00:00Z,5.25,-3.92,27.0,25.0,220,11,,5.59,29.852362,,,,,,TRUE,,,,-RA,FEW,1100,BKN,2100,,,,,MVFR,,,,,,,,,,,,METAR,4.0
DAUZ 190200Z 06013KT CAVOK 18/06 Q1017,DAUZ,2021-10-19T02:00:00Z,28.05,9.63,18.0,6.0,60,13,,6.21,30.029528,,,,,,,,,,,CAVOK,,,,,,,,VFR,,,,,,,,,,,,METAR,567.0
DAUU 190200Z 08009KT CAVOK 18/07 Q1021,DAUU,2021-10-19T02:00:00Z,31.92,5.4,18.0,7.0,80,9,,6.21,30.147638,,,,,,,,,,,CAVOK,,,,,,,,VFR,,,,,,,,,,,,METAR,147.0
DAUT 190200Z 09008KT CAVOK 19/M01 Q1020,DAUT,2021-10-19T02:00:00Z,29.25,0.27,19.0,-1.0,90,8,,6.21,30.11811,,,,,,,,,,,CAVOK,,,,,,,,VFR,,,,,,,,,,,,METAR,307.0
DAUO 190200Z 12008KT CAVOK 20/13 Q1023,DAUO,2021-10-19T02:00:00Z,33.5,6.78,20.0,13.0,120,8,,6.21,30.206694,,,,,,,,,,,CAVOK,,,,,,,,VFR,,,,,,,,,,,,METAR,55.0
DAUK 190200Z 07008KT CAVOK 18/05 Q1023,DAUK,2021-10-19T02:00:00Z,33.08,6.08,18.0,5.0,70,8,,6.21,30.206694,,,,,,,,,,,CAVOK,,,,,,,,VFR,,,,,,,,,,,,METAR,83.0
DAUI 190200Z 05014KT CAVOK 22/02 Q1018,DAUI,2021-10-19T02:00:00Z,27.25,2.52,22.0,2.0,50,14,,6.21,30.059055,,,,,,,,,,,CAVOK,,,,,,,,VFR,,,,,,,,,,,,METAR,271.0
DAUH 190200Z 06006KT CAVOK 19/07 Q1021,DAUH,2021-10-19T02:00:00Z,31.67,6.15,19.0,7.0,60,6,,6.21,30.147638,,,,,,,,,,,CAVOK,,,,,,,,VFR,,,,,,,,,,,,METAR,141.0
DAUG 190200Z VRB02KT CAVOK 16/00 Q1024,DAUG,2021-10-19T02:00:00Z,32.38,3.78,16.0,0.0,0,2,,6.21,30.236221,,,,,,,,,,,CAVOK,,,,,,,,VFR,,,,,,,,,,,,METAR,444.0
DAUE 190200Z 36004KT CAVOK 18/02 Q1022,DAUE,2021-10-19T02:00:00Z,30.57,2.87,18.0,2.0,360,4,,6.21,30.177166,,,,,,,,,,,CAVOK,,,,,,,,VFR,,,,,,,,,,,,METAR,396.0
DAUB 190200Z 10009KT CAVOK 18/08 Q1025,DAUB,2021-10-19T02:00:00Z,34.78,5.73,18.0,8.0,100,9,,6.21,30.265747,,,,,,,,,,,CAVOK,,,,,,,,VFR,,,,,,,,,,,,METAR,75.0
DAUA 190200Z 06008KT CAVOK 19/M02 Q1019,DAUA,2021-10-19T02:00:00Z,27.83,-0.18,19.0,-2.0,60,8,,6.21,30.088583,,,,,,,,,,,CAVOK,,,,,,,,VFR,,,,,,,,,,,,METAR,278.0
DAOY 190200Z 13009KT CAVOK 12/05 Q1027,DAOY,2021-10-19T02:00:00Z,33.72,1.08,12.0,5.0,130,9,,6.21,30.324802,,,,,,,,,,,CAVOK,,,,,,,,VFR,,,,,,,,,,,,METAR,1340.0
DAOV 190200Z 13004KT CAVOK 13/08 Q1025,DAOV,2021-10-19T02:00:00Z,35.2,0.15,13.0,8.0,130,4,,6.21,30.265747,,,,,,,,,,,CAVOK,,,,,,,,VFR,,,,,,,,,,,,METAR,506.0
DAOR 190200Z VRB02KT CAVOK 18/M00 Q1024,DAOR,2021-10-19T02:00:00Z,31.65,-2.27,18.0,0.0,0,2,,6.21,30.236221,,,,,,,,,,,CAVOK,,,,,,,,VFR,,,,,,,,,,,,METAR,809.0
DAOO 190200Z VRB02KT 8000 NSC 17/16 Q1023,DAOO,2021-10-19T02:00:00Z,35.62,-0.62,17.0,16.0,0,2,,4.97,30.206694,,,,,,,,,,,CLR,,,,,,,,MVFR,,,,,,,,,,,,METAR,87.0
DAOI 190200Z 05005KT CAVOK 19/09 Q1024,DAOI,2021-10-19T02:00:00Z,36.22,1.32,19.0,9.0,50,5,,6.21,30.236221,,,,,,,,,,,CAVOK,,,,,,,,VFR,,,,,,,,,,,,METAR,141.0
DAOF 190200Z 30005KT CAVOK 23/M06 Q1018,DAOF,2021-10-19T02:00:00Z,27.7,-8.17,23.0,-6.0,300,5,,6.21,30.059055,,,,,,,,,,,CAVOK,,,,,,,,VFR,,,,,,,,,,,,METAR,441.0
DAOB 190200Z 00000KT CAVOK 10/05 Q1027,DAOB,2021-10-19T02:00:00Z,35.33,1.47,10.0,5.0,0,0,,6.21,30.324802,,,,,,,,,,,CAVOK,,,,,,,,VFR,,,,,,,,,,,,METAR,984.0
DABS 190200Z 14003KT CAVOK 09/04 Q1028,DABS,2021-10-19T02:00:00Z,35.43,8.12,9.0,4.0,140,3,,6.21,30.35433,,,,,,,,,,,CAVOK,,,,,,,,VFR,,,,,,,,,,,,METAR,806.0
DABB 190200Z 24003KT CAVOK 13/11 Q1026,DABB,2021-10-19T02:00:00Z,36.82,7.82,13.0,11.0,240,3,,6.21,30.295275,,,,,,,,,,,CAVOK,,,,,,,,VFR,,,,,,,,,,,,METAR,3.0
DAAY 190200Z 36008KT CAVOK 13/05 Q1028,DAAY,2021-10-19T02:00:00Z,33.53,-0.25,13.0,5.0,360,8,,6.21,30.35433,,,,,,,,,,,CAVOK,,,,,,,,VFR,,,,,,,,,,,,METAR,1116.0
DAAV 190200Z 11002KT CAVOK 15/12 Q1025,DAAV,2021-10-19T02:00:00Z,36.8,5.88,15.0,12.0,110,2,,6.21,30.265747,,,,,,,,,,,CAVOK,,,,,,,,VFR,,,,,,,,,,,,METAR,11.0
DAAT 190200Z 03004KT CAVOK 18/M09 Q1020,DAAT,2021-10-19T02:00:00Z,22.82,5.47,18.0,-9.0,30,4,,6.21,30.11811,,,,,,,,,,,CAVOK,,,,,,,,VFR,,,,,,,,,,,,METAR,1372.0
DAAS 190200Z 06004KT CAVOK 08/07 Q1028,DAAS,2021-10-19T02:00:00Z,36.18,5.33,8.0,7.0,60,4,,6.21,30.35433,,,,,,,,,,,CAVOK,,,,,,,,VFR,,,,,,,,,,,,METAR,1012.0
DAAP 190200Z 26004KT CAVOK 16/M04 Q1017,DAAP,2021-10-19T02:00:00Z,26.72,8.62,16.0,-4.0,260,4,,6.21,30.029528,,,,,,,,,,,CAVOK,,,,,,,,VFR,,,,,,,,,,,,METAR,542.0
DAAJ 190200Z 08007KT 5000 SCT046 24/03 Q1016,DAAJ,2021-10-19T02:00:00Z,24.28,9.47,24.0,3.0,80,7,,3.11,30.0,,,,,,,,,,,SCT,4600,,,,,,,MVFR,,,,,,,,,,,,METAR,962.0
DAAG 190200Z VRB02KT 8000 FEW015 12/10 Q1025,DAAG,2021-10-19T02:00:00Z,36.68,3.22,12.0,10.0,0,2,,4.97,30.265747,,,,,,,,,,,FEW,1500,,,,,,,MVFR,,,,,,,,,,,,METAR,18.0
DAAE 190200Z 25005KT CAVOK 14/12 Q1025,DAAE,2021-10-19T02:00:00Z,36.72,5.07,14.0,12.0,250,5,,6.21,30.265747,,,,,,,,,,,CAVOK,,,,,,,,VFR,,,,,,,,,,,,METAR,1.0
CZZJ 190200Z AUTO 10006KT 03/M02 RMK AO1 SLP220 T00301022 51006,CZZJ,2021-10-19T02:00:00Z,53.58,-116.47,3.0,-2.2,100,6,,,,1022.0,,TRUE,TRUE,,,,,,,,,,,,,,,,0.6,,,,,,,,,,,METAR,927.0
CZVL 190200Z AUTO VRB02KT 9SM OVC031 03/M02 A3016 RMK SLP239,CZVL,2021-10-19T02:00:00Z,53.67,-113.85,3.0,-2.0,0,2,,9.0,30.159449,1023.9,,TRUE,,,,,,,,OVC,3100,,,,,,,VFR,,,,,,,,,,,,METAR,685.0
CZUM 190200Z AUTO 08011G16KT 5SM -RA BR OVC023 04/04 A2957 RMK SLP034,CZUM,2021-10-19T02:00:00Z,53.55,-64.1,4.0,4.0,80,11,16,5.0,29.568897,1003.4,,TRUE,,,,,,,-RA BR,OVC,2300,,,,,,,MVFR,,,,,,,,,,,,SPECI,431.0
CZTB 190200Z AUTO 33001KT 07/04 RMK AO1 SLP143 T00680037 56001,CZTB,2021-10-19T02:00:00Z,48.37,-89.32,6.8,3.7,330,1,,,,1014.3,,TRUE,TRUE,,,,,,,,,,,,,,,,-0.1,,,,,,,,,,,METAR,197.0
CZSP 190200Z AUTO 24005KT 10/08 RMK AO1 SLP995 T00960081 51001,CZSP,2021-10-19T02:00:00Z,46.45,-62.58,9.6,8.1,240,5,,,,999.5,,TRUE,TRUE,,,,,,,,,,,,,,,,0.1,,,,,,,,,,,METAR,31.0
CZSM 190200Z AUTO 22003KT M03/M06 RMK AO1 SOG 04 3020 SLP222 T10341058,CZSM,2021-10-19T02:00:00Z,60.03,-111.93,-3.4,-5.8,220,3,,,,1022.2,,TRUE,TRUE,,,,,,,,,,,,,,,,,,,,,,,,,,,SPECI,203.0
CZSJ 190200Z AUTO VRB02KT 9SM CLR 12/08 A2965 RMK SLP050 DENSITY ALT 1200FT,CZSJ,2021-10-19T02:00:00Z,53.07,-93.35,12.0,8.0,0,2,,9.0,29.648623,1005.0,,TRUE,,,,,,,,CLR,,,,,,,,VFR,,,,,,,,,,,,METAR,286.0
CZPC 190200Z AUTO 08005KT 9SM OVC029 06/00 A3008 RMK SLP222,CZPC,2021-10-19T02:00:00Z,49.52,-114.0,6.0,0.0,80,5,,9.0,30.079725,1022.2,,TRUE,,,,,,,,OVC,2900,,,,,,,MVFR,,,,,,,,,,,,SPECI,1187.0
CZOL 190200Z AUTO 00000KT 03/M01 RMK AO1 T00261006,CZOL,2021-10-19T02:00:00Z,53.65,-113.35,2.6,-0.6,0,0,,,,,,TRUE,TRUE,,,,,,,,,,,,,,,,,,,,,,,,,,,METAR,645.0
CZMJ 190200Z AUTO 34017G22KT 07/02 RMK AO1 PK WND 34025/0127 SLP174 T00720018 51042,CZMJ,2021-10-19T02:00:00Z,50.33,-105.53,7.2,1.8,340,17,22,,,1017.4,,TRUE,TRUE,,,,,,,,,,,,,,,,4.2,,,,,,,,,,,METAR,571.0
CZMD 190200Z AUTO 20003KT 9SM CLR 11/07 A2967 RMK SLP057 DENSITY ALT 1000FT,CZMD,2021-10-19T02:00:00Z,53.43,-91.77,11.0,7.0,200,3,,9.0,29.66929,1005.7,,TRUE,,,,,,,,CLR,,,,,,,,VFR,,,,,,,,,,,,METAR,276.0
CZKD 190200Z AUTO 35014G20KT 05/02 RMK AO1 PK WND 36022/0126 SLP091 T00500019 53036,CZKD,2021-10-19T02:00:00Z,56.03,-96.52,5.0,1.9,350,14,20,,,1009.1,,TRUE,TRUE,,,,,,,,,,,,,,,,3.6,,,,,,,,,,,METAR,190.0
CZHY 190200Z AUTO 17003KT M02/M05 RMK AO1 SLP209 T10211046 52017,CZHY,2021-10-19T02:00:00Z,60.83,-115.78,-2.1,-4.6,170,3,,,,1020.9,,TRUE,TRUE,,,,,,,,,,,,,,,,1.7,,,,,,,,,,,SPECI,159.0
CZFS 190200Z AUTO 10004KT 01/M05 RMK AO1 SLP168 T00091047 55001,CZFS,2021-10-19T02:00:00Z,61.77,-121.23,0.9,-4.7,100,4,,,,1016.8,,TRUE,TRUE,,,,,,,,,,,,,,,,-0.1,,,,,,,,,,,SPECI,174.0
CZEV 190200Z AUTO 22001KT M07/M08 RMK AO1 SOG 08 8002 SLP112 T10711081,CZEV,2021-10-19T02:00:00Z,68.32,-133.48,-7.1,-8.1,220,1,,,,1011.2,,TRUE,TRUE,,,,,,,,,,,,,,,,,,,,,,,,,,,SPECI,92.0
CZEL 190200Z AUTO 27004KT 03/02 RMK AO1 SLP192 T00250017 51004,CZEL,2021-10-19T02:00:00Z,43.65,-80.42,2.5,1.7,270,4,,,,1019.2,,TRUE,TRUE,,,,,,,,,,,,,,,,0.4,,,,,,,,,,,METAR,370.0
CZDB 190200Z AUTO 26005KT 09/07 RMK AO1 SLP011 T00870068 51004,CZDB,2021-10-19T02:00:00Z,45.42,-63.47,8.7,6.8,260,5,,,,1001.1,,TRUE,TRUE,,,,,,,,,,,,,,,,0.4,,,,,,,,,,,METAR,38.0
CZCR 190200Z AUTO 25006KT 09/05 RMK AO1 SLP980 T00910051 57003,CZCR,2021-10-19T02:00:00Z,47.98,-66.33,9.1,5.1,250,6,,,,998.0,,TRUE,TRUE,,,,,,,,,,,,,,,,-0.3,,,,,,,,,,,METAR,39.0
CZCP 190200Z AUTO 22015KT ////SM //// OVC004 M04/M04 A2982,CZCP,2021-10-19T02:00:00Z,70.17,-124.68,-4.0,-4.0,220,15,,,29.819881,,,TRUE,,,,,,,,OVC,400,,,,,,,,,,,,,,,,,,,SPECI,23.0
CZBF 190200Z AUTO 25005KT 9SM BKN032 07/05 A2950 RMK SLP993,CZBF,2021-10-19T02:00:00Z,47.62,-65.75,7.0,5.0,250,5,,9.0,29.500984,999.3,,TRUE,,,,,,,,BKN,3200,,,,,,,VFR,,,,,,,,,,,,METAR,60.0
CYZY 190200Z AUTO 00000KT 9SM SCT076 BKN190 M01/M03 A3003 RMK SLP208,CYZY,2021-10-19T02:00:00Z,55.3,-123.13,-1.0,-3.0,0,0,,9.0,30.029528,1020.8,,TRUE,,,,,,,,SCT,7600,BKN,19000,,,,,VFR,,,,,,,,,,,,METAR,694.0
CYZX 190200Z 24005KT 15SM BKN045 09/08 A2960 RMK SC7 SLP024,CYZX,2021-10-19T02:00:00Z,44.98,-64.92,9.0,8.0,240,5,,15.0,29.601377,1002.4,,,,,,,,,,BKN,4500,,,,,,,VFR,,,,,,,,,,,,METAR,28.0
CYZV 190200Z 03005KT 10SM -DZ OVC014 09/08 A2942 RMK ST8 SLP966,CYZV,2021-10-19T02:00:00Z,50.22,-66.27,9.0,8.0,30,5,,10.0,29.421259,996.6,,,,,,,,,-DZ,OVC,1400,,,,,,,MVFR,,,,,,,,,,,,METAR,43.0
CYZU 190200Z 12007KT 15SM SCT034 OVC081 03/M02 A3011 RMK SC4AC4 SLP230,CYZU,2021-10-19T02:00:00Z,54.15,-115.78,3.0,-2.0,120,7,,15.0,30.109253,1023.0,,,,,,,,,,SCT,3400,OVC,8100,,,,,VFR,,,,,,,,,,,,SPECI,785.0
CYZT 190200Z 12008KT 20SM BKN180 BKN210 09/05 A2988 RMK AC6CI1 SLP122,CYZT,2021-10-19T02:00:00Z,50.68,-127.37,9.0,5.0,120,8,,20.0,29.878937,1012.2,,,,,,,,,,BKN,18000,BKN,21000,,,,,VFR,,,,,,,,,,,,SPECI,13.0
CYZS 190200Z 26003KT 15SM FEW015 BKN080 01/M01 A2982 RMK SC2AC5 SLP106,CYZS,2021-10-19T02:00:00Z,64.2,-83.35,1.0,-1.0,260,3,,15.0,29.819881,1010.6,,,,,,,,,,FEW,1500,BKN,8000,,,,,VFR,,,,,,,,,,,,SPECI,60.0
CYZR 190200Z AUTO 19003KT 9SM CLR 08/05 A3008 RMK SLP189,CYZR,2021-10-19T02:00:00Z,43.0,-82.3,8.0,5.0,190,3,,9.0,30.079725,1018.9,,TRUE,,,,,,,,CLR,,,,,,,,VFR,,,,,,,,,,,,SPECI,181.0
CYZP 190200Z AUTO 13036G45KT 9SM FEW020 BKN034 OVC110 10/07 A2965 RMK SLP041,CYZP,2021-10-19T02:00:00Z,53.25,-131.82,10.0,7.0,130,36,45,9.0,29.648623,1004.1,,TRUE,,,,,,,,FEW,2000,BKN,3400,OVC,11000,,,VFR,,,,,,,,,,,,SPECI,7.0
CYZH 190200Z AUTO 20004KT 9SM BKN190 BKN220 OVC240 M01/M03 A3017 RMK SLP245,CYZH,2021-10-19T02:00:00Z,55.28,-114.77,-1.0,-3.0,200,4,,9.0,30.171259,1024.5,,TRUE,,,,,,,,BKN,19000,BKN,22000,OVC,24000,,,VFR,,,,,,,,,,,,SPECI,583.0
CYZF 190200Z 00000KT 15SM FEW010 M03/M03 A3009 RMK SC1 SC TR SLP207,CYZF,2021-10-19T02:00:00Z,62.47,-114.45,-3.0,-3.0,0,0,,15.0,30.088583,1020.7,,,,,,,,,,FEW,1000,,,,,,,VFR,,,,,,,,,,,,METAR,202.0
CYZE 190200Z AUTO 29006KT 9SM CLR 11/07 A3001 RMK SLP169,CYZE,2021-10-19T02:00:00Z,45.88,-82.57,11.0,7.0,290,6,,9.0,30.008858,1016.9,,TRUE,,,,,,,,CLR,,,,,,,,VFR,,,,,,,,,,,,SPECI,189.0
CYYZ 190200Z 28006KT 15SM SKC 07/02 A3004 RMK SLP177,CYYZ,2021-10-19T02:00:00Z,43.67,-79.62,7.0,2.0,280,6,,15.0,30.041338,1017.7,,,,,,,,,,SKC,,,,,,,,VFR,,,,,,,,,,,,METAR,171.0
CYYY 190200Z 26012G19KT 15SM -RA OVC025 07/06 A2950 RMK SC8 SLP994,CYYY,2021-10-19T02:00:00Z,48.6,-68.22,7.0,6.0,260,12,19,15.0,29.500984,999.4,,,,,,,,,-RA,OVC,2500,,,,,,,MVFR,,,,,,,,,,,,SPECI,43.0
CYYW 190200Z AUTO 00000KT 9SM CLR 05/04 A2984 RMK SLP121,CYYW,2021-10-19T02:00:00Z,50.3,-88.9,5.0,4.0,0,0,,9.0,29.840551,1012.1,,TRUE,,,,,,,,CLR,,,,,,,,VFR,,,,,,,,,,,,METAR,320.0
CYYU 190200Z 25006KT 15SM SKC 04/M00 A2991 RMK SLP141,CYYU,2021-10-19T02:00:00Z,49.42,-82.47,4.0,0.0,250,6,,15.0,29.911417,1014.1,,,,,,,,,,SKC,,,,,,,,VFR,,,,,,,,,,,,SPECI,228.0
CYYT 190200Z 13015G20KT 2 1/2SM -RA BR OVC003 06/06 A2971 RMK SF8 PRESFR SLP067,CYYT,2021-10-19T02:00:00Z,47.62,-52.73,6.0,6.0,130,15,20,2.5,29.71063,1006.7,,,,,,,,,-RA BR,OVC,300,,,,,,,LIFR,,,,,,,,,,,,METAR,128.0
CYYR 190200Z CCA 06015KT 6SM RA BR BKN004 OVC018 07/06 A2967 RMK SF6SC2 CIG ESTD SLP050,CYYR,2021-10-19T02:00:00Z,53.32,-60.42,7.0,6.0,60,15,,6.0,29.66929,1005.0,,,,,,,,,RA BR,BKN,400,OVC,1800,,,,,LIFR,,,,,,,,,,,,METAR,42.0
CYYQ 190200Z 36022G31KT 10SM -RA BKN012 BKN023 OVC140 03/03 A2978 RMK SC6SC1AC1 SLP087,CYYQ,2021-10-19T02:00:00Z,58.75,-94.07,3.0,3.0,360,22,31,10.0,29.778543,1008.7,,,,,,,,,-RA,BKN,1200,BKN,2300,OVC,14000,,,MVFR,,,,,,,,,,,,METAR,20.0
CYYN 190200Z AUTO 34009KT 9SM FEW240 04/00 A3002 RMK SLP187,CYYN,2021-10-19T02:00:00Z,50.28,-107.68,4.0,0.0,340,9,,9.0,30.02067,1018.7,,TRUE,,,,,,,,FEW,24000,,,,,,,VFR,,,,,,,,,,,,SPECI,814.0
CYYL 190200Z AUTO 33006KT 9SM CLR 00/M00 A3000 RMK SLP182,CYYL,2021-10-19T02:00:00Z,56.87,-101.07,0.0,0.0,330,6,,9.0,30.0,1018.2,,TRUE,,,,,,,,CLR,,,,,,,,VFR,,,,,,,,,,,,SPECI,351.0
CYYJ 190200Z 13003KT 20SM FEW045 FEW120 BKN240 09/07 A2999 RMK SC1AC1CI5 SC TR SLP159,CYYJ,2021-10-19T02:00:00Z,48.63,-123.42,9.0,7.0,130,3,,20.0,29.991142,1015.9,,,,,,,,,,FEW,4500,FEW,12000,BKN,24000,,,VFR,,,,,,,,,,,,METAR,16.0
CYYH 190200Z 15015KT 2SM -SN DRSN BKN007 OVC014 M01/M02 A2931 RMK SN4ST2SC2 CIG RAG SLP930,CYYH,2021-10-19T02:00:00Z,69.53,-93.57,-1.0,-2.0,150,15,,2.0,29.309055,993.0,,,,,,,,,-SN DRSN,BKN,700,OVC,1400,,,,,IFR,,,,,,,,,,,,SPECI,19.0
CYYG 190200Z 27008KT 15SM BKN052 10/08 A2951 RMK SC6 SLP994,CYYG,2021-10-19T02:00:00Z,46.28,-63.12,10.0,8.0,270,8,,15.0,29.509842,999.4,,,,,,,,,,BKN,5200,,,,,,,VFR,,,,,,,,,,,,SPECI,48.0
CYYF 190200Z 34005KT 15SM SKC 08/04 A2988 RMK SLP130,CYYF,2021-10-19T02:00:00Z,49.47,-119.6,8.0,4.0,340,5,,15.0,29.878937,1013.0,,,,,,,,,,SKC,,,,,,,,VFR,,,,,,,,,,,,SPECI,342.0
CYYE 190200Z 10004KT 15SM FEW250 01/M05 A3002 RMK CI2 SLP190,CYYE,2021-10-19T02:00:00Z,58.83,-122.58,1.0,-5.0,100,4,,15.0,30.02067,1019.0,,,,,,,,,,FEW,25000,,,,,,,VFR,,,,,,,,,,,,SPECI,379.0
CYYD 190200Z 19005KT 15SM BKN045 OVC120 04/M03 A2995 RMK SC5AC3 SLP165,CYYD,2021-10-19T02:00:00Z,54.82,-127.18,4.0,-3.0,190,5,,15.0,29.949802,1016.5,,,,,,,,,,BKN,4500,OVC,12000,,,,,VFR,,,,,,,,,,,,SPECI,527.0
CYYC 190200Z 08006KT 6SM BR FEW013 OVC026 04/01 A3011 RMK CF2SC6 SLP236,CYYC,2021-10-19T02:00:00Z,51.12,-114.02,4.0,1.0,80,6,,6.0,30.109253,1023.6,,,,,,,,,BR,FEW,1300,OVC,2600,,,,,MVFR,,,,,,,,,,,,METAR,1085.0
CYYB 190200Z 29004KT 15SM SKC 03/00 A2995 RMK LAST STFD OBS/NEXT 191100 UTC SLP156,CYYB,2021-10-19T02:00:00Z,46.35,-79.42,3.0,0.0,290,4,,15.0,29.949802,1015.6,,,,,,,,,,SKC,,,,,,,,VFR,,,,,,,,,,,,SPECI,360.0
CYXY 190200Z 17011KT 40SM BKN260 M00/M08 A2977 RMK CS6 SLP123,CYXY,2021-10-19T02:00:00Z,60.72,-135.07,0.0,-8.0,170,11,,40.0,29.769686,1012.3,,,,,,,,,,BKN,26000,,,,,,,VFR,,,,,,,,,,,,METAR,677.0
CYXX 190200Z 01003KT 10SM FEW015 SCT210 07/06 A3000 RMK SC1CI3 SLP162,CYXX,2021-10-19T02:00:00Z,49.03,-122.38,7.0,6.0,10,3,,10.0,30.0,1016.2,,,,,,,,,,FEW,1500,SCT,21000,,,,,VFR,,,,,,,,,,,,METAR,54.0
CYXU 190200Z 00000KT 15SM SKC 06/04 A3008 RMK SLP192,CYXU,2021-10-19T02:00:00Z,43.03,-81.15,6.0,4.0,0,0,,15.0,30.079725,1019.2,,,,,,,,,,SKC,,,,,,,,VFR,,,,,,,,,,,,METAR,278.0
CYXT 190200Z 05004KT 360V080 20SM BKN150 OVC180 04/02 A2992 RMK AC5AC3 SLP143,CYXT,2021-10-19T02:00:00Z,54.47,-128.57,4.0,2.0,50,4,,20.0,29.920275,1014.3,,,,,,,,,,BKN,15000,OVC,18000,,,,,VFR,,,,,,,,,,,,SPECI,213.0
CYXS 190200Z AUTO 31003KT 9SM OVC011 01/M01 A3000 RMK SLP195,CYXS,2021-10-19T02:00:00Z,53.88,-122.68,1.0,-1.0,310,3,,9.0,30.0,1019.5,,TRUE,,,,,,,,OVC,1100,,,,,,,MVFR,,,,,,,,,,,,SPECI,685.0
CYXR 190200Z AUTO 21003KT 9SM CLR 02/00 A2993 RMK SLP148,CYXR,2021-10-19T02:00:00Z,47.7,-79.85,2.0,0.0,210,3,,9.0,29.929134,1014.8,,TRUE,,,,,,,,CLR,,,,,,,,VFR,,,,,,,,,,,,SPECI,244.0
CYXL 190200Z 17007KT 15SM SKC 14/07 A2979 RMK SLP098 DENSITY ALT 1700FT,CYXL,2021-10-19T02:00:00Z,50.12,-91.9,14.0,7.0,170,7,,15.0,29.790354,1009.8,,,,,,,,,,SKC,,,,,,,,VFR,,,,,,,,,,,,SPECI,381.0
CYXJ 190200Z 14008KT 15SM OVC190 M01/M02 A3007 RMK AC8 SLP223,CYXJ,2021-10-19T02:00:00Z,56.25,-120.73,-1.0,-2.0,140,8,,15.0,30.070866,1022.3,,,,,,,,,,OVC,19000,,,,,,,VFR,,,,,,,,,,,,SPECI,700.0
CYXH 190200Z 01009KT 15SM SKC 06/00 A3007 RMK SLP207,CYXH,2021-10-19T02:00:00Z,50.02,-110.72,6.0,0.0,10,9,,15.0,30.070866,1020.7,,,,,,,,,,SKC,,,,,,,,VFR,,,,,,,,,,,,SPECI,717.0
CYXE 190200Z 35016G24KT 15SM BKN024 05/M01 A3006 RMK SC6 SLP206,CYXE,2021-10-19T02:00:00Z,52.17,-106.7,5.0,-1.0,350,16,24,15.0,30.059055,1020.6,,,,,,,,,,BKN,2400,,,,,,,MVFR,,,,,,,,,,,,SPECI,504.0
CYXC 190200Z 27006KT 25SM SKC 11/M01 A2991 RMK SLP148 DENSITY ALT 3400FT,CYXC,2021-10-19T02:00:00Z,49.6,-115.78,11.0,-1.0,270,6,,25.0,29.911417,1014.8,,,,,,,,,,SKC,,,,,,,,VFR,,,,,,,,,,,,SPECI,928.0
CYWL 190200Z 00000KT 15SM FEW020 BKN210 00/M01 A2996 RMK SC1CI5 SLP185,CYWL,2021-10-19T02:00:00Z,52.18,-122.07,0.0,-1.0,0,0,,15.0,29.958662,1018.5,,,,,,,,,,FEW,2000,BKN,21000,,,,,VFR,,,,,,,,,,,,SPECI,942.0
CYWK 190200Z 05007KT 6SM -DZ BR SCT009 OVC026 05/04 A2950 RMK SF4ST4 LAST STFD OBS/NEXT 191000 UTC/ SLP011,CYWK,2021-10-19T02:00:00Z,52.92,-66.87,5.0,4.0,50,7,,6.0,29.500984,1001.1,,,,,,,,,-DZ BR,SCT,900,OVC,2600,,,,,MVFR,,,,,,,,,,,,METAR,547.0
CYWH 190200Z 00000KT 15SM FEW060 BKN220 10/07 A3000 RMK SC1CI7 SC TR SLP160,CYWH,2021-10-19T02:00:00Z,48.42,-123.38,10.0,7.0,0,0,,15.0,30.0,1016.0,,,,,,,,,,FEW,6000,BKN,22000,,,,,VFR,,,,,,,,,,,,SPECI,4.0
CYWG 190200Z 19007KT 15SM SCT280 15/08 A2965 RMK CI4 SLP045 DENSITY ALT 1300FT,CYWG,2021-10-19T02:00:00Z,49.9,-97.23,15.0,8.0,190,7,,15.0,29.648623,1004.5,,,,,,,,,,SCT,28000,,,,,,,VFR,,,,,,,,,,,,METAR,238.0
CYWE 190200Z AUTO 28010KT 9SM OVC018 M02/M05 A3001 RMK SLP193,CYWE,2021-10-19T02:00:00Z,64.18,-114.08,-2.0,-5.0,280,10,,9.0,30.008858,1019.3,,TRUE,,,,,,,,OVC,1800,,,,,,,MVFR,,,,,,,,,,,,METAR,374.0
CYWA 190200Z AUTO 27004KT 9SM CLR 06/02 A2994 RMK SLP144,CYWA,2021-10-19T02:00:00Z,45.95,-77.32,6.0,2.0,270,4,,9.0,29.940945,1014.4,,TRUE,,,,,,,,CLR,,,,,,,,VFR,,,,,,,,,,,,SPECI,121.0
CYVV 190200Z 25002KT 15SM SKC 08/05 A3003 RMK SLP175,CYVV,2021-10-19T02:00:00Z,44.75,-81.1,8.0,5.0,250,2,,15.0,30.029528,1017.5,,,,,,,,,,SKC,,,,,,,,VFR,,,,,,,,,,,,SPECI,221.0
CYVT 190200Z AUTO 34006KT 9SM CLR 02/M03 A3015 RMK SLP235,CYVT,2021-10-19T02:00:00Z,55.83,-108.42,2.0,-3.0,340,6,,9.0,30.15059,1023.5,,TRUE,,,,,,,,CLR,,,,,,,,VFR,,,,,,,,,,,,SPECI,438.0
CYVR 190200Z 00000KT 15SM FEW028 SCT150 SCT210 BKN240 08/07 A3000 RMK SC1AC2CI1CI1 SLP160,CYVR,2021-10-19T02:00:00Z,49.17,-123.17,8.0,7.0,0,0,,15.0,30.0,1016.0,,,,,,,,,,FEW,2800,SCT,15000,SCT,21000,BKN,24000,VFR,,,,,,,,,,,,METAR,2.0
CYVQ 190200Z 11006KT 30SM FEW100 SCT150 SCT170 BKN220 M05/M07 A2987 RMK AC1AC2AC1CI1 SLP123,CYVQ,2021-10-19T02:00:00Z,65.27,-126.78,-5.0,-7.0,110,6,,30.0,29.870079,1012.3,,,,,,,,,,FEW,10000,SCT,15000,SCT,17000,BKN,22000,VFR,,,,,,,,,,,,SPECI,63.0
CYVP 190200Z 12006KT 15SM FEW016 FEW048 BKN066 OVC078 06/04 A2976 RMK SC1SC2AC3AC3 SC TR SLP080,CYVP,2021-10-19T02:00:00Z,58.12,-68.42,6.0,4.0,120,6,,15.0,29.760826,1008.0,,,,,,,,,,FEW,1600,FEW,4800,BKN,6600,OVC,7800,VFR,,,,,,,,,,,,METAR,28.0
CYVO 190200Z 27003KT 220V310 15SM FEW025 03/01 A2989 RMK SC1 LAST STFD OBS/NXT 191000Z SLP140,CYVO,2021-10-19T02:00:00Z,48.07,-77.77,3.0,1.0,270,3,,15.0,29.890747,1014.0,,,,,,,,,,FEW,2500,,,,,,,VFR,,,,,,,,,,,,SPECI,329.0
CYVL 190200Z AUTO 22006KT 9SM BKN180 OVC200 M09/ A2983 RMK TD MISG SLP128,CYVL,2021-10-19T02:00:00Z,67.02,-126.13,-9.0,,220,6,,9.0,29.828741,1012.8,,TRUE,,,,,,,,BKN,18000,OVC,20000,,,,,VFR,,,,,,,,,,,,METAR,261.0
CYVC 190200Z 34008KT 15SM FEW030 02/M02 A3012 RMK SC2 SLP220,CYVC,2021-10-19T02:00:00Z,55.15,-105.27,2.0,-2.0,340,8,,15.0,30.121063,1022.0,,,,,,,,,,FEW,3000,,,,,,,VFR,,,,,,,,,,,,SPECI,378.0
CYUY 190200Z 00000KT 15SM FEW120 M02/M02 A2991 RMK AC1 AC TR SLP146,CYUY,2021-10-19T02:00:00Z,48.2,-78.82,-2.0,-2.0,0,0,,15.0,29.911417,1014.6,,,,,,,,,,FEW,12000,,,,,,,VFR,,,,,,,,,,,,METAR,304.0
CYUX 190200Z AUTO 22015KT 9SM CLR M01/M02 A2972 RMK SLP065,CYUX,2021-10-19T02:00:00Z,68.77,-81.22,-1.0,-2.0,220,15,,9.0,29.719488,1006.5,,TRUE,,,,,,,,CLR,,,,,,,,VFR,,,,,,,,,,,,SPECI,8.0
CYUS 190200Z AUTO 18021KT ////SM //// OVC007 M02/M02 A2928,CYUS,2021-10-19T02:00:00Z,68.78,-93.42,-2.0,-2.0,180,21,,,29.279528,,,TRUE,,,,,,,,OVC,700,,,,,,,,,,,,,,,,,,,SPECI,30.0
CYUL 190200Z 29010G16KT 15SM FEW030 BKN085 09/04 A2986 RMK SC1AC7 SC TR SLP113,CYUL,2021-10-19T02:00:00Z,45.47,-73.73,9.0,4.0,290,10,16,15.0,29.861221,1011.3,,,,,,,,,,FEW,3000,BKN,8500,,,,,VFR,,,,,,,,,,,,METAR,31.0
CYUB 190200Z 22009KT 6SM BR FEW003 OVC007 M05/M05 A2981 RMK SF2ST6 CIG RAG SLP097,CYUB,2021-10-19T02:00:00Z,69.43,-133.02,-5.0,-5.0,220,9,,6.0,29.811024,1009.7,,,,,,,,,BR,FEW,300,OVC,700,,,,,IFR,,,,,,,,,,,,SPECI,5.0
CYUA 190200Z AUTO 21008KT ////SM OVC020 M08/M10 A2982,CYUA,2021-10-19T02:00:00Z,68.92,-137.23,-8.0,-10.0,210,8,,,29.819881,,,TRUE,,,,,,,,OVC,2000,,,,,,,,,,,,,,,,,,,SPECI,25.0
CYTZ 190200Z AUTO 29008KT 9SM CLR 09/03 A3004 RMK SLP176,CYTZ,2021-10-19T02:00:00Z,43.63,-79.4,9.0,3.0,290,8,,9.0,30.041338,1017.6,,TRUE,,,,,,,,CLR,,,,,,,,VFR,,,,,,,,,,,,METAR,76.0
CYTS 190200Z 24003KT 15SM SKC 03/M01 A2992 RMK SLP148,CYTS,2021-10-19T02:00:00Z,48.57,-81.37,3.0,-1.0,240,3,,15.0,29.920275,1014.8,,,,,,,,,,SKC,,,,,,,,VFR,,,,,,,,,,,,SPECI,290.0
CYTL 190200Z AUTO 23007KT 9SM 13/09 A2966 RMK CLD MISG SLP053 DENSITY ALT 1000FT,CYTL,2021-10-19T02:00:00Z,53.82,-89.88,13.0,9.0,230,7,,9.0,29.660433,1005.3,,TRUE,,,,,,,,,,,,,,,,,,,,,,,,,,,,METAR,218.0
CYTH 190200Z 35018G24KT 15SM OVC016 03/M00 A2985 RMK SC8 PRESRR SLP125,CYTH,2021-10-19T02:00:00Z,55.8,-97.83,3.0,0.0,350,18,24,15.0,29.84941,1012.5,,,,,,,,,,OVC,1600,,,,,,,MVFR,,,,,,,,,,,,SPECI,212.0
CYTE 190200Z AUTO 09003KT 1/4SM FG 02/02 A2982 RMK CLD MISG SLP103,CYTE,2021-10-19T02:00:00Z,64.22,-76.52,2.0,2.0,90,3,,0.25,29.819881,1010.3,,TRUE,,,,,,,FG,,,,,,,,,,,,,,,,,,,,,METAR,49.0
CYSM 190200Z 00000KT 15SM FEW030 M04/M06 A3014 RMK SC1 SC TR SLP223,CYSM,2021-10-19T02:00:00Z,60.03,-111.92,-4.0,-6.0,0,0,,15.0,30.138779,1022.3,,,,,,,,,,FEW,3000,,,,,,,VFR,,,,,,,,,,,,SPECI,203.0
CYSJ 190200Z 30006KT 15SM BKN052 09/06 A2960 RMK SC7 SLP026,CYSJ,2021-10-19T02:00:00Z,45.32,-65.88,9.0,6.0,300,6,,15.0,29.601377,1002.6,,,,,,,,,,BKN,5200,,,,,,,VFR,,,,,,,,,,,,METAR,89.0
CYSF 190200Z AUTO 27003KT 9SM OVC043 02/M00 A3009 RMK SLP206,CYSF,2021-10-19T02:00:00Z,59.25,-105.83,2.0,0.0,270,3,,9.0,30.088583,1020.6,,TRUE,,,,,,,,OVC,4300,,,,,,,VFR,,,,,,,,,,,,SPECI,238.0
CYSC 190200Z AUTO 29010KT 9SM -RA SCT044 SCT055 OVC068 06/05 A2977 RMK SLP090,CYSC,2021-10-19T02:00:00Z,45.43,-71.68,6.0,5.0,290,10,,9.0,29.769686,1009.0,,TRUE,,,,,,,-RA,SCT,4400,SCT,5500,OVC,6800,,,VFR,,,,,,,,,,,,SPECI,236.0
CYSB 190200Z 26005KT 15SM SKC 06/M01 A2997 RMK SLP162,CYSB,2021-10-19T02:00:00Z,46.63,-80.8,6.0,-1.0,260,5,,15.0,29.970472,1016.2,,,,,,,,,,SKC,,,,,,,,VFR,,,,,,,,,,,,SPECI,349.0
CYRV 190200Z AUTO 00000KT 3/8SM FG FEW002 06/06 A2995 RMK SLP157,CYRV,2021-10-19T02:00:00Z,50.97,-118.17,6.0,6.0,0,0,,0.38,29.949802,1015.7,,TRUE,,,,,,,FG,FEW,200,,,,,,,LIFR,,,,,,,,,,,,SPECI,456.0
CYRT 190200Z 27006KT 15SM SCT034 BKN130 02/M01 A2981 RMK SC3AC4 SLP099,CYRT,2021-10-19T02:00:00Z,62.82,-92.12,2.0,-1.0,270,6,,15.0,29.811024,1009.9,,,,,,,,,,SCT,3400,BKN,13000,,,,,VFR,,,,,,,,,,,,SPECI,29.0
CYRQ 190200Z AUTO 28006KT 9SM BKN081 BKN092 OVC110 08/04 A2979 RMK SLP091,CYRQ,2021-10-19T02:00:00Z,46.35,-72.68,8.0,4.0,280,6,,9.0,29.790354,1009.1,,TRUE,,,,,,,,BKN,8100,BKN,9200,OVC,11000,,,VFR,,,,,,,,,,,,METAR,58.0
CYRL 190200Z 15007KT 15SM FEW240 14/07 A2970 RMK CI1 LAST STFD OBS/NEXT 190900UTC SLP066 DENSITY ALT 1800FT,CYRL,2021-10-19T02:00:00Z,51.07,-93.78,14.0,7.0,150,7,,15.0,29.698818,1006.6,,,,,,,,,,FEW,24000,,,,,,,VFR,,,,,,,,,,,,SPECI,370.0
CYRJ 190200Z 29015G20KT 25SM SCT030 BKN095 06/03 A2970 RMK SC3AC4 SLP066,CYRJ,2021-10-19T02:00:00Z,48.52,-72.27,6.0,3.0,290,15,20,25.0,29.698818,1006.6,,,,,,,,,,SCT,3000,BKN,9500,,,,,VFR,,,,,,,,,,,,SPECI,173.0
CYRB 190200Z 13016KT 3SM -SN DRSN SCT003 BKN010 OVC015 M02/M03 A2928 RMK ST3ST4SC1 SLP924,CYRB,2021-10-19T02:00:00Z,74.72,-94.97,-2.0,-3.0,130,16,,3.0,29.279528,992.4,,,,,,,,,-SN DRSN,SCT,300,BKN,1000,OVC,1500,,,MVFR,,,,,,,,,,,,METAR,59.0
CYQZ 190200Z AUTO 33003KT 9SM SCT016 OVC027 03/01 A3001 RMK SLP192,CYQZ,2021-10-19T02:00:00Z,53.02,-122.52,3.0,1.0,330,3,,9.0,30.008858,1019.2,,TRUE,,,,,,,,SCT,1600,OVC,2700,,,,,MVFR,,,,,,,,,,,,SPECI,548.0
CYQY 190200Z 27005KT 15SM BKN210 09/08 A2949 RMK CS5 SLP989,CYQY,2021-10-19T02:00:00Z,46.17,-60.03,9.0,8.0,270,5,,15.0,29.489174,998.9,,,,,,,,,,BKN,21000,,,,,,,VFR,,,,,,,,,,,,METAR,58.0
CYQX 190200Z 10021G28KT 8SM -RA OVC120 07/06 A2965 RMK AC8 SLP046,CYQX,2021-10-19T02:00:00Z,48.95,-54.58,7.0,6.0,100,21,28,8.0,29.648623,1004.6,,,,,,,,,-RA,OVC,12000,,,,,,,VFR,,,,,,,,,,,,METAR,144.0
CYQW 190200Z AUTO 35006KT 9SM CLR 02/M02 A3012 RMK SLP228,CYQW,2021-10-19T02:00:00Z,52.77,-108.25,2.0,-2.0,350,6,,9.0,30.121063,1022.8,,TRUE,,,,,,,,CLR,,,,,,,,VFR,,,,,,,,,,,,SPECI,545.0
CYQV 190200Z AUTO 34020G29KT 9SM CLR 08/03 A2984 RMK SLP124,CYQV,2021-10-19T02:00:00Z,51.27,-102.47,8.0,3.0,340,20,29,9.0,29.840551,1012.4,,TRUE,,,,,,,,CLR,,,,,,,,VFR,,,,,,,,,,,,SPECI,493.0
CYQU 190200Z 10005KT 20SM OVC040 01/M00 A3008 RMK SC8 SLP225,CYQU,2021-10-19T02:00:00Z,55.18,-118.88,1.0,0.0,100,5,,20.0,30.079725,1022.5,,,,,,,,,,OVC,4000,,,,,,,VFR,,,,,,,,,,,,SPECI,668.0
CYQT 190200Z 00000KT 15SM SKC 06/03 A2992 RMK SLP142,CYQT,2021-10-19T02:00:00Z,48.37,-89.32,6.0,3.0,0,0,,15.0,29.920275,1014.2,,,,,,,,,,SKC,,,,,,,,VFR,,,,,,,,,,,,SPECI,197.0
CYQR 190200Z 35019G27KT 15SM FEW250 08/02 A2991 RMK CI1 SLP150,CYQR,2021-10-19T02:00:00Z,50.43,-104.67,8.0,2.0,350,19,27,15.0,29.911417,1015.0,,,,,,,,,,FEW,25000,,,,,,,VFR,,,,,,,,,,,,SPECI,576.0
CYQQ 190200Z 00000KT 20SM FEW025 FEW200 BKN250 08/06 A2999 RMK SC1CC1CI7 CIG PDMTLY TRANSPARENT SLP156,CYQQ,2021-10-19T02:00:00Z,49.72,-124.9,8.0,6.0,0,0,,20.0,29.991142,1015.6,,,,,,,,,,FEW,2500,FEW,20000,BKN,25000,,,VFR,,,,,,,,,,,,METAR,24.0
CYQM 190200Z 25010KT 15SM FEW050 SCT058 BKN120 09/07 A2954 RMK SC1SC2AC3 SLP006,CYQM,2021-10-19T02:00:00Z,46.12,-64.67,9.0,7.0,250,10,,15.0,29.53937,1000.6,,,,,,,,,,FEW,5000,SCT,5800,BKN,12000,,,VFR,,,,,,,,,,,,METAR,67.0
CYQL 190200Z 03013KT 20SM OVC033 08/01 A3008 RMK SC8 SLP215,CYQL,2021-10-19T02:00:00Z,49.63,-112.8,8.0,1.0,30,13,,20.0,30.079725,1021.5,,,,,,,,,,OVC,3300,,,,,,,VFR,,,,,,,,,,,,SPECI,923.0
CYQK 190200Z 17008KT 20SM BKN260 16/06 A2974 RMK CI5 SLP078 DENSITY ALT 2100FT,CYQK,2021-10-19T02:00:00Z,49.78,-94.37,16.0,6.0,170,8,,20.0,29.740158,1007.8,,,,,,,,,,BKN,26000,,,,,,,VFR,,,,,,,,,,,,SPECI,413.0
CYQI 190200Z 33008KT 15SM FEW030 BKN130 11/06 A2963 RMK SC1AC6 SC TR SLP036,CYQI,2021-10-19T02:00:00Z,43.83,-66.08,11.0,6.0,330,8,,15.0,29.630905,1003.6,,,,,,,,,,FEW,3000,BKN,13000,,,,,VFR,,,,,,,,,,,,SPECI,37.0
CYQH 190200Z 08005KT 15SM BKN170 M01/M10 A2991 RMK AC5 SLP174,CYQH,2021-10-19T02:00:00Z,60.12,-128.82,-1.0,-10.0,80,5,,15.0,29.911417,1017.4,,,,,,,,,,BKN,17000,,,,,,,VFR,,,,,,,,,,,,SPECI,692.0
CYQG 190200Z AUTO 21003KT 9SM CLR 09/07 A3010 RMK SLP196,CYQG,2021-10-19T02:00:00Z,42.27,-82.97,9.0,7.0,210,3,,9.0,30.100393,1019.6,,TRUE,,,,,,,,CLR,,,,,,,,VFR,,,,,,,,,,,,METAR,189.0
CYQF 190200Z AUTO 07006KT 9SM OVC025 03/M02 A3012 RMK SLP237,CYQF,2021-10-19T02:00:00Z,52.17,-113.9,3.0,-2.0,70,6,,9.0,30.121063,1023.7,,TRUE,,,,,,,,OVC,2500,,,,,,,MVFR,,,,,,,,,,,,SPECI,912.0
CYQD 190200Z AUTO 33018G32KT 9SM BKN023 06/01 A2993 RMK SLP148,CYQD,2021-10-19T02:00:00Z,53.97,-101.08,6.0,1.0,330,18,32,9.0,29.929134,1014.8,,TRUE,,,,,,,,BKN,2300,,,,,,,MVFR,,,,,,,,,,,,SPECI,268.0
CYQB 190200Z 25009KT 15SM BKN036 OVC100 08/04 A2972 RMK SC5AC3 SLP069,CYQB,2021-10-19T02:00:00Z,46.78,-71.38,8.0,4.0,250,9,,15.0,29.719488,1006.9,,,,,,,,,,BKN,3600,OVC,10000,,,,,VFR,,,,,,,,,,,,METAR,73.0
CYQA 190200Z AUTO 29003KT 270V330 9SM CLR 06/03 A2998 RMK SLP163,CYQA,2021-10-19T02:00:00Z,44.97,-79.3,6.0,3.0,290,3,,9.0,29.97933,1016.3,,TRUE,,,,,,,,CLR,,,,,,,,VFR,,,,,,,,,,,,SPECI,277.0
CYPY 190200Z AUTO 25003KT 9SM CLR M02/M02 A3017 RMK SLP235,CYPY,2021-10-19T02:00:00Z,58.77,-111.12,-2.0,-2.0,250,3,,9.0,30.171259,1023.5,,TRUE,,,,,,,,CLR,,,,,,,,VFR,,,,,,,,,,,,SPECI,225.0
CYPX 190200Z AUTO 03008KT 3/8SM FG VV002 03/03 A2976 RMK SLP082,CYPX,2021-10-19T02:00:00Z,60.03,-77.27,3.0,3.0,30,8,,0.38,29.760826,1008.2,,TRUE,,,,,,,FG,OVX,0,,,,,,,LIFR,,,,,,,,,,,200,SPECI,10.0
CYPW 190200Z VRB02KT 30SM FEW200 BKN250 05/05 A2998 RMK CC1CI6 CC TR LAST STFD OBS NEXT OBS 191300 UTC SLP158,CYPW,2021-10-19T02:00:00Z,49.83,-124.5,5.0,5.0,0,2,,30.0,29.97933,1015.8,,,,,,,,,,FEW,20000,BKN,25000,,,,,VFR,,,,,,,,,,,,SPECI,122.0
CYPR 190200Z AUTO 11007G15KT 9SM OVC170 A2977 RMK T MISG TD MISG DENSITY ALT MISG,CYPR,2021-10-19T02:00:00Z,54.28,-130.45,,,110,7,15,9.0,29.769686,,,TRUE,,,,,,,,OVC,17000,,,,,,,VFR,,,,,,,,,,,,SPECI,30.0
CYPQ 190200Z AUTO 30006KT 9SM CLR 06/03 A3000 RMK SLP166,CYPQ,2021-10-19T02:00:00Z,44.22,-78.37,6.0,3.0,300,6,,9.0,30.0,1016.6,,TRUE,,,,,,,,CLR,,,,,,,,VFR,,,,,,,,,,,,SPECI,190.0
CYPO 190200Z AUTO 16005KT 9SM CLR 05/02 A2975 RMK SLP078,CYPO,2021-10-19T02:00:00Z,54.98,-85.43,5.0,2.0,160,5,,9.0,29.749016,1007.8,,TRUE,,,,,,,,CLR,,,,,,,,VFR,,,,,,,,,,,,METAR,49.0
CYPL 190200Z AUTO 19009KT 9SM CLR 13/06 A2977 RMK SLP094 DENSITY ALT 1500FT,CYPL,2021-10-19T02:00:00Z,51.43,-90.22,13.0,6.0,190,9,,9.0,29.769686,1009.4,,TRUE,,,,,,,,CLR,,,,,,,,VFR,,,,,,,,,,,,METAR,390.0
CYPH 190200Z AUTO 01007KT 9SM OVC027 05/04 A2972 RMK SLP068,CYPH,2021-10-19T02:00:00Z,58.47,-78.08,5.0,4.0,10,7,,9.0,29.719488,1006.8,,TRUE,,,,,,,,OVC,2700,,,,,,,MVFR,,,,,,,,,,,,SPECI,24.0
CYPE 190200Z 35007KT 15SM BKN240 M02/M03 A3014 RMK CI7 SLP240,CYPE,2021-10-19T02:00:00Z,56.22,-117.45,-2.0,-3.0,350,7,,15.0,30.138779,1024.0,,,,,,,,,,BKN,24000,,,,,,,VFR,,,,,,,,,,,,SPECI,572.0
CYPD 190200Z AUTO 25005KT 9SM FEW045 09/08 A2952 RMK SLP999,CYPD,2021-10-19T02:00:00Z,45.67,-61.37,9.0,8.0,250,5,,9.0,29.518702,999.9,,TRUE,,,,,,,,FEW,4500,,,,,,,VFR,,,,,,,,,,,,METAR,106.0
CYPA 190200Z 01011KT 15SM SCT025 04/M01 A3010 RMK SC3 SLP215,CYPA,2021-10-19T02:00:00Z,53.22,-105.67,4.0,-1.0,10,11,,15.0,30.100393,1021.5,,,,,,,,,,SCT,2500,,,,,,,VFR,,,,,,,,,,,,SPECI,428.0
CYOY 190200Z AUTO 30005KT 250V320 9SM BKN029 07/03 A2971 RMK SLP067,CYOY,2021-10-19T02:00:00Z,46.88,-71.5,7.0,3.0,300,5,,9.0,29.71063,1006.7,,TRUE,,,,,,,,BKN,2900,,,,,,,MVFR,,,,,,,,,,,,SPECI,167.0
CYOW 190200Z 30009KT 15SM SCT030 SCT130 07/03 A2992 RMK SC3AC1 SLP137,CYOW,2021-10-19T02:00:00Z,45.32,-75.67,7.0,3.0,300,9,,15.0,29.920275,1013.7,,,,,,,,,,SCT,3000,SCT,13000,,,,,VFR,,,,,,,,,,,,METAR,111.0
CYOO 190200Z AUTO 28004KT 9SM CLR 06/03 A3002 RMK SLP172,CYOO,2021-10-19T02:00:00Z,43.92,-78.9,6.0,3.0,280,4,,9.0,30.02067,1017.2,,TRUE,,,,,,,,CLR,,,,,,,,VFR,,,,,,,,,,,,METAR,136.0
CYOJ 190200Z 07002KT 15SM SKC M01/M05 A3013 RMK SLP229,CYOJ,2021-10-19T02:00:00Z,58.62,-117.17,-1.0,-5.0,70,2,,15.0,30.129921,1022.9,,,,,,,,,,SKC,,,,,,,,VFR,,,,,,,,,,,,SPECI,339.0
CYOD 190200Z 36004KT 15SM BKN040 04/M03 A3016 RMK SC7 DA559FT SLP238,CYOD,2021-10-19T02:00:00Z,54.4,-110.28,4.0,-3.0,360,4,,15.0,30.159449,1023.8,,,,,,,,,,BKN,4000,,,,,,,VFR,,,,,,,,,,,,SPECI,540.0
CYNM 190200Z AUTO 25005KT 9SM SCT100 02/01 A2985 RMK SLP124,CYNM,2021-10-19T02:00:00Z,49.77,-77.78,2.0,1.0,250,5,,9.0,29.84941,1012.4,,TRUE,,,,,,,,SCT,10000,,,,,,,VFR,,,,,,,,,,,,SPECI,276.0
CYNE 190200Z AUTO /////KT 08/04 A2974 RMK WND MISG CLD MISG WX MISG VIS MISG PCPN MISG ICG MISG SLP083,CYNE,2021-10-19T02:00:00Z,53.97,-97.83,8.0,4.0,,,,,29.740158,1008.3,,TRUE,,,,,,,,,,,,,,,,,,,,,,,,,,,,SPECI,220.0
CYMX 190200Z 27003KT 220V320 25SM FEW080 BKN150 07/04 A2986 RMK AC2AC4 SLP114,CYMX,2021-10-19T02:00:00Z,45.67,-74.03,7.0,4.0,270,3,,25.0,29.861221,1011.4,,,,,,,,,,FEW,8000,BKN,15000,,,,,VFR,,,,,,,,,,,,METAR,78.0
CYMT 190200Z AUTO 27009G15KT 9SM -RA OVC012 02/01 A2976 RMK SLP094,CYMT,2021-10-19T02:00:00Z,49.77,-74.52,2.0,1.0,270,9,15,9.0,29.760826,1009.4,,TRUE,,,,,,,-RA,OVC,1200,,,,,,,MVFR,,,,,,,,,,,,SPECI,388.0
CYMO 190200Z AUTO 18002KT 9SM CLR 01/00 A2986 RMK SLP114,CYMO,2021-10-19T02:00:00Z,51.28,-80.62,1.0,0.0,180,2,,9.0,29.861221,1011.4,,TRUE,,,,,,,,CLR,,,,,,,,VFR,,,,,,,,,,,,SPECI,8.0
CYMM 190200Z AUTO VRB02KT 9SM CLR M00/M04 A3018 RMK SLP244,CYMM,2021-10-19T02:00:00Z,56.65,-111.22,0.0,-4.0,0,2,,9.0,30.180119,1024.4,,TRUE,,,,,,,,CLR,,,,,,,,VFR,,,,,,,,,,,,SPECI,371.0
CYMJ 190200Z 33017G22KT 15SM BKN210 07/03 A2996 RMK CI5 SLP166,CYMJ,2021-10-19T02:00:00Z,50.32,-105.55,7.0,3.0,330,17,22,15.0,29.958662,1016.6,,,,,,,,,,BKN,21000,,,,,,,VFR,,,,,,,,,,,,SPECI,578.0
CYMH 190200Z AUTO 10013G18KT 8SM OVC022 06/04 A2982 RMK SLP100,CYMH,2021-10-19T02:00:00Z,52.3,-55.82,6.0,4.0,100,13,18,8.0,29.819881,1010.0,,TRUE,,,,,,,,OVC,2200,,,,,,,MVFR,,,,,,,,,,,,METAR,18.0
CYMA 190200Z 36007KT 340V060 20SM OVC200 M03/M07 A2982 RMK CI8 SLP138,CYMA,2021-10-19T02:00:00Z,63.62,-135.87,-3.0,-7.0,360,7,,20.0,29.819881,1013.8,,,,,,,,,,OVC,20000,,,,,,,VFR,,,,,,,,,,,,SPECI,519.0
CYLW 190200Z AUTO 06004KT 9SM CLR 08/05 A2990 RMK SLP138,CYLW,2021-10-19T02:00:00Z,49.95,-119.37,8.0,5.0,60,4,,9.0,29.899607,1013.8,,TRUE,,,,,,,,CLR,,,,,,,,VFR,,,,,,,,,,,,SPECI,420.0
CYLL 190200Z 36005KT 15SM FEW032 01/M02 A3013 RMK SC2 SLP237,CYLL,2021-10-19T02:00:00Z,53.32,-110.07,1.0,-2.0,360,5,,15.0,30.129921,1023.7,,,,,,,,,,FEW,3200,,,,,,,VFR,,,,,,,,,,,,SPECI,664.0
CYLH 190200Z AUTO 21006KT 9SM CLR 11/05 A2976 RMK SLP090,CYLH,2021-10-19T02:00:00Z,52.2,-87.93,11.0,5.0,210,6,,9.0,29.760826,1009.0,,TRUE,,,,,,,,CLR,,,,,,,,VFR,,,,,,,,,,,,METAR,245.0
CYKY 190200Z 35011KT 15SM SKC 02/M01 A3009 RMK SLP218,CYKY,2021-10-19T02:00:00Z,51.52,-109.17,2.0,-1.0,350,11,,15.0,30.088583,1021.8,,,,,,,,,,SKC,,,,,,,,VFR,,,,,,,,,,,,SPECI,692.0
CYKP 190200Z AUTO 18005KT 9SM CLR 08/03 A2982 RMK SLP104,CYKP,2021-10-19T02:00:00Z,51.67,-85.9,8.0,3.0,180,5,,9.0,29.819881,1010.4,,TRUE,,,,,,,,CLR,,,,,,,,VFR,,,,,,,,,,,,METAR,181.0
CYKL 190200Z AUTO 09008KT 1 1/2SM -RA BR OVC013 04/04 A2961 RMK VIS VRB 1 1/4-2 1/4 SLP050,CYKL,2021-10-19T02:00:00Z,54.8,-66.8,4.0,4.0,90,8,,1.5,29.610237,1005.0,,TRUE,,,,,,,-RA BR,OVC,1300,,,,,,,IFR,,,,,,,,,,,,METAR,507.0
CYKJ 190200Z AUTO 34006KT 310V010 9SM BKN037 01/M04 A3009 RMK SLP220,CYKJ,2021-10-19T02:00:00Z,57.25,-105.62,1.0,-4.0,340,6,,9.0,30.088583,1022.0,,TRUE,,,,,,,,BKN,3700,,,,,,,VFR,,,,,,,,,,,,SPECI,519.0
CYKF 190200Z AUTO 28005KT 9SM CLR 06/03 A3005 RMK SLP185,CYKF,2021-10-19T02:00:00Z,43.47,-80.38,6.0,3.0,280,5,,9.0,30.050198,1018.5,,TRUE,,,,,,,,CLR,,,,,,,,VFR,,,,,,,,,,,,METAR,312.0
CYKA 190200Z 28005KT 40SM FEW250 10/04 A2992 RMK CI2 SLP140,CYKA,2021-10-19T02:00:00Z,50.7,-120.45,10.0,4.0,280,5,,40.0,29.920275,1014.0,,,,,,,,,,FEW,25000,,,,,,,VFR,,,,,,,,,,,,SPECI,344.0
CYJT 190200Z 08010KT 8SM -RA FEW009 OVC026 10/09 A2945 RMK SF1SC7 SLP974 DENSITY ALT 100FT,CYJT,2021-10-19T02:00:00Z,48.55,-58.57,10.0,9.0,80,10,,8.0,29.450787,997.4,,,,,,,,,-RA,FEW,900,OVC,2600,,,,,MVFR,,,,,,,,,,,,METAR,7.0
CYIV 190200Z AUTO 18003KT 9SM CLR 16/07 A2961 RMK SLP033 DENSITY ALT 1500FT,CYIV,2021-10-19T02:00:00Z,53.85,-94.65,16.0,7.0,180,3,,9.0,29.610237,1003.3,,TRUE,,,,,,,,CLR,,,,,,,,VFR,,,,,,,,,,,,SPECI,234.0
CYIO 190200Z AUTO 22009KT 9SM OVC040 02/M02 A2971 RMK SLP069,CYIO,2021-10-19T02:00:00Z,72.68,-77.97,2.0,-2.0,220,9,,9.0,29.71063,1006.9,,TRUE,,,,,,,,OVC,4000,,,,,,,VFR,,,,,,,,,,,,SPECI,61.0
CYIN 190200Z AUTO 25002KT 9SM CLR M01/M01 A2994 RMK SLP173,CYIN,2021-10-19T02:00:00Z,51.27,-121.68,-1.0,-1.0,250,2,,9.0,29.940945,1017.3,,TRUE,,,,,,,,CLR,,,,,,,,VFR,,,,,,,,,,,,METAR,1127.0
CYHZ 190200Z 26008KT 15SM BKN057 08/06 A2957 RMK SC6 SLP017,CYHZ,2021-10-19T02:00:00Z,44.87,-63.5,8.0,6.0,260,8,,15.0,29.568897,1001.7,,,,,,,,,,BKN,5700,,,,,,,VFR,,,,,,,,,,,,METAR,136.0
CYHY 190200Z 13002KT 15SM FEW160 FEW230 M03/M05 A3012 RMK AC1CI1 SLP215,CYHY,2021-10-19T02:00:00Z,60.83,-115.77,-3.0,-5.0,130,2,,15.0,30.121063,1021.5,,,,,,,,,,FEW,16000,FEW,23000,,,,,VFR,,,,,,,,,,,,SPECI,159.0
CYHU 190200Z AUTO 28010KT 9SM OVC086 09/04 A2984 RMK SLP108,CYHU,2021-10-19T02:00:00Z,45.52,-73.42,9.0,4.0,280,10,,9.0,29.840551,1010.8,,TRUE,,,,,,,,OVC,8600,,,,,,,VFR,,,,,,,,,,,,SPECI,26.0
CYHM 190200Z 24005KT 15SM SKC 06/02 A3006 RMK SLP186,CYHM,2021-10-19T02:00:00Z,43.17,-79.93,6.0,2.0,240,5,,15.0,30.059055,1018.6,,,,,,,,,,SKC,,,,,,,,VFR,,,,,,,,,,,,METAR,237.0
CYHE 190200Z AUTO 23004KT 9SM 10/08 A3001 RMK CLD MISG SLP163,CYHE,2021-10-19T02:00:00Z,49.37,-121.5,10.0,8.0,230,4,,9.0,30.008858,1016.3,,TRUE,,,,,,,,,,,,,,,,,,,,,,,,,,,,SPECI,43.0
CYHD 190200Z AUTO 17010KT 9SM CLR 15/06 A2978 RMK SLP095 DENSITY ALT 1900FT,CYHD,2021-10-19T02:00:00Z,49.82,-92.75,15.0,6.0,170,10,,9.0,29.778543,1009.5,,TRUE,,,,,,,,CLR,,,,,,,,VFR,,,,,,,,,,,,SPECI,414.0
CYGX 190200Z 01019KT 15SM OVC027 05/03 A2974 RMK ST8 SLP079,CYGX,2021-10-19T02:00:00Z,56.35,-94.7,5.0,3.0,10,19,,15.0,29.740158,1007.9,,,,,,,,,,OVC,2700,,,,,,,MVFR,,,,,,,,,,,,SPECI,145.0
CYGV 190200Z AUTO 04013KT 3SM BR OVC021 08/08 A2939 RMK SLP954,CYGV,2021-10-19T02:00:00Z,50.28,-63.62,8.0,8.0,40,13,,3.0,29.388779,995.4,,TRUE,,,,,,,BR,OVC,2100,,,,,,,MVFR,,,,,,,,,,,,SPECI,32.0
CYGR 190200Z 23005KT 15SM SCT021 BKN058 10/08 A2945 RMK SC4SC2 LAST STFD OBS/NXT 0900Z SLP975,CYGR,2021-10-19T02:00:00Z,47.42,-61.77,10.0,8.0,230,5,,15.0,29.450787,997.5,,,,,,,,,,SCT,2100,BKN,5800,,,,,VFR,,,,,,,,,,,,SPECI,4.0
CYGQ 190200Z 00000KT 15SM FEW250 08/04 A2990 RMK CI1 WND ESTD SLP142,CYGQ,2021-10-19T02:00:00Z,49.77,-86.92,8.0,4.0,0,0,,15.0,29.899607,1014.2,,,,,,,,,,FEW,25000,,,,,,,VFR,,,,,,,,,,,,SPECI,340.0
CYGP 190200Z 00000KT 15SM OVC025 09/09 A2941 RMK SC8 SLP963,CYGP,2021-10-19T02:00:00Z,48.77,-64.47,9.0,9.0,0,0,,15.0,29.409449,996.3,,,,,,,,,,OVC,2500,,,,,,,MVFR,,,,,,,,,,,,SPECI,31.0
CYGL 190200Z 29009KT 15SM -DZ OVC008 04/04 A2974 RMK SF8 CIG RAG SLP083,CYGL,2021-10-19T02:00:00Z,53.62,-77.7,4.0,4.0,290,9,,15.0,29.740158,1008.3,,,,,,,,,-DZ,OVC,800,,,,,,,IFR,,,,,,,,,,,,METAR,192.0
CYGK 190200Z 29007KT 15SM FEW050 07/03 A2997 RMK SC1 SLP153,CYGK,2021-10-19T02:00:00Z,44.22,-76.58,7.0,3.0,290,7,,15.0,29.970472,1015.3,,,,,,,,,,FEW,5000,,,,,,,VFR,,,,,,,,,,,,SPECI,91.0
CYFS 190200Z 11005KT 070V150 15SM FEW180 FEW210 01/M05 A2999 RMK AC1CI2 AC TR SLP170,CYFS,2021-10-19T02:00:00Z,61.75,-121.22,1.0,-5.0,110,5,,15.0,29.991142,1017.0,,,,,,,,,,FEW,18000,FEW,21000,,,,,VFR,,,,,,,,,,,,SPECI,174.0
CYFC 190200Z AUTO 23005KT 9SM BKN091 OVC130 08/07 A2958 RMK SLP020,CYFC,2021-10-19T02:00:00Z,45.87,-66.53,8.0,7.0,230,5,,9.0,29.58071,1002.0,,TRUE,,,,,,,,BKN,9100,OVC,13000,,,,,VFR,,,,,,,,,,,,METAR,16.0
CYFB 190200Z 14016G21KT 15SM SCT011 OVC019 02/00 A3000 RMK SC4SC4 SLP163,CYFB,2021-10-19T02:00:00Z,63.75,-68.55,2.0,0.0,140,16,21,15.0,30.0,1016.3,,,,,,,,,,SCT,1100,OVC,1900,,,,,MVFR,,,,,,,,,,,,METAR,23.0
CYEV 190200Z 24004KT 180V260 15SM OVC007 M07/M08 A2984 RMK SC8 SLP111,CYEV,2021-10-19T02:00:00Z,68.32,-133.5,-7.0,-8.0,240,4,,15.0,29.840551,1011.1,,,,,,,,,,OVC,700,,,,,,,IFR,,,,,,,,,,,,SPECI,74.0
CYET 190200Z AUTO 09005KT 9SM OVC031 03/M02 A3008 RMK SLP222,CYET,2021-10-19T02:00:00Z,53.57,-116.47,3.0,-2.0,90,5,,9.0,30.079725,1022.2,,TRUE,,,,,,,,OVC,3100,,,,,,,VFR,,,,,,,,,,,,SPECI,925.0
CYER 190200Z AUTO 14007KT 9SM CLR 06/03 A2968 RMK SLP051,CYER,2021-10-19T02:00:00Z,56.02,-87.68,6.0,3.0,140,7,,9.0,29.681103,1005.1,,TRUE,,,,,,,,CLR,,,,,,,,VFR,,,,,,,,,,,,METAR,11.0
CYEN 190200Z AUTO 31012KT 9SM CLR 08/03 A2979 RMK SLP109,CYEN,2021-10-19T02:00:00Z,49.22,-102.97,8.0,3.0,310,12,,9.0,29.790354,1010.9,,TRUE,,,,,,,,CLR,,,,,,,,VFR,,,,,,,,,,,,SPECI,580.0
CYEK 190200Z AUTO 35013KT 9SM OVC096 02/M00 A2985 RMK SLP109,CYEK,2021-10-19T02:00:00Z,61.1,-94.07,2.0,0.0,350,13,,9.0,29.84941,1010.9,,TRUE,,,,,,,,OVC,9600,,,,,,,VFR,,,,,,,,,,,,SPECI,7.0
CYEG 190200Z 07005KT 20SM OVC026 03/M01 A3015 RMK SC8 SLP239,CYEG,2021-10-19T02:00:00Z,53.3,-113.58,3.0,-1.0,70,5,,20.0,30.15059,1023.9,,,,,,,,,,OVC,2600,,,,,,,MVFR,,,,,,,,,,,,METAR,710.0
CYED 190200Z AUTO 32002KT 9SM OVC030 03/M02 A3016 RMK SLP239,CYED,2021-10-19T02:00:00Z,53.67,-113.47,3.0,-2.0,320,2,,9.0,30.159449,1023.9,,TRUE,,,,,,,,OVC,3000,,,,,,,MVFR,,,,,,,,,,,,SPECI,688.0
CYDQ 190200Z AUTO 14004KT 9SM OVC014 01/M02 A3008 RMK SLP225,CYDQ,2021-10-19T02:00:00Z,55.75,-120.18,1.0,-2.0,140,4,,9.0,30.079725,1022.5,,TRUE,,,,,,,,OVC,1400,,,,,,,MVFR,,,,,,,,,,,,METAR,658.0
CYDN 190200Z AUTO 01014G22KT 9SM CLR 13/06 A2975 RMK PRESRR SLP085 DENSITY ALT 1200FT,CYDN,2021-10-19T02:00:00Z,51.1,-100.05,13.0,6.0,10,14,22,9.0,29.749016,1008.5,,TRUE,,,,,,,,CLR,,,,,,,,VFR,,,,,,,,,,,,SPECI,302.0
CYDL 190200Z AUTO VRB03KT 9SM CLR M02/M09 A2986 RMK SLP148,CYDL,2021-10-19T02:00:00Z,58.42,-130.02,-2.0,-9.0,0,3,,9.0,29.861221,1014.8,,TRUE,,,,,,,,CLR,,,,,,,,VFR,,,,,,,,,,,,METAR,804.0
CYDF 190200Z 03011KT 3SM +RA SCT008 OVC025 07/07 A2955 RMK SF3SC5 /R15/ SLP007,CYDF,2021-10-19T02:00:00Z,49.22,-57.4,7.0,7.0,30,11,,3.0,29.551182,1000.7,,,,,,,,,+RA,SCT,800,OVC,2500,,,,,MVFR,,,,,,,,,,,,SPECI,15.0
CYDB 190200Z AUTO 11007KT 9SM CLR M00/M12 A2966 RMK SLP092,CYDB,2021-10-19T02:00:00Z,61.37,-139.02,0.0,-12.0,110,7,,9.0,29.660433,1009.2,,TRUE,,,,,,,,CLR,,,,,,,,VFR,,,,,,,,,,,,SPECI,807.0
CYDA 190200Z VRB02KT 20SM SCT090 SCT180 BKN230 M06/M07 A2982 RMK AS3AC1CI2 OBS FOR MEDEVAC SLP129,CYDA,2021-10-19T02:00:00Z,64.03,-139.12,-6.0,-7.0,0,2,,20.0,29.819881,1012.9,,,,,,,,,,SCT,9000,SCT,18000,BKN,23000,,,VFR,,,,,,,,,,,,SPECI,338.0
CYCO 190200Z 24011KT 15SM FEW013 M07/M10 A2995 RMK ST1 SLP145,CYCO,2021-10-19T02:00:00Z,67.82,-115.15,-7.0,-10.0,240,11,,15.0,29.949802,1014.5,,,,,,,,,,FEW,1300,,,,,,,VFR,,,,,,,,,,,,SPECI,20.0
CYCK 190200Z AUTO 16002KT 9SM CLR 06/05 A3009 RMK SLP196,CYCK,2021-10-19T02:00:00Z,42.3,-82.08,6.0,5.0,160,2,,9.0,30.088583,1019.6,,TRUE,,,,,,,,CLR,,,,,,,,VFR,,,,,,,,,,,,METAR,196.0
CYCG 190200Z 03006KT 15SM SKC 09/06 A2992 RMK SLP145,CYCG,2021-10-19T02:00:00Z,49.28,-117.63,9.0,6.0,30,6,,15.0,29.920275,1014.5,,,,,,,,,,SKC,,,,,,,,VFR,,,,,,,,,,,,SPECI,487.0
CYCD 190200Z 26002KT 15SM FEW100 SCT250 07/07 A2999 RMK AC1CI2 SLP158,CYCD,2021-10-19T02:00:00Z,49.05,-123.87,7.0,7.0,260,2,,15.0,29.991142,1015.8,,,,,,,,,,FEW,10000,SCT,25000,,,,,VFR,,,,,,,,,,,,SPECI,30.0
CYCB 190200Z 30013KT 8SM VCSH FEW004 OVC009 M03/M03 A2954 RMK SF2SC6 CLD HGTS ESTD SLP008,CYCB,2021-10-19T02:00:00Z,69.1,-105.12,-3.0,-3.0,300,13,,8.0,29.53937,1000.8,,,,,,,,,VCSH,FEW,400,OVC,900,,,,,IFR,,,,,,,,,,,,SPECI,19.0
CYCA 190200Z AUTO 10008G15KT 9SM OVC029 05/02 A2985 RMK SLP110,CYCA,2021-10-19T02:00:00Z,53.68,-57.03,5.0,2.0,100,8,15,9.0,29.84941,1011.0,,TRUE,,,,,,,,OVC,2900,,,,,,,MVFR,,,,,,,,,,,,METAR,12.0
CYBX 190200Z 08029G36KT 3SM -RA BR FEW009 SCT020 BKN055 OVC065 06/06 A2964 RMK ST2SC2SC3SC1 SLP042,CYBX,2021-10-19T02:00:00Z,51.45,-57.18,6.0,6.0,80,29,36,3.0,29.639763,1004.2,,,,,,,,,-RA BR,FEW,900,SCT,2000,BKN,5500,OVC,6500,MVFR,,,,,,,,,,,,SPECI,32.0
CYBW 190200Z AUTO 07007KT 9SM OVC020 03/01 A3010 RMK SLP231,CYBW,2021-10-19T02:00:00Z,51.1,-114.37,3.0,1.0,70,7,,9.0,30.100393,1023.1,,TRUE,,,,,,,,OVC,2000,,,,,,,MVFR,,,,,,,,,,,,SPECI,1197.0
CYBU 190200Z AUTO 34014G22KT 9SM BKN029 OVC034 05/00 A3004 RMK PRESRR SLP193,CYBU,2021-10-19T02:00:00Z,53.32,-104.0,5.0,0.0,340,14,22,9.0,30.041338,1019.3,,TRUE,,,,,,,,BKN,2900,OVC,3400,,,,,MVFR,,,,,,,,,,,,SPECI,369.0
CYBR 190200Z 32007KT 15SM BKN250 08/06 A2967 RMK CI5 SLP063,CYBR,2021-10-19T02:00:00Z,49.92,-99.95,8.0,6.0,320,7,,15.0,29.66929,1006.3,,,,,,,,,,BKN,25000,,,,,,,VFR,,,,,,,,,,,,SPECI,405.0
CYBQ 190200Z AUTO 33007KT 300V360 9SM FEW039 SCT049 OVC071 01/M01 A2992 RMK SLP152,CYBQ,2021-10-19T02:00:00Z,58.7,-98.5,1.0,-1.0,330,7,,9.0,29.920275,1015.2,,TRUE,,,,,,,,FEW,3900,SCT,4900,OVC,7100,,,VFR,,,,,,,,,,,,METAR,272.0
CYBN 190200Z AUTO 20002KT 9SM CLR 02/01 A3002 RMK SLP173,CYBN,2021-10-19T02:00:00Z,44.27,-79.92,2.0,1.0,200,2,,9.0,30.02067,1017.3,,TRUE,,,,,,,,CLR,,,,,,,,VFR,,,,,,,,,,,,SPECI,223.0
CYBL 190200Z 29002KT 15SM FEW025 BKN210 05/04 A2997 RMK SC1CI5 SLP156,CYBL,2021-10-19T02:00:00Z,49.95,-125.27,5.0,4.0,290,2,,15.0,29.970472,1015.6,,,,,,,,,,FEW,2500,BKN,21000,,,,,VFR,,,,,,,,,,,,SPECI,94.0
CYBK 190200Z 26010G16KT 15SM -SN BKN036 M00/M03 A2973 RMK SC7 SLP071,CYBK,2021-10-19T02:00:00Z,64.3,-96.07,0.0,-3.0,260,10,16,15.0,29.731298,1007.1,,,,,,,,,-SN,BKN,3600,,,,,,,VFR,,,,,,,,,,,,SPECI,14.0
CYBG 190200Z 29012G18KT 7SM BKN035 BKN080 06/04 A2966 RMK SC5AC2 SLP049,CYBG,2021-10-19T02:00:00Z,48.33,-70.98,6.0,4.0,290,12,18,7.0,29.660433,1004.9,,,,,,,,,,BKN,3500,BKN,8000,,,,,VFR,,,,,,,,,,,,METAR,151.0
CYBC 190200Z AUTO 29007KT 9SM OVC025 07/06 A2946 RMK SLP978,CYBC,2021-10-19T02:00:00Z,49.13,-68.2,7.0,6.0,290,7,,9.0,29.459646,997.8,,TRUE,,,,,,,,OVC,2500,,,,,,,MVFR,,,,,,,,,,,,SPECI,20.0
CYAY 190200Z AUTO 09022G30KT 9SM -RA OVC005 06/05 A2972 RMK SLP067,CYAY,2021-10-19T02:00:00Z,51.38,-56.07,6.0,5.0,90,22,30,9.0,29.719488,1006.7,,TRUE,,,,,,,-RA,OVC,500,,,,,,,IFR,,,,,,,,,,,,SPECI,23.0
CYAT 190200Z AUTO 19003KT 130V250 9SM CLR 01/ A2983 RMK TD MISG SLP102,CYAT,2021-10-19T02:00:00Z,52.93,-82.43,1.0,,190,3,,9.0,29.828741,1010.2,,TRUE,,,,,,,,CLR,,,,,,,,VFR,,,,,,,,,,,,METAR,4.0
CYAM 190200Z 00000KT 20SM FEW170 FEW250 03/03 A3003 RMK AS1CI1 AS TR CI TR SLP178,CYAM,2021-10-19T02:00:00Z,46.48,-84.52,3.0,3.0,0,0,,20.0,30.029528,1017.8,,,,,,,,,,FEW,17000,FEW,25000,,,,,VFR,,,,,,,,,,,,SPECI,186.0
CYAH 190200Z AUTO 27003KT 9SM OVC006 04/04 A2965 RMK SLP058,CYAH,2021-10-19T02:00:00Z,53.75,-73.67,4.0,4.0,270,3,,9.0,29.648623,1005.8,,TRUE,,,,,,,,OVC,600,,,,,,,IFR,,,,,,,,,,,,SPECI,298.0
CXZV 190200Z AUTO 03004KT 09/08 RMK AO1 8004 SLP965 T00860082 50002,CXZV,2021-10-19T02:00:00Z,50.22,-66.25,8.6,8.2,30,4,,,,996.5,,TRUE,TRUE,,,,,,,,,,,,,,,,0.2,,,,,,,,,,,METAR,43.0
CXZC 190200Z AUTO 00000KT 01/M01 RMK AO1 SLP114 T00081006 58003,CXZC,2021-10-19T02:00:00Z,51.3,-80.62,0.8,-0.6,0,0,,,,1011.4,,TRUE,TRUE,,,,,,,,,,,,,,,,-0.3,,,,,,,,,,,METAR,8.0
CXWN 190200Z AUTO 21003KT 18/07 RMK AO1 SLP040 T01830070 50005,CXWN,2021-10-19T02:00:00Z,49.88,-97.13,18.3,7.0,210,3,,,,1004.0,,TRUE,TRUE,,,,,,,,,,,,,,,,0.5,,,,,,,,,,,METAR,232.0
CXWM 190200Z AUTO 36008KT 02/M01 RMK AO1 T00161013,CXWM,2021-10-19T02:00:00Z,49.5,-112.12,1.6,-1.3,360,8,,,,,,TRUE,TRUE,,,,,,,,,,,,,,,,,,,,,,,,,,,METAR,947.0
CXVN 190200Z AUTO 30008KT 11/04 RMK AO1 PK WND 32018/0100 SLP177 T01140037 51014,CXVN,2021-10-19T02:00:00Z,43.18,-79.4,11.4,3.7,300,8,,,,1017.7,,TRUE,TRUE,,,,,,,,,,,,,,,,1.4,,,,,,,,,,,METAR,86.0
CXVM 190200Z AUTO 33004KT 01/M02 RMK AO1 T00121017,CXVM,2021-10-19T02:00:00Z,53.35,-110.88,1.2,-1.7,330,4,,,,,,TRUE,TRUE,,,,,,,,,,,,,,,,,,,,,,,,,,,METAR,622.0
CXTP 190200Z AUTO 12005KT 06/06 RMK AO1 SLP047 T00640058 58028,CXTP,2021-10-19T02:00:00Z,48.55,-53.97,6.4,5.8,120,5,,,,1004.7,,TRUE,TRUE,,,,,,,,,,,,,,,,-2.8,,,,,,,,,,,METAR,104.0
CXTO 190200Z AUTO 09/02 RMK AO1 SLP176 T00900024 51010,CXTO,2021-10-19T02:00:00Z,43.67,-79.4,9.0,2.4,,,,,,1017.6,,TRUE,TRUE,,,,,,,,,,,,,,,,1.0,,,,,,,,,,,METAR,115.0
CXTH 190200Z AUTO 36002KT 02/M01 RMK AO1 T00231008,CXTH,2021-10-19T02:00:00Z,53.63,-111.68,2.3,-0.8,360,2,,,,,,TRUE,TRUE,,,,,,,,,,,,,,,,,,,,,,,,,,,METAR,679.0
CXTD 190200Z AUTO 21005KT 09/08 RMK AO1 SOG 06 3002 SLP010 T00920079,CXTD,2021-10-19T02:00:00Z,45.62,-61.68,9.2,7.9,210,5,,,,1001.0,,TRUE,TRUE,,,,,,,,,,,,,,,,,,,,,,,,,,,METAR,58.0
CXSP 190200Z AUTO 34003KT M02/M04 RMK AO1 T10161040,CXSP,2021-10-19T02:00:00Z,54.02,-111.27,-1.6,-4.0,340,3,,,,,,TRUE,TRUE,,,,,,,,,,,,,,,,,,,,,,,,,,,METAR,652.0
CXSL 190200Z AUTO 03002KT M01/M04 RMK AO1 T10141036,CXSL,2021-10-19T02:00:00Z,54.28,-112.5,-1.4,-3.6,30,2,,,,,,TRUE,TRUE,,,,,,,,,,,,,,,,,,,,,,,,,,,METAR,680.0
CXSH 190200Z AUTO 31006KT 07/03 RMK AO1 SLP091 T00650028 53009,CXSH,2021-10-19T02:00:00Z,46.55,-72.73,6.5,2.8,310,6,,,,1009.1,,TRUE,TRUE,,,,,,,,,,,,,,,,0.9,,,,,,,,,,,METAR,106.0
CXSC 190200Z AUTO 01009KT 04/01 RMK AO1 T00370006,CXSC,2021-10-19T02:00:00Z,50.3,-110.08,3.7,0.6,10,9,,,,,,TRUE,TRUE,,,,,,,,,,,,,,,,,,,,,,,,,,,METAR,809.0
CXRL 190200Z AUTO 28001KT M02/M03 RMK AO1 T10231033,CXRL,2021-10-19T02:00:00Z,54.5,-111.7,-2.3,-3.3,280,1,,,,,,TRUE,TRUE,,,,,,,,,,,,,,,,,,,,,,,,,,,METAR,585.0
CXRB 190200Z AUTO 14015KT M02/M02 RMK AO1 SOG 02 6005 PK WND 13020/0106 SLP919 T10191024,CXRB,2021-10-19T02:00:00Z,74.72,-94.98,-1.9,-2.4,140,15,,,,991.9,,TRUE,TRUE,,,,,,,,,,,,,,,,,,,,,,,,,,,METAR,30.0
CXPL 190200Z AUTO 01011KT 06/01 RMK AO1 PK WND 01017/0119 T00590009,CXPL,2021-10-19T02:00:00Z,51.13,-111.7,5.9,0.9,10,11,,,,,,TRUE,TRUE,,,,,,,,,,,,,,,,,,,,,,,,,,,METAR,735.0
CXPC 190200Z AUTO 11/05 RMK AO1 SOG 04 5003 SLP149 T01140046,CXPC,2021-10-19T02:00:00Z,45.35,-80.05,11.4,4.6,,,,,,1014.9,,TRUE,TRUE,,,,,,,,,,,,,,,,,,,,,,,,,,,METAR,176.0
CXPA 190200Z AUTO 08006KT M00/M00 RMK AO1 T10011001,CXPA,2021-10-19T02:00:00Z,55.62,-118.3,-0.1,-0.1,80,6,,,,,,TRUE,TRUE,,,,,,,,,,,,,,,,,,,,,,,,,,,METAR,628.0
CXOY 190200Z AUTO 02010KT 01/01 RMK AO1 T00140012,CXOY,2021-10-19T02:00:00Z,51.35,-110.35,1.4,1.2,20,10,,,,,,TRUE,TRUE,,,,,,,,,,,,,,,,,,,,,,,,,,,METAR,784.0
CXOX 190200Z AUTO 35009KT 02/M02 RMK AO1 SLP210 T00221024 51033,CXOX,2021-10-19T02:00:00Z,55.15,-105.27,2.2,-2.4,350,9,,,,1021.0,,TRUE,TRUE,,,,,,,,,,,,,,,,3.3,,,,,,,,,,,METAR,381.0
CXOL 190200Z AUTO 08006KT 03/02 RMK AO1 T00320015,CXOL,2021-10-19T02:00:00Z,51.77,-114.08,3.2,1.5,80,6,,,,,,TRUE,TRUE,,,,,,,,,,,,,,,,,,,,,,,,,,,METAR,1026.0
CXNP 190200Z AUTO 26007KT 10/07 RMK AO1 SLP008 T00990071 51005,CXNP,2021-10-19T02:00:00Z,45.75,-64.23,9.9,7.1,260,7,,,,1000.8,,TRUE,TRUE,,,,,,,,,,,,,,,,0.5,,,,,,,,,,,METAR,19.0
CXNM 190200Z AUTO 27010KT 07/07 RMK AO1 SOG 18 T00680068,CXNM,2021-10-19T02:00:00Z,46.82,-60.67,6.8,6.8,270,10,,,,,,TRUE,TRUE,,,,,,,,,,,,,,,,,,,,,,,,,,,METAR,452.0
CXMY 190200Z AUTO 04/04 RMK AO1 T00440039,CXMY,2021-10-19T02:00:00Z,44.98,-62.48,4.4,3.9,,,,,,,,TRUE,TRUE,,,,,,,,,,,,,,,,,,,,,,,,,,,METAR,37.0
CXMO 190200Z AUTO 03006KT 04/M00 RMK AO1 T00441001,CXMO,2021-10-19T02:00:00Z,51.67,-112.68,4.4,-0.1,30,6,,,,,,TRUE,TRUE,,,,,,,,,,,,,,,,,,,,,,,,,,,METAR,837.0
CXMM 190200Z AUTO 00028KT 00/M03 RMK AO1 SLP237 T00001031 53020,CXMM,2021-10-19T02:00:00Z,56.65,-111.22,0.0,-3.1,0,28,,,,1023.7,,TRUE,TRUE,,,,,,,,,,,,,,,,2.0,,,,,,,,,,,METAR,372.0
CXMI 190200Z AUTO 29003KT 10/07 RMK AO1 SLP012 T00950074 51007,CXMI,2021-10-19T02:00:00Z,44.6,-63.53,9.5,7.4,290,3,,,,1001.2,,TRUE,TRUE,,,,,,,,,,,,,,,,0.7,,,,,,,,,,,METAR,15.0
CXMG 190200Z AUTO 16007KT M02/M03 RMK AO1 T10201033,CXMG,2021-10-19T02:00:00Z,56.97,-117.45,-2.0,-3.3,160,7,,,,,,TRUE,TRUE,,,,,,,,,,,,,,,,,,,,,,,,,,,METAR,467.0
CXMD 190200Z AUTO 35003KT 13/07 RMK AO1 SLP046 T01270068 51008,CXMD,2021-10-19T02:00:00Z,49.18,-98.08,12.7,6.8,350,3,,,,1004.6,,TRUE,TRUE,,,,,,,,,,,,,,,,0.8,,,,,,,,,,,METAR,297.0
CXLB 190200Z AUTO 26008KT 10/08 RMK AO1 SLP017 T01010082 51007,CXLB,2021-10-19T02:00:00Z,44.37,-64.3,10.1,8.2,260,8,,,,1001.7,,TRUE,TRUE,,,,,,,,,,,,,,,,0.7,,,,,,,,,,,METAR,4.0
CXKT 190200Z AUTO 23006KT 09/08 RMK AO1 6PAST HR 0004 SLP015 P0002 T00920082 50009,CXKT,2021-10-19T02:00:00Z,45.07,-64.48,9.2,8.2,230,6,,,,1001.5,,TRUE,TRUE,,,,,,,,,,,,,,,,0.9,,,,,0.02,,,,,,METAR,48.0
CXKM 190200Z AUTO 01008KT 04/M01 RMK AO1 T00391010,CXKM,2021-10-19T02:00:00Z,52.83,-111.87,3.9,-1.0,10,8,,,,,,TRUE,TRUE,,,,,,,,,,,,,,,,,,,,,,,,,,,METAR,679.0
CXKI 190200Z AUTO 01/M00 RMK AO1 SOG 02 4000 SLP146 T00051003,CXKI,2021-10-19T02:00:00Z,48.13,-80.0,0.5,-0.3,,,,,,1014.6,,TRUE,TRUE,,,,,,,,,,,,,,,,,,,,,,,,,,,METAR,328.0
CXKE 190200Z AUTO 27003KT 06/03 RMK AO1 SLP136 T00560030 53008,CXKE,2021-10-19T02:00:00Z,45.0,-75.63,5.6,3.0,270,3,,,,1013.6,,TRUE,TRUE,,,,,,,,,,,,,,,,0.8,,,,,,,,,,,METAR,99.0
CXKA 190200Z AUTO 24004KT 05/M00 RMK AO1 SLP139 T00471003 58007,CXKA,2021-10-19T02:00:00Z,49.4,-82.45,4.7,-0.3,240,4,,,,1013.9,,TRUE,TRUE,,,,,,,,,,,,,,,,-0.7,,,,,,,,,,,METAR,221.0
CXIB 190200Z AUTO 23004KT 10/07 RMK AO1 SLP978 T00980074 55002,CXIB,2021-10-19T02:00:00Z,46.67,-60.4,9.8,7.4,230,4,,,,997.8,,TRUE,TRUE,,,,,,,,,,,,,,,,-0.2,,,,,,,,,,,METAR,6.0
CXHR 190200Z AUTO 01010KT 04/M00 RMK AO1 T00391002,CXHR,2021-10-19T02:00:00Z,51.18,-112.5,3.9,-0.2,10,10,,,,,,TRUE,TRUE,,,,,,,,,,,,,,,,,,,,,,,,,,,METAR,975.0
CXHM 190200Z AUTO 28001KT 06/03 RMK AO1 SLP187 T00620032 51009,CXHM,2021-10-19T02:00:00Z,43.28,-79.9,6.2,3.2,280,1,,,,1018.7,,TRUE,TRUE,,,,,,,,,,,,,,,,0.9,,,,,,,,,,,METAR,105.0
CXHF 190200Z AUTO 07/03 RMK AO1 T00710034,CXHF,2021-10-19T02:00:00Z,45.83,-75.65,7.1,3.4,,,,,,,,TRUE,TRUE,,,,,,,,,,,,,,,,,,,,,,,,,,,METAR,185.0
CXHD 190200Z AUTO 05003KT 02/M02 RMK AO1 T00191019,CXHD,2021-10-19T02:00:00Z,53.18,-112.25,1.9,-1.9,50,3,,,,,,TRUE,TRUE,,,,,,,,,,,,,,,,,,,,,,,,,,,METAR,688.0
CXHA 190200Z AUTO 23002KT 09/08 RMK AO1 SLP192 T00920078 53004,CXHA,2021-10-19T02:00:00Z,42.03,-82.9,9.2,7.8,230,2,,,,1019.2,,TRUE,TRUE,,,,,,,,,,,,,,,,0.4,,,,,,,,,,,METAR,193.0
CXGH 190200Z AUTO 20005KT 15/08 RMK AO1 SLP039 T01500075 51012,CXGH,2021-10-19T02:00:00Z,50.63,-97.0,15.0,7.5,200,5,,,,1003.9,,TRUE,TRUE,,,,,,,,,,,,,,,,1.2,,,,,,,,,,,METAR,217.0
CXFR 190200Z AUTO 09006KT M01/M01 RMK AO1 T10091014,CXFR,2021-10-19T02:00:00Z,56.08,-118.43,-0.9,-1.4,90,6,,,,,,TRUE,TRUE,,,,,,,,,,,,,,,,,,,,,,,,,,,METAR,657.0
CXFM 190200Z AUTO 34006KT 04/M00 RMK AO1 T00391003,CXFM,2021-10-19T02:00:00Z,49.48,-111.48,3.9,-0.3,340,6,,,,,,TRUE,TRUE,,,,,,,,,,,,,,,,,,,,,,,,,,,METAR,884.0
CXEA 190200Z AUTO 14003KT 15/07 RMK AO1 SLP064 T01460070 58006,CXEA,2021-10-19T02:00:00Z,50.63,-93.22,14.6,7.0,140,3,,,,1006.4,,TRUE,TRUE,,,,,,,,,,,,,,,,-0.6,,,,,,,,,,,METAR,351.0
CXDW 190200Z AUTO 33003KT 11/07 RMK AO1 SLP053 T01070068 51010,CXDW,2021-10-19T02:00:00Z,49.4,-98.32,10.7,6.8,330,3,,,,1005.3,,TRUE,TRUE,,,,,,,,,,,,,,,,1.0,,,,,,,,,,,METAR,341.0
CXDI 190200Z AUTO 27003KT 06/04 RMK AO1 SLP192 T00580036 53005,CXDI,2021-10-19T02:00:00Z,42.87,-80.55,5.8,3.6,270,3,,,,1019.2,,TRUE,TRUE,,,,,,,,,,,,,,,,0.5,,,,,,,,,,,METAR,234.0
CXDE 190200Z AUTO M04/M05 RMK AO1 SLP150 T10391048 58004,CXDE,2021-10-19T02:00:00Z,65.22,-123.43,-3.9,-4.8,,,,,,1015.0,,TRUE,TRUE,,,,,,,,,,,,,,,,-0.4,,,,,,,,,,,METAR,208.0
CXDB 190200Z AUTO 36006KT 05/02 RMK AO1 T00530017,CXDB,2021-10-19T02:00:00Z,49.05,-112.82,5.3,1.7,360,6,,,,,,TRUE,TRUE,,,,,,,,,,,,,,,,,,,,,,,,,,,METAR,1311.0
CXCS 190200Z AUTO 01006KT 02/M02 RMK AO1 T00151019,CXCS,2021-10-19T02:00:00Z,51.93,-110.72,1.5,-1.9,10,6,,,,,,TRUE,TRUE,,,,,,,,,,,,,,,,,,,,,,,,,,,METAR,771.0
CXCP 190200Z AUTO 03006KT 05/01 RMK AO1 T00540005,CXCP,2021-10-19T02:00:00Z,50.28,-113.35,5.4,0.5,30,6,,,,,,TRUE,TRUE,,,,,,,,,,,,,,,,,,,,,,,,,,,METAR,999.0
CXCK 190200Z AUTO 00000KT M03/M06 RMK AO1 SLP117 T10301063 57002,CXCK,2021-10-19T02:00:00Z,62.12,-136.2,-3.0,-6.3,0,0,,,,1011.7,,TRUE,TRUE,,,,,,,,,,,,,,,,-0.2,,,,,,,,,,,METAR,526.0
CXCD 190200Z AUTO 11005KT 01/M03 RMK AO1 T00071029,CXCD,2021-10-19T02:00:00Z,56.32,-119.75,0.7,-2.9,110,5,,,,,,TRUE,TRUE,,,,,,,,,,,,,,,,,,,,,,,,,,,METAR,628.0
CXCA 190200Z AUTO 19001KT 09/08 RMK AO1 SLP136 T00930079 58001,CXCA,2021-10-19T02:00:00Z,49.15,-88.35,9.3,7.9,190,1,,,,1013.6,,TRUE,TRUE,,,,,,,,,,,,,,,,-0.1,,,,,,,,,,,METAR,228.0
CXBW 190200Z AUTO 01007KT 06/01 RMK AO1 T00630007,CXBW,2021-10-19T02:00:00Z,49.8,-112.3,6.3,0.7,10,7,,,,,,TRUE,TRUE,,,,,,,,,,,,,,,,,,,,,,,,,,,METAR,823.0
CXBR 190200Z AUTO 00000KT 06/01 RMK AO1 T00610008,CXBR,2021-10-19T02:00:00Z,49.62,-113.82,6.1,0.8,0,0,,,,,,TRUE,TRUE,,,,,,,,,,,,,,,,,,,,,,,,,,,METAR,1137.0
CXBO 190200Z AUTO 24008KT 09/04 RMK AO1 T00890038,CXBO,2021-10-19T02:00:00Z,46.83,-71.2,8.9,3.8,240,8,,,,,,TRUE,TRUE,,,,,,,,,,,,,,,,,,,,,,,,,,,METAR,8.0
CXBK 190200Z AUTO 35018KT 08/02 RMK AO1 PK WND 36022/0150 SLP136 T00770019 51034,CXBK,2021-10-19T02:00:00Z,50.2,-104.7,7.7,1.9,350,18,,,,1013.6,,TRUE,TRUE,,,,,,,,,,,,,,,,3.4,,,,,,,,,,,METAR,585.0
CXBI 190200Z AUTO 28004KT 04/02 RMK AO1 SLP177 T00370019 51002,CXBI,2021-10-19T02:00:00Z,44.48,-79.55,3.7,1.9,280,4,,,,1017.7,,TRUE,TRUE,,,,,,,,,,,,,,,,0.2,,,,,,,,,,,METAR,287.0
CXBA 190200Z AUTO 36007KT 03/M00 RMK AO1 T00311001,CXBA,2021-10-19T02:00:00Z,52.12,-110.1,3.1,-0.1,360,7,,,,,,TRUE,TRUE,,,,,,,,,,,,,,,,,,,,,,,,,,,METAR,696.0
CXAT 190200Z AUTO 02020G25KT 01/M04 RMK AO1 SOG 01 1040 PK WND 02029/0134 SLP012 T00051041,CXAT,2021-10-19T02:00:00Z,73.0,-85.03,0.5,-4.1,20,20,25,,,1001.2,,TRUE,TRUE,,,,,,,,,,,,,,,,,,,,,,,,,,,METAR,10.0
CXAK 190200Z AUTO 03008KT 03/01 RMK AO1 T00250010,CXAK,2021-10-19T02:00:00Z,52.35,-112.6,2.5,1.0,30,8,,,,,,TRUE,TRUE,,,,,,,,,,,,,,,,,,,,,,,,,,,METAR,799.0
CXAJ 190200Z AUTO 32001KT M03/M04 RMK AO1 4PAST HR M P0002 T10341039 50004,CXAJ,2021-10-19T02:00:00Z,54.78,-112.82,-3.4,-3.9,320,1,,,,,,TRUE,TRUE,,,,,,,,,,,,,,,,0.4,,,,,0.02,,,,,,METAR,586.0
CXAG 190200Z AUTO 21002KT M02/M03 RMK AO1 T10201033,CXAG,2021-10-19T02:00:00Z,53.92,-112.28,-2.0,-3.3,210,2,,,,,,TRUE,TRUE,,,,,,,,,,,,,,,,,,,,,,,,,,,METAR,632.0
CXAF 190200Z AUTO 32002KT M04/M05 RMK AO1 T10371048,CXAF,2021-10-19T02:00:00Z,54.28,-112.97,-3.7,-4.8,320,2,,,,,,TRUE,TRUE,,,,,,,,,,,,,,,,,,,,,,,,,,,METAR,667.0
CWZZ 190200Z AUTO VRB08G20KT ////SM OVC002 ///// A2984,CWZZ,2021-10-19T02:00:00Z,58.47,-62.65,,,0,8,20,,29.840551,,,TRUE,,,,,,,,OVC,200,,,,,,,,,,,,,,,,,,,SPECI,50.0
CWZW 190200Z AUTO 07002KT M04/M08 RMK AO1 SLP153 T10351080 56003,CWZW,2021-10-19T02:00:00Z,60.17,-132.73,-3.5,-8.0,70,2,,,,1015.3,,TRUE,TRUE,,,,,,,,,,,,,,,,-0.3,,,,,,,,,,,METAR,683.0
CWZQ 190200Z AUTO 26007KT 12/09 RMK AO1 SLP987 T01200086 58003,CWZQ,2021-10-19T02:00:00Z,46.53,-61.05,12.0,8.6,260,7,,,,998.7,,TRUE,TRUE,,,,,,,,,,,,,,,,-0.3,,,,,,,,,,,METAR,13.0
CWZO 190200Z AUTO 16003KT RMK AO1,CWZO,2021-10-19T02:00:00Z,48.57,-123.25,,,160,3,,,,,,TRUE,TRUE,,,,,,,,,,,,,,,,,,,,,,,,,,,METAR,5.0
CWZN 190200Z AUTO 09027G40KT 09/09 RMK AO1 PK WND 08041/0113 SLP972 T00850089 58035,CWZN,2021-10-19T02:00:00Z,47.37,-55.8,8.5,8.9,90,27,40,,,997.2,,TRUE,TRUE,,,,,,,,,,,,,,,,-3.5,,,,,,,,,,,METAR,63.0
CWZG 190200Z AUTO 06006KT 03/01 RMK AO1 SLP212 T00340005 51025,CWZG,2021-10-19T02:00:00Z,51.2,-115.55,3.4,0.5,60,6,,,,1021.2,,TRUE,TRUE,,,,,,,,,,,,,,,,2.5,,,,,,,,,,,METAR,1402.0
CWZA 190200Z AUTO 36001KT 09/08 RMK AO1 SLP159 T00940082 53002,CWZA,2021-10-19T02:00:00Z,49.25,-121.77,9.4,8.2,360,1,,,,1015.9,,TRUE,TRUE,,,,,,,,,,,,,,,,0.2,,,,,,,,,,,METAR,18.0
CWYY 190200Z AUTO 01004KT 13/06 RMK AO1 SLP123 T01330063 53009,CWYY,2021-10-19T02:00:00Z,49.03,-119.43,13.3,6.3,10,4,,,,1012.3,,TRUE,TRUE,,,,,,,,,,,,,,,,0.9,,,,,,,,,,,METAR,284.0
CWYL 190200Z AUTO 09001KT 01/M03 RMK AO1 SLP161 T00111029 53023,CWYL,2021-10-19T02:00:00Z,51.45,-116.33,1.1,-2.9,90,1,,,,1016.1,,TRUE,TRUE,,,,,,,,,,,,,,,,2.3,,,,,,,,,,,METAR,1602.0
CWYJ 190200Z AUTO 00000KT 06/06 RMK AO1 SLP161 T00570057 58003,CWYJ,2021-10-19T02:00:00Z,48.45,-123.3,5.7,5.7,0,0,,,,1016.1,,TRUE,TRUE,,,,,,,,,,,,,,,,-0.3,,,,,,,,,,,METAR,59.0
CWXR 190200Z AUTO 21005KT 190V260 ////SM NCD M10/M13 A2988,CWXR,2021-10-19T02:00:00Z,69.27,-119.22,-10.0,-13.0,210,5,,,29.878937,,,TRUE,,,,,,,,CLR,,,,,,,,,,,,,,,,,,,,SPECI,69.0
CWXL 190200Z AUTO 02008KT 05/00 RMK AO1 SLP212 T00450000 53026,CWXL,2021-10-19T02:00:00Z,49.73,-111.45,4.5,0.0,20,8,,,,1021.2,,TRUE,TRUE,,,,,,,,,,,,,,,,2.6,,,,,,,,,,,METAR,815.0
CWXI 190200Z AUTO 10015G21KT 06/05 RMK AO1 4PAST HR 8016 PK WND 13021/0149 SLP021 P0013 T00630053 50069,CWXI,2021-10-19T02:00:00Z,51.02,-57.1,6.3,5.3,100,15,21,,,1002.1,,TRUE,TRUE,,,,,,,,,,,,,,,,6.9,,,,,0.13,,,,,,METAR,15.0
CWXA 190200Z AUTO 05004KT 04/M01 RMK AO1 SLP244 T00391008 53019,CWXA,2021-10-19T02:00:00Z,51.07,-115.07,3.9,-0.8,50,4,,,,1024.4,,TRUE,TRUE,,,,,,,,,,,,,,,,1.9,,,,,,,,,,,METAR,1303.0
CWWZ 190200Z AUTO 30021G27KT 12/08 RMK AO1 PK WND 30027/0150 SLP180 T01240075 51014,CWWZ,2021-10-19T02:00:00Z,43.25,-79.22,12.4,7.5,300,21,27,,,1018.0,,TRUE,TRUE,,,,,,,,,,,,,,,,1.4,,,,,,,,,,,METAR,75.0
CWWF 190200Z AUTO 35011KT 08/03 RMK AO1 PK WND 35017/0116 SLP127 T00750028 53032,CWWF,2021-10-19T02:00:00Z,49.7,-103.8,7.5,2.8,350,11,,,,1012.7,,TRUE,TRUE,,,,,,,,,,,,,,,,3.2,,,,,,,,,,,METAR,583.0
CWWE 190200Z AUTO 27006KT 07/06 RMK AO1 SLP027 T00720063 50006,CWWE,2021-10-19T02:00:00Z,43.98,-64.67,7.2,6.3,270,6,,,,1002.7,,TRUE,TRUE,,,,,,,,,,,,,,,,0.6,,,,,,,,,,,METAR,4.0
CWWB 190200Z AUTO 25004KT 10/04 RMK AO1 SLP185 T01020035 51011,CWWB,2021-10-19T02:00:00Z,43.3,-79.78,10.2,3.5,250,4,,,,1018.5,,TRUE,TRUE,,,,,,,,,,,,,,,,1.1,,,,,,,,,,,METAR,77.0
CWWA 190200Z AUTO 05001KT 09/07 RMK AO1 SLP160 T00860070 50001,CWWA,2021-10-19T02:00:00Z,49.35,-123.18,8.6,7.0,50,1,,,,1016.0,,TRUE,TRUE,,,,,,,,,,,,,,,,0.1,,,,,,,,,,,METAR,172.0
CWVU 190200Z AUTO 29018KT 12/08 RMK AO1 SOG 17 1011 PK WND 29022/0101 SLP034 T01170076,CWVU,2021-10-19T02:00:00Z,44.28,-66.33,11.7,7.6,290,18,,,,1003.4,,TRUE,TRUE,,,,,,,,,,,,,,,,,,,,,,,,,,,METAR,4.0
CWVT 190200Z AUTO 34005KT 02/M03 RMK AO1 SLP246 T00221026 51023,CWVT,2021-10-19T02:00:00Z,55.83,-108.42,2.2,-2.6,340,5,,,,1024.6,,TRUE,TRUE,,,,,,,,,,,,,,,,2.3,,,,,,,,,,,METAR,431.0
CWVQ 190200Z AUTO 29008KT 09/05 RMK AO1 SLP115 T00900046 53010,CWVQ,2021-10-19T02:00:00Z,45.42,-73.92,9.0,4.6,290,8,,,,1011.5,,TRUE,TRUE,,,,,,,,,,,,,,,,1.0,,,,,,,,,,,METAR,38.0
CWVP 190200Z AUTO 36010G18KT 03/M01 RMK AO1 PK WND 35019/0105 SLP179 T00281009 51023,CWVP,2021-10-19T02:00:00Z,49.63,-109.52,2.8,-0.9,360,10,18,,,1017.9,,TRUE,TRUE,,,,,,,,,,,,,,,,2.3,,,,,,,,,,,METAR,1269.0
CWVN 190200Z AUTO 01019KT 08/01 RMK AO1 PK WND 01027/0108 SLP162 T00810006 51024,CWVN,2021-10-19T02:00:00Z,49.07,-107.58,8.1,0.6,10,19,,,,1016.2,,TRUE,TRUE,,,,,,,,,,,,,,,,2.4,,,,,,,,,,,METAR,792.0
CWVI 190200Z AUTO 04001KT M01/M04 RMK AO1 SLP242 T10121044 51017,CWVI,2021-10-19T02:00:00Z,53.52,-112.1,-1.2,-4.4,40,1,,,,1024.2,,TRUE,TRUE,,,,,,,,,,,,,,,,1.7,,,,,,,,,,,METAR,640.0
CWVH 190200Z AUTO 29012KT ////SM OVC003 M07/M07 A2978,CWVH,2021-10-19T02:00:00Z,68.9,-133.93,-7.0,-7.0,290,12,,,29.778543,,,TRUE,,,,,,,,OVC,300,,,,,,,,,,,,,,,,,,,SPECI,246.0
CWVF 190200Z AUTO 13005KT 10/07 RMK AO1 T01010073,CWVF,2021-10-19T02:00:00Z,49.1,-123.3,10.1,7.3,130,5,,,,,,TRUE,TRUE,,,,,,,,,,,,,,,,,,,,,,,,,,,METAR,13.0
CWVD 190200Z AUTO 14014KT ////SM SCT250 SCT270 BKN290 06/M17 A2990,CWVD,2021-10-19T02:00:00Z,67.53,-63.78,6.0,-17.0,140,14,,,29.899607,,,TRUE,,,,,,,,SCT,25000,SCT,27000,BKN,29000,,,,,,,,,,,,,,,SPECI,584.0
CWUW 190200Z AUTO 15019KT ////SM OVC002 M04/// A2985,CWUW,2021-10-19T02:00:00Z,68.62,-71.12,,,150,19,,,29.84941,,,TRUE,,,,,,,,OVC,200,,,,,,,,,,,,,,,,,,,SPECI,173.0
CWUS 190200Z AUTO 20003KT 10/04 RMK AO1 SLP136 T01020043 53006,CWUS,2021-10-19T02:00:00Z,49.57,-119.65,10.2,4.3,200,3,,,,1013.6,,TRUE,TRUE,,,,,,,,,,,,,,,,0.6,,,,,,,,,,,METAR,455.0
CWUP 190200Z AUTO 30010KT ////SM OVC200 M03/M03 A2988,CWUP,2021-10-19T02:00:00Z,68.47,-66.83,-3.0,-3.0,300,10,,,29.878937,,,TRUE,,,,,,,,OVC,20000,,,,,,,,,,,,,,,,,,,SPECI,13.0
CWTY 190200Z AUTO 28005KT 09/03 RMK AO1 SLP091 T00930034 52011,CWTY,2021-10-19T02:00:00Z,46.35,-72.52,9.3,3.4,280,5,,,,1009.1,,TRUE,TRUE,,,,,,,,,,,,,,,,1.1,,,,,,,,,,,METAR,8.0
CWTT 190200Z AUTO 29009KT 07/04 RMK AO1 T00650042,CWTT,2021-10-19T02:00:00Z,45.27,-72.17,6.5,4.2,290,9,,,,,,TRUE,TRUE,,,,,,,,,,,,,,,,,,,,,,,,,,,METAR,210.0
CWTN 190200Z AUTO 27003KT 08/04 RMK AO1 SLP052 T00800038 50001,CWTN,2021-10-19T02:00:00Z,47.07,-70.78,8.0,3.8,270,3,,,,1005.2,,TRUE,TRUE,,,,,,,,,,,,,,,,0.1,,,,,,,,,,,METAR,5.0
CWTG 190200Z AUTO 26013KT 08/07 RMK AO1 SLP962 T00840069 58007,CWTG,2021-10-19T02:00:00Z,49.32,-67.37,8.4,6.9,260,13,,,,996.2,,TRUE,TRUE,,,,,,,,,,,,,,,,-0.7,,,,,,,,,,,METAR,6.0
CWTA 190200Z AUTO 23002KT 09/03 RMK AO1 SLP109 T00880034 53008,CWTA,2021-10-19T02:00:00Z,45.5,-73.58,8.8,3.4,230,2,,,,1010.9,,TRUE,TRUE,,,,,,,,,,,,,,,,0.8,,,,,,,,,,,METAR,71.0
CWSR 190200Z AUTO 36010KT 03/M02 RMK AO1 SLP210 T00261022 51031,CWSR,2021-10-19T02:00:00Z,53.37,-107.55,2.6,-2.2,360,10,,,,1021.0,,TRUE,TRUE,,,,,,,,,,,,,,,,3.1,,,,,,,,,,,METAR,589.0
CWSP 190200Z AUTO 06005KT 10/04 RMK AO1 SLP156 T00970035 58007,CWSP,2021-10-19T02:00:00Z,48.38,-123.92,9.7,3.5,60,5,,,,1015.6,,TRUE,TRUE,,,,,,,,,,,,,,,,-0.7,,,,,,,,,,,METAR,2.0
CWSL 190200Z AUTO 20001KT 07/06 RMK AO1 SLP145 T00730062 53007,CWSL,2021-10-19T02:00:00Z,50.7,-119.28,7.3,6.2,200,1,,,,1014.5,,TRUE,TRUE,,,,,,,,,,,,,,,,0.7,,,,,,,,,,,METAR,353.0
CWSK 190200Z AUTO 05001KT 07/07 RMK AO1 SLP163 T00710066 53009,CWSK,2021-10-19T02:00:00Z,49.78,-123.17,7.1,6.6,50,1,,,,1016.3,,TRUE,TRUE,,,,,,,,,,,,,,,,0.9,,,,,,,,,,,METAR,59.0
CWSG 190200Z AUTO 26017G22KT 09/07 RMK AO1 PK WND 25022/0159 T00880069 50001,CWSG,2021-10-19T02:00:00Z,49.12,-66.65,8.8,6.9,260,17,22,,,,,TRUE,TRUE,,,,,,,,,,,,,,,,0.1,,,,,,,,,,,METAR,5.0
CWSF 190200Z AUTO 27010G15KT 10/06 RMK AO1 SLP958 T00980063 58006,CWSF,2021-10-19T02:00:00Z,49.25,-65.32,9.8,6.3,270,10,15,,,995.8,,TRUE,TRUE,,,,,,,,,,,,,,,,-0.6,,,,,,,,,,,METAR,15.0
CWSD 190200Z AUTO 30005KT 10/08 RMK AO1 SLP996 T00980083 51005,CWSD,2021-10-19T02:00:00Z,46.43,-63.85,9.8,8.3,300,5,,,,999.6,,TRUE,TRUE,,,,,,,,,,,,,,,,0.5,,,,,,,,,,,METAR,12.0
CWSA 190200Z AUTO 26015G21KT 9SM FEW027 SCT034 BKN230 BKN250 14/10 A2956 RMK SLP013 DENSITY ALT 300FT,CWSA,2021-10-19T02:00:00Z,43.93,-60.0,14.0,10.0,260,15,21,9.0,29.56004,1001.3,,TRUE,,,,,,,,FEW,2700,SCT,3400,BKN,23000,BKN,25000,VFR,,,,,,,,,,,,SPECI,4.0
CWRZ 190200Z AUTO 23006KT 09/08 RMK AO1 SLP962 T00900079 50001,CWRZ,2021-10-19T02:00:00Z,48.42,-64.32,9.0,7.9,230,6,,,,996.2,,TRUE,TRUE,,,,,,,,,,,,,,,,0.1,,,,,,,,,,,METAR,16.0
CWRY 190200Z AUTO 01008KT 01/M01 RMK AO1 SOG 06 3018 SLP211 T00051009,CWRY,2021-10-19T02:00:00Z,49.12,-112.05,0.5,-0.9,10,8,,,,1021.1,,TRUE,TRUE,,,,,,,,,,,,,,,,,,,,,,,,,,,METAR,1048.0
CWRX 190200Z AUTO ///// ////SM OVC003 M00/M00 A2973,CWRX,2021-10-19T02:00:00Z,69.07,-79.07,0.0,0.0,,,,,29.731298,,,TRUE,,,,,,,,OVC,300,,,,,,,,,,,,,,,,,,,SPECI,39.0
CWRT 190200Z AUTO 11006KT 06/01 RMK AO1 SLP215 T00550005 53019,CWRT,2021-10-19T02:00:00Z,49.62,-114.47,5.5,0.5,110,6,,,,1021.5,,TRUE,TRUE,,,,,,,,,,,,,,,,1.9,,,,,,,,,,,METAR,1311.0
CWRN 190200Z AUTO 26008KT 11/10 RMK AO1 SLP002 T01130099 53003,CWRN,2021-10-19T02:00:00Z,45.35,-60.98,11.3,9.9,260,8,,,,1000.2,,TRUE,TRUE,,,,,,,,,,,,,,,,0.3,,,,,,,,,,,METAR,8.0
CWRM 190200Z AUTO 11003KT 03/M00 RMK AO1 SLP205 T00281002 51015,CWRM,2021-10-19T02:00:00Z,52.42,-114.92,2.8,-0.2,110,3,,,,1020.5,,TRUE,TRUE,,,,,,,,,,,,,,,,1.5,,,,,,,,,,,METAR,986.0
CWRK 190200Z AUTO 00000KT 01/M01 RMK AO1 SLP157 T00051009 51005,CWRK,2021-10-19T02:00:00Z,45.07,-77.87,0.5,-0.9,0,0,,,,1015.7,,TRUE,TRUE,,,,,,,,,,,,,,,,0.5,,,,,,,,,,,METAR,328.0
CWRJ 190200Z AUTO 34006KT 01/M02 RMK AO1 SLP207 T00131019 51040,CWRJ,2021-10-19T02:00:00Z,51.57,-107.92,1.3,-1.9,340,6,,,,1020.7,,TRUE,TRUE,,,,,,,,,,,,,,,,4.0,,,,,,,,,,,METAR,586.0
CWRF 190200Z AUTO 20025G38KT ////SM BKN019 BKN026 OVC075 M03/M03 A2940,CWRF,2021-10-19T02:00:00Z,69.43,-89.72,-3.0,-3.0,200,25,38,,29.40059,,,TRUE,,,,,,,,BKN,1900,BKN,2600,OVC,7500,,,,,,,,,,,,,,,METAR,312.0
CWRA 190200Z AUTO 11019G25KT 09/07 RMK AO1 PK WND 10029/0149 SLP034 T00860071 58040,CWRA,2021-10-19T02:00:00Z,46.65,-53.07,8.6,7.1,110,19,25,,,1003.4,,TRUE,TRUE,,,,,,,,,,,,,,,,-4.0,,,,,,,,,,,METAR,4.0
CWQV 190200Z AUTO 28022G29KT 09/04 RMK AO1 PK WND 28029/0152 T00900035,CWQV,2021-10-19T02:00:00Z,48.27,-70.12,9.0,3.5,280,22,29,,,,,TRUE,TRUE,,,,,,,,,,,,,,,,,,,,,,,,,,,METAR,4.0
CWQR 190200Z AUTO 04014KT 09/08 RMK AO1 PK WND 05019/0102 T00860077,CWQR,2021-10-19T02:00:00Z,50.22,-64.22,8.6,7.7,40,14,,,,,,TRUE,TRUE,,,,,,,,,,,,,,,,,,,,,,,,,,,METAR,9.0
CWQP 190200Z AUTO 36011KT 09/05 RMK AO1 SLP158 T00890049 52007,CWQP,2021-10-19T02:00:00Z,43.83,-77.15,8.9,4.9,360,11,,,,1015.8,,TRUE,TRUE,,,,,,,,,,,,,,,,0.7,,,,,,,,,,,METAR,77.0
CWQO 190200Z AUTO 27015KT 08/05 RMK AO1 PK WND 28021/0120 T00760051,CWQO,2021-10-19T02:00:00Z,48.42,-68.9,7.6,5.1,270,15,,,,,,TRUE,TRUE,,,,,,,,,,,,,,,,,,,,,,,,,,,METAR,7.0
CWQK 190200Z AUTO 04004KT 09/08 RMK AO1 SLP157 T00910078 58004,CWQK,2021-10-19T02:00:00Z,48.3,-123.53,9.1,7.8,40,4,,,,1015.7,,TRUE,TRUE,,,,,,,,,,,,,,,,-0.4,,,,,,,,,,,METAR,5.0
CWQH 190200Z AUTO 30006KT 08/04 RMK AO1 SLP088 T00760042 51006,CWQH,2021-10-19T02:00:00Z,45.37,-71.82,7.6,4.2,300,6,,,,1008.8,,TRUE,TRUE,,,,,,,,,,,,,,,,0.6,,,,,,,,,,,METAR,181.0
CWPZ 190200Z AUTO 07001KT 02/M03 RMK AO1 SLP174 T00171032 51004,CWPZ,2021-10-19T02:00:00Z,54.38,-125.97,1.7,-3.2,70,1,,,,1017.4,,TRUE,TRUE,,,,,,,,,,,,,,,,0.4,,,,,,,,,,,METAR,715.0
CWPX 190200Z AUTO 32031G37KT ////SM //// OVC013 M05/M06 A2958,CWPX,2021-10-19T02:00:00Z,69.03,-107.82,-5.0,-6.0,320,31,37,,29.58071,,,TRUE,,,,,,,,OVC,1300,,,,,,,,,,,,,,,,,,,METAR,163.0
CWPR 190200Z AUTO 19001KT 11/03 RMK AO1 SOG 01 3012 SLP139 T01080033,CWPR,2021-10-19T02:00:00Z,49.47,-120.52,10.8,3.3,190,1,,,,1013.9,,TRUE,TRUE,,,,,,,,,,,,,,,,,,,,,,,,,,,METAR,703.0
CWPO 190200Z AUTO 24003KT 09/07 RMK AO1 SLP071 T00910072 53008,CWPO,2021-10-19T02:00:00Z,49.2,-98.9,9.1,7.2,240,3,,,,1007.1,,TRUE,TRUE,,,,,,,,,,,,,,,,0.8,,,,,,,,,,,METAR,471.0
CWPK 190200Z AUTO 29005KT 02/02 RMK AO1 2PAST HR SOG 02 1007 SLP109 P0001 T00240016 50011,CWPK,2021-10-19T02:00:00Z,47.92,-74.62,2.4,1.6,290,5,,,,1010.9,,TRUE,TRUE,,,,,,,,,,,,,,,,1.1,,,,,0.01,,,,,,METAR,443.0
CWPF 190200Z AUTO 34002KT 09/06 RMK AO1 SLP157 T00870055 58003,CWPF,2021-10-19T02:00:00Z,48.43,-123.43,8.7,5.5,340,2,,,,1015.7,,TRUE,TRUE,,,,,,,,,,,,,,,,-0.3,,,,,,,,,,,METAR,5.0
CWPE 190200Z AUTO 30004KT 09/07 RMK AO1 SLP028 T00920067 51009,CWPE,2021-10-19T02:00:00Z,45.07,-66.47,9.2,6.7,300,4,,,,1002.8,,TRUE,TRUE,,,,,,,,,,,,,,,,0.9,,,,,,,,,,,METAR,9.0
CWPD 190200Z AUTO 02003KT 02/01 RMK AO1 0PAST HR 1001 SLP037 P0008 T00160008 50020,CWPD,2021-10-19T02:00:00Z,47.57,-71.22,1.6,0.8,20,3,,,,1003.7,,TRUE,TRUE,,,,,,,,,,,,,,,,2.0,,,,,0.08,,,,,,METAR,795.0
CWPC 190200Z AUTO 31011KT 10/03 RMK AO1 PK WND 31018/0101 SLP194 T00990028 52015,CWPC,2021-10-19T02:00:00Z,42.87,-79.25,9.9,2.8,310,11,,,,1019.4,,TRUE,TRUE,,,,,,,,,,,,,,,,1.5,,,,,,,,,,,METAR,174.0
CWOY 190200Z AUTO 36010G19KT 05/01 RMK AO1 PK WND 35019/0154 SLP168 T00520006 51050,CWOY,2021-10-19T02:00:00Z,51.77,-104.2,5.2,0.6,360,10,19,,,1016.8,,TRUE,TRUE,,,,,,,,,,,,,,,,5.0,,,,,,,,,,,METAR,557.0
CWOE 190200Z AUTO 33009KT 05/M00 RMK AO1 SLP191 T00501002 52026,CWOE,2021-10-19T02:00:00Z,49.12,-110.47,5.0,-0.2,330,9,,,,1019.1,,TRUE,TRUE,,,,,,,,,,,,,,,,2.6,,,,,,,,,,,METAR,931.0
CWOD 190200Z AUTO 30012G17KT 06/03 RMK AO1 PK WND 30020/0124 SLP067 T00620030 51002,CWOD,2021-10-19T02:00:00Z,48.85,-72.55,6.2,3.0,300,12,17,,,1006.7,,TRUE,TRUE,,,,,,,,,,,,,,,,0.2,,,,,,,,,,,METAR,150.0
CWOC 190200Z AUTO 30004KT 08/05 RMK AO1 SLP973 T00820052 50001,CWOC,2021-10-19T02:00:00Z,48.02,-65.32,8.2,5.2,300,4,,,,997.3,,TRUE,TRUE,,,,,,,,,,,,,,,,0.1,,,,,,,,,,,METAR,42.0
CWOB 190200Z AUTO 13009KT ////SM OVC002 M01/M01 A3004,CWOB,2021-10-19T02:00:00Z,63.33,-64.15,-1.0,-1.0,130,9,,,30.041338,,,TRUE,,,,,,,,OVC,200,,,,,,,,,,,,,,,,,,,SPECI,369.0
CWNZ 190200Z AUTO 20004KT 01/M00 RMK AO1 SLP144 T00051004 58007,CWNZ,2021-10-19T02:00:00Z,49.75,-84.17,0.5,-0.4,200,4,,,,1014.4,,TRUE,TRUE,,,,,,,,,,,,,,,,-0.7,,,,,,,,,,,METAR,261.0
CWNQ 190200Z AUTO 29006KT 09/04 RMK AO1 SLP093 T00930041 52010,CWNQ,2021-10-19T02:00:00Z,46.22,-72.65,9.3,4.1,290,6,,,,1009.3,,TRUE,TRUE,,,,,,,,,,,,,,,,1.0,,,,,,,,,,,METAR,9.0
CWNP 190200Z AUTO 08001KT 08/06 RMK AO1 SLP154 T00790063 53005,CWNP,2021-10-19T02:00:00Z,50.27,-117.82,7.9,6.3,80,1,,,,1015.4,,TRUE,TRUE,,,,,,,,,,,,,,,,0.5,,,,,,,,,,,METAR,517.0
CWNM 190200Z AUTO 21003KT 07/05 RMK AO1 SLP144 T00700051 53013,CWNM,2021-10-19T02:00:00Z,49.5,-117.3,7.0,5.1,210,3,,,,1014.4,,TRUE,TRUE,,,,,,,,,,,,,,,,1.3,,,,,,,,,,,METAR,533.0
CWNK 190200Z AUTO 21001KT 11/08 RMK AO1 SLP044 T01080080 50007,CWNK,2021-10-19T02:00:00Z,49.5,-98.03,10.8,8.0,210,1,,,,1004.4,,TRUE,TRUE,,,,,,,,,,,,,,,,0.7,,,,,,,,,,,METAR,271.0
CWNH 190200Z AUTO 32003KT 07/04 RMK AO1 SLP028 T00730037 57002,CWNH,2021-10-19T02:00:00Z,47.8,-69.53,7.3,3.7,320,3,,,,1002.8,,TRUE,TRUE,,,,,,,,,,,,,,,,-0.2,,,,,,,,,,,METAR,147.0
CWNE 190200Z AUTO 27018KT 12/08 RMK AO1 PK WND 29022/0128 SLP980 T01190081 50002,CWNE,2021-10-19T02:00:00Z,47.07,-64.0,11.9,8.1,270,18,,,,998.0,,TRUE,TRUE,,,,,,,,,,,,,,,,0.2,,,,,,,,,,,METAR,5.0
CWNC 190200Z AUTO 32003KT 08/04 RMK AO1 SLP164 T00760037 51009,CWNC,2021-10-19T02:00:00Z,43.95,-78.17,7.6,3.7,320,3,,,,1016.4,,TRUE,TRUE,,,,,,,,,,,,,,,,0.9,,,,,,,,,,,METAR,71.0
CWMT 190200Z AUTO 12003KT M08/M08 RMK AO1 SLP191 T10761075 51011,CWMT,2021-10-19T02:00:00Z,63.13,-117.25,-7.6,-7.5,120,3,,,,1019.1,,TRUE,TRUE,,,,,,,,,,,,,,,,1.1,,,,,,,,,,,SPECI,274.0
CWMQ 190200Z AUTO 01008KT 05/M00 RMK AO1 PK WND 01019/0106 SLP209 T00491003 53035,CWMQ,2021-10-19T02:00:00Z,49.9,-109.47,4.9,-0.3,10,8,,,,1020.9,,TRUE,TRUE,,,,,,,,,,,,,,,,3.5,,,,,,,,,,,METAR,767.0
CWMM 190200Z AUTO 05002KT 09/06 RMK AO1 SLP167 T00910055 55000,CWMM,2021-10-19T02:00:00Z,49.22,-122.68,9.1,5.5,50,2,,,,1016.7,,TRUE,TRUE,,,,,,,,,,,,,,,,0.0,,,,,,,,,,,METAR,2.0
CWMJ 190200Z AUTO 31006KT 06/02 RMK AO1 SLP134 T00610019 51009,CWMJ,2021-10-19T02:00:00Z,46.27,-76.0,6.1,1.9,310,6,,,,1013.4,,TRUE,TRUE,,,,,,,,,,,,,,,,0.9,,,,,,,,,,,METAR,198.0
CWLX 190200Z AUTO ///// ////SM OVC002 M01/M01 A2982,CWLX,2021-10-19T02:00:00Z,68.9,-75.15,-1.0,-1.0,,,,,29.819881,,,TRUE,,,,,,,,OVC,200,,,,,,,,,,,,,,,,,,,SPECI,129.0
CWLP 190200Z AUTO 15019KT 10/07 RMK AO1 PK WND 15023/0148 SLP113 T00990067 56013,CWLP,2021-10-19T02:00:00Z,50.93,-127.63,9.9,6.7,150,19,,,,1011.3,,TRUE,TRUE,,,,,,,,,,,,,,,,-1.3,,,,,,,,,,,METAR,15.0
CWLM 190200Z AUTO 10004KT 08/05 RMK AO1 SLP158 T00750048 58004,CWLM,2021-10-19T02:00:00Z,48.42,-123.32,7.5,4.8,100,4,,,,1015.8,,TRUE,TRUE,,,,,,,,,,,,,,,,-0.4,,,,,,,,,,,METAR,62.0
CWLI 190200Z AUTO 21007KT ////SM BKN005 OVC011 M05/M06 A2982,CWLI,2021-10-19T02:00:00Z,69.6,-130.9,-5.0,-6.0,210,7,,,29.819881,,,TRUE,,,,,,,,BKN,500,OVC,1100,,,,,,,,,,,,,,,,,SPECI,92.0
CWLE 190200Z AUTO 36015KT 05/01 RMK AO1 PK WND 35022/0133 SLP195 T00460007 52044,CWLE,2021-10-19T02:00:00Z,50.95,-107.15,4.6,0.7,360,15,,,,1019.5,,TRUE,TRUE,,,,,,,,,,,,,,,,4.4,,,,,,,,,,,METAR,666.0
CWLC 190200Z AUTO 14016KT 10/02 RMK AO1 PK WND 13021/0112 T01020021,CWLC,2021-10-19T02:00:00Z,54.3,-130.62,10.2,2.1,140,16,,,,,,TRUE,TRUE,,,,,,,,,,,,,,,,,,,,,,,,,,,METAR,27.0
CWLB 190200Z AUTO 34001KT M01/M04 RMK AO1 T10061035,CWLB,2021-10-19T02:00:00Z,54.77,-112.02,-0.6,-3.5,340,1,,,,,,TRUE,TRUE,,,,,,,,,,,,,,,,,,,,,,,,,,,METAR,561.0
CWKX 190200Z AUTO 35001KT M02/M09 RMK AO1 SLP164 T10221093 53001,CWKX,2021-10-19T02:00:00Z,58.43,-130.02,-2.2,-9.3,350,1,,,,1016.4,,TRUE,TRUE,,,,,,,,,,,,,,,,0.1,,,,,,,,,,,METAR,807.0
CWKP 190200Z AUTO 22016G25KT 190V250 ////SM SCT210 ///// A////,CWKP,2021-10-19T02:00:00Z,69.67,-121.67,,,220,16,25,,,,,TRUE,,,,,,,,SCT,21000,,,,,,,,,,,,,,,,,,,METAR,322.0
CWKO 190200Z AUTO 36018G24KT 07/02 RMK AO1 PK WND 00024/0156 SLP149 T00720015 52031,CWKO,2021-10-19T02:00:00Z,49.17,-105.97,7.2,1.5,360,18,24,,,1014.9,,TRUE,TRUE,,,,,,,,,,,,,,,,3.1,,,,,,,,,,,METAR,914.0
CWKM 190200Z AUTO 21005KT ////SM OVC018 M07/M09 A2984,CWKM,2021-10-19T02:00:00Z,69.6,-140.17,-7.0,-9.0,210,5,,,29.840551,,,TRUE,,,,,,,,OVC,1800,,,,,,,,,,,,,,,,,,,SPECI,8.0
CWKK 190200Z AUTO 18003KT 12/09 RMK AO1 SLP126 T01200087 56002,CWKK,2021-10-19T02:00:00Z,49.72,-88.33,12.0,8.7,180,3,,,,1012.6,,TRUE,TRUE,,,,,,,,,,,,,,,,-0.2,,,,,,,,,,,METAR,259.0
CWKH 190200Z AUTO 06/04 RMK AO1 SLP151 T00580043 56003,CWKH,2021-10-19T02:00:00Z,48.57,-123.55,5.8,4.3,,,,,,1015.1,,TRUE,TRUE,,,,,,,,,,,,,,,,-0.3,,,,,,,,,,,METAR,327.0
CWKG 190200Z AUTO 28002KT 06/06 RMK AO1 SLP027 T00600060 50004,CWKG,2021-10-19T02:00:00Z,44.43,-65.2,6.0,6.0,280,2,,,,1002.7,,TRUE,TRUE,,,,,,,,,,,,,,,,0.4,,,,,,,,,,,METAR,154.0
CWJX 190200Z AUTO 35008KT 02/M03 RMK AO1 SLP214 T00211026 51034,CWJX,2021-10-19T02:00:00Z,50.88,-109.5,2.1,-2.6,350,8,,,,1021.4,,TRUE,TRUE,,,,,,,,,,,,,,,,3.4,,,,,,,,,,,METAR,671.0
CWJW 190200Z AUTO 34003KT 03/M01 RMK AO1 SLP192 T00281008 52006,CWJW,2021-10-19T02:00:00Z,52.93,-118.03,2.8,-0.8,340,3,,,,1019.2,,TRUE,TRUE,,,,,,,,,,,,,,,,0.6,,,,,,,,,,,METAR,1022.0
CWJV 190200Z AUTO 07002KT 09/04 RMK AO1 SLP138 T00880043 53005,CWJV,2021-10-19T02:00:00Z,50.22,-119.18,8.8,4.3,70,2,,,,1013.8,,TRUE,TRUE,,,,,,,,,,,,,,,,0.5,,,,,,,,,,,METAR,487.0
CWJT 190200Z AUTO 29001KT 06/05 RMK AO1 SLP114 T00580047 51007,CWJT,2021-10-19T02:00:00Z,46.07,-74.57,5.8,4.7,290,1,,,,1011.4,,TRUE,TRUE,,,,,,,,,,,,,,,,0.7,,,,,,,,,,,METAR,236.0
CWJR 190200Z AUTO 34002KT 10/05 RMK AO1 SLP144 T00980048 53013,CWJR,2021-10-19T02:00:00Z,49.03,-116.5,9.8,4.8,340,2,,,,1014.4,,TRUE,TRUE,,,,,,,,,,,,,,,,1.3,,,,,,,,,,,METAR,642.0
CWJI 190200Z AUTO 36012G17KT 07/02 RMK AO1 PK WND 00017/0159 SLP161 T00710017 51032,CWJI,2021-10-19T02:00:00Z,49.72,-105.93,7.1,1.7,360,12,17,,,1016.1,,TRUE,TRUE,,,,,,,,,,,,,,,,3.2,,,,,,,,,,,METAR,724.0
CWJH 190200Z AUTO 30002KT 02/M00 RMK AO1 1031 SLP199 T00171002 50001,CWJH,2021-10-19T02:00:00Z,56.32,-103.27,1.7,-0.2,300,2,,,,1019.9,,TRUE,TRUE,,,,,,,,,,,,,,,,0.1,,,,,,,,,,,METAR,345.0
CWJD 190200Z AUTO 32009G19KT 08/03 RMK AO1 SOG 01 1055 PK WND 31021/0113 SLP094 T00810027,CWJD,2021-10-19T02:00:00Z,53.18,-99.27,8.1,2.7,320,9,19,,,1009.4,,TRUE,TRUE,,,,,,,,,,,,,,,,,,,,,,,,,,,METAR,222.0
CWJC 190200Z AUTO 31018KT M00/M04 RMK AO1 SOG 04 1016 PK WND 30022/0156 SLP155 T10041038,CWJC,2021-10-19T02:00:00Z,61.13,-100.9,-0.4,-3.8,310,18,,,,1015.5,,TRUE,TRUE,,,,,,,,,,,,,,,,,,,,,,,,,,,METAR,340.0
CWJB 190200Z AUTO 22006KT 08/ RMK AO1 T0083,CWJB,2021-10-19T02:00:00Z,46.78,-71.28,8.3,,220,6,,,,,,TRUE,TRUE,,,,,,,,,,,,,,,,,,,,,,,,,,,METAR,90.0
CWIZ 190200Z AUTO 30006KT 09/03 RMK AO1 T00900032,CWIZ,2021-10-19T02:00:00Z,45.28,-73.33,9.0,3.2,300,6,,,,,,TRUE,TRUE,,,,,,,,,,,,,,,,,,,,,,,,,,,METAR,45.0
CWIW 190200Z AUTO 35018KT 05/01 RMK AO1 PK WND 00024/0147 SLP181 T00470006 51045,CWIW,2021-10-19T02:00:00Z,51.67,-105.4,4.7,0.6,350,18,,,,1018.1,,TRUE,TRUE,,,,,,,,,,,,,,,,4.5,,,,,,,,,,,METAR,524.0
CWIT 190200Z AUTO 29006KT 09/04 RMK AO1 SLP112 T00860040 53010,CWIT,2021-10-19T02:00:00Z,45.17,-73.67,8.6,4.0,290,6,,,,1011.2,,TRUE,TRUE,,,,,,,,,,,,,,,,1.0,,,,,,,,,,,METAR,53.0
CWIS 190200Z AUTO 30004KT 03/01 RMK AO1 SLP040 T00330005 51001,CWIS,2021-10-19T02:00:00Z,47.28,-70.63,3.3,0.5,300,4,,,,1004.0,,TRUE,TRUE,,,,,,,,,,,,,,,,0.1,,,,,,,,,,,METAR,720.0
CWIL 190200Z AUTO 31019KT ////SM FEW025 BKN033 OVC039 M01/M03 A2941,CWIL,2021-10-19T02:00:00Z,68.32,-100.07,-1.0,-3.0,310,19,,,29.409449,,,TRUE,,,,,,,,FEW,2500,BKN,3300,OVC,3900,,,,,,,,,,,,,,,SPECI,28.0
CWIK 190200Z AUTO 35014KT 09/04 RMK AO1 PK WND 35020/0134 SLP116 T00890035 52042,CWIK,2021-10-19T02:00:00Z,50.37,-102.58,8.9,3.5,350,14,,,,1011.6,,TRUE,TRUE,,,,,,,,,,,,,,,,4.2,,,,,,,,,,,SPECI,597.0
CWIJ 190200Z AUTO 29018KT M04/M06 RMK AO1 SOG 12 1033 PK WND 28024/0115 SLP151 T10441060,CWIJ,2021-10-19T02:00:00Z,65.77,-111.23,-4.4,-6.0,290,18,,,,1015.1,,TRUE,TRUE,,,,,,,,,,,,,,,,,,,,,,,,,,,METAR,490.0
CWII 190200Z AUTO 22007KT 17/08 RMK AO1 SLP047 T01700084 51014,CWII,2021-10-19T02:00:00Z,50.7,-96.57,17.0,8.4,220,7,,,,1004.7,,TRUE,TRUE,,,,,,,,,,,,,,,,1.4,,,,,,,,,,,METAR,216.0
CWIG 190200Z AUTO 25012G17KT RMK AO1 PK WND 26019/0113,CWIG,2021-10-19T02:00:00Z,47.07,-70.53,,,250,12,17,,,,,TRUE,TRUE,,,,,,,,,,,,,,,,,,,,,,,,,,,METAR,12.0
CWID 190200Z AUTO 12002KT M02/M05 RMK AO1 SLP199 T10191048 50012,CWID,2021-10-19T02:00:00Z,61.32,-117.6,-1.9,-4.8,120,2,,,,1019.9,,TRUE,TRUE,,,,,,,,,,,,,,,,1.2,,,,,,,,,,,METAR,160.0
CWHV 190200Z AUTO 25002KT 06/03 RMK AO1 SLP059 T00610031 50004,CWHV,2021-10-19T02:00:00Z,46.2,-70.78,6.1,3.1,250,2,,,,1005.9,,TRUE,TRUE,,,,,,,,,,,,,,,,0.4,,,,,,,,,,,METAR,227.0
CWHT 190200Z AUTO 05002KT M04/M08 RMK AO1 SLP116 T10401077 56005,CWHT,2021-10-19T02:00:00Z,60.77,-137.58,-4.0,-7.7,50,2,,,,1011.6,,TRUE,TRUE,,,,,,,,,,,,,,,,-0.5,,,,,,,,,,,METAR,601.0
CWHQ 190200Z AUTO 28005KT 07/03 RMK AO1 T00650033,CWHQ,2021-10-19T02:00:00Z,46.68,-71.97,6.5,3.3,280,5,,,,,,TRUE,TRUE,,,,,,,,,,,,,,,,,,,,,,,,,,,METAR,56.0
CWHO 190200Z AUTO 05/04 RMK AO1 33 0138Z 0001 SLP102 T00540035,CWHO,2021-10-19T02:00:00Z,55.45,-60.22,5.4,3.5,,,,,,1010.2,,TRUE,TRUE,,,,,,,,,,,,,,,,,,,,,,,,,,,METAR,16.0
CWHN 190200Z AUTO 35003KT 9SM CLR 02/M04 A3015 RMK SLP239,CWHN,2021-10-19T02:00:00Z,54.9,-109.97,2.0,-4.0,350,3,,9.0,30.15059,1023.9,,TRUE,,,,,,,,CLR,,,,,,,,VFR,,,,,,,,,,,,METAR,635.0
CWHL 190200Z AUTO 10016G23KT 11/M01 RMK AO1 PK WND 10023/0157 SLP078 T01091006 58016,CWHL,2021-10-19T02:00:00Z,54.17,-130.35,10.9,-0.6,100,16,23,,,1007.8,,TRUE,TRUE,,,,,,,,,,,,,,,,-1.6,,,,,,,,,,,METAR,5.0
CWHI 190200Z AUTO 02005KT 04/M02 RMK AO1 T00371015,CWHI,2021-10-19T02:00:00Z,51.7,-113.22,3.7,-1.5,20,5,,,,,,TRUE,TRUE,,,,,,,,,,,,,,,,,,,,,,,,,,,METAR,906.0
CWGY 190200Z AUTO 32006KT 01/M02 RMK AO1 SLP236 T00051015 51031,CWGY,2021-10-19T02:00:00Z,51.67,-110.2,0.5,-1.5,320,6,,,,1023.6,,TRUE,TRUE,,,,,,,,,,,,,,,,3.1,,,,,,,,,,,METAR,709.0
CWGW 190200Z AUTO 10012G18KT 07/M00 RMK AO1 PK WND 11022/0108 SLP187 T00721004 53029,CWGW,2021-10-19T02:00:00Z,49.75,-114.9,7.2,-0.4,100,12,18,,,1018.7,,TRUE,TRUE,,,,,,,,,,,,,,,,2.9,,,,,,,,,,,METAR,1137.0
CWGT 190200Z AUTO 11008KT 10/06 RMK AO1 SLP152 T00980064 56007,CWGT,2021-10-19T02:00:00Z,49.48,-124.43,9.8,6.4,110,8,,,,1015.2,,TRUE,TRUE,,,,,,,,,,,,,,,,-0.7,,,,,,,,,,,METAR,5.0
CWGR 190200Z AUTO 22004KT 10/08 RMK AO1 SLP974 T01020082 58005,CWGR,2021-10-19T02:00:00Z,47.42,-61.77,10.2,8.2,220,4,,,,997.4,,TRUE,TRUE,,,,,,,,,,,,,,,,-0.5,,,,,,,,,,,METAR,4.0
CWGL 190200Z AUTO 32004KT 09/05 RMK AO1 SLP150 T00860050 51003,CWGL,2021-10-19T02:00:00Z,44.53,-79.22,8.6,5.0,320,4,,,,1015.0,,TRUE,TRUE,,,,,,,,,,,,,,,,0.3,,,,,,,,,,,METAR,220.0
CWGH 190200Z AUTO 25001KT 06/04 RMK AO1 SLP149 T00600042 53007,CWGH,2021-10-19T02:00:00Z,44.42,-75.85,6.0,4.2,250,1,,,,1014.9,,TRUE,TRUE,,,,,,,,,,,,,,,,0.7,,,,,,,,,,,METAR,76.0
CWGD 190200Z AUTO 11002KT 05/03 RMK AO1 SLP193 T00470033 51001,CWGD,2021-10-19T02:00:00Z,43.77,-81.72,4.7,3.3,110,2,,,,1019.3,,TRUE,TRUE,,,,,,,,,,,,,,,,0.1,,,,,,,,,,,METAR,214.0
CWGB 190200Z AUTO 10012KT 10/ RMK AO1 SLP151 T0102 58004,CWGB,2021-10-19T02:00:00Z,49.35,-124.13,10.2,,100,12,,,,1015.1,,TRUE,TRUE,,,,,,,,,,,,,,,,-0.4,,,,,,,,,,,METAR,6.0
CWFQ 190200Z AUTO 31003KT 07/04 RMK AO1 SLP105 T00670043 53009,CWFQ,2021-10-19T02:00:00Z,45.03,-72.85,6.7,4.3,310,3,,,,1010.5,,TRUE,TRUE,,,,,,,,,,,,,,,,0.9,,,,,,,,,,,METAR,190.0
CWFJ 190200Z AUTO 36002KT 06/01 RMK AO1 T00610005,CWFJ,2021-10-19T02:00:00Z,49.2,-113.27,6.1,0.5,360,2,,,,,,TRUE,TRUE,,,,,,,,,,,,,,,,,,,,,,,,,,,METAR,1142.0
CWFF 190200Z AUTO 01014G20KT 05/M01 RMK AO1 PK WND 35022/0131 SLP186 T00471006 52047,CWFF,2021-10-19T02:00:00Z,52.82,-104.6,4.7,-0.6,10,14,20,,,1018.6,,TRUE,TRUE,,,,,,,,,,,,,,,,4.7,,,,,,,,,,,METAR,482.0
CWFD 190200Z AUTO ///// ////SM NCD 01/M26 A2993,CWFD,2021-10-19T02:00:00Z,66.58,-61.58,1.0,-26.0,,,,,29.929134,,,TRUE,,,,,,,,CLR,,,,,,,,,,,,,,,,,,,,SPECI,375.0
CWEZ 190200Z AUTO 17003KT 09/07 RMK AO1 SLP157 T00880069 56002,CWEZ,2021-10-19T02:00:00Z,48.78,-123.05,8.8,6.9,170,3,,,,1015.7,,TRUE,TRUE,,,,,,,,,,,,,,,,-0.2,,,,,,,,,,,METAR,23.0
CWEW 190200Z AUTO 26004KT 08/04 RMK AO1 SLP111 T00840041 53008,CWEW,2021-10-19T02:00:00Z,45.82,-73.43,8.4,4.1,260,4,,,,1011.1,,TRUE,TRUE,,,,,,,,,,,,,,,,0.8,,,,,,,,,,,METAR,17.0
CWEU 190200Z 13018KT 15SM -SN DRSN OVC160 M02/M06 A2962 RMK AC8 SLP042,CWEU,2021-10-19T02:00:00Z,80.0,-85.93,-2.0,-6.0,130,18,,15.0,29.619095,1004.2,,,,,,,,,-SN DRSN,OVC,16000,,,,,,,VFR,,,,,,,,,,,,SPECI,2.0
CWER 190200Z AUTO 26007KT RMK AO1,CWER,2021-10-19T02:00:00Z,47.0,-70.82,,,260,7,,,,,,TRUE,TRUE,,,,,,,,,,,,,,,,,,,,,,,,,,,METAR,4.0
CWEQ 190200Z AUTO 35011KT 09/03 RMK AO1 PRESRR PK WND 34017/0144 SLP128 T00860031 51063,CWEQ,2021-10-19T02:00:00Z,52.12,-101.22,8.6,3.1,350,11,,,,1012.8,,TRUE,TRUE,,,,,,,,,,,,,,,,6.3,,,,,,,,,,,METAR,331.0
CWEP 190200Z AUTO 22006KT 10/08 RMK AO1 SLP985 T01000081 57001,CWEP,2021-10-19T02:00:00Z,46.45,-61.98,10.0,8.1,220,6,,,,998.5,,TRUE,TRUE,,,,,,,,,,,,,,,,-0.1,,,,,,,,,,,METAR,9.0
CWEL 190200Z AUTO 15005KT 09/06 RMK AO1 SLP155 T00930055 55003,CWEL,2021-10-19T02:00:00Z,49.22,-123.8,9.3,5.5,150,5,,,,1015.5,,TRUE,TRUE,,,,,,,,,,,,,,,,-0.3,,,,,,,,,,,METAR,0.0
CWEK 190200Z AUTO 06025G30KT 08/03 RMK AO1 PK WND 06032/0132 SLP094 T00830031 57014,CWEK,2021-10-19T02:00:00Z,54.58,-130.7,8.3,3.1,60,25,30,,,1009.4,,TRUE,TRUE,,,,,,,,,,,,,,,,-1.4,,,,,,,,,,,METAR,8.0
CWEH 190200Z AUTO 02024G30KT 06/M00 RMK AO1 PK WND 01031/0147 SLP163 T00561001 51022,CWEH,2021-10-19T02:00:00Z,49.43,-108.98,5.6,-0.1,20,24,30,,,1016.3,,TRUE,TRUE,,,,,,,,,,,,,,,,2.2,,,,,,,,,,,METAR,1077.0
CWEB 190200Z AUTO 14010G17KT 09/08 RMK AO1 PK WND 16018/0104 SLP142 T00850078 55008,CWEB,2021-10-19T02:00:00Z,49.38,-126.55,8.5,7.8,140,10,17,,,1014.2,,TRUE,TRUE,,,,,,,,,,,,,,,,-0.8,,,,,,,,,,,METAR,1.0
CWDZ 190200Z AUTO 01005KT 06/M00 RMK AO1 SLP227 T00631003 53025,CWDZ,2021-10-19T02:00:00Z,51.43,-112.67,6.3,-0.3,10,5,,,,1022.7,,TRUE,TRUE,,,,,,,,,,,,,,,,2.5,,,,,,,,,,,METAR,689.0
CWDV 190200Z AUTO 18004KT 11/05 RMK AO1 SLP126 T01140046 50000,CWDV,2021-10-19T02:00:00Z,49.02,-90.47,11.4,4.6,180,4,,,,1012.6,,TRUE,TRUE,,,,,,,,,,,,,,,,0.0,,,,,,,,,,,METAR,487.0
CWDQ 190200Z AUTO 31008KT 07/03 RMK AO1 SLP086 T00660028 51007,CWDQ,2021-10-19T02:00:00Z,47.42,-72.78,6.6,2.8,310,8,,,,1008.6,,TRUE,TRUE,,,,,,,,,,,,,,,,0.7,,,,,,,,,,,METAR,174.0
CWDK 190200Z AUTO 04006KT 06/M00 RMK AO1 SLP219 T00621004 53018,CWDK,2021-10-19T02:00:00Z,50.02,-113.62,6.2,-0.4,40,6,,,,1021.9,,TRUE,TRUE,,,,,,,,,,,,,,,,1.8,,,,,,,,,,,METAR,1014.0
CWDJ 190200Z AUTO 36019G24KT 08/02 RMK AO1 PK WND 00028/0115 SLP147 T00780015 53036,CWDJ,2021-10-19T02:00:00Z,50.4,-104.58,7.8,1.5,360,19,24,,,1014.7,,TRUE,TRUE,,,,,,,,,,,,,,,,3.6,,,,,,,,,,,METAR,576.0
CWDA 190200Z AUTO 11012G17KT 06/ RMK AO1 PK WND 11018/0139 T0061,CWDA,2021-10-19T02:00:00Z,50.72,-56.12,6.1,,110,12,17,,,,,TRUE,TRUE,,,,,,,,,,,,,,,,,,,,,,,,,,,METAR,30.0
CWCT 190200Z AUTO 02013KT 04/M02 RMK AO1 PK WND 02017/0157 SLP236 T00401015 51025,CWCT,2021-10-19T02:00:00Z,52.07,-111.43,4.0,-1.5,20,13,,,,1023.6,,TRUE,TRUE,,,,,,,,,,,,,,,,2.5,,,,,,,,,,,METAR,793.0
CWCO 190200Z AUTO 25002KT 09/04 RMK AO1 SLP166 T00880044 50001,CWCO,2021-10-19T02:00:00Z,44.5,-80.22,8.8,4.4,250,2,,,,1016.6,,TRUE,TRUE,,,,,,,,,,,,,,,,0.1,,,,,,,,,,,METAR,182.0
CWCJ 190200Z AUTO 00000KT 06/06 RMK AO1 SLP152 T00640057 58010,CWCJ,2021-10-19T02:00:00Z,48.6,-86.28,6.4,5.7,0,0,,,,1015.2,,TRUE,TRUE,,,,,,,,,,,,,,,,-1.0,,,,,,,,,,,METAR,207.0
CWCF 190200Z AUTO 17003KT 09/06 RMK AO1 SLP037 T00900056 52009,CWCF,2021-10-19T02:00:00Z,52.35,-97.03,9.0,5.6,170,3,,,,1003.7,,TRUE,TRUE,,,,,,,,,,,,,,,,0.9,,,,,,,,,,,METAR,219.0
CWBZ 190200Z AUTO 29008G17KT 09/04 RMK AO1 PK WND 28017/0151 SLP117 T00900041 53007,CWBZ,2021-10-19T02:00:00Z,45.12,-74.28,9.0,4.1,290,8,17,,,1011.7,,TRUE,TRUE,,,,,,,,,,,,,,,,0.7,,,,,,,,,,,METAR,49.0
CWBY 190200Z AUTO 07004KT 09/08 RMK AO1 1PAST HR 8005 SLP956 P0000 T00880084 50004,CWBY,2021-10-19T02:00:00Z,49.83,-64.28,8.8,8.4,70,4,,,,995.6,,TRUE,TRUE,,,,,,,,,,,,,,,,0.4,,,,,0.005,,,,,,METAR,56.0
CWBV 190200Z AUTO 29011KT 11/08 RMK AO1 PK WND 31017/0103 T01110076,CWBV,2021-10-19T02:00:00Z,44.82,-62.33,11.1,7.6,290,11,,,,,,TRUE,TRUE,,,,,,,,,,,,,,,,,,,,,,,,,,,METAR,16.0
CWBU 190200Z AUTO 01015G21KT 05/M01 RMK AO1 PK WND 35024/0136 SLP187 T00511008 51050,CWBU,2021-10-19T02:00:00Z,53.33,-104.02,5.1,-0.8,10,15,21,,,1018.7,,TRUE,TRUE,,,,,,,,,,,,,,,,5.0,,,,,,,,,,,SPECI,369.0
CWBT 190200Z AUTO 03004KT 08/08 RMK AO1 SLP958 T00810076 58008,CWBT,2021-10-19T02:00:00Z,50.27,-64.23,8.1,7.6,30,4,,,,995.8,,TRUE,TRUE,,,,,,,,,,,,,,,,-0.8,,,,,,,,,,,METAR,12.0
CWBS 190200Z AUTO 28015KT 09/03 RMK AO1 PK WND 29019/0107 T00940034,CWBS,2021-10-19T02:00:00Z,46.18,-72.92,9.4,3.4,280,15,,,,,,TRUE,TRUE,,,,,,,,,,,,,,,,,,,,,,,,,,,METAR,3.0
CWBO 190200Z AUTO 02004KT 05/01 RMK AO1 SLP219 T00460005 53028,CWBO,2021-10-19T02:00:00Z,50.53,-111.83,4.6,0.5,20,4,,,,1021.9,,TRUE,TRUE,,,,,,,,,,,,,,,,2.8,,,,,,,,,,,METAR,752.0
CWBK 190200Z AUTO 25006KT 10/08 RMK AO1 SLP001 T01040077 51003,CWBK,2021-10-19T02:00:00Z,45.77,-62.67,10.4,7.7,250,6,,,,1000.1,,TRUE,TRUE,,,,,,,,,,,,,,,,0.3,,,,,,,,,,,METAR,2.0
CWBE 190200Z AUTO 28006KT 12/07 RMK AO1 SLP161 T01220072 54000,CWBE,2021-10-19T02:00:00Z,45.98,-81.48,12.2,7.2,280,6,,,,1016.1,,TRUE,TRUE,,,,,,,,,,,,,,,,,,,,,,,,,,,METAR,188.0
CWBA 190200Z AUTO 16001KT 04/03 RMK AO1 T00380027,CWBA,2021-10-19T02:00:00Z,46.72,-79.1,3.8,2.7,160,1,,,,,,TRUE,TRUE,,,,,,,,,,,,,,,,,,,,,,,,,,,METAR,181.0
CWAV 190200Z AUTO 10003KT 02/01 RMK AO1 SLP228 T00240008 51019,CWAV,2021-10-19T02:00:00Z,51.77,-114.67,2.4,0.8,100,3,,,,1022.8,,TRUE,TRUE,,,,,,,,,,,,,,,,1.9,,,,,,,,,,,METAR,1115.0
CWAQ 190200Z AUTO 34012G17KT 08/03 RMK AO1 PK WND 34018/0130 SLP143 T00810029 53035,CWAQ,2021-10-19T02:00:00Z,49.05,-105.48,8.1,2.9,340,12,17,,,1014.3,,TRUE,TRUE,,,,,,,,,,,,,,,,3.5,,,,,,,,,,,METAR,761.0
CWAJ 190200Z AUTO 01002KT 105/ RMK AO1 53005,CWAJ,2021-10-19T02:00:00Z,42.25,-81.9,5.0,,10,2,,,,,,TRUE,TRUE,,,,,,,,,,,,,,,,0.5,,,,,,,,,,,METAR,177.0
CWAF 190200Z AUTO 29022KT 08/05 RMK AO1 PK WND 29027/0130 T00840047,CWAF,2021-10-19T02:00:00Z,48.07,-69.55,8.4,4.7,290,22,,,,,,TRUE,TRUE,,,,,,,,,,,,,,,,,,,,,,,,,,,METAR,6.0
CTNK 190200Z AUTO 00000KT M00/M01 RMK AO1 SLP161 T10041011 53004,CTNK,2021-10-19T02:00:00Z,45.53,-78.27,-0.4,-1.1,0,0,,,,1016.1,,TRUE,TRUE,,,,,,,,,,,,,,,,0.4,,,,,,,,,,,METAR,405.0
CTCK 190200Z AUTO 28004KT 07/04 RMK AO1 SLP125 T00710035 53007,CTCK,2021-10-19T02:00:00Z,45.25,-74.97,7.1,3.5,280,4,,,,1012.5,,TRUE,TRUE,,,,,,,,,,,,,,,,0.7,,,,,,,,,,,METAR,84.0
CPXL 190200Z AUTO 36006KT 04/M00 RMK AO1 T00431002,CPXL,2021-10-19T02:00:00Z,49.87,-111.38,4.3,-0.2,360,6,,,,,,TRUE,TRUE,,,,,,,,,,,,,,,,,,,,,,,,,,,METAR,801.0
CPSV 190200Z AUTO 36010KT 05/01 RMK AO1 T00480006,CPSV,2021-10-19T02:00:00Z,49.92,-110.92,4.8,0.6,360,10,,,,,,TRUE,TRUE,,,,,,,,,,,,,,,,,,,,,,,,,,,METAR,766.0
CPRY 190200Z AUTO 03005KT 08/01 RMK AO1 T00770014,CPRY,2021-10-19T02:00:00Z,49.48,-112.68,7.7,1.4,30,5,,,,,,TRUE,TRUE,,,,,,,,,,,,,,,,,,,,,,,,,,,METAR,947.0
CPRO 190200Z AUTO 01008KT 06/01 RMK AO1 T00550008,CPRO,2021-10-19T02:00:00Z,50.83,-112.05,5.5,0.8,10,8,,,,,,TRUE,TRUE,,,,,,,,,,,,,,,,,,,,,,,,,,,METAR,733.0
CPFI 190200Z AUTO 03006KT 03/M00 RMK AO1 T00301004,CPFI,2021-10-19T02:00:00Z,49.8,-112.03,3.0,-0.4,30,6,,,,,,TRUE,TRUE,,,,,,,,,,,,,,,,,,,,,,,,,,,METAR,804.0
CPEH 190200Z AUTO 04012KT 07/01 RMK AO1 T00660007,CPEH,2021-10-19T02:00:00Z,50.18,-112.43,6.6,0.7,40,12,,,,,,TRUE,TRUE,,,,,,,,,,,,,,,,,,,,,,,,,,,METAR,814.0
CPBT 190200Z AUTO 02005KT 07/02 RMK AO1 T00660015,CPBT,2021-10-19T02:00:00Z,49.53,-113.05,6.6,1.5,20,5,,,,,,TRUE,TRUE,,,,,,,,,,,,,,,,,,,,,,,,,,,METAR,998.0
CMGB 190200Z AUTO 30003KT 08/04 RMK AO1 SLP103 T00820040 52010,CMGB,2021-10-19T02:00:00Z,45.37,-72.77,8.2,4.0,300,3,,,,1010.3,,TRUE,TRUE,,,,,,,,,,,,,,,,1.0,,,,,,,,,,,SPECI,87.0
CMFM 190200Z AUTO 31008KT 03/01 RMK AO1 3001 PK WND 29020/0115 SLP051 T00270011 50002,CMFM,2021-10-19T02:00:00Z,47.32,-71.15,2.7,1.1,310,8,,,,1005.1,,TRUE,TRUE,,,,,,,,,,,,,,,,0.2,,,,,,,,,,,SPECI,663.0
CFOX 190200Z AUTO ///// ////SM OVC003 M00/M00 A2976,CFOX,2021-10-19T02:00:00Z,,,0.0,0.0,,,,,29.760826,,,TRUE,,,,,,,,OVC,300,,,,,,,,,,,,,,,,,,,METAR,
CERM 190200Z AUTO 28006KT 07/03 RMK AO1 SLP013 T00710034 56001,CERM,2021-10-19T02:00:00Z,47.42,-68.32,7.1,3.4,280,6,,,,1001.3,,TRUE,TRUE,,,,,,,,,,,,,,,,-0.1,,,,,,,,,,,METAR,151.0
CBAR 190200Z AUTO 22008KT ////SM FEW004 OVC030 ///// A////,CBAR,2021-10-19T02:00:00Z,,,,,220,8,,,,,,TRUE,,,,,,,,FEW,400,OVC,3000,,,,,,,,,,,,,,,,,METAR,
CAHR 190200Z AUTO 26007KT 10/08 RMK AO1 1003 SLP992 T00950080 50002,CAHR,2021-10-19T02:00:00Z,46.35,-63.17,9.5,8.0,260,7,,,,999.2,,TRUE,TRUE,,,,,,,,,,,,,,,,0.2,,,,,,,,,,,METAR,52.0
BKPR 190200Z VRB02KT CAVOK 06/04 Q1028 NOSIG,BKPR,2021-10-19T02:00:00Z,42.58,21.03,6.0,4.0,0,2,,6.21,30.35433,,,,,,TRUE,,,,,CAVOK,,,,,,,,VFR,,,,,,,,,,,,METAR,545.0
BIRK 190200Z 02021KT CAVOK 08/02 Q0995,BIRK,2021-10-19T02:00:00Z,64.13,-21.93,8.0,2.0,20,21,,6.21,29.379921,,,,,,,,,,,CAVOK,,,,,,,,VFR,,,,,,,,,,,,METAR,12.0
BIKF 190200Z 02021KT 9999 FEW045 BKN160 07/04 Q0996,BIKF,2021-10-19T02:00:00Z,63.98,-22.6,7.0,4.0,20,21,,6.21,29.409449,,,,,,,,,,,FEW,4500,BKN,16000,,,,,VFR,,,,,,,,,,,,METAR,49.0
BIEG 190200Z 36012KT 9999 -RA SCT030 BKN039 OVC051 05/04 Q1004,BIEG,2021-10-19T02:00:00Z,65.27,-14.4,5.0,4.0,360,12,,6.21,29.64567,,,,,,,,,,-RA,SCT,3000,BKN,3900,OVC,5100,,,VFR,,,,,,,,,,,,METAR,20.0
BIAR 190200Z 05008KT 350V100 9999 -RA SCT036 OVC064 06/01 Q1007,BIAR,2021-10-19T02:00:00Z,65.67,-18.07,6.0,1.0,50,8,,6.21,29.734253,,,,,,,,,,-RA,SCT,3600,OVC,6400,,,,,VFR,,,,,,,,,,,,METAR,1.0
AYPY 190200Z 20010KT 9999 HZ FEW025 SCT035CB 31/24 Q1012,AYPY,2021-10-19T02:00:00Z,-9.43,147.22,31.0,24.0,200,10,,6.21,29.88189,,,,,,,,,,HZ,FEW,2500,SCT,3500,,,,,VFR,,,,,,,,,,,,METAR,44.0
AYMH 190200Z 09008KT 9999 HZ SCT030 25/14 Q1023,AYMH,2021-10-19T02:00:00Z,-5.83,144.3,25.0,14.0,90,8,,6.21,30.206694,,,,,,,,,,HZ,SCT,3000,,,,,,,VFR,,,,,,,,,,,,METAR,1634.0
ANYN 190200Z 02008KT 9999 -SHRA FEW020 BKN100 26/24 Q1011,ANYN,2021-10-19T02:00:00Z,-0.55,166.92,26.0,24.0,20,8,,6.21,29.852362,,,,,,,,,,-SHRA,FEW,2000,BKN,10000,,,,,VFR,,,,,,,,,,,,METAR,7.0
AGGH 190200Z 02006KT 9999 FEW019 31/25 Q1011,AGGH,2021-10-19T02:00:00Z,-9.42,160.05,31.0,25.0,20,6,,6.21,29.852362,,,,,,,,,,,FEW,1900,,,,,,,VFR,,,,,,,,,,,,METAR,6.0
RODE 190159Z AUTO 01011KT 7SM FEW016 BKN038 OVC049 23/22 A3005 RMK AO2 SLP216 T02330217 PWINO $,RODE,2021-10-19T01:59:00Z,26.72,127.77,23.3,21.7,10,11,,7.0,30.050198,1021.6,,TRUE,TRUE,TRUE,,,,TRUE,,FEW,1600,BKN,3800,OVC,4900,,,VFR,,,,,,,,,,,,METAR,73.0
MUCF 190159Z AUTO 05005KT 24/23 Q1016,MUCF,2021-10-19T01:59:00Z,22.15,-80.4,24.0,23.0,50,5,,,30.0,,,TRUE,,,,,,,,,,,,,,,,,,,,,,,,,,,,METAR,35.0
KP92 190159Z AUTO 00000KT 18/16 A3010 RMK AO1 SLP193 T01830161,KP92,2021-10-19T01:59:00Z,29.57,-91.53,18.3,16.1,0,0,,,30.100393,1019.3,,TRUE,TRUE,,,,,,,,,,,,,,,,,,,,,,,,,,,METAR,1.0
KNOZ 190159Z AUTO 33015KT 10SM CLR 22/07 A2984 RMK AO2 SLP056 T02170072,KNOZ,2021-10-19T01:59:00Z,32.53,-114.5,21.7,7.2,330,15,,10.0,29.840551,1005.6,,TRUE,TRUE,,,,,,,CLR,,,,,,,,VFR,,,,,,,,,,,,METAR,78.0
KNGU 190159Z 25006KT 10SM CLR 16/05 A3006 RMK AO2 SLP179 T01610050 $,KNGU,2021-10-19T01:59:00Z,36.93,-76.27,16.1,5.0,250,6,,10.0,30.059055,1017.9,,,TRUE,TRUE,,,,,,CLR,,,,,,,,VFR,,,,,,,,,,,,METAR,3.0
KLAL 190159Z 09005KT 10SM SKC 21/15 A3012,KLAL,2021-10-19T01:59:00Z,27.98,-82.02,21.0,15.0,90,5,,10.0,30.121063,,,,,,,,,,,SKC,,,,,,,,VFR,,,,,,,,,,,,METAR,39.0
RKSO 190158Z 00000KT 6SM BR FEW007 SCT010 BKN030 13/13 A3010 RMK AO2A SLP196 T01310130 TSNO $,RKSO,2021-10-19T01:58:00Z,37.08,127.02,13.1,13.0,0,0,,6.0,30.100393,1019.6,,,TRUE,TRUE,,TRUE,,,BR,FEW,700,SCT,1000,BKN,3000,,,MVFR,,,,,,,,,,,,SPECI,10.0
PWAK 190158Z AUTO 08011KT 9999 CLR 31/24 A2993 RMK AO2 SLP141 T03050242 $,PWAK,2021-10-19T01:58:00Z,19.28,166.62,30.5,24.2,80,11,,6.21,29.929134,1014.1,,TRUE,TRUE,TRUE,,,,,,CLR,,,,,,,,VFR,,,,,,,,,,,,METAR,7.0
PHSF 190158Z AUTO 26009KT 9SM CLR 20/12 A3032 RMK AO2 SLPNO T01980121 $,PHSF,2021-10-19T01:58:00Z,19.77,-155.55,19.8,12.1,260,9,,9.0,30.318897,,,TRUE,TRUE,TRUE,,,,,,CLR,,,,,,,,VFR,,,,,,,,,,,,METAR,1863.0
PAFR 190158Z AUTO 00000KT 10SM OVC075 02/M01 A2959 RMK AO2 SLP030 T00161012 PNO FZRANO $,PAFR,2021-10-19T01:58:00Z,61.27,-149.65,1.6,-1.2,0,0,,10.0,29.589567,1003.0,,TRUE,TRUE,TRUE,,,TRUE,,,OVC,7500,,,,,,,VFR,,,,,,,,,,,,METAR,106.0
PAFB 190158Z AUTO 00000KT 8SM CLR 00/M08 A2965 RMK AO2 SLP049 T00021076 $,PAFB,2021-10-19T01:58:00Z,64.83,-147.62,0.2,-7.6,0,0,,8.0,29.648623,1004.9,,TRUE,TRUE,TRUE,,,,,,CLR,,,,,,,,VFR,,,,,,,,,,,,METAR,137.0
OKAS 190158Z AUTO 34008KT 9999 CLR 23/05 A2992 RMK AO2 SLP128 T02290049 $,OKAS,2021-10-19T01:58:00Z,29.35,47.52,22.9,4.9,340,8,,6.21,29.920275,1012.8,,TRUE,TRUE,TRUE,,,,,,CLR,,,,,,,,VFR,,,,,,,,,,,,METAR,144.0
KVBG 190158Z AUTO 33010KT 9SM CLR 12/09 A3000 RMK AO2 SLP162 T01170092 $,KVBG,2021-10-19T01:58:00Z,34.73,-120.58,11.7,9.2,330,10,,9.0,30.0,1016.2,,TRUE,TRUE,TRUE,,,,,,CLR,,,,,,,,VFR,,,,,,,,,,,,METAR,96.0
KTCM 190158Z AUTO 18003KT 10SM OVC044 11/07 A3000 RMK AO2 SLP164 T01090072 $,KTCM,2021-10-19T01:58:00Z,47.13,-122.47,10.9,7.2,180,3,,10.0,30.0,1016.4,,TRUE,TRUE,TRUE,,,,,,OVC,4400,,,,,,,VFR,,,,,,,,,,,,METAR,87.0
KT70 190158Z AUTO 11007KT 10SM CLR 21/13 A2993 RMK AO2 SLP128 T02140133 $,KT70,2021-10-19T01:58:00Z,29.12,-100.48,21.4,13.3,110,7,,10.0,29.929134,1012.8,,TRUE,TRUE,TRUE,,,,,,CLR,,,,,,,,VFR,,,,,,,,,,,,METAR,296.0
KSXS 190158Z AUTO 00000KT 10SM CLR 14/10 A3015 RMK AO2 SLP211 T01390102,KSXS,2021-10-19T01:58:00Z,31.37,-85.85,13.9,10.2,0,0,,10.0,30.15059,1021.1,,TRUE,TRUE,,,,,,,CLR,,,,,,,,VFR,,,,,,,,,,,,METAR,120.0
KSUU 190158Z AUTO 07005KT 10SM CLR 14/03 A3000 RMK AO2 VIS 2 3/4 RWY03R VIS 2 3/4 RWY21R SLP166 T01380030 $,KSUU,2021-10-19T01:58:00Z,38.27,-121.93,13.8,3.0,70,5,,10.0,30.0,1016.6,,TRUE,TRUE,TRUE,,,,,,CLR,,,,,,,,VFR,,,,,,,,,,,,METAR,9.0
KSLI 190158Z 18005KT 10SM FEW030 FEW060 15/10 A2995 RMK AO2A SLP145 T01480104,KSLI,2021-10-19T01:58:00Z,33.78,-118.03,14.8,10.4,180,5,,10.0,29.949802,1014.5,,,TRUE,,,,,,,FEW,3000,FEW,6000,,,,,VFR,,,,,,,,,,,,METAR,8.0
KSKA 190158Z 15003KT 10SM CLR 11/M00 A2985 RMK AO2A SLP120 T01081001 $,KSKA,2021-10-19T01:58:00Z,47.62,-117.67,10.8,-0.1,150,3,,10.0,29.84941,1012.0,,,TRUE,TRUE,,,,,,CLR,,,,,,,,VFR,,,,,,,,,,,,METAR,754.0
KSEQ 190158Z AUTO 15008KT 1/4SM R13/0600FT -RA CLR 18/13 A3007 RMK AO2 SLP182 P0000 T01760127,KSEQ,2021-10-19T01:58:00Z,29.57,-97.9,17.6,12.7,150,8,,0.25,30.070866,1018.2,,TRUE,TRUE,,,,,,-RA,CLR,,,,,,,,LIFR,,,,,,0.005,,,,,,SPECI,160.0
KROG 190158Z AUTO 13006KT 10SM CLR 14/08 A3009 RMK AO2 SLP184 T01440078,KROG,2021-10-19T01:58:00Z,36.37,-94.1,14.4,7.8,130,6,,10.0,30.088583,1018.4,,TRUE,TRUE,,,,,,,CLR,,,,,,,,VFR,,,,,,,,,,,,SPECI,407.0
KRIV 190158Z 30006KT 10SM BKN035 BKN045 15/08 A2995 RMK AO2A SLPNO ALSTG ESTMD,KRIV,2021-10-19T01:58:00Z,33.87,-117.23,15.0,8.0,300,6,,10.0,29.949802,,,,TRUE,,,,,,,BKN,3500,BKN,4500,,,,,VFR,,,,,,,,,,,,METAR,454.0
KPRN 190158Z AUTO 00000KT 10SM -RA CLR 12/09 A3016 RMK AO2 SLP161 P0000 T01220094 $,KPRN,2021-10-19T01:58:00Z,31.85,-86.62,12.2,9.4,0,0,,10.0,30.159449,1016.1,,TRUE,TRUE,TRUE,,,,,-RA,CLR,,,,,,,,VFR,,,,,,0.005,,,,,,METAR,137.0
KPOE 190158Z AUTO 00000KT 10SM CLR 14/10 A3010 RMK AO2 SLP194 T01390097,KPOE,2021-10-19T01:58:00Z,31.05,-93.2,13.9,9.7,0,0,,10.0,30.100393,1019.4,,TRUE,TRUE,,,,,,,CLR,,,,,,,,VFR,,,,,,,,,,,,METAR,98.0
KMUO 190158Z AUTO 22007KT 10SM OVC095 12/M00 A2976 RMK AO2 SLP075 T01231003 RVRNO VISNO RWY30 $,KMUO,2021-10-19T01:58:00Z,43.03,-115.87,12.3,-0.3,220,7,,10.0,29.760826,1007.5,,TRUE,TRUE,TRUE,,,,,,OVC,9500,,,,,,,VFR,,,,,,,,,,,,METAR,915.0
KMRH 190158Z AUTO 32006KT 10SM CLR 17/08 A3011 RMK AO2 SLP196 I1000 T01670078,KMRH,2021-10-19T01:58:00Z,34.73,-76.65,16.7,7.8,320,6,,10.0,30.109253,1019.6,,TRUE,TRUE,,,,,,,CLR,,,,,,,,VFR,,,,,,,,,,,,METAR,2.0
KMEI 190158Z 00000KT 10SM CLR 12/10 A3017 RMK AO2 SLP214 T01170100,KMEI,2021-10-19T01:58:00Z,32.33,-88.75,11.7,10.0,0,0,,10.0,30.171259,1021.4,,,TRUE,,,,,,,CLR,,,,,,,,VFR,,,,,,,,,,,,METAR,90.0
KLUF 190158Z AUTO 23009KT 10SM CLR 24/07 A2979 RMK AO2 SLP081 T02370065 $,KLUF,2021-10-19T01:58:00Z,33.53,-112.37,23.7,6.5,230,9,,10.0,29.790354,1008.1,,TRUE,TRUE,TRUE,,,,,,CLR,,,,,,,,VFR,,,,,,,,,,,,METAR,333.0
KLOR 190158Z AUTO 00000KT 9SM FEW270 12/11 A3016 RMK AO2 SLP196 T01170110,KLOR,2021-10-19T01:58:00Z,31.35,-85.75,11.7,11.0,0,0,,9.0,30.159449,1019.6,,TRUE,TRUE,,,,,,,FEW,27000,,,,,,,VFR,,,,,,,,,,,,METAR,92.0
KLGF 190158Z AUTO 29016KT 10SM M 21/06 A2983 RMK AO2 SLP100 T02140061 $,KLGF,2021-10-19T01:58:00Z,32.87,-114.4,21.4,6.1,290,16,,10.0,29.828741,1010.0,,TRUE,TRUE,TRUE,,,,,,,,,,,,,,,,,,,,,,,,,,METAR,118.0
KINS 190158Z AUTO 11005KT 10SM CLR 12/M01 A2988 RMK AO2 SLP097 T01201012 $,KINS,2021-10-19T01:58:00Z,36.58,-115.68,12.0,-1.2,110,5,,10.0,29.878937,1009.7,,TRUE,TRUE,TRUE,,,,,,CLR,,,,,,,,VFR,,,,,,,,,,,,METAR,954.0
KHUA 190158Z AUTO 00000KT 8SM CLR 12/09 A3017 RMK AO2 SLP217 T01150094,KHUA,2021-10-19T01:58:00Z,34.68,-86.68,11.5,9.4,0,0,,8.0,30.171259,1021.7,,TRUE,TRUE,,,,,,,CLR,,,,,,,,VFR,,,,,,,,,,,,METAR,200.0
KHMN 190158Z AUTO 18005KT 10SM CLR 21/01 A2994 RMK AO2 SLP086 T02120009 $,KHMN,2021-10-19T01:58:00Z,32.85,-106.1,21.2,0.9,180,5,,10.0,29.940945,1008.6,,TRUE,TRUE,TRUE,,,,,,CLR,,,,,,,,VFR,,,,,,,,,,,,METAR,1240.0
KHLR 190158Z AUTO 15003KT 10SM CLR 18/08 A3004 RMK AO2 SLP168 T01810084,KHLR,2021-10-19T01:58:00Z,31.13,-97.72,18.1,8.4,150,3,,10.0,30.041338,1016.8,,TRUE,TRUE,,,,,,,CLR,,,,,,,,VFR,,,,,,,,,,,,METAR,271.0
KHIF 190158Z 03003KT 10SM BKN046 05/03 A2980 RMK AO2A SLP072 P0001 T00500032,KHIF,2021-10-19T01:58:00Z,41.12,-111.97,5.0,3.2,30,3,,10.0,29.799213,1007.2,,,TRUE,,,,,,,BKN,4600,,,,,,,VFR,,,,,,0.01,,,,,,METAR,1461.0
KHEY 190158Z AUTO 08003KT 10SM FEW280 14/10 A3015 RMK AO2 SLP212 T01390103 $,KHEY,2021-10-19T01:58:00Z,31.35,-85.65,13.9,10.3,80,3,,10.0,30.15059,1021.2,,TRUE,TRUE,TRUE,,,,,,FEW,28000,,,,,,,VFR,,,,,,,,,,,,METAR,95.0
KGXF 190158Z 25009KT 9SM CLR 23/04 A2981 RMK AO2A SLP087 T02300040 $,KGXF,2021-10-19T01:58:00Z,32.88,-112.72,23.0,4.0,250,9,,9.0,29.811024,1008.7,,,TRUE,TRUE,,,,,,CLR,,,,,,,,VFR,,,,,,,,,,,,METAR,261.0
KGUR 190158Z AUTO 00000KT 10SM CLR 13/02 A2976 RMK AO2 SLP073 T01250018,KGUR,2021-10-19T01:58:00Z,42.25,-104.72,12.5,1.8,0,0,,10.0,29.760826,1007.3,,TRUE,TRUE,,,,,,,CLR,,,,,,,,VFR,,,,,,,,,,,,METAR,1341.0
KGOV 190158Z AUTO 00000KT 9SM CLR 04/04 A3007 RMK AO2 SLP198 T00390035 $,KGOV,2021-10-19T01:58:00Z,44.68,-84.73,3.9,3.5,0,0,,9.0,30.070866,1019.8,,TRUE,TRUE,TRUE,,,,,,CLR,,,,,,,,VFR,,,,,,,,,,,,METAR,350.0
KGFA 190158Z AUTO 36010KT 10SM FEW100 BKN130 09/01 A3004 RMK AO2 SLP189 T00850006 $,KGFA,2021-10-19T01:58:00Z,47.5,-111.18,8.5,0.6,360,10,,10.0,30.041338,1018.9,,TRUE,TRUE,TRUE,,,,,,FEW,10000,BKN,13000,,,,,VFR,,,,,,,,,,,,METAR,1058.0
KFHU 190158Z AUTO 23006G18KT 10SM CLR 19/06 A3001 RMK AO2 SLP104 T01920061,KFHU,2021-10-19T01:58:00Z,31.58,-110.35,19.2,6.1,230,6,18,10.0,30.008858,1010.4,,TRUE,TRUE,,,,,,,CLR,,,,,,,,VFR,,,,,,,,,,,,METAR,1424.0
KFEW 190158Z 12005KT 10SM CLR 11/M05 A2985 RMK AO2A SLP077 T01091053 $,KFEW,2021-10-19T01:58:00Z,41.13,-104.87,10.9,-5.3,120,5,,10.0,29.84941,1007.7,,,TRUE,TRUE,,,,,,CLR,,,,,,,,VFR,,,,,,,,,,,,METAR,1877.0
KFCS 190158Z AUTO 21007KT 10SM CLR 15/M06 A2979 RMK AO2 SLP066 T01511065 $,KFCS,2021-10-19T01:58:00Z,38.67,-104.77,15.1,-6.5,210,7,,10.0,29.790354,1006.6,,TRUE,TRUE,TRUE,,,,,,CLR,,,,,,,,VFR,,,,,,,,,,,,METAR,1789.0
KEUF 190158Z AUTO 00000KT 5SM BR CLR 11/09 A3018 RMK AO2 SLP220 T01110094,KEUF,2021-10-19T01:58:00Z,31.95,-85.13,11.1,9.4,0,0,,5.0,30.180119,1022.0,,TRUE,TRUE,,,,,,BR,CLR,,,,,,,,MVFR,,,,,,,,,,,,METAR,87.0
KEDW 190158Z 25012KT 50SM CLR 11/M01 A2989 RMK AO2A SLP118 T01111013,KEDW,2021-10-19T01:58:00Z,34.9,-117.87,11.1,-1.3,250,12,,50.0,29.890747,1011.8,,,TRUE,,,,,,,CLR,,,,,,,,VFR,,,,,,,,,,,,METAR,698.0
KDMA 190158Z AUTO 23005KT 10SM CLR 23/09 A2988 RMK AO2 SLP086 T02270091 $,KDMA,2021-10-19T01:58:00Z,32.17,-110.88,22.7,9.1,230,5,,10.0,29.878937,1008.6,,TRUE,TRUE,TRUE,,,,,,CLR,,,,,,,,VFR,,,,,,,,,,,,METAR,804.0
KCWN 190158Z AUTO 12008G21KT 10SM CLR 17/M08 A2984 RMK AO2 SLP944 T01711082 $,KCWN,2021-10-19T01:58:00Z,38.75,-104.85,17.1,-8.2,120,8,21,10.0,29.840551,994.4,,TRUE,TRUE,TRUE,,,,,,CLR,,,,,,,,VFR,,,,,,,,,,,,METAR,2040.0
KBYS 190158Z AUTO 24010KT 10SM CLR 13/M05 A2988 RMK AO2 SLP109 T01281051 $,KBYS,2021-10-19T01:58:00Z,35.28,-116.63,12.8,-5.1,240,10,,10.0,29.878937,1010.9,,TRUE,TRUE,TRUE,,,,,,CLR,,,,,,,,VFR,,,,,,,,,,,,METAR,717.0
KBKF 190158Z 17010KT 10SM FEW120 17/M05 A2977 RMK AO2A SLP028 T01711048,KBKF,2021-10-19T01:58:00Z,39.72,-104.75,17.1,-4.8,170,10,,10.0,29.769686,1002.8,,,TRUE,,,,,,,FEW,12000,,,,,,,VFR,,,,,,,,,,,,METAR,1703.0
KBAB 190158Z AUTO 03006KT 10SM CLR 13/06 A3001 RMK AO2 SLP166 T01270063 $,KBAB,2021-10-19T01:58:00Z,39.13,-121.43,12.7,6.3,30,6,,10.0,30.008858,1016.6,,TRUE,TRUE,TRUE,,,,,,CLR,,,,,,,,VFR,,,,,,,,,,,,METAR,31.0
KAPG 190158Z AUTO 00000KT 10SM BKN075 08/07 A3004 RMK AO2 SLP176 T00820072 $,KAPG,2021-10-19T01:58:00Z,39.47,-76.17,8.2,7.2,0,0,,10.0,30.041338,1017.6,,TRUE,TRUE,TRUE,,,,,,BKN,7500,,,,,,,VFR,,,,,,,,,,,,METAR,18.0
KAFF 190158Z AUTO 09009KT 10SM CLR 13/M06 A2982 RMK AO2 SLP043 T01311060,KAFF,2021-10-19T01:58:00Z,38.97,-104.82,13.1,-6.0,90,9,,10.0,29.819881,1004.3,,TRUE,TRUE,,,,,,,CLR,,,,,,,,VFR,,,,,,,,,,,,METAR,2003.0
KABH 190158Z AUTO 15010KT 10SM CLR 15/M03 A2984 RMK AO2 SLP062 T01521027,KABH,2021-10-19T01:58:00Z,38.75,-104.3,15.2,-2.7,150,10,,10.0,29.840551,1006.2,,TRUE,TRUE,,,,,,,CLR,,,,,,,,VFR,,,,,,,,,,,,METAR,1838.0
K9L2 190158Z AUTO 23008KT 10SM CLR 10/M01 A2990 RMK AO2 SLP120 T01021015 $,K9L2,2021-10-19T01:58:00Z,34.98,-117.87,10.2,-1.5,230,8,,10.0,29.899607,1012.0,,TRUE,TRUE,TRUE,,,,,,CLR,,,,,,,,VFR,,,,,,,,,,,,METAR,697.0
K1YT 190158Z AUTO 11009KT 10SM CLR 14/01 A2985 RMK AO2 SLPNO T01350010 $,K1YT,2021-10-19T01:58:00Z,46.67,-120.45,13.5,1.0,110,9,,10.0,29.84941,,,TRUE,TRUE,TRUE,,,,,,CLR,,,,,,,,VFR,,,,,,,,,,,,METAR,423.0
K1OM 190158Z AUTO 36012KT 10SM BKN150 12/00 A2995 RMK AO2 SLP148 T01160000 $,K1OM,2021-10-19T01:58:00Z,47.33,-108.93,11.6,0.0,360,12,,10.0,29.949802,1014.8,,TRUE,TRUE,TRUE,,,,,,BKN,15000,,,,,,,VFR,,,,,,,,,,,,METAR,1088.0
K1NW 190158Z AUTO 11009KT 10SM CLR 14/M00 A2978 RMK AO2 SLP060 T01361001 $,K1NW,2021-10-19T01:58:00Z,40.63,-103.83,13.6,-0.1,110,9,,10.0,29.778543,1006.0,,TRUE,TRUE,TRUE,,,,,,CLR,,,,,,,,VFR,,,,,,,,,,,,METAR,1461.0
K1NM 190158Z AUTO 28005KT 10SM BKN150 BKN190 11/M01 A2994 RMK AO2 SLP153 T01051010 $,K1NM,2021-10-19T01:58:00Z,47.07,-109.03,10.5,-1.0,280,5,,10.0,29.940945,1015.3,,TRUE,TRUE,TRUE,,,,,,BKN,15000,BKN,19000,,,,,VFR,,,,,,,,,,,,METAR,1169.0
K1MW 190158Z AUTO 08008KT 10SM CLR 10/01 A2978 RMK AO2 SLP082 T00960006 $,K1MW,2021-10-19T01:58:00Z,40.7,-103.48,9.6,0.6,80,8,,10.0,29.778543,1008.2,,TRUE,TRUE,TRUE,,,,,,CLR,,,,,,,,VFR,,,,,,,,,,,,METAR,1338.0
K1MM 190158Z AUTO 33009KT 10SM SCT150 08/M01 A2999 RMK AO2 SLP171 T00821007 $,K1MM,2021-10-19T01:58:00Z,47.02,-109.63,8.2,-0.7,330,9,,10.0,29.991142,1017.1,,TRUE,TRUE,TRUE,,,,,,SCT,15000,,,,,,,VFR,,,,,,,,,,,,METAR,1256.0
K1LW 190158Z AUTO 09012KT 10SM CLR 12/01 A2982 RMK AO2 SLP069 T01170009 $,K1LW,2021-10-19T01:58:00Z,40.92,-103.7,11.7,0.9,90,12,,10.0,29.819881,1006.9,,TRUE,TRUE,TRUE,,,,,,CLR,,,,,,,,VFR,,,,,,,,,,,,METAR,1514.0
K1KW 190158Z AUTO 12006KT 10SM CLR 09/01 A2979 RMK AO2 SLP084 T00870010 $,K1KW,2021-10-19T01:58:00Z,41.13,-103.48,8.7,1.0,120,6,,10.0,29.790354,1008.4,,TRUE,TRUE,TRUE,,,,,,CLR,,,,,,,,VFR,,,,,,,,,,,,METAR,1443.0
K1KM 190158Z AUTO 02026G30KT 10SM CLR 09/M00 A2992 RMK AO2 PK WND 02031/44 SLP142 T00911005 $,K1KM,2021-10-19T01:58:00Z,46.45,-109.8,9.1,-0.5,20,26,30,10.0,29.920275,1014.2,,TRUE,TRUE,TRUE,,,,,,CLR,,,,,,,,VFR,,,,,,,,,,,,METAR,1332.0
K1JM 190158Z AUTO 35014KT 10SM BKN170 06/M01 A3003 RMK AO2 SLP196 T00601007 $,K1JM,2021-10-19T01:58:00Z,47.75,-111.55,6.0,-0.7,350,14,,10.0,30.029528,1019.6,,TRUE,TRUE,TRUE,,,,,,BKN,17000,,,,,,,VFR,,,,,,,,,,,,METAR,1154.0
K1J0 190158Z AUTO 00000KT 10SM CLR 13/13 A3017 RMK AO2 SLP200 T01330128,K1J0,2021-10-19T01:58:00Z,30.85,-85.6,13.3,12.8,0,0,,10.0,30.171259,1020.0,,TRUE,TRUE,,,,,,,CLR,,,,,,,,VFR,,,,,,,,,,,,METAR,26.0
K1IM 190158Z AUTO 01006KT 10SM OVC110 08/00 A3003 RMK AO2 SLP192 T00820001 $,K1IM,2021-10-19T01:58:00Z,47.32,-111.47,8.2,0.1,10,6,,10.0,30.029528,1019.2,,TRUE,TRUE,TRUE,,,,,,OVC,11000,,,,,,,VFR,,,,,,,,,,,,METAR,1110.0
K1HW 190158Z AUTO 14006KT 10SM CLR 09/02 A2980 RMK AO2 SLP095 T00930020 $,K1HW,2021-10-19T01:58:00Z,41.32,-102.83,9.3,2.0,140,6,,10.0,29.799213,1009.5,,TRUE,TRUE,TRUE,,,,,,CLR,,,,,,,,VFR,,,,,,,,,,,,METAR,1265.0
K1GM 190158Z AUTO 02012KT 10SM FEW100 07/M00 A3002 RMK AO2 SLP173 T00671005 $,K1GM,2021-10-19T01:58:00Z,47.33,-112.1,6.7,-0.5,20,12,,10.0,30.02067,1017.3,,TRUE,TRUE,TRUE,,,,,,FEW,10000,,,,,,,VFR,,,,,,,,,,,,METAR,1317.0
K1EW 190158Z AUTO 14009KT 10SM CLR 11/M01 A2982 RMK AO2 SLP073 T01081014 $,K1EW,2021-10-19T01:58:00Z,41.12,-103.98,10.8,-1.4,140,9,,10.0,29.819881,1007.3,,TRUE,TRUE,TRUE,,,,,,CLR,,,,,,,,VFR,,,,,,,,,,,,METAR,1609.0
K1EM 190158Z AUTO 28004KT 10SM BKN120 BKN150 10/M00 A2997 RMK AO2 SLP163 T00951003 $,K1EM,2021-10-19T01:58:00Z,47.45,-109.42,9.5,-0.3,280,4,,10.0,29.970472,1016.3,,TRUE,TRUE,TRUE,,,,,,BKN,12000,BKN,15000,,,,,VFR,,,,,,,,,,,,METAR,1118.0
K1DW 190158Z AUTO 14008KT 10SM CLR 10/00 A2985 RMK AO2 SLP079 T01000002 $,K1DW,2021-10-19T01:58:00Z,41.37,-103.8,10.0,0.2,140,8,,10.0,29.84941,1007.9,,TRUE,TRUE,TRUE,,,,,,CLR,,,,,,,,VFR,,,,,,,,,,,,METAR,1539.0
K1DM 190158Z AUTO 33015G22KT M M BKN120 M M RMK AO2 SLPNO PWINO $,K1DM,2021-10-19T01:58:00Z,47.37,-109.8,,,330,15,22,,,,,TRUE,TRUE,TRUE,,,,TRUE,,BKN,12000,,,,,,,,,,,,,,,,,,,METAR,1093.0
K1CW 190158Z AUTO 15016KT 10SM CLR 13/00 A2982 RMK AO2 SLP079 T01320004 TSNO $,K1CW,2021-10-19T01:58:00Z,41.58,-103.57,13.2,0.4,150,16,,10.0,29.819881,1007.9,,TRUE,TRUE,TRUE,,TRUE,,,,CLR,,,,,,,,VFR,,,,,,,,,,,,METAR,1370.0
K1BW 190158Z AUTO 13007KT 10SM CLR 11/M01 A2984 RMK AO2 SLP065 T01121013 $,K1BW,2021-10-19T01:58:00Z,41.52,-104.0,11.2,-1.3,130,7,,10.0,29.840551,1006.5,,TRUE,TRUE,TRUE,,,,,,CLR,,,,,,,,VFR,,,,,,,,,,,,METAR,1606.0
K1AW 190158Z AUTO 11007KT 10SM CLR 09/M04 A2981 RMK AO2 SLP074 T00921040 $,K1AW,2021-10-19T01:58:00Z,41.33,-104.27,9.2,-4.0,110,7,,10.0,29.811024,1007.4,,TRUE,TRUE,TRUE,,,,,,CLR,,,,,,,,VFR,,,,,,,,,,,,METAR,1670.0
K1AM 190158Z AUTO 26010KT 10SM BKN100 08/00 A3002 RMK AO2 SLP131 T00840000 $,K1AM,2021-10-19T01:58:00Z,47.28,-110.8,8.4,0.0,260,10,,10.0,30.02067,1013.1,,TRUE,TRUE,TRUE,,,,,,BKN,10000,,,,,,,VFR,,,,,,,,,,,,METAR,1228.0
K0J4 190158Z AUTO 00000KT 10SM CLR 15/10 A3018 RMK AO2 SLP217 T01500100 $,K0J4,2021-10-19T01:58:00Z,31.05,-86.32,15.0,10.0,0,0,,10.0,30.180119,1021.7,,TRUE,TRUE,TRUE,,,,,,CLR,,,,,,,,VFR,,,,,,,,,,,,METAR,96.0
PHNG 190157Z 05010KT 10SM FEW027 27/20 A3002 RMK AO2 SLP159 T02670200 $,PHNG,2021-10-19T01:57:00Z,21.43,-157.77,26.7,20.0,50,10,,10.0,30.02067,1015.9,,,TRUE,TRUE,,,,,,FEW,2700,,,,,,,VFR,,,,,,,,,,,,METAR,1.0
PGWT 190157Z 07006KT 7SM FEW017 FEW060 SCT120 SCT150 29/25 A2989,PGWT,2021-10-19T01:57:00Z,14.98,145.62,29.0,25.0,70,6,,7.0,29.890747,,,,,,,,,,,FEW,1700,FEW,6000,SCT,12000,SCT,15000,VFR,,,,,,,,,,,,METAR,84.0
PAJC 190157Z AUTO 26011G15KT 10SM CLR 10/00 A2963 RMK AO2 SLP035 T01000000 PNO $,PAJC,2021-10-19T01:57:00Z,56.32,-158.37,10.0,0.0,260,11,15,10.0,29.630905,1003.5,,TRUE,TRUE,TRUE,,,,,,CLR,,,,,,,,VFR,,,,,,,,,,,,METAR,10.0
KNYL 190157Z 33010KT 7SM CLR 21/07 A2984 RMK AO2 SLP103 T02110067,KNYL,2021-10-19T01:57:00Z,32.65,-114.62,21.1,6.7,330,10,,7.0,29.840551,1010.3,,,TRUE,,,,,,,CLR,,,,,,,,VFR,,,,,,,,,,,,METAR,58.0
KNJM 190157Z AUTO 32004KT 10SM CLR 15/06 A3012 RMK AO2 SLP203 T01500061 $,KNJM,2021-10-19T01:57:00Z,34.68,-77.02,15.0,6.1,320,4,,10.0,30.121063,1020.3,,TRUE,TRUE,TRUE,,,,,,CLR,,,,,,,,VFR,,,,,,,,,,,,METAR,5.0
KMNE 190157Z AUTO 10003KT 10SM CLR 15/10 A3012 RMK AO2,KMNE,2021-10-19T01:57:00Z,32.65,-93.3,15.0,10.0,100,3,,10.0,30.121063,,,TRUE,TRUE,,,,,,,CLR,,,,,,,,VFR,,,,,,,,,,,,METAR,84.0
KFLG 190157Z 22029G36KT 10SM FEW033 09/03 A2990 RMK AO2 PK WND 23044/0142 SLP068 T00890028,KFLG,2021-10-19T01:57:00Z,35.13,-111.67,8.9,2.8,220,29,36,10.0,29.899607,1006.8,,,TRUE,,,,,,,FEW,3300,,,,,,,VFR,,,,,,,,,,,,METAR,2134.0
KBBB 190157Z AUTO 18006KT 10SM CLR 14/04 A2984 RMK AO2,KBBB,2021-10-19T01:57:00Z,45.32,-95.65,14.0,4.0,180,6,,10.0,29.840551,,,TRUE,TRUE,,,,,,,CLR,,,,,,,,VFR,,,,,,,,,,,,SPECI,315.0
KAQV 190157Z AUTO 00000KT 9SM CLR 12/09 A3010 RMK AO2 SLP193 T01170089,KAQV,2021-10-19T01:57:00Z,31.4,-93.3,11.7,8.9,0,0,,9.0,30.100393,1019.3,,TRUE,TRUE,,,,,,,CLR,,,,,,,,VFR,,,,,,,,,,,,METAR,123.0
TJSJ 190156Z 00000KT 10SM FEW026 SCT039 29/23 A2994 RMK AO2 SLP138 T02890233 PNO,TJSJ,2021-10-19T01:56:00Z,18.43,-66.02,28.9,23.3,0,0,,10.0,29.940945,1013.8,,,TRUE,,,,,,,FEW,2600,SCT,3900,,,,,VFR,,,,,,,,,,,,SPECI,3.0
RKSG 190156Z AUTO 25003KT 8SM -RA BKN030 BKN045 BKN060 13/08 A3009 RMK AO2 DZB20E25RAB25E34DZB34E38RAB38 SLP193 P0000 T01270080 $,RKSG,2021-10-19T01:56:00Z,36.97,127.02,12.7,8.0,250,3,,8.0,30.088583,1019.3,,TRUE,TRUE,TRUE,,,,,-RA,BKN,3000,BKN,4500,BKN,6000,,,MVFR,,,,,,0.005,,,,,,SPECI,12.0
RKJK 190156Z 26005KT 10SM -RA SCT028 SCT036 BKN065 14/09 A3010 RMK AO2A DZB38E42RAB42 SLP197 P0000 T01440094 $,RKJK,2021-10-19T01:56:00Z,35.9,126.62,14.4,9.4,260,5,,10.0,30.100393,1019.7,,,TRUE,TRUE,,,,,-RA,SCT,2800,SCT,3600,BKN,6500,,,VFR,,,,,,0.005,,,,,,SPECI,8.0
RJTY 190156Z AUTO 35007KT 10SM OVC031 14/06 A3009 RMK AO2 SLP194 T01380064 FZRANO $,RJTY,2021-10-19T01:56:00Z,35.75,139.33,13.8,6.4,350,7,,10.0,30.088583,1019.4,,TRUE,TRUE,TRUE,,,TRUE,,,OVC,3100,,,,,,,VFR,,,,,,,,,,,,METAR,136.0
PPIZ 190156Z AUTO 06014KT 10SM CLR M17/M19 A2980 RMK AO2 SLP095 T11671189 FZRANO PNO $,PPIZ,2021-10-19T01:56:00Z,69.73,-163.0,-16.7,-18.9,60,14,,10.0,29.799213,1009.5,,TRUE,TRUE,TRUE,,,TRUE,,,CLR,,,,,,,,VFR,,,,,,,,,,,,SPECI,5.0
PPIT 190156Z AUTO 15007KT 10SM FEW011 M02/M02 A2955 RMK AO2 SLP011 T10171017 FZRANO TSNO,PPIT,2021-10-19T01:56:00Z,60.9,-162.43,-1.7,-1.7,150,7,,10.0,29.551182,1001.1,,TRUE,TRUE,,,TRUE,TRUE,,,FEW,1100,,,,,,,VFR,,,,,,,,,,,,METAR,4.0
PMDY 190156Z AUTO 10011KT 070V130 5SM HZ BKN028 29/22 A3018 RMK AO2 SLP219 T02890217,PMDY,2021-10-19T01:56:00Z,28.22,-177.37,28.9,21.7,100,11,,5.0,30.180119,1021.9,,TRUE,TRUE,,,,,,HZ,BKN,2800,,,,,,,MVFR,,,,,,,,,,,,SPECI,6.0
PHNY 190156Z AUTO 04016KT 10SM CLR 25/19 A3006 RMK AO2 SLP159 T02500189,PHNY,2021-10-19T01:56:00Z,20.77,-156.95,25.0,18.9,40,16,,10.0,30.059055,1015.9,,TRUE,TRUE,,,,,,,CLR,,,,,,,,VFR,,,,,,,,,,,,METAR,395.0
PHHI 190156Z AUTO 07012G18KT 10SM CLR 26/17 A3005 RMK AO2 SLP167 T02610174 $,PHHI,2021-10-19T01:56:00Z,21.48,-158.05,26.1,17.4,70,12,18,10.0,30.050198,1016.7,,TRUE,TRUE,TRUE,,,,,,CLR,,,,,,,,VFR,,,,,,,,,,,,METAR,246.0
PFYU 190156Z 03003KT 10SM OVC070 M07/M09 A2976 RMK AO2 SLP095 T10721089,PFYU,2021-10-19T01:56:00Z,66.57,-145.23,-7.2,-8.9,30,3,,10.0,29.760826,1009.5,,,TRUE,,,,,,,OVC,7000,,,,,,,VFR,,,,,,,,,,,,METAR,130.0
PFSH 190156Z AUTO 06008KT 10SM BKN026 M03/M06 A2960 RMK AO2 SLP024 T10281056 FZRANO,PFSH,2021-10-19T01:56:00Z,64.37,-161.22,-2.8,-5.6,60,8,,10.0,29.601377,1002.4,,TRUE,TRUE,,,,TRUE,,,BKN,2600,,,,,,,MVFR,,,,,,,,,,,,METAR,6.0
PFKW 190156Z AUTO 19005KT 10SM SCT005 M03/M04 A2958 RMK AO2 SLP017 T10281044 FZRANO,PFKW,2021-10-19T01:56:00Z,60.8,-161.43,-2.8,-4.4,190,5,,10.0,29.58071,1001.7,,TRUE,TRUE,,,,TRUE,,,SCT,500,,,,,,,VFR,,,,,,,,,,,,METAR,4.0
PFKT 190156Z AUTO 08011KT 10SM FEW120 M04/M08 A2954 RMK AO2 SLP003 T10391078 FZRANO,PFKT,2021-10-19T01:56:00Z,65.33,-166.47,-3.9,-7.8,80,11,,10.0,29.53937,1000.3,,TRUE,TRUE,,,,TRUE,,,FEW,12000,,,,,,,VFR,,,,,,,,,,,,METAR,8.0
PFCL 190156Z AUTO 20004KT 10SM CLR 04/M01 A2962 RMK AO2 SLP024 T00441006 TSNO,PFCL,2021-10-19T01:56:00Z,58.83,-158.53,4.4,-0.6,200,4,,10.0,29.619095,1002.4,,TRUE,TRUE,,,TRUE,,,,CLR,,,,,,,,VFR,,,,,,,,,,,,METAR,23.0
PAZK 190156Z AUTO 06004KT 10SM OVC065 M04/M06 A2959 RMK AO2 SLP081 T10391056 FZRANO,PAZK,2021-10-19T01:56:00Z,61.93,-147.17,-3.9,-5.6,60,4,,10.0,29.589567,1008.1,,TRUE,TRUE,,,,TRUE,,,OVC,6500,,,,,,,VFR,,,,,,,,,,,,METAR,1002.0
PAWS 190156Z AUTO 00000KT 10SM CLR 03/M04 A2963 RMK AO2 SLP040 T00331039,PAWS,2021-10-19T01:56:00Z,61.57,-149.53,3.3,-3.9,0,0,,10.0,29.630905,1004.0,,TRUE,TRUE,,,,,,,CLR,,,,,,,,VFR,,,,,,,,,,,,METAR,102.0
PAWN 190156Z AUTO 03005KT 10SM CLR M08/M13 A2971 RMK AO2 SLP075 T10831133 FZRANO,PAWN,2021-10-19T01:56:00Z,67.57,-162.98,-8.3,-13.3,30,5,,10.0,29.71063,1007.5,,TRUE,TRUE,,,,TRUE,,,CLR,,,,,,,,VFR,,,,,,,,,,,,METAR,26.0
PAWM 190156Z AUTO 13004KT 9SM CLR M04/M08 A2956 RMK AO2 SLP017 T10391078 FZRANO PNO $,PAWM,2021-10-19T01:56:00Z,64.68,-163.42,-3.9,-7.8,130,4,,9.0,29.56004,1001.7,,TRUE,TRUE,TRUE,,,TRUE,,,CLR,,,,,,,,VFR,,,,,,,,,,,,METAR,80.0
PAVD 190156Z 00000KT 10SM BKN085 OVC120 07/M02 A2970 RMK AO2 SLP055 T00721017,PAVD,2021-10-19T01:56:00Z,61.13,-146.25,7.2,-1.7,0,0,,10.0,29.698818,1005.5,,,TRUE,,,,,,,BKN,8500,OVC,12000,,,,,VFR,,,,,,,,,,,,METAR,21.0
PAVC 190156Z AUTO 24009KT 10SM CLR 07/02 A2969 RMK AO2 SLP055 T00670017 PNO $,PAVC,2021-10-19T01:56:00Z,55.12,-162.27,6.7,1.7,240,9,,10.0,29.68996,1005.5,,TRUE,TRUE,TRUE,,,,,,CLR,,,,,,,,VFR,,,,,,,,,,,,METAR,48.0
PAVA 190156Z AUTO 14014KT 10SM SCT050 OVC065 M02/M04 A2947 RMK AO2 SLP985 T10171039 FZRANO PNO $,PAVA,2021-10-19T01:56:00Z,61.53,-165.6,-1.7,-3.9,140,14,,10.0,29.471457,998.5,,TRUE,TRUE,TRUE,,,TRUE,,,SCT,5000,OVC,6500,,,,,VFR,,,,,,,,,,,,METAR,14.0
PAUN 190156Z AUTO 08013KT 10SM CLR M02/M06 A2959 RMK AO2 SLP025 T10221061 FZRANO,PAUN,2021-10-19T01:56:00Z,63.88,-160.8,-2.2,-6.1,80,13,,10.0,29.589567,1002.5,,TRUE,TRUE,,,,TRUE,,,CLR,,,,,,,,VFR,,,,,,,,,,,,METAR,4.0
PATG 190156Z AUTO 22010KT 10SM CLR 04/00 A2961 RMK AO2 SLP122 T00390000,PATG,2021-10-19T01:56:00Z,59.05,-160.38,3.9,0.0,220,10,,10.0,29.610237,1012.2,,TRUE,TRUE,,,,,,,CLR,,,,,,,,VFR,,,,,,,,,,,,METAR,1.0
PATE 190156Z AUTO 09009KT 10SM CLR M05/M08 A2950 RMK AO2 SLP000 T10501078 FZRANO,PATE,2021-10-19T01:56:00Z,65.23,-166.33,-5.0,-7.8,90,9,,10.0,29.500984,1000.0,,TRUE,TRUE,,,,TRUE,,,CLR,,,,,,,,VFR,,,,,,,,,,,,METAR,93.0
PASX 190156Z AUTO 08005KT 10SM OVC090 06/M01 A2962 RMK AO2 SLP041 T00561011,PASX,2021-10-19T01:56:00Z,60.48,-151.05,5.6,-1.1,80,5,,10.0,29.619095,1004.1,,TRUE,TRUE,,,,,,,OVC,9000,,,,,,,VFR,,,,,,,,,,,,METAR,28.0
PASM 190156Z AUTO 13010KT 10SM FEW017 BKN110 M02/M04 A2954 RMK AO2 SLP013 T10221044 FZRANO,PASM,2021-10-19T01:56:00Z,62.07,-163.3,-2.2,-4.4,130,10,,10.0,29.53937,1001.3,,TRUE,TRUE,,,,TRUE,,,FEW,1700,BKN,11000,,,,,VFR,,,,,,,,,,,,METAR,108.0
PASK 190156Z AUTO 06006KT 10SM CLR M06/M10 A2971 RMK AO2 SLP058 T10561100 FZRANO,PASK,2021-10-19T01:56:00Z,66.6,-160.0,-5.6,-10.0,60,6,,10.0,29.71063,1005.8,,TRUE,TRUE,,,,TRUE,,,CLR,,,,,,,,VFR,,,,,,,,,,,,METAR,3.0
PASA 190156Z AUTO 12026KT 3/4SM -SN BR OVC014 00/M01 A2925 RMK AO2 PK WND 12032/0138 SLP905 P0000 T00001011 FZRANO,PASA,2021-10-19T01:56:00Z,63.68,-170.5,0.0,-1.1,120,26,,0.75,29.25,990.5,,TRUE,TRUE,,,,TRUE,,-SN BR,OVC,1400,,,,,,,LIFR,,,,,,0.005,,,,,,METAR,9.0
PARY 190156Z AUTO 00000KT 10SM CLR M04/M08 A2962 RMK AO2 SLP046 T10441083 FZRANO,PARY,2021-10-19T01:56:00Z,64.73,-155.47,-4.4,-8.3,0,0,,10.0,29.619095,1004.6,,TRUE,TRUE,,,,TRUE,,,CLR,,,,,,,,VFR,,,,,,,,,,,,METAR,185.0
PARS 190156Z AUTO 08005KT CLR M01/M04 A2956 RMK AO2 SLP013 T10111044 PWINO FZRANO RVRNO $,PARS,2021-10-19T01:56:00Z,61.77,-161.32,-1.1,-4.4,80,5,,,29.56004,1001.3,,TRUE,TRUE,TRUE,,,TRUE,TRUE,,CLR,,,,,,,,,,,,,,,,,,,,METAR,15.0
PARC 190156Z AUTO 01003KT 9SM FEW021 OVC090 M13/M15 A2966 RMK AO2 SLP123 T11331150 FZRANO,PARC,2021-10-19T01:56:00Z,68.12,-145.58,-13.3,-15.0,10,3,,9.0,29.660433,1012.3,,TRUE,TRUE,,,,TRUE,,,FEW,2100,OVC,9000,,,,,VFR,,,,,,,,,,,,METAR,626.0
PAQH 190156Z AUTO 21007KT 10SM CLR M02/M03 A2960 RMK AO2 SLP024 T10171033 FZRANO,PAQH,2021-10-19T01:56:00Z,59.75,-161.85,-1.7,-3.3,210,7,,10.0,29.601377,1002.4,,TRUE,TRUE,,,,TRUE,,,CLR,,,,,,,,VFR,,,,,,,,,,,,METAR,8.0
PAPN 190156Z AUTO 29004KT 10SM CLR 05/03 A2961 RMK AO2 SLP030 T00500028,PAPN,2021-10-19T01:56:00Z,57.58,-157.57,5.0,2.8,290,4,,10.0,29.610237,1003.0,,TRUE,TRUE,,,,,,,CLR,,,,,,,,VFR,,,,,,,,,,,,METAR,19.0
PAPM 190156Z AUTO 13003KT 10SM OVC020 A2960 RMK AO2 SLPNO FZRANO $,PAPM,2021-10-19T01:56:00Z,59.02,-161.82,,,130,3,,10.0,29.601377,,,TRUE,TRUE,TRUE,,,TRUE,,,OVC,2000,,,,,,,MVFR,,,,,,,,,,,,METAR,4.0
PAPH 190156Z AUTO 27004KT 10SM CLR 07/03 A2966 RMK AO2 SLP044 T00720028,PAPH,2021-10-19T01:56:00Z,56.95,-158.62,7.2,2.8,270,4,,10.0,29.660433,1004.4,,TRUE,TRUE,,,,,,,CLR,,,,,,,,VFR,,,,,,,,,,,,METAR,29.0
PAOU 190156Z AUTO 29008KT 7SM FEW020 06/03 A2969 RMK AO2 SLP053 T00610033,PAOU,2021-10-19T01:56:00Z,56.0,-161.17,6.1,3.3,290,8,,7.0,29.68996,1005.3,,TRUE,TRUE,,,,,,,FEW,2000,,,,,,,VFR,,,,,,,,,,,,METAR,3.0
PAOO 190156Z AUTO 10014KT 1SM -SN BR FEW014 BKN032 OVC039 M01/M02 A2950 RMK AO2 SNB33 SLPNO P0000 T10111017 FZRANO TSNO $,PAOO,2021-10-19T01:56:00Z,60.53,-165.08,-1.1,-1.7,100,14,,1.0,29.500984,,,TRUE,TRUE,TRUE,,TRUE,TRUE,,-SN BR,FEW,1400,BKN,3200,OVC,3900,,,IFR,,,,,,0.005,,,,,,METAR,15.0
PAOH 190156Z AUTO 07008KT 10SM OVC120 06/M01 A2975 RMK AO2 SLP076 T00611011,PAOH,2021-10-19T01:56:00Z,58.1,-135.45,6.1,-1.1,70,8,,10.0,29.749016,1007.6,,TRUE,TRUE,,,,,,,OVC,12000,,,,,,,VFR,,,,,,,,,,,,METAR,0.0
PANW 190156Z AUTO 00000KT 10SM CLR 04/M04 A2960 RMK AO2 SLP032 T00391044,PANW,2021-10-19T01:56:00Z,59.45,-157.32,3.9,-4.4,0,0,,10.0,29.601377,1003.2,,TRUE,TRUE,,,,,,,CLR,,,,,,,,VFR,,,,,,,,,,,,METAR,100.0
PANV 190156Z AUTO 05008KT 10SM CLR M02/M06 A2956 RMK AO2 SLP108 T10221061 FZRANO TSNO,PANV,2021-10-19T01:56:00Z,62.65,-160.18,-2.2,-6.1,50,8,,10.0,29.56004,1010.8,,TRUE,TRUE,,,TRUE,TRUE,,,CLR,,,,,,,,VFR,,,,,,,,,,,,METAR,91.0
PANI 190156Z AUTO 12006KT 10SM CLR M01/M04 A2962 RMK AO2 SLP022 T10111044 FZRANO,PANI,2021-10-19T01:56:00Z,61.58,-159.53,-1.1,-4.4,120,6,,10.0,29.619095,1002.2,,TRUE,TRUE,,,,TRUE,,,CLR,,,,,,,,VFR,,,,,,,,,,,,METAR,21.0
PAMO 190156Z AUTO 15015KT 10SM BKN110 M02/M04 A2952 RMK AO2 SLP003 T10221044 FZRANO,PAMO,2021-10-19T01:56:00Z,62.1,-163.68,-2.2,-4.4,150,15,,10.0,29.518702,1000.3,,TRUE,TRUE,,,,TRUE,,,BKN,11000,,,,,,,VFR,,,,,,,,,,,,METAR,93.0
PAMK 190156Z AUTO 10008KT 10SM CLR M01/M05 A2955 RMK AO2 SLP009 T10111050 FZRANO PNO $,PAMK,2021-10-19T01:56:00Z,63.48,-162.12,-1.1,-5.0,100,8,,10.0,29.551182,1000.9,,TRUE,TRUE,TRUE,,,TRUE,,,CLR,,,,,,,,VFR,,,,,,,,,,,,METAR,31.0
PALG 190156Z AUTO 09004KT 10SM CLR M02/M05 A2956 RMK AO2 SLP015 T10171050 FZRANO,PALG,2021-10-19T01:56:00Z,61.53,-160.33,-1.7,-5.0,90,4,,10.0,29.56004,1001.5,,TRUE,TRUE,,,,TRUE,,,CLR,,,,,,,,VFR,,,,,,,,,,,,METAR,13.0
PAKP 190156Z AUTO 35003KT 10SM CLR M18/M21 A2966 RMK AO2 SLP115 T11831206 FZRANO,PAKP,2021-10-19T01:56:00Z,68.13,-151.73,-18.3,-20.6,350,3,,10.0,29.660433,1011.5,,TRUE,TRUE,,,,TRUE,,,CLR,,,,,,,,VFR,,,,,,,,,,,,METAR,649.0
PAKK 190156Z AUTO 01004KT 10SM CLR M05/M09 A2957 RMK AO2 SLP023 T10501094 FZRANO,PAKK,2021-10-19T01:56:00Z,64.93,-161.15,-5.0,-9.4,10,4,,10.0,29.568897,1002.3,,TRUE,TRUE,,,,TRUE,,,CLR,,,,,,,,VFR,,,,,,,,,,,,METAR,56.0
PAKH 190156Z AUTO 03010KT 10SM FEW045 BKN055 11/02 A2948 RMK AO2 SLP985 T01060017,PAKH,2021-10-19T01:56:00Z,56.93,-154.18,10.6,1.7,30,10,,10.0,29.480314,998.5,,TRUE,TRUE,,,,,,,FEW,4500,BKN,5500,,,,,VFR,,,,,,,,,,,,METAR,15.0
PAJZ 190156Z AUTO 29003KT 7SM CLR 04/M04 A2964 RMK AO2 SLP044 T00391044 $,PAJZ,2021-10-19T01:56:00Z,59.73,-157.27,3.9,-4.4,290,3,,7.0,29.639763,1004.4,,TRUE,TRUE,TRUE,,,,,,CLR,,,,,,,,VFR,,,,,,,,,,,,METAR,80.0
PAIW 190156Z AUTO 08014KT 10SM OVC029 M03/M06 A2951 RMK AO2 SLP995 T10281056 FZRANO,PAIW,2021-10-19T01:56:00Z,65.62,-168.1,-2.8,-5.6,80,14,,10.0,29.509842,999.5,,TRUE,TRUE,,,,TRUE,,,OVC,2900,,,,,,,MVFR,,,,,,,,,,,,METAR,6.0
PAIN 190156Z AUTO VRB04KT 10SM CLR 02/M09 A2960 RMK AO2 SLP054 T00171089 FZRANO,PAIN,2021-10-19T01:56:00Z,63.73,-148.92,1.7,-8.9,0,4,,10.0,29.601377,1005.4,,TRUE,TRUE,,,,TRUE,,,CLR,,,,,,,,VFR,,,,,,,,,,,,METAR,525.0
PAIK 190156Z AUTO 35005KT 10SM CLR M07/M13 A2972 RMK AO2 SLP069 T10671133 FZRANO,PAIK,2021-10-19T01:56:00Z,66.98,-160.43,-6.7,-13.3,350,5,,10.0,29.719488,1006.9,,TRUE,TRUE,,,,TRUE,,,CLR,,,,,,,,VFR,,,,,,,,,,,,METAR,49.0
PAII 190156Z AUTO 26010KT 10SM CLR 04/01 A2963 RMK AO2 SLP033 T00390006,PAII,2021-10-19T01:56:00Z,58.18,-157.38,3.9,0.6,260,10,,10.0,29.630905,1003.3,,TRUE,TRUE,,,,,,,CLR,,,,,,,,VFR,,,,,,,,,,,,METAR,31.0
PAIG 190156Z AUTO 06003KT 1 1/4SM HZ CLR 06/M01 A2959 RMK AO2 SLP029 T00611006 PWINO $,PAIG,2021-10-19T01:56:00Z,59.32,-155.9,6.1,-0.6,60,3,,1.25,29.589567,1002.9,,TRUE,TRUE,TRUE,,,,TRUE,HZ,CLR,,,,,,,,IFR,,,,,,,,,,,,METAR,24.0
PAHP 190156Z AUTO 14018G22KT 9SM -SN OVC048 M01/M03 A2943 RMK AO2 SNB51 SLP966 P0000 T10111028 FZRANO,PAHP,2021-10-19T01:56:00Z,61.52,-166.15,-1.1,-2.8,140,18,22,9.0,29.430119,996.6,,TRUE,TRUE,,,,TRUE,,-SN,OVC,4800,,,,,,,VFR,,,,,,0.005,,,,,,METAR,8.0
PAHC 190156Z AUTO 03004KT CLR M02/M05 A2958 RMK AO2 SLP022 T10221050 PWINO FZRANO RVRNO $,PAHC,2021-10-19T01:56:00Z,62.18,-159.78,-2.2,-5.0,30,4,,,29.58071,1002.2,,TRUE,TRUE,TRUE,,,TRUE,TRUE,,CLR,,,,,,,,,,,,,,,,,,,,METAR,21.0
PAGS 190156Z AUTO 00000KT 10SM OVC110 04/02 A2976 RMK AO2 SLP077 T00390022,PAGS,2021-10-19T01:56:00Z,58.42,-135.7,3.9,2.2,0,0,,10.0,29.760826,1007.7,,TRUE,TRUE,,,,,,,OVC,11000,,,,,,,VFR,,,,,,,,,,,,METAR,9.0
PAGN 190156Z AUTO 06008KT 10SM SCT120 07/M02 A2976 RMK AO2 SLP068 T00671017,PAGN,2021-10-19T01:56:00Z,57.5,-134.58,6.7,-1.7,60,8,,10.0,29.760826,1006.8,,TRUE,TRUE,,,,,,,SCT,12000,,,,,,,VFR,,,,,,,,,,,,METAR,2.0
PAGA 190156Z AUTO 00000KT 10SM CLR M04/M07 A2967 RMK AO2 SLP050 T10391067 FZRANO,PAGA,2021-10-19T01:56:00Z,64.73,-156.93,-3.9,-6.7,0,0,,10.0,29.66929,1005.0,,TRUE,TRUE,,,,TRUE,,,CLR,,,,,,,,VFR,,,,,,,,,,,,METAR,39.0
PAFM 190156Z AUTO 02008KT 10SM OVC046 M06/M13 A2973 RMK AO2 SLP077 T10611128 FZRANO,PAFM,2021-10-19T01:56:00Z,67.1,-157.85,-6.1,-12.8,20,8,,10.0,29.731298,1007.7,,TRUE,TRUE,,,,TRUE,,,OVC,4600,,,,,,,VFR,,,,,,,,,,,,METAR,79.0
PAFE 190156Z AUTO 08006KT 10SM OVC100 09/M04 A2976 RMK AO2 SLP089 T00891044 $,PAFE,2021-10-19T01:56:00Z,56.97,-133.92,8.9,-4.4,80,6,,10.0,29.760826,1008.9,,TRUE,TRUE,TRUE,,,,,,OVC,10000,,,,,,,VFR,,,,,,,,,,,,METAR,1.0
PAEI 190156Z AUTO 00000KT 10SM CLR M04/M08 A2963 RMK AO2 SLP046 T10381078 $,PAEI,2021-10-19T01:56:00Z,64.67,-147.1,-3.8,-7.8,0,0,,10.0,29.630905,1004.6,,TRUE,TRUE,TRUE,,,,,,CLR,,,,,,,,VFR,,,,,,,,,,,,METAR,166.0
PAED 190156Z 05003KT 10SM BKN080 03/M02 A2962 RMK AO2A SLP028 T00261018 $,PAED,2021-10-19T01:56:00Z,61.25,-149.83,2.6,-1.8,50,3,,10.0,29.619095,1002.8,,,TRUE,TRUE,,,,,,BKN,8000,,,,,,,VFR,,,,,,,,,,,,METAR,54.0
PADU 190156Z 00000KT 10SM BKN110 09/00 A2967 RMK AO2 SLP051 T00890000 PNO $,PADU,2021-10-19T01:56:00Z,53.9,-166.53,8.9,0.0,0,0,,10.0,29.66929,1005.1,,,TRUE,TRUE,,,,,,BKN,11000,,,,,,,VFR,,,,,,,,,,,,METAR,4.0
PADM 190156Z AUTO 09009KT 10SM SCT110 M01/M05 A2958 RMK AO2 SLP024 T10061050 FZRANO,PADM,2021-10-19T01:56:00Z,61.87,-162.03,-0.6,-5.0,90,9,,10.0,29.58071,1002.4,,TRUE,TRUE,,,,TRUE,,,SCT,11000,,,,,,,VFR,,,,,,,,,,,,METAR,17.0
PADL 190156Z 19004KT 10SM CLR 05/M02 A2962 RMK AO2 SLP033 T00501017,PADL,2021-10-19T01:56:00Z,59.05,-158.5,5.0,-1.7,190,4,,10.0,29.619095,1003.3,,,TRUE,,,,,,,CLR,,,,,,,,VFR,,,,,,,,,,,,METAR,20.0
PABV 190156Z AUTO 00000KT 10SM BKN085 04/M02 A2964 RMK AO2 SLP042 T00391022,PABV,2021-10-19T01:56:00Z,61.42,-149.52,3.9,-2.2,0,0,,10.0,29.639763,1004.2,,TRUE,TRUE,,,,,,,BKN,8500,,,,,,,VFR,,,,,,,,,,,,METAR,21.0
PABL 190156Z AUTO 12004KT 10SM CLR M06/M10 A2967 RMK AO2 SLP048 T10611100 FZRANO,PABL,2021-10-19T01:56:00Z,65.98,-161.15,-6.1,-10.0,120,4,,10.0,29.66929,1004.8,,TRUE,TRUE,,,,TRUE,,,CLR,,,,,,,,VFR,,,,,,,,,,,,METAR,7.0
OTBH 190156Z AUTO 32007KT 9999 CLR 26/20 A2986 RMK AO2 SLP112 T02600198 $,OTBH,2021-10-19T01:56:00Z,25.12,51.32,26.0,19.8,320,7,,6.21,29.861221,1011.2,,TRUE,TRUE,TRUE,,,,,,CLR,,,,,,,,VFR,,,,,,,,,,,,SPECI,40.0
OEPS 190156Z 00000KT 6000 HZ CLR 21/03 A3008 RMK AO2A SLP158 WND DATA ESTMD T02080031,OEPS,2021-10-19T01:56:00Z,24.07,47.58,20.8,3.1,0,0,,3.73,30.079725,1015.8,,,TRUE,,,,,,HZ,CLR,,,,,,,,MVFR,,,,,,,,,,,,SPECI,503.0
KYKN 190156Z AUTO 14008KT 10SM CLR 17/03 A2983 RMK AO2 SLP115 T01670033,KYKN,2021-10-19T01:56:00Z,42.92,-97.37,16.7,3.3,140,8,,10.0,29.828741,1011.5,,TRUE,TRUE,,,,,,,CLR,,,,,,,,VFR,,,,,,,,,,,,SPECI,388.0
KY50 190156Z AUTO 00000KT CLR 08/06 A3004 RMK AO2 SLP175 T00780061 PWINO $,KY50,2021-10-19T01:56:00Z,44.03,-89.3,7.8,6.1,0,0,,,30.041338,1017.5,,TRUE,TRUE,TRUE,,,,TRUE,,CLR,,,,,,,,,,,,,,,,,,,,SPECI,261.0
KXNO 190156Z AUTO 00000KT 10SM CLR 12/12 A3017 RMK AO2 SLP219 T01180116 $,KXNO,2021-10-19T01:56:00Z,33.62,-81.07,11.8,11.6,0,0,,10.0,30.171259,1021.9,,TRUE,TRUE,TRUE,,,,,,CLR,,,,,,,,VFR,,,,,,,,,,,,METAR,94.0
KXMR 190156Z AUTO 06004KT 10SM FEW047 22/14 A3009 RMK AO2 SLP192 T02210140 $,KXMR,2021-10-19T01:56:00Z,28.47,-80.57,22.1,14.0,60,4,,10.0,30.088583,1019.2,,TRUE,TRUE,TRUE,,,,,,FEW,4700,,,,,,,VFR,,,,,,,,,,,,METAR,5.0
KWWD 190156Z AUTO 01003KT 10SM SCT080 11/06 A3004 RMK AO2 SLP176 T01110056 $,KWWD,2021-10-19T01:56:00Z,39.02,-74.92,11.1,5.6,10,3,,10.0,30.041338,1017.6,,TRUE,TRUE,TRUE,,,,,,SCT,8000,,,,,,,VFR,,,,,,,,,,,,METAR,4.0
KWVL 190156Z AUTO 29005KT 10SM CLR 07/03 A2970 RMK AO2 SLP083 T00670033,KWVL,2021-10-19T01:56:00Z,44.52,-69.67,6.7,3.3,290,5,,10.0,29.698818,1008.3,,TRUE,TRUE,,,,,,,CLR,,,,,,,,VFR,,,,,,,,,,,,SPECI,87.0
KWRI 190156Z AUTO 27004KT 10SM CLR 08/03 A3001 RMK AO2 SLP162 T00800025,KWRI,2021-10-19T01:56:00Z,40.02,-74.58,8.0,2.5,270,4,,10.0,30.008858,1016.2,,TRUE,TRUE,,,,,,,CLR,,,,,,,,VFR,,,,,,,,,,,,SPECI,35.0
KWRB 190156Z 00000KT 10SM CLR 12/12 A3018 RMK AO2A SLP222 T01220120,KWRB,2021-10-19T01:56:00Z,32.63,-83.58,12.2,12.0,0,0,,10.0,30.180119,1022.2,,,TRUE,,,,,,,CLR,,,,,,,,VFR,,,,,,,,,,,,METAR,82.0
KWMC 190156Z AUTO 19007KT 10SM OVC024 04/03 A2994 RMK AO2 SLP141 T00440033 TSNO,KWMC,2021-10-19T01:56:00Z,40.9,-117.8,4.4,3.3,190,7,,10.0,29.940945,1014.1,,TRUE,TRUE,,,TRUE,,,,OVC,2400,,,,,,,MVFR,,,,,,,,,,,,SPECI,1311.0
KWJF 190156Z 29021KT 10SM CLR 10/M02 A2994 RMK AO2 PK WND 28031/0058 SLP139 T01001017,KWJF,2021-10-19T01:56:00Z,34.73,-118.22,10.0,-1.7,290,21,,10.0,29.940945,1013.9,,,TRUE,,,,,,,CLR,,,,,,,,VFR,,,,,,,,,,,,SPECI,712.0
KVPZ 190156Z AUTO 00000KT 10SM CLR 12/07 A3010 RMK AO2 SLP196 T01170072,KVPZ,2021-10-19T01:56:00Z,41.45,-87.0,11.7,7.2,0,0,,10.0,30.100393,1019.6,,TRUE,TRUE,,,,,,,CLR,,,,,,,,VFR,,,,,,,,,,,,SPECI,235.0
KVPS 190156Z AUTO 07004KT 10SM CLR 17/09 A3013 RMK AO2 SLP210 T01650094 $,KVPS,2021-10-19T01:56:00Z,30.47,-86.52,16.5,9.4,70,4,,10.0,30.129921,1021.0,,TRUE,TRUE,TRUE,,,,,,CLR,,,,,,,,VFR,,,,,,,,,,,,SPECI,21.0
KVOK 190156Z AUTO 14004KT 9SM CLR 06/04 A3001 RMK AO2 SLP171 T00590044,KVOK,2021-10-19T01:56:00Z,43.93,-90.27,5.9,4.4,140,4,,9.0,30.008858,1017.1,,TRUE,TRUE,,,,,,,CLR,,,,,,,,VFR,,,,,,,,,,,,METAR,278.0
KVIS 190156Z AUTO 29004KT 10SM CLR 15/03 A3001 RMK AO2 SLP170 T01500033,KVIS,2021-10-19T01:56:00Z,36.32,-119.4,15.0,3.3,290,4,,10.0,30.008858,1017.0,,TRUE,TRUE,,,,,,,CLR,,,,,,,,VFR,,,,,,,,,,,,SPECI,92.0
KVBT 190156Z AUTO 14005KT 10SM CLR 14/09 A3009 RMK AO2 SLP190 T01390089,KVBT,2021-10-19T01:56:00Z,36.35,-94.22,13.9,8.9,140,5,,10.0,30.088583,1019.0,,TRUE,TRUE,,,,,,,CLR,,,,,,,,VFR,,,,,,,,,,,,METAR,390.0
KVAD 190156Z AUTO 00000KT 10SM CLR 14/11 A3017 RMK AO2 SLP218 T01410114 $,KVAD,2021-10-19T01:56:00Z,30.97,-83.2,14.1,11.4,0,0,,10.0,30.171259,1021.8,,TRUE,TRUE,TRUE,,,,,,CLR,,,,,,,,VFR,,,,,,,,,,,,SPECI,70.0
KUKI 190156Z AUTO 00000KT 10SM CLR 14/06 A2998 RMK AO2 SLP151 T01390061,KUKI,2021-10-19T01:56:00Z,39.12,-123.2,13.9,6.1,0,0,,10.0,29.97933,1015.1,,TRUE,TRUE,,,,,,,CLR,,,,,,,,VFR,,,,,,,,,,,,SPECI,183.0
KUDG 190156Z AUTO 26006KT 10SM CLR 10/07 A3015 RMK AO2 SLP211 T01000067,KUDG,2021-10-19T01:56:00Z,34.45,-79.88,10.0,6.7,260,6,,10.0,30.15059,1021.1,,TRUE,TRUE,,,,,,,CLR,,,,,,,,VFR,,,,,,,,,,,,METAR,57.0
KUCP 190156Z AUTO 21003KT 10SM CLR 06/05 A3012 RMK AO2 SLP220 T00610050,KUCP,2021-10-19T01:56:00Z,41.03,-80.42,6.1,5.0,210,3,,10.0,30.121063,1022.0,,TRUE,TRUE,,,,,,,CLR,,,,,,,,VFR,,,,,,,,,,,,SPECI,313.0
KTVF 190156Z AUTO 16012KT 10SM CLR 17/07 A2974 RMK AO2 SLP075 T01670067,KTVF,2021-10-19T01:56:00Z,48.07,-96.17,16.7,6.7,160,12,,10.0,29.740158,1007.5,,TRUE,TRUE,,,,,,,CLR,,,,,,,,VFR,,,,,,,,,,,,METAR,339.0
KTPH 190156Z AUTO 33014KT 10SM CLR 06/M05 A2994 RMK AO2 SLP133 T00561050,KTPH,2021-10-19T01:56:00Z,38.05,-117.08,5.6,-5.0,330,14,,10.0,29.940945,1013.3,,TRUE,TRUE,,,,,,,CLR,,,,,,,,VFR,,,,,,,,,,,,SPECI,1647.0
KTIK 190156Z AUTO 17007KT 10SM CLR 17/07 A2997 RMK AO2 SLP153 T01700065,KTIK,2021-10-19T01:56:00Z,35.4,-97.38,17.0,6.5,170,7,,10.0,29.970472,1015.3,,TRUE,TRUE,,,,,,,CLR,,,,,,,,VFR,,,,,,,,,,,,METAR,387.0
KTDR 190156Z AUTO 05006KT 10SM OVC230 17/12 A3012 RMK AO2 SLP203 T01720117 $,KTDR,2021-10-19T01:56:00Z,30.05,-85.52,17.2,11.7,50,6,,10.0,30.121063,1020.3,,TRUE,TRUE,TRUE,,,,,,OVC,23000,,,,,,,VFR,,,,,,,,,,,,SPECI,4.0
KTBN 190156Z AUTO 14007KT 10SM CLR 12/08 A3009 RMK AO2 SLP191 T01190078,KTBN,2021-10-19T01:56:00Z,37.73,-92.13,11.9,7.8,140,7,,10.0,30.088583,1019.1,,TRUE,TRUE,,,,,,,CLR,,,,,,,,VFR,,,,,,,,,,,,METAR,349.0
KSXT 190156Z AUTO 15005KT 10SM FEW026 04/01 A2996 RMK AO2 SLP155 T00440006,KSXT,2021-10-19T01:56:00Z,42.6,-123.37,4.4,0.6,150,5,,10.0,29.958662,1015.5,,TRUE,TRUE,,,,,,,FEW,2600,,,,,,,VFR,,,,,,,,,,,,METAR,1151.0
KSVN 190156Z AUTO 00000KT 10SM CLR 13/09 A3015 RMK AO2 SLP213 T01340093 $,KSVN,2021-10-19T01:56:00Z,32.02,-81.12,13.4,9.3,0,0,,10.0,30.15059,1021.3,,TRUE,TRUE,TRUE,,,,,,CLR,,,,,,,,VFR,,,,,,,,,,,,SPECI,13.0
KSUE 190156Z AUTO 18007KT 10SM CLR 13/09 A3004 RMK AO2 SLP173 T01280089 $,KSUE,2021-10-19T01:56:00Z,44.85,-87.42,12.8,8.9,180,7,,10.0,30.041338,1017.3,,TRUE,TRUE,TRUE,,,,,,CLR,,,,,,,,VFR,,,,,,,,,,,,METAR,215.0
KSSC 190156Z AUTO 00000KT 10SM CLR 14/07 A3015 RMK AO2 SLP211 T01410069 $,KSSC,2021-10-19T01:56:00Z,33.97,-80.47,14.1,6.9,0,0,,10.0,30.15059,1021.1,,TRUE,TRUE,TRUE,,,,,,CLR,,,,,,,,VFR,,,,,,,,,,,,METAR,71.0
KSRC 190156Z AUTO 00000KT 10SM CLR 10/08 A3013 RMK AO2 SLPNO T01000083,KSRC,2021-10-19T01:56:00Z,35.22,-91.73,10.0,8.3,0,0,,10.0,30.129921,,,TRUE,TRUE,,,,,,,CLR,,,,,,,,VFR,,,,,,,,,,,,METAR,80.0
KSQI 190156Z VRB04KT 10SM CLR 15/08 A3005 RMK AO2 SLP042 T01500078,KSQI,2021-10-19T01:56:00Z,41.75,-89.67,15.0,7.8,0,4,,10.0,30.050198,1004.2,,,TRUE,,,,,,,CLR,,,,,,,,VFR,,,,,,,,,,,,METAR,196.0
KSPD 190156Z AUTO 17013KT 19/01 A2981 RMK AO1 SLP048 T01890006,KSPD,2021-10-19T01:56:00Z,37.28,-102.62,18.9,0.6,170,13,,,29.811024,1004.8,,TRUE,TRUE,,,,,,,,,,,,,,,,,,,,,,,,,,,METAR,1340.0
KSOP 190156Z AUTO 26004KT 10SM CLR 13/07 A3014 RMK AO2 SLP209 T01330067,KSOP,2021-10-19T01:56:00Z,35.23,-79.4,13.3,6.7,260,4,,10.0,30.138779,1020.9,,TRUE,TRUE,,,,,,,CLR,,,,,,,,VFR,,,,,,,,,,,,METAR,135.0
KSMP 190156Z AUTO 1/2SM FG BKN003 OVC010 04/03 A2995 RMK AO2 SLP151 T00390033,KSMP,2021-10-19T01:56:00Z,47.28,-121.33,3.9,3.3,,,,0.5,29.949802,1015.1,,TRUE,TRUE,,,,,,FG,BKN,300,OVC,1000,,,,,LIFR,,,,,,,,,,,,SPECI,1206.0
KSMN 190156Z AUTO 20012KT 10SM FEW100 14/00 A2979 RMK AO2 PK WND 08034/0111 RAB12E28 SLP088 P0000 T01390000 $,KSMN,2021-10-19T01:56:00Z,45.12,-113.87,13.9,0.0,200,12,,10.0,29.790354,1008.8,,TRUE,TRUE,TRUE,,,,,,FEW,10000,,,,,,,VFR,,,,,,0.005,,,,,,SPECI,1228.0
KSLG 190156Z AUTO 12006KT 10SM CLR 14/08 A3008 RMK AO2 SLP183 T01390083 PNO $,KSLG,2021-10-19T01:56:00Z,36.2,-94.48,13.9,8.3,120,6,,10.0,30.079725,1018.3,,TRUE,TRUE,TRUE,,,,,,CLR,,,,,,,,VFR,,,,,,,,,,,,METAR,361.0
KSLE 190156Z 16005KT 10SM OVC050 12/08 A2999 RMK AO2 SLP155 T01220083,KSLE,2021-10-19T01:56:00Z,44.9,-123.0,12.2,8.3,160,5,,10.0,29.991142,1015.5,,,TRUE,,,,,,,OVC,5000,,,,,,,VFR,,,,,,,,,,,,SPECI,63.0
KSKX 190156Z AUTO 11009KT 10SM CLR 10/M07 A2999 RMK AO2 SLP139 T01001067,KSKX,2021-10-19T01:56:00Z,36.45,-105.67,10.0,-6.7,110,9,,10.0,29.991142,1013.9,,TRUE,TRUE,,,,,,,CLR,,,,,,,,VFR,,,,,,,,,,,,SPECI,2163.0
KSKF 190156Z AUTO 13008KT 10SM CLR 21/13 A3002 RMK AO2 SLP162 T02130127 $,KSKF,2021-10-19T01:56:00Z,29.38,-98.57,21.3,12.7,130,8,,10.0,30.02067,1016.2,,TRUE,TRUE,TRUE,,,,,,CLR,,,,,,,,VFR,,,,,,,,,,,,METAR,214.0
KSHV 190156Z 12004KT 10SM CLR 16/06 A3009 RMK AO2 SLP189 T01560056,KSHV,2021-10-19T01:56:00Z,32.45,-93.83,15.6,5.6,120,4,,10.0,30.088583,1018.9,,,TRUE,,,,,,,CLR,,,,,,,,VFR,,,,,,,,,,,,SPECI,70.0
KSGU 190156Z AUTO 05003KT 10SM CLR 11/00 A2988 RMK AO2 SLP107 T01110000 PNO $,KSGU,2021-10-19T01:56:00Z,37.03,-113.52,11.1,0.0,50,3,,10.0,29.878937,1010.7,,TRUE,TRUE,TRUE,,,,,,CLR,,,,,,,,VFR,,,,,,,,,,,,SPECI,877.0
KSGT 190156Z AUTO 11004KT 10SM CLR 16/09 A3013 RMK AO2 SLP204 T01560089,KSGT,2021-10-19T01:56:00Z,34.6,-91.57,15.6,8.9,110,4,,10.0,30.129921,1020.4,,TRUE,TRUE,,,,,,,CLR,,,,,,,,VFR,,,,,,,,,,,,METAR,67.0
KSGJ 190156Z AUTO 04009KT 10SM FEW036 22/16 A3016 RMK AO2 SLP212 T02170156,KSGJ,2021-10-19T01:56:00Z,29.97,-81.33,21.7,15.6,40,9,,10.0,30.159449,1021.2,,TRUE,TRUE,,,,,,,FEW,3600,,,,,,,VFR,,,,,,,,,,,,METAR,2.0
KSGH 190156Z AUTO 00000KT 10SM CLR 08/06 A3016 RMK AO2 SLP216 T00830056 PNO $,KSGH,2021-10-19T01:56:00Z,39.83,-83.83,8.3,5.6,0,0,,10.0,30.159449,1021.6,,TRUE,TRUE,TRUE,,,,,,CLR,,,,,,,,VFR,,,,,,,,,,,,METAR,318.0
KSFZ 190156Z AUTO 29008KT 10SM CLR 07/04 A2985 RMK AO2 SLP115 T00670044 PNO $,KSFZ,2021-10-19T01:56:00Z,41.92,-71.5,6.7,4.4,290,8,,10.0,29.84941,1011.5,,TRUE,TRUE,TRUE,,,,,,CLR,,,,,,,,VFR,,,,,,,,,,,,SPECI,129.0
KSFO 190156Z 29011KT 10SM FEW028 13/08 A3002 RMK AO2 SLP166 T01280078,KSFO,2021-10-19T01:56:00Z,37.62,-122.37,12.8,7.8,290,11,,10.0,30.02067,1016.6,,,TRUE,,,,,,,FEW,2800,,,,,,,VFR,,,,,,,,,,,,SPECI,2.0
KSFM 190156Z AUTO 29007KT 10SM CLR 08/03 A2978 RMK AO2 SLP088 T00780033,KSFM,2021-10-19T01:56:00Z,43.38,-70.72,7.8,3.3,290,7,,10.0,29.778543,1008.8,,TRUE,TRUE,,,,,,,CLR,,,,,,,,VFR,,,,,,,,,,,,SPECI,70.0
KSDY 190156Z AUTO 34016KT 10SM CLR 12/03 A2981 RMK AO2 SLP109 T01220028,KSDY,2021-10-19T01:56:00Z,47.7,-104.2,12.2,2.8,340,16,,10.0,29.811024,1010.9,,TRUE,TRUE,,,,,,,CLR,,,,,,,,VFR,,,,,,,,,,,,SPECI,600.0
KSDF 190156Z 00000KT 10SM CLR 16/09 A3017 RMK AO2 SLP214 T01560094,KSDF,2021-10-19T01:56:00Z,38.18,-85.73,15.6,9.4,0,0,,10.0,30.171259,1021.4,,,TRUE,,,,,,,CLR,,,,,,,,VFR,,,,,,,,,,,,METAR,146.0
KSBP 190156Z 31013G20KT 10SM CLR 13/08 A3000 RMK AO2 SLP157 T01330083,KSBP,2021-10-19T01:56:00Z,35.23,-120.63,13.3,8.3,310,13,20,10.0,30.0,1015.7,,,TRUE,,,,,,,CLR,,,,,,,,VFR,,,,,,,,,,,,SPECI,52.0
KRYM 190156Z AUTO 15005KT 10SM CLR 16/06 A2985 RMK AO2 SLP115 T01560060 FZRANO $,KRYM,2021-10-19T01:56:00Z,46.08,-94.37,15.6,6.0,150,5,,10.0,29.84941,1011.5,,TRUE,TRUE,TRUE,,,TRUE,,,CLR,,,,,,,,VFR,,,,,,,,,,,,METAR,344.0
KRUT 190156Z AUTO 00000KT 10SM OVC044 07/05 A2988 RMK AO2 SLP115 T00670050 PNO $,KRUT,2021-10-19T01:56:00Z,43.53,-72.95,6.7,5.0,0,0,,10.0,29.878937,1011.5,,TRUE,TRUE,TRUE,,,,,,OVC,4400,,,,,,,VFR,,,,,,,,,,,,SPECI,238.0
KRND 190156Z AUTO 13007KT 10SM CLR 19/13 A3002 RMK AO2 SLP163 T01880130,KRND,2021-10-19T01:56:00Z,29.53,-98.27,18.8,13.0,130,7,,10.0,30.02067,1016.3,,TRUE,TRUE,,,,,,,CLR,,,,,,,,VFR,,,,,,,,,,,,SPECI,224.0
KRKD 190156Z AUTO 28008KT 10SM CLR 09/04 A2972 RMK AO2 SLP063 T00890044,KRKD,2021-10-19T01:56:00Z,44.07,-69.1,8.9,4.4,280,8,,10.0,29.719488,1006.3,,TRUE,TRUE,,,,,,,CLR,,,,,,,,VFR,,,,,,,,,,,,METAR,15.0
KRDR 190156Z 17006KT 10SM SCT250 14/07 A2968 RMK AO2A SLP059 T01410067 VISNO RWY17 $,KRDR,2021-10-19T01:56:00Z,47.93,-97.4,14.1,6.7,170,6,,10.0,29.681103,1005.9,,,TRUE,TRUE,,,,,,SCT,25000,,,,,,,VFR,,,,,,,,,,,,METAR,276.0
KRDM 190156Z 30008KT 10SM CLR 10/02 A2991 RMK AO2 SLP133 T01000017,KRDM,2021-10-19T01:56:00Z,44.25,-121.15,10.0,1.7,300,8,,10.0,29.911417,1013.3,,,TRUE,,,,,,,CLR,,,,,,,,VFR,,,,,,,,,,,,SPECI,930.0
KRCA 190156Z AUTO 36010KT 10SM CLR 17/01 A2974 RMK AO2 SLP070 T01740005 $,KRCA,2021-10-19T01:56:00Z,44.15,-103.12,17.4,0.5,360,10,,10.0,29.740158,1007.0,,TRUE,TRUE,TRUE,,,,,,CLR,,,,,,,,VFR,,,,,,,,,,,,SPECI,993.0
KQVF 190156Z AUTO 16004KT 9999 BKN090 26/23 A2991 RMK AO2 SLP131 WND DATA ESTMD T02600229,KQVF,2021-10-19T01:56:00Z,,,26.0,22.9,160,4,,6.21,29.911417,1013.1,,TRUE,TRUE,,,,,,,BKN,9000,,,,,,,VFR,,,,,,,,,,,,METAR,
KQRH 190156Z AUTO 00000KT 9999 FEW025 28/24 A2976 RMK AO2 SLP080 WND DATA ESTMD T02840242,KQRH,2021-10-19T01:56:00Z,,,28.4,24.2,0,0,,6.21,29.760826,1008.0,,TRUE,TRUE,,,,,,,FEW,2500,,,,,,,VFR,,,,,,,,,,,,METAR,
KQN3 190156Z AUTO 00000KT 9999 CLR 27/24 A2987 RMK AO2 SLP104 WND DATA ESTMD T02700237,KQN3,2021-10-19T01:56:00Z,,,27.0,23.7,0,0,,6.21,29.870079,1010.4,,TRUE,TRUE,,,,,,,CLR,,,,,,,,VFR,,,,,,,,,,,,METAR,
KQHY 190156Z AUTO 00000KT 10SM CLR 16/12 A3014 RMK AO2 SLP213 T01560120,KQHY,2021-10-19T01:56:00Z,,,15.6,12.0,0,0,,10.0,30.138779,1021.3,,TRUE,TRUE,,,,,,,CLR,,,,,,,,VFR,,,,,,,,,,,,METAR,
KQDG 190156Z AUTO 15006KT 9999 CLR 16/08 A2977 RMK AO2 PRESFR SLP083 T01640076 PNO $,KQDG,2021-10-19T01:56:00Z,,,16.4,7.6,150,6,,6.21,29.769686,1008.3,,TRUE,TRUE,TRUE,,,,,,CLR,,,,,,,,VFR,,,,,,,,,,,,METAR,
KQD3 190156Z AUTO 00000KT 8000 HZ FEW029 28/24 A2981 RMK AO2 SLP079 WND DATA ESTMD T02790244,KQD3,2021-10-19T01:56:00Z,,,27.9,24.4,0,0,,4.97,29.811024,1007.9,,TRUE,TRUE,,,,,,HZ,FEW,2900,,,,,,,MVFR,,,,,,,,,,,,METAR,
KQBL 190156Z AUTO 00000KT 10SM FEW240 15/12 A3017 RMK AO2 SLP222 WND DATA ESTMD T01530119,KQBL,2021-10-19T01:56:00Z,,,15.3,11.9,0,0,,10.0,30.171259,1022.2,,TRUE,TRUE,,,,,,,FEW,24000,,,,,,,VFR,,,,,,,,,,,,METAR,
KQAJ 190156Z AUTO 00000KT 9999 CLR 22/05 A2994 RMK AO2 SLP148 WND DATA ESTMD T02150045,KQAJ,2021-10-19T01:56:00Z,,,21.5,4.5,0,0,,6.21,29.940945,1014.8,,TRUE,TRUE,,,,,,,CLR,,,,,,,,VFR,,,,,,,,,,,,SPECI,
KPWT 190156Z AUTO 00000KT 10SM OVC040 10/08 A3000 RMK AO2 SLP165 T01000078,KPWT,2021-10-19T01:56:00Z,47.5,-122.77,10.0,7.8,0,0,,10.0,30.0,1016.5,,TRUE,TRUE,,,,,,,OVC,4000,,,,,,,VFR,,,,,,,,,,,,SPECI,143.0
KPWG 190156Z AUTO 15004KT 10SM CLR 17/09 A3005 RMK AO2 SLP174 T01670094,KPWG,2021-10-19T01:56:00Z,31.48,-97.32,16.7,9.4,150,4,,10.0,30.050198,1017.4,,TRUE,TRUE,,,,,,,CLR,,,,,,,,VFR,,,,,,,,,,,,SPECI,178.0
KPVU 190156Z 20005KT 10SM FEW046 OVC085 06/04 A2981 RMK AO2 RAE16 SLP081 P0000 T00610039,KPVU,2021-10-19T01:56:00Z,40.22,-111.72,6.1,3.9,200,5,,10.0,29.811024,1008.1,,,TRUE,,,,,,,FEW,4600,OVC,8500,,,,,VFR,,,,,,0.005,,,,,,SPECI,1370.0
KPVG 190156Z AUTO 27003KT 10SM CLR 06/06 A3006 RMK AO2 SLP181 T00610061 PNO $,KPVG,2021-10-19T01:56:00Z,36.78,-76.45,6.1,6.1,270,3,,10.0,30.059055,1018.1,,TRUE,TRUE,TRUE,,,,,,CLR,,,,,,,,VFR,,,,,,,,,,,,METAR,7.0
KPVC 190156Z AUTO 31018G25KT 10SM BKN038 OVC047 12/05 A2979 RMK AO2 PK WND 31026/0145 SLP088 T01170050,KPVC,2021-10-19T01:56:00Z,42.07,-70.22,11.7,5.0,310,18,25,10.0,29.790354,1008.8,,TRUE,TRUE,,,,,,,BKN,3800,OVC,4700,,,,,VFR,,,,,,,,,,,,SPECI,1.0
KPTV 190156Z AUTO 22003KT 10SM BKN065 14/07 A3001 RMK AO2 SLP162 T01390067,KPTV,2021-10-19T01:56:00Z,36.02,-119.07,13.9,6.7,220,3,,10.0,30.008858,1016.2,,TRUE,TRUE,,,,,,,BKN,6500,,,,,,,VFR,,,,,,,,,,,,SPECI,132.0
KPTN 190156Z AUTO 10SM 18/16 RMK AO2 SLPNO T01780161 $,KPTN,2021-10-19T01:56:00Z,29.72,-91.33,17.8,16.1,,,,10.0,,,,TRUE,TRUE,TRUE,,,,,,,,,,,,,,,,,,,,,,,,,,METAR,2.0
KPSM 190156Z 28010KT 10SM CLR 09/03 A2980 RMK AO2A SLP094 T00850025,KPSM,2021-10-19T01:56:00Z,43.08,-70.82,8.5,2.5,280,10,,10.0,29.799213,1009.4,,,TRUE,,,,,,,CLR,,,,,,,,VFR,,,,,,,,,,,,METAR,34.0
KPRX 190156Z AUTO 12007KT 10SM CLR 14/07 A3006 RMK AO2 SLP197 T01440072,KPRX,2021-10-19T01:56:00Z,33.63,-95.45,14.4,7.2,120,7,,10.0,30.059055,1019.7,,TRUE,TRUE,,,,,,,CLR,,,,,,,,VFR,,,,,,,,,,,,SPECI,165.0
KPQI 190156Z AUTO 27006KT 10SM CLR 06/03 A2960 RMK AO2 SLP052 T00610033,KPQI,2021-10-19T01:56:00Z,46.68,-68.05,6.1,3.3,270,6,,10.0,29.601377,1005.2,,TRUE,TRUE,,,,,,,CLR,,,,,,,,VFR,,,,,,,,,,,,METAR,154.0
KPOB 190156Z AUTO 00000KT 10SM CLR 11/08 A3012 RMK AO2 SLP203 T01100077 $,KPOB,2021-10-19T01:56:00Z,35.17,-79.02,11.0,7.7,0,0,,10.0,30.121063,1020.3,,TRUE,TRUE,TRUE,,,,,,CLR,,,,,,,,VFR,,,,,,,,,,,,SPECI,57.0
KPAM 190156Z AUTO 04005KT 10SM FEW220 18/10 A3014 RMK AO2 SLP209 T01790103 $,KPAM,2021-10-19T01:56:00Z,30.07,-85.57,17.9,10.3,40,5,,10.0,30.138779,1020.9,,TRUE,TRUE,TRUE,,,,,,FEW,22000,,,,,,,VFR,,,,,,,,,,,,METAR,4.0
KP60 190156Z AUTO VRB03KT 04/M01 A2995 RMK AO1 SLP133 T00441006,KP60,2021-10-19T01:56:00Z,44.55,-110.42,4.4,-0.6,0,3,,,29.949802,1013.3,,TRUE,TRUE,,,,,,,,,,,,,,,,,,,,,,,,,,,METAR,2377.0
KP53 190156Z AUTO 20006KT 12/07 A3000 RMK AO1 SLP162 T01170067,KP53,2021-10-19T01:56:00Z,46.42,-86.65,11.7,6.7,200,6,,,30.0,1016.2,,TRUE,TRUE,,,,,,,,,,,,,,,,,,,,,,,,,,,METAR,185.0
KP28 190156Z AUTO 16011G19KT 18/07 A2990 RMK AO1 SLP123 T01780067 $,KP28,2021-10-19T01:56:00Z,37.28,-98.55,17.8,6.7,160,11,19,,29.899607,1012.3,,TRUE,TRUE,TRUE,,,,,,,,,,,,,,,,,,,,,,,,,,SPECI,469.0
KOZR 190156Z AUTO 04005KT 10SM CLR 13/10 A3016 RMK AO2 SLP216 T01310097 $,KOZR,2021-10-19T01:56:00Z,31.28,-85.72,13.1,9.7,40,5,,10.0,30.159449,1021.6,,TRUE,TRUE,TRUE,,,,,,CLR,,,,,,,,VFR,,,,,,,,,,,,METAR,90.0
KOTH 190156Z 00000KT 6SM BR CLR 11/08 A3001 RMK AO2 SLP161 T01060083,KOTH,2021-10-19T01:56:00Z,43.42,-124.25,10.6,8.3,0,0,,6.0,30.008858,1016.1,,,TRUE,,,,,,BR,CLR,,,,,,,,VFR,,,,,,,,,,,,SPECI,3.0
KOTG 190156Z AUTO 17009KT 10SM CLR 14/04 A2990 RMK AO2 SLP128 T01440039,KOTG,2021-10-19T01:56:00Z,43.65,-95.57,14.4,3.9,170,9,,10.0,29.899607,1012.8,,TRUE,TRUE,,,,,,,CLR,,,,,,,,VFR,,,,,,,,,,,,SPECI,478.0
KOLU 190156Z AUTO 15008KT 10SM CLR 16/03 A2988 RMK AO2 SLP120 T01610033,KOLU,2021-10-19T01:56:00Z,41.45,-97.33,16.1,3.3,150,8,,10.0,29.878937,1012.0,,TRUE,TRUE,,,,,,,CLR,,,,,,,,VFR,,,,,,,,,,,,SPECI,438.0
KOKK 190156Z AUTO 21004KT 10SM CLR 12/08 A3014 RMK AO2 SLP207 T01220078 PNO $,KOKK,2021-10-19T01:56:00Z,40.53,-86.07,12.2,7.8,210,4,,10.0,30.138779,1020.7,,TRUE,TRUE,TRUE,,,,,,CLR,,,,,,,,VFR,,,,,,,,,,,,SPECI,251.0
KOFK 190156Z AUTO 15010KT 10SM CLR 17/02 A2985 RMK AO2 SLP108 T01670017,KOFK,2021-10-19T01:56:00Z,41.98,-97.43,16.7,1.7,150,10,,10.0,29.84941,1010.8,,TRUE,TRUE,,,,,,,CLR,,,,,,,,VFR,,,,,,,,,,,,SPECI,476.0
KOFF 190156Z 16010KT 10SM CLR 17/05 A2994 RMK AO2A SLP142 T01720045 PWINO PNO FZRANO TSNO VISNO RWY12 CHINO RWY12 $,KOFF,2021-10-19T01:56:00Z,41.12,-95.92,17.2,4.5,160,10,,10.0,29.940945,1014.2,,,TRUE,TRUE,,TRUE,TRUE,TRUE,,CLR,,,,,,,,VFR,,,,,,,,,,,,SPECI,308.0
KOCH 190156Z AUTO 00000KT 10SM CLR 12/07 A3010 RMK AO2 SLP198 T01220067 PWINO $,KOCH,2021-10-19T01:56:00Z,31.57,-94.72,12.2,6.7,0,0,,10.0,30.100393,1019.8,,TRUE,TRUE,TRUE,,,,TRUE,,CLR,,,,,,,,VFR,,,,,,,,,,,,SPECI,105.0
KOAJ 190156Z AUTO 00000KT 10SM CLR 09/07 A3013 RMK AO2 SLP206 T00890067,KOAJ,2021-10-19T01:56:00Z,34.82,-77.62,8.9,6.7,0,0,,10.0,30.129921,1020.6,,TRUE,TRUE,,,,,,,CLR,,,,,,,,VFR,,,,,,,,,,,,METAR,26.0
KNYG 190156Z AUTO 28009KT 10SM CLR 12/07 A3008 RMK AO2 SLP186 T01170072,KNYG,2021-10-19T01:56:00Z,38.5,-77.3,11.7,7.2,280,9,,10.0,30.079725,1018.6,,TRUE,TRUE,,,,,,,CLR,,,,,,,,VFR,,,,,,,,,,,,METAR,2.0
KNXP 190156Z AUTO 31005KT 10SM FEW060 16/03 A2995 RMK AO2 SLP119 T01610033,KNXP,2021-10-19T01:56:00Z,34.28,-116.13,16.1,3.3,310,5,,10.0,29.949802,1011.9,,TRUE,TRUE,,,,,,,FEW,6000,,,,,,,VFR,,,,,,,,,,,,METAR,610.0
KNUW 190156Z 13003KT 10SM SCT034 SCT080 BKN250 08/06 A3004 RMK AO2 SLP172 T00830056 VISNO $,KNUW,2021-10-19T01:56:00Z,48.35,-122.65,8.3,5.6,130,3,,10.0,30.041338,1017.2,,,TRUE,TRUE,,,,,,SCT,3400,SCT,8000,BKN,25000,,,VFR,,,,,,,,,,,,METAR,14.0
KNUC 190156Z AUTO 31014KT 10SM CLR 14/10 A2999 RMK AO2 SLP152 T01390100 $,KNUC,2021-10-19T01:56:00Z,33.02,-118.57,13.9,10.0,310,14,,10.0,29.991142,1015.2,,TRUE,TRUE,TRUE,,,,,,CLR,,,,,,,,VFR,,,,,,,,,,,,METAR,52.0
KNTU 190156Z 24007KT 10SM CLR 13/05 A3004 RMK AO2 SLP174 T01280050,KNTU,2021-10-19T01:56:00Z,36.82,-76.02,12.8,5.0,240,7,,10.0,30.041338,1017.4,,,TRUE,,,,,,,CLR,,,,,,,,VFR,,,,,,,,,,,,METAR,6.0
KNSE 190156Z 00000KT 10SM SCT150 BKN250 13/11 A3015 RMK AO2 SLP195 T01280106 $,KNSE,2021-10-19T01:56:00Z,30.73,-87.02,12.8,10.6,0,0,,10.0,30.15059,1019.5,,,TRUE,TRUE,,,,,,SCT,15000,BKN,25000,,,,,VFR,,,,,,,,,,,,METAR,56.0
KNRS 190156Z 31006KT 10SM SCT025 BKN034 17/11 A2999 RMK AO2 SLP155 T01670106,KNRS,2021-10-19T01:56:00Z,32.57,-117.12,16.7,10.6,310,6,,10.0,29.991142,1015.5,,,TRUE,,,,,,,SCT,2500,BKN,3400,,,,,VFR,,,,,,,,,,,,METAR,15.0
KNQI 190156Z 11004KT 10SM FEW040 20/16 A3004 RMK AO2 SLP168 T02000161 $,KNQI,2021-10-19T01:56:00Z,27.5,-97.82,20.0,16.1,110,4,,10.0,30.041338,1016.8,,,TRUE,TRUE,,,,,,FEW,4000,,,,,,,VFR,,,,,,,,,,,,METAR,15.0
KNPA 190156Z 00000KT 10SM SCT150 BKN250 13/11 A3014 RMK AO2 SLP206 T01330111 $,KNPA,2021-10-19T01:56:00Z,30.35,-87.32,13.3,11.1,0,0,,10.0,30.138779,1020.6,,,TRUE,TRUE,,,,,,SCT,15000,BKN,25000,,,,,VFR,,,,,,,,,,,,METAR,6.0
KNOG 190156Z AUTO 09006KT 10SM CLR 18/15 A3004 RMK AO2 SLP154 T01830150 PNO $,KNOG,2021-10-19T01:56:00Z,27.9,-98.05,18.3,15.0,90,6,,10.0,30.041338,1015.4,,TRUE,TRUE,TRUE,,,,,,CLR,,,,,,,,VFR,,,,,,,,,,,,METAR,72.0
KNMM 190156Z 00000KT 10SM SCT250 12/11 A3017 RMK AO2 SLP227 T01170106 $,KNMM,2021-10-19T01:56:00Z,32.53,-88.53,11.7,10.6,0,0,,10.0,30.171259,1022.7,,,TRUE,TRUE,,,,,,SCT,25000,,,,,,,VFR,,,,,,,,,,,,METAR,94.0
KNLC 190156Z 03006KT 10SM FEW055 14/01 A3000 RMK AO2 SLP160 RH/40 T01440006,KNLC,2021-10-19T01:56:00Z,36.32,-119.95,14.4,0.6,30,6,,10.0,30.0,1016.0,,,TRUE,,,,,,,FEW,5500,,,,,,,VFR,,,,,,,,,,,,METAR,69.0
KNJK 190156Z 29016G22KT 10SM FEW065 FEW180 FEW250 21/07 A2986 RMK AO2 PK WND 27027/0116 SLP127 T02060067 $,KNJK,2021-10-19T01:56:00Z,32.82,-115.67,20.6,6.7,290,16,22,10.0,29.861221,1012.7,,,TRUE,TRUE,,,,,,FEW,6500,FEW,18000,FEW,25000,,,VFR,,,,,,,,,,,,SPECI,-15.0
KNID 190156Z 26005KT 10SM CLR 14/M05 A2986 RMK AO2 SLP109 T01441050 $,KNID,2021-10-19T01:56:00Z,35.68,-117.68,14.4,-5.0,260,5,,10.0,29.861221,1010.9,,,TRUE,TRUE,,,,,,CLR,,,,,,,,VFR,,,,,,,,,,,,METAR,682.0
KNGP 190156Z 10007KT 10SM SCT041 SCT250 23/18 A3003 RMK AO2 SLP170 T02330178,KNGP,2021-10-19T01:56:00Z,27.68,-97.28,23.3,17.8,100,7,,10.0,30.029528,1017.0,,,TRUE,,,,,,,SCT,4100,SCT,25000,,,,,VFR,,,,,,,,,,,,METAR,5.0
KNFL 190156Z 33004KT 10SM FEW045 BKN050 BKN080 09/00 A2996 RMK AO2 SLP117 T00940000,KNFL,2021-10-19T01:56:00Z,39.42,-118.7,9.4,0.0,330,4,,10.0,29.958662,1011.7,,,TRUE,,,,,,,FEW,4500,BKN,5000,BKN,8000,,,VFR,,,,,,,,,,,,METAR,1199.0
KNFE 190156Z AUTO 00000KT 10SM CLR 09/05 A3005 RMK AO2 SLP179 T00940050,KNFE,2021-10-19T01:56:00Z,36.7,-76.13,9.4,5.0,0,0,,10.0,30.050198,1017.9,,TRUE,TRUE,,,,,,,CLR,,,,,,,,VFR,,,,,,,,,,,,SPECI,4.0
KNDZ 190156Z 07004KT 10SM SCT150 BKN250 16/10 A3015 RMK AO2 SLP195 T01610100 $,KNDZ,2021-10-19T01:56:00Z,30.7,-87.02,16.1,10.0,70,4,,10.0,30.15059,1019.5,,,TRUE,TRUE,,,,,,SCT,15000,BKN,25000,,,,,VFR,,,,,,,,,,,,METAR,51.0
KNCA 190156Z 25003KT 10SM CLR 12/07 A3012 RMK AO2 SLP200 T01220072,KNCA,2021-10-19T01:56:00Z,34.72,-77.45,12.2,7.2,250,3,,10.0,30.121063,1020.0,,,TRUE,,,,,,,CLR,,,,,,,,VFR,,,,,,,,,,,,METAR,9.0
KNBT 190156Z AUTO 29005KT 10SM CLR 18/08 A3011 RMK AO2 SLP200 T01780083 $,KNBT,2021-10-19T01:56:00Z,35.02,-76.47,17.8,8.3,290,5,,10.0,30.109253,1020.0,,TRUE,TRUE,TRUE,,,,,,CLR,,,,,,,,VFR,,,,,,,,,,,,METAR,5.0
KNBC 190156Z AUTO 22004KT 10SM CLR 13/09 A3018 RMK AO2 SLP219 T01330094 $,KNBC,2021-10-19T01:56:00Z,32.47,-80.72,13.3,9.4,220,4,,10.0,30.180119,1021.9,,TRUE,TRUE,TRUE,,,,,,CLR,,,,,,,,VFR,,,,,,,,,,,,SPECI,9.0
KMYR 190156Z 00000KT 10SM CLR 15/09 A3015 RMK AO2 SLP209 T01500094,KMYR,2021-10-19T01:56:00Z,33.68,-78.92,15.0,9.4,0,0,,10.0,30.15059,1020.9,,,TRUE,,,,,,,CLR,,,,,,,,VFR,,,,,,,,,,,,METAR,7.0
KMXF 190156Z 00000KT 7SM CLR 12/12 A3015 RMK AO2A SLP213 T01240116,KMXF,2021-10-19T01:56:00Z,32.38,-86.37,12.4,11.6,0,0,,7.0,30.15059,1021.3,,,TRUE,,,,,,,CLR,,,,,,,,VFR,,,,,,,,,,,,METAR,47.0
KMVN 190156Z AUTO 00000KT 10SM CLR 07/ A3015 RMK AO2 SLP213 T0072,KMVN,2021-10-19T01:56:00Z,38.32,-88.87,7.2,,0,0,,10.0,30.15059,1021.3,,TRUE,TRUE,,,,,,,CLR,,,,,,,,VFR,,,,,,,,,,,,SPECI,145.0
KMUI 190156Z 26005KT 10SM BKN065 11/03 A3003 RMK AO2A SLP173 T01070025,KMUI,2021-10-19T01:56:00Z,40.43,-76.57,10.7,2.5,260,5,,10.0,30.029528,1017.3,,,TRUE,,,,,,,BKN,6500,,,,,,,VFR,,,,,,,,,,,,SPECI,146.0
KMTW 190156Z AUTO 19005KT 10SM CLR 13/11 A3005 RMK AO2 SLP177 T01280106,KMTW,2021-10-19T01:56:00Z,44.12,-87.67,12.8,10.6,190,5,,10.0,30.050198,1017.7,,TRUE,TRUE,,,,,,,CLR,,,,,,,,VFR,,,,,,,,,,,,SPECI,197.0
KMTC 190156Z 00000KT 10SM CLR 09/09 A3008 RMK AO2A SLP193 T00890087 $,KMTC,2021-10-19T01:56:00Z,42.62,-82.83,8.9,8.7,0,0,,10.0,30.079725,1019.3,,,TRUE,TRUE,,,,,,CLR,,,,,,,,VFR,,,,,,,,,,,,METAR,177.0
KMSV 190156Z AUTO 29005KT 10SM FEW024 BKN033 OVC041 05/03 A2996 RMK AO2 SLP152 T00500033,KMSV,2021-10-19T01:56:00Z,41.7,-74.78,5.0,3.3,290,5,,10.0,29.958662,1015.2,,TRUE,TRUE,,,,,,,FEW,2400,BKN,3300,OVC,4100,,,VFR,,,,,,,,,,,,SPECI,427.0
KMRF 190156Z AUTO 15004KT 10SM CLR 18/05 A3006 RMK AO2 SLP142 T01780050,KMRF,2021-10-19T01:56:00Z,30.37,-104.02,17.8,5.0,150,4,,10.0,30.059055,1014.2,,TRUE,TRUE,,,,,,,CLR,,,,,,,,VFR,,,,,,,,,,,,SPECI,1476.0
KMQY 190156Z 00000KT 10SM CLR 11/09 A3019 RMK AO2 SLP233 T01060089,KMQY,2021-10-19T01:56:00Z,36.02,-86.52,10.6,8.9,0,0,,10.0,30.188976,1023.3,,,TRUE,,,,,,,CLR,,,,,,,,VFR,,,,,,,,,,,,METAR,156.0
KMOB 190156Z 00000KT 10SM FEW060 SCT180 13/11 A3015 RMK AO2 SLP209 T01280111,KMOB,2021-10-19T01:56:00Z,30.68,-88.25,12.8,11.1,0,0,,10.0,30.15059,1020.9,,,TRUE,,,,,,,FEW,6000,SCT,18000,,,,,VFR,,,,,,,,,,,,SPECI,67.0
KMNM 190156Z AUTO 21005KT 10SM CLR 12/07 A3003 RMK AO2 SLP171 T01220072 $,KMNM,2021-10-19T01:56:00Z,45.12,-87.63,12.2,7.2,210,5,,10.0,30.029528,1017.1,,TRUE,TRUE,TRUE,,,,,,CLR,,,,,,,,VFR,,,,,,,,,,,,SPECI,188.0
KMMT 190156Z AUTO 00000KT 10SM CLR 10/09 A3015 RMK AO2 SLP213 T01020094 $,KMMT,2021-10-19T01:56:00Z,33.92,-80.8,10.2,9.4,0,0,,10.0,30.15059,1021.3,,TRUE,TRUE,TRUE,,,,,,CLR,,,,,,,,VFR,,,,,,,,,,,,METAR,76.0
KMML 190156Z AUTO 16009KT 10SM CLR 14/04 A2986 RMK AO2 SLP114 T01390039,KMML,2021-10-19T01:56:00Z,44.45,-95.82,13.9,3.9,160,9,,10.0,29.861221,1011.4,,TRUE,TRUE,,,,,,,CLR,,,,,,,,VFR,,,,,,,,,,,,SPECI,358.0
KMKY 190156Z AUTO 05006KT 10SM CLR 23/18 A3008 RMK AO2 SLP185 T02280178 TSNO $,KMKY,2021-10-19T01:56:00Z,26.0,-81.67,22.8,17.8,50,6,,10.0,30.079725,1018.5,,TRUE,TRUE,TRUE,,TRUE,,,,CLR,,,,,,,,VFR,,,,,,,,,,,,METAR,2.0
KMKT 190156Z AUTO 15010KT 10SM CLR 16/05 A2992 RMK AO2 SLP134 T01610050,KMKT,2021-10-19T01:56:00Z,44.22,-93.92,16.1,5.0,150,10,,10.0,29.920275,1013.4,,TRUE,TRUE,,,,,,,CLR,,,,,,,,VFR,,,,,,,,,,,,SPECI,309.0
KMJX 190156Z AUTO 31003KT 10SM 09/03 A3001 RMK AO2 SLP167 T00890028 $,KMJX,2021-10-19T01:56:00Z,39.93,-74.3,8.9,2.8,310,3,,10.0,30.008858,1016.7,,TRUE,TRUE,TRUE,,,,,,,,,,,,,,,,,,,,,,,,,,SPECI,22.0
KMIB 190156Z AUTO 34014KT 10SM CLR 09/01 A2968 RMK AO2 SLP066 T00890006 $,KMIB,2021-10-19T01:56:00Z,48.42,-101.35,8.9,0.6,340,14,,10.0,29.681103,1006.6,,TRUE,TRUE,TRUE,,,,,,CLR,,,,,,,,VFR,,,,,,,,,,,,METAR,505.0
KMHS 190156Z AUTO 00000KT 10SM FEW016 OVC034 06/03 A3000 RMK AO2 SLP180 T00610028,KMHS,2021-10-19T01:56:00Z,41.32,-122.32,6.1,2.8,0,0,,10.0,30.0,1018.0,,TRUE,TRUE,,,,,,,FEW,1600,OVC,3400,,,,,VFR,,,,,,,,,,,,METAR,1080.0
KMGE 190156Z 30003KT 10SM CLR 12/09 A3018 RMK AO2A SLP220 T01210086 $,KMGE,2021-10-19T01:56:00Z,33.92,-84.52,12.1,8.6,300,3,,10.0,30.180119,1022.0,,,TRUE,TRUE,,,,,,CLR,,,,,,,,VFR,,,,,,,,,,,,METAR,309.0
KMEH 190156Z AUTO 00000KT 10SM CLR 05/01 A2991 RMK AO2 SLP144 T00500006,KMEH,2021-10-19T01:56:00Z,45.52,-118.42,5.0,0.6,0,0,,10.0,29.911417,1014.4,,TRUE,TRUE,,,,,,,CLR,,,,,,,,VFR,,,,,,,,,,,,SPECI,1138.0
KMDT 190156Z 30003KT 10SM SCT070 12/05 A3003 RMK AO2 SLP171 T01170050,KMDT,2021-10-19T01:56:00Z,40.2,-76.77,11.7,5.0,300,3,,10.0,30.029528,1017.1,,,TRUE,,,,,,,SCT,7000,,,,,,,VFR,,,,,,,,,,,,METAR,91.0
KMCF 190156Z AUTO 09010KT 10SM CLR 23/12 A3007 RMK AO2 SLP185 T02280118 FZRANO $,KMCF,2021-10-19T01:56:00Z,27.85,-82.52,22.8,11.8,90,10,,10.0,30.070866,1018.5,,TRUE,TRUE,TRUE,,,TRUE,,,CLR,,,,,,,,VFR,,,,,,,,,,,,METAR,3.0
KMBL 190156Z AUTO 00000KT 7SM CLR 06/06 A3007 RMK AO2 SLP187 T00610061,KMBL,2021-10-19T01:56:00Z,44.27,-86.25,6.1,6.1,0,0,,7.0,30.070866,1018.7,,TRUE,TRUE,,,,,,,CLR,,,,,,,,VFR,,,,,,,,,,,,SPECI,187.0
KM19 190156Z AUTO 15005KT 10SM CLR 12/08 A3013 RMK AO2 SLP203 T01170078,KM19,2021-10-19T01:56:00Z,35.65,-91.17,11.7,7.8,150,5,,10.0,30.129921,1020.3,,TRUE,TRUE,,,,,,,CLR,,,,,,,,VFR,,,,,,,,,,,,METAR,72.0
KLZU 190156Z AUTO 00000KT 10SM CLR 11/09 A3018 RMK AO2 SLP230 T01110094,KLZU,2021-10-19T01:56:00Z,33.98,-83.97,11.1,9.4,0,0,,10.0,30.180119,1023.0,,TRUE,TRUE,,,,,,,CLR,,,,,,,,VFR,,,,,,,,,,,,METAR,316.0
KLWS 190156Z 27004KT 10SM CLR 14/03 A2986 RMK AO2 SLP113 T01440028,KLWS,2021-10-19T01:56:00Z,46.37,-117.02,14.4,2.8,270,4,,10.0,29.861221,1011.3,,,TRUE,,,,,,,CLR,,,,,,,,VFR,,,,,,,,,,,,SPECI,435.0
KLTS 190156Z AUTO 15012KT 10SM FEW210 19/07 A2994 RMK AO2 SLP134 T01880069,KLTS,2021-10-19T01:56:00Z,34.67,-99.27,18.8,6.9,150,12,,10.0,29.940945,1013.4,,TRUE,TRUE,,,,,,,FEW,21000,,,,,,,VFR,,,,,,,,,,,,SPECI,416.0
KLSV 190156Z 26005KT 10SM CLR 17/M08 A2985 RMK SLPNO WND DATA ESTMD ALSTG ESTMD $,KLSV,2021-10-19T01:56:00Z,36.23,-115.05,17.0,-8.0,260,5,,10.0,29.84941,,,,,TRUE,,,,,,CLR,,,,,,,,VFR,,,,,,,,,,,,METAR,563.0
KLRF 190156Z AUTO 00000KT 10SM CLR 11/09 A3011 RMK AO2 SLP200 T01100091 $,KLRF,2021-10-19T01:56:00Z,34.92,-92.12,11.0,9.1,0,0,,10.0,30.109253,1020.0,,TRUE,TRUE,TRUE,,,,,,CLR,,,,,,,,VFR,,,,,,,,,,,,METAR,85.0
KLRD 190156Z 13007KT 10SM CLR 24/14 A3000 RMK AO2 SLP158 T02440144,KLRD,2021-10-19T01:56:00Z,27.55,-99.47,24.4,14.4,130,7,,10.0,30.0,1015.8,,,TRUE,,,,,,,CLR,,,,,,,,VFR,,,,,,,,,,,,SPECI,150.0
KLPC 190156Z AUTO 29010KT 10SM CLR 13/09 A3000 RMK AO2 SLP159 T01280089,KLPC,2021-10-19T01:56:00Z,34.67,-120.47,12.8,8.9,290,10,,10.0,30.0,1015.9,,TRUE,TRUE,,,,,,,CLR,,,,,,,,VFR,,,,,,,,,,,,SPECI,26.0
KLNR 190156Z AUTO 11003KT 10SM CLR 08/06 A3003 RMK AO2 SLP167 T00830056,KLNR,2021-10-19T01:56:00Z,43.22,-90.18,8.3,5.6,110,3,,10.0,30.029528,1016.7,,TRUE,TRUE,,,,,,,CLR,,,,,,,,VFR,,,,,,,,,,,,METAR,218.0
KLHW 190156Z AUTO 00000KT 10SM CLR 12/10 A3016 RMK AO2 SLP216 T01170098 $,KLHW,2021-10-19T01:56:00Z,31.88,-81.57,11.7,9.8,0,0,,10.0,30.159449,1021.6,,TRUE,TRUE,TRUE,,,,,,CLR,,,,,,,,VFR,,,,,,,,,,,,SPECI,14.0
KLGD 190156Z AUTO 30012KT 10SM CLR 12/03 A2988 RMK AO2 SLP118 T01170028,KLGD,2021-10-19T01:56:00Z,45.28,-118.0,11.7,2.8,300,12,,10.0,29.878937,1011.8,,TRUE,TRUE,,,,,,,CLR,,,,,,,,VFR,,,,,,,,,,,,SPECI,827.0
KLFI 190156Z AUTO 25008KT 10SM CLR 13/07 A3004 RMK AO2 SLP179 T01300074 $,KLFI,2021-10-19T01:56:00Z,37.08,-76.33,13.0,7.4,250,8,,10.0,30.041338,1017.9,,TRUE,TRUE,TRUE,,,,,,CLR,,,,,,,,VFR,,,,,,,,,,,,METAR,2.0
KLEW 190156Z AUTO 31005KT 10SM BKN100 07/03 A2975 RMK AO2 SLP082 T00720033,KLEW,2021-10-19T01:56:00Z,44.03,-70.28,7.2,3.3,310,5,,10.0,29.749016,1008.2,,TRUE,TRUE,,,,,,,BKN,10000,,,,,,,VFR,,,,,,,,,,,,METAR,81.0
KLCI 190156Z AUTO 27006KT 10SM SCT039 BKN047 BKN060 08/04 A2981 RMK AO2 SLP097 T00780039,KLCI,2021-10-19T01:56:00Z,43.57,-71.42,7.8,3.9,270,6,,10.0,29.811024,1009.7,,TRUE,TRUE,,,,,,,SCT,3900,BKN,4700,BKN,6000,,,VFR,,,,,,,,,,,,METAR,166.0
KLBL 190156Z AUTO 17015G24KT 10SM CLR 18/06 A2987 RMK AO2 SLP099 T01780056,KLBL,2021-10-19T01:56:00Z,37.03,-100.97,17.8,5.6,170,15,24,10.0,29.870079,1009.9,,TRUE,TRUE,,,,,,,CLR,,,,,,,,VFR,,,,,,,,,,,,METAR,877.0
KLAS 190156Z 32005KT 10SM FEW100 FEW250 16/M01 A2986 RMK AO2 SLP102 T01611011,KLAS,2021-10-19T01:56:00Z,36.07,-115.17,16.1,-1.1,320,5,,10.0,29.861221,1010.2,,,TRUE,,,,,,,FEW,10000,FEW,25000,,,,,VFR,,,,,,,,,,,,SPECI,662.0
KKLS 190156Z AUTO 00000KT 10SM CLR 09/07 A3002 RMK AO2 SLP168 T00890067,KKLS,2021-10-19T01:56:00Z,46.12,-122.9,8.9,6.7,0,0,,10.0,30.02067,1016.8,,TRUE,TRUE,,,,,,,CLR,,,,,,,,VFR,,,,,,,,,,,,SPECI,4.0
KJYG 190156Z AUTO 16006KT 10SM CLR 15/03 A2990 RMK AO2,KJYG,2021-10-19T01:56:00Z,43.98,-94.55,15.0,3.0,160,6,,10.0,29.899607,,,TRUE,TRUE,,,,,,,CLR,,,,,,,,VFR,,,,,,,,,,,,SPECI,323.0
KJXN 190156Z AUTO 00000KT 10SM CLR 08/06 A3011 RMK AO2 SLP201 T00830061,KJXN,2021-10-19T01:56:00Z,42.27,-84.47,8.3,6.1,0,0,,10.0,30.109253,1020.1,,TRUE,TRUE,,,,,,,CLR,,,,,,,,VFR,,,,,,,,,,,,SPECI,303.0
KJRB 190156Z AUTO VRB04KT 10SM CLR 12/03 A2999 RMK AO2 SLP154 T01170033,KJRB,2021-10-19T01:56:00Z,40.7,-74.02,11.7,3.3,0,4,,10.0,29.991142,1015.4,,TRUE,TRUE,,,,,,,CLR,,,,,,,,VFR,,,,,,,,,,,,METAR,2.0
KJMS 190156Z AUTO 17009KT 10SM CLR 13/07 A2970 RMK AO2 SLP064 T01330067,KJMS,2021-10-19T01:56:00Z,46.93,-98.67,13.3,6.7,170,9,,10.0,29.698818,1006.4,,TRUE,TRUE,,,,,,,CLR,,,,,,,,VFR,,,,,,,,,,,,SPECI,455.0
KJHW 190156Z AUTO 31007KT 10SM CLR 07/02 A3007 RMK AO2 SLP196 T00670017,KJHW,2021-10-19T01:56:00Z,42.15,-79.27,6.7,1.7,310,7,,10.0,30.070866,1019.6,,TRUE,TRUE,,,,,,,CLR,,,,,,,,VFR,,,,,,,,,,,,METAR,520.0
KJAX 190156Z 02005KT 10SM BKN250 16/13 A3016 RMK AO2 SLP214 T01610128,KJAX,2021-10-19T01:56:00Z,30.5,-81.68,16.1,12.8,20,5,,10.0,30.159449,1021.4,,,TRUE,,,,,,,BKN,25000,,,,,,,VFR,,,,,,,,,,,,SPECI,8.0
KJAC 190156Z 15014G22KT 10SM VCTS BKN065 OVC080 08/01 A2986 RMK AO2 WSHFT 0128 LTG DSNT W TSB31 SLP117 T00830006,KJAC,2021-10-19T01:56:00Z,43.62,-110.73,8.3,0.6,150,14,22,10.0,29.861221,1011.7,,,TRUE,,,,,,VCTS,BKN,6500,OVC,8000,,,,,VFR,,,,,,,,,,,,SPECI,1967.0
KIWD 190156Z AUTO 20009G14KT 10SM CLR 17/04 A2995 RMK AO2 SLP146 T01720039 PNO $,KIWD,2021-10-19T01:56:00Z,46.52,-90.12,17.2,3.9,200,9,14,10.0,29.949802,1014.6,,TRUE,TRUE,TRUE,,,,,,CLR,,,,,,,,VFR,,,,,,,,,,,,METAR,373.0
KITH 190156Z AUTO 00000KT 10SM SCT023 SCT055 06/04 A3001 RMK AO2 SLP166 T00610044,KITH,2021-10-19T01:56:00Z,42.48,-76.45,6.1,4.4,0,0,,10.0,30.008858,1016.6,,TRUE,TRUE,,,,,,,SCT,2300,SCT,5500,,,,,VFR,,,,,,,,,,,,METAR,338.0
KISP 190156Z 31011KT 10SM FEW050 FEW080 10/03 A2993 RMK AO2 SLP136 T01000028,KISP,2021-10-19T01:56:00Z,40.8,-73.1,10.0,2.8,310,11,,10.0,29.929134,1013.6,,,TRUE,,,,,,,FEW,5000,FEW,8000,,,,,VFR,,,,,,,,,,,,SPECI,25.0
KISM 190156Z AUTO 08003KT 10SM CLR 21/15 A3013 RMK AO2 SLP202 T02110150 PNO $,KISM,2021-10-19T01:56:00Z,28.28,-81.43,21.1,15.0,80,3,,10.0,30.129921,1020.2,,TRUE,TRUE,TRUE,,,,,,CLR,,,,,,,,VFR,,,,,,,,,,,,METAR,25.0
KINW 190156Z AUTO 21015KT 10SM CLR 16/04 A2987 RMK AO2 SLP085 T01560039,KINW,2021-10-19T01:56:00Z,35.03,-110.72,15.6,3.9,210,15,,10.0,29.870079,1008.5,,TRUE,TRUE,,,,,,,CLR,,,,,,,,VFR,,,,,,,,,,,,SPECI,1492.0
KILE 190156Z AUTO 15008KT 10SM CLR 19/09 A3004 RMK AO2 SLP167 T01890089,KILE,2021-10-19T01:56:00Z,31.08,-97.68,18.9,8.9,150,8,,10.0,30.041338,1016.7,,TRUE,TRUE,,,,,,,CLR,,,,,,,,VFR,,,,,,,,,,,,SPECI,256.0
KIAB 190156Z AUTO 18012KT 10SM CLR 16/06 A2995 RMK AO2 SLP143 T01630056,KIAB,2021-10-19T01:56:00Z,37.62,-97.27,16.3,5.6,180,12,,10.0,29.949802,1014.3,,TRUE,TRUE,,,,,,,CLR,,,,,,,,VFR,,,,,,,,,,,,SPECI,413.0
KHYS 190156Z AUTO 16013KT 10SM CLR 17/06 A2984 RMK AO2 SLP100 T01670056 $,KHYS,2021-10-19T01:56:00Z,38.85,-99.27,16.7,5.6,160,13,,10.0,29.840551,1010.0,,TRUE,TRUE,TRUE,,,,,,CLR,,,,,,,,VFR,,,,,,,,,,,,METAR,607.0
KHYI 190156Z AUTO 13006KT 10SM CLR 18/13 A3005 RMK AO2 SLP170 T01780128 PNO $,KHYI,2021-10-19T01:56:00Z,29.88,-97.87,17.8,12.8,130,6,,10.0,30.050198,1017.0,,TRUE,TRUE,TRUE,,,,,,CLR,,,,,,,,VFR,,,,,,,,,,,,SPECI,180.0
KHYA 190156Z 32009G18KT 10SM CLR 11/03 A2978 RMK AO2 SLP085 T01110033,KHYA,2021-10-19T01:56:00Z,41.67,-70.27,11.1,3.3,320,9,18,10.0,29.778543,1008.5,,,TRUE,,,,,,,CLR,,,,,,,,VFR,,,,,,,,,,,,SPECI,11.0
KHWV 190156Z AUTO 29011KT 10SM CLR 10/03 A2993 RMK AO2 SLP133 T01000033,KHWV,2021-10-19T01:56:00Z,40.82,-72.87,10.0,3.3,290,11,,10.0,29.929134,1013.3,,TRUE,TRUE,,,,,,,CLR,,,,,,,,VFR,,,,,,,,,,,,METAR,20.0
KHST 190156Z AUTO 06005KT 10SM CLR 25/17 A3004 RMK AO2 SLP176 T02450167,KHST,2021-10-19T01:56:00Z,25.48,-80.37,24.5,16.7,60,5,,10.0,30.041338,1017.6,,TRUE,TRUE,,,,,,,CLR,,,,,,,,VFR,,,,,,,,,,,,METAR,1.0
KHRT 190156Z 00000KT 10SM SCT250 16/11 A3013 RMK AO2A SLP205 T01600105 $,KHRT,2021-10-19T01:56:00Z,30.42,-86.68,16.0,10.5,0,0,,10.0,30.129921,1020.5,,,TRUE,TRUE,,,,,,SCT,25000,,,,,,,VFR,,,,,,,,,,,,METAR,10.0
KHPN 190156Z 30009G17KT 10SM CLR 08/02 A2994 RMK AO2 SLP139 T00830022,KHPN,2021-10-19T01:56:00Z,41.07,-73.7,8.3,2.2,300,9,17,10.0,29.940945,1013.9,,,TRUE,,,,,,,CLR,,,,,,,,VFR,,,,,,,,,,,,SPECI,113.0
KHOP 190156Z AUTO 00000KT 10SM CLR 13/07 A3015 RMK AO2 SLP212 T01290069,KHOP,2021-10-19T01:56:00Z,36.67,-87.5,12.9,6.9,0,0,,10.0,30.15059,1021.2,,TRUE,TRUE,,,,,,,CLR,,,,,,,,VFR,,,,,,,,,,,,METAR,170.0
KHND 190156Z 00000KT 10SM CLR 14/M01 A2988 RMK AO2 SLP129 T01441006,KHND,2021-10-19T01:56:00Z,35.98,-115.13,14.4,-0.6,0,0,,10.0,29.878937,1012.9,,,TRUE,,,,,,,CLR,,,,,,,,VFR,,,,,,,,,,,,SPECI,740.0
KHNB 190156Z AUTO 00000KT 3SM HZ CLR 11/08 A3017 RMK AO2 RAE0059B31E41 SLP216 P0000 T01110083,KHNB,2021-10-19T01:56:00Z,38.25,-86.95,11.1,8.3,0,0,,3.0,30.171259,1021.6,,TRUE,TRUE,,,,,,HZ,CLR,,,,,,,,MVFR,,,,,,0.005,,,,,,METAR,159.0
KHFF 190156Z AUTO 00000KT 10SM CLR 09/08 A3010 RMK AO2 SLP196 T00860075,KHFF,2021-10-19T01:56:00Z,35.03,-79.5,8.6,7.5,0,0,,10.0,30.100393,1019.6,,TRUE,TRUE,,,,,,,CLR,,,,,,,,VFR,,,,,,,,,,,,METAR,100.0
KHEZ 190156Z AUTO 00000KT 10SM CLR 12/11 A3014 RMK AO2 SLP208 T01220111,KHEZ,2021-10-19T01:56:00Z,31.62,-91.3,12.2,11.1,0,0,,10.0,30.138779,1020.8,,TRUE,TRUE,,,,,,,CLR,,,,,,,,VFR,,,,,,,,,,,,METAR,82.0
KHEF 190156Z 00000KT 10SM CLR 07/05 A3008 RMK AO2 SLP191 T00670050,KHEF,2021-10-19T01:56:00Z,38.72,-77.52,6.7,5.0,0,0,,10.0,30.079725,1019.1,,,TRUE,,,,,,,CLR,,,,,,,,VFR,,,,,,,,,,,,METAR,53.0
KHDN 190156Z AUTO 26003KT 10SM BKN110 13/M03 A2980 RMK AO2 SLP054 T01281033,KHDN,2021-10-19T01:56:00Z,40.48,-107.22,12.8,-3.3,260,3,,10.0,29.799213,1005.4,,TRUE,TRUE,,,,,,,BKN,11000,,,,,,,VFR,,,,,,,,,,,,SPECI,2012.0
KGXY 190156Z 10012KT 10SM FEW120 16/M02 A2975 RMK AO2 SLP069 T01561022,KGXY,2021-10-19T01:56:00Z,40.43,-104.62,15.6,-2.2,100,12,,10.0,29.749016,1006.9,,,TRUE,,,,,,,FEW,12000,,,,,,,VFR,,,,,,,,,,,,SPECI,1420.0
KGVQ 190156Z AUTO 28003KT 10SM BKN042 07/04 A3002 RMK AO2 SLP170 T00720039,KGVQ,2021-10-19T01:56:00Z,43.03,-78.17,7.2,3.9,280,3,,10.0,30.02067,1017.0,,TRUE,TRUE,,,,,,,BKN,4200,,,,,,,VFR,,,,,,,,,,,,METAR,279.0
KGUS 190156Z AUTO 20004KT 10SM CLR 11/06 A3012 RMK AO2 SLP204 T01130064 $,KGUS,2021-10-19T01:56:00Z,40.63,-86.15,11.3,6.4,200,4,,10.0,30.121063,1020.4,,TRUE,TRUE,TRUE,,,,,,CLR,,,,,,,,VFR,,,,,,,,,,,,METAR,245.0
KGUC 190156Z AUTO 16007KT 10SM CLR 11/M07 A2991 RMK AO2 SLP113 T01111072,KGUC,2021-10-19T01:56:00Z,38.52,-106.93,11.1,-7.2,160,7,,10.0,29.911417,1011.3,,TRUE,TRUE,,,,,,,CLR,,,,,,,,VFR,,,,,,,,,,,,SPECI,2337.0
KGTU 190156Z 15004KT 10SM CLR 19/09 A3006 RMK AO2 SLP179 T01890089,KGTU,2021-10-19T01:56:00Z,30.68,-97.68,18.9,8.9,150,4,,10.0,30.059055,1017.9,,,TRUE,,,,,,,CLR,,,,,,,,VFR,,,,,,,,,,,,SPECI,232.0
KGTR 190156Z AUTO 00000KT 10SM CLR 12/11 A3017 RMK AO2 SLP223 T01220106 PNO $,KGTR,2021-10-19T01:56:00Z,33.45,-88.58,12.2,10.6,0,0,,10.0,30.171259,1022.3,,TRUE,TRUE,TRUE,,,,,,CLR,,,,,,,,VFR,,,,,,,,,,,,METAR,80.0
KGTB 190156Z AUTO 25005KT 10SM CLR 05/02 A2994 RMK AO2 SLP144 T00460018 $,KGTB,2021-10-19T01:56:00Z,44.07,-75.72,4.6,1.8,250,5,,10.0,29.940945,1014.4,,TRUE,TRUE,TRUE,,,,,,CLR,,,,,,,,VFR,,,,,,,,,,,,METAR,206.0
KGSB 190156Z AUTO 00000KT 10SM CLR 13/05 A3009 RMK AO2 SLP193 T01250047 $,KGSB,2021-10-19T01:56:00Z,35.33,-77.93,12.5,4.7,0,0,,10.0,30.088583,1019.3,,TRUE,TRUE,TRUE,,,,,,CLR,,,,,,,,VFR,,,,,,,,,,,,METAR,33.0
KGRK 190156Z AUTO 15007KT 10SM CLR 17/09 A3002 RMK AO2 SLP163 T01710088,KGRK,2021-10-19T01:56:00Z,31.07,-97.83,17.1,8.8,150,7,,10.0,30.02067,1016.3,,TRUE,TRUE,,,,,,,CLR,,,,,,,,VFR,,,,,,,,,,,,SPECI,311.0
KGRD 190156Z AUTO 00000KT 10SM CLR 10/08 A3018 RMK AO2 SLP218 T01000083,KGRD,2021-10-19T01:56:00Z,34.25,-82.15,10.0,8.3,0,0,,10.0,30.180119,1021.8,,TRUE,TRUE,,,,,,,CLR,,,,,,,,VFR,,,,,,,,,,,,METAR,188.0
KGPZ 190156Z AUTO 16007KT 10SM CLR 16/06 A2988 RMK AO2 SLP125 T01560056,KGPZ,2021-10-19T01:56:00Z,47.22,-93.52,15.6,5.6,160,7,,10.0,29.878937,1012.5,,TRUE,TRUE,,,,,,,CLR,,,,,,,,VFR,,,,,,,,,,,,SPECI,410.0
KGON 190156Z 31011KT 10SM CLR 09/03 A2988 RMK AO2 SLP116 T00890033,KGON,2021-10-19T01:56:00Z,41.33,-72.05,8.9,3.3,310,11,,10.0,29.878937,1011.6,,,TRUE,,,,,,,CLR,,,,,,,,VFR,,,,,,,,,,,,SPECI,2.0
KGNR 190156Z AUTO 31011G19KT 06/02 A2965 RMK AO1 SLP049 T00610022,KGNR,2021-10-19T01:56:00Z,45.47,-69.55,6.1,2.2,310,11,19,,29.648623,1004.9,,TRUE,TRUE,,,,,,,,,,,,,,,,,,,,,,,,,,,SPECI,426.0
KGNA 190156Z AUTO 36003KT 07/03 A2992 RMK AO1 SLP133 T00720033,KGNA,2021-10-19T01:56:00Z,47.75,-90.35,7.2,3.3,360,3,,,29.920275,1013.3,,TRUE,TRUE,,,,,,,,,,,,,,,,,,,,,,,,,,,SPECI,186.0
KGDV 190156Z AUTO 35016KT 10SM CLR 13/03 A2981 RMK AO2 SLP101 T01280028,KGDV,2021-10-19T01:56:00Z,47.13,-104.8,12.8,2.8,350,16,,10.0,29.811024,1010.1,,TRUE,TRUE,,,,,,,CLR,,,,,,,,VFR,,,,,,,,,,,,SPECI,749.0
KGBD 190156Z AUTO 16016KT 10SM CLR 17/07 A2986 RMK AO2 SLP105 T01720067,KGBD,2021-10-19T01:56:00Z,38.35,-98.87,17.2,6.7,160,16,,10.0,29.861221,1010.5,,TRUE,TRUE,,,,,,,CLR,,,,,,,,VFR,,,,,,,,,,,,METAR,573.0
KGAI 190156Z AUTO 00000KT 10SM CLR 08/06 A3007 RMK AO2 SLP199 T00830056 PNO $,KGAI,2021-10-19T01:56:00Z,39.17,-77.17,8.3,5.6,0,0,,10.0,30.070866,1019.9,,TRUE,TRUE,TRUE,,,,,,CLR,,,,,,,,VFR,,,,,,,,,,,,METAR,151.0
KGAD 190156Z AUTO 00000KT 10SM 09/09 A3019 RMK AO2 SLP229 T00940089 $,KGAD,2021-10-19T01:56:00Z,33.97,-86.08,9.4,8.9,0,0,,10.0,30.188976,1022.9,,TRUE,TRUE,TRUE,,,,,,,,,,,,,,,,,,,,,,,,,,METAR,169.0
KFTK 190156Z AUTO 00000KT 10SM CLR 09/08 A3016 RMK AO2 SLP216 T00910079 $,KFTK,2021-10-19T01:56:00Z,37.9,-85.97,9.1,7.9,0,0,,10.0,30.159449,1021.6,,TRUE,TRUE,TRUE,,,,,,CLR,,,,,,,,VFR,,,,,,,,,,,,METAR,225.0
KFSI 190156Z AUTO 16011KT 10SM SCT200 18/06 A2997 RMK AO2 SLP146 T01820061,KFSI,2021-10-19T01:56:00Z,34.65,-98.4,18.2,6.1,160,11,,10.0,29.970472,1014.6,,TRUE,TRUE,,,,,,,SCT,20000,,,,,,,VFR,,,,,,,,,,,,SPECI,360.0
KFSD 190156Z 16010KT 10SM BKN250 18/03 A2984 RMK AO2 SLP105 T01780033,KFSD,2021-10-19T01:56:00Z,43.58,-96.75,17.8,3.3,160,10,,10.0,29.840551,1010.5,,,TRUE,,,,,,,BKN,25000,,,,,,,VFR,,,,,,,,,,,,SPECI,433.0
KFRM 190156Z AUTO 19008KT 10SM CLR 13/04 A2992 RMK AO2 SLP137 T01280039,KFRM,2021-10-19T01:56:00Z,43.63,-94.42,12.8,3.9,190,8,,10.0,29.920275,1013.7,,TRUE,TRUE,,,,,,,CLR,,,,,,,,VFR,,,,,,,,,,,,METAR,353.0
KFRI 190156Z AUTO 17010KT 10SM CLR 17/06 A2993 RMK AO2 SLP131 T01720058,KFRI,2021-10-19T01:56:00Z,39.05,-96.77,17.2,5.8,170,10,,10.0,29.929134,1013.1,,TRUE,TRUE,,,,,,,CLR,,,,,,,,VFR,,,,,,,,,,,,METAR,232.0
KFOD 190156Z AUTO 16007KT 10SM CLR 17/05 A2995 RMK AO2 SLP169 T01720050,KFOD,2021-10-19T01:56:00Z,42.53,-94.17,17.2,5.0,160,7,,10.0,29.949802,1016.9,,TRUE,TRUE,,,,,,,CLR,,,,,,,,VFR,,,,,,,,,,,,METAR,347.0
KFNL 190156Z 00000KT 10SM BKN110 17/M02 A2977 RMK AO2 SLP049 T01721022,KFNL,2021-10-19T01:56:00Z,40.45,-105.02,17.2,-2.2,0,0,,10.0,29.769686,1004.9,,,TRUE,,,,,,,BKN,11000,,,,,,,VFR,,,,,,,,,,,,SPECI,1529.0
KFLP 190156Z AUTO 00000KT 10SM CLR 13/08 A3011 RMK AO2 SLP198 T01330083,KFLP,2021-10-19T01:56:00Z,36.28,-92.58,13.3,8.3,0,0,,10.0,30.109253,1019.8,,TRUE,TRUE,,,,,,,CLR,,,,,,,,VFR,,,,,,,,,,,,METAR,215.0
KFKL 190156Z AUTO 27005KT 10SM CLR 07/04 A3011 RMK AO2 SLP202 T00670039,KFKL,2021-10-19T01:56:00Z,41.37,-79.87,6.7,3.9,270,5,,10.0,30.109253,1020.2,,TRUE,TRUE,,,,,,,CLR,,,,,,,,VFR,,,,,,,,,,,,METAR,468.0
KFFO 190156Z AUTO 00000KT 10SM CLR 11/03 A3015 RMK AO2 SLP215 T01080031,KFFO,2021-10-19T01:56:00Z,39.83,-84.03,10.8,3.1,0,0,,10.0,30.15059,1021.5,,TRUE,TRUE,,,,,,,CLR,,,,,,,,VFR,,,,,,,,,,,,SPECI,250.0
KFCI 190156Z AUTO 07006KT 10SM CLR 08/06 A3008 RMK AO2 SLP197 T00780061,KFCI,2021-10-19T01:56:00Z,37.4,-77.52,7.8,6.1,70,6,,10.0,30.079725,1019.7,,TRUE,TRUE,,,,,,,CLR,,,,,,,,VFR,,,,,,,,,,,,METAR,63.0
KFBG 190156Z AUTO 00000KT 10SM CLR 12/10 A3011 RMK AO2 SLP199 T01150096 RVRNO $,KFBG,2021-10-19T01:56:00Z,35.12,-78.92,11.5,9.6,0,0,,10.0,30.109253,1019.9,,TRUE,TRUE,TRUE,,,,,,CLR,,,,,,,,VFR,,,,,,,,,,,,METAR,69.0
KFAM 190156Z AUTO 16003KT 10SM CLR 12/08 RMK AO2 SLPNO T01170078 $,KFAM,2021-10-19T01:56:00Z,37.77,-90.42,11.7,7.8,160,3,,10.0,,,,TRUE,TRUE,TRUE,,,,,,CLR,,,,,,,,VFR,,,,,,,,,,,,METAR,276.0
KFAF 190156Z AUTO 28006KT 10SM CLR 15/03 A3004 RMK AO2 SLP176 T01520027 $,KFAF,2021-10-19T01:56:00Z,37.13,-76.62,15.2,2.7,280,6,,10.0,30.041338,1017.6,,TRUE,TRUE,TRUE,,,,,,CLR,,,,,,,,VFR,,,,,,,,,,,,METAR,3.0
KEWK 190156Z AUTO 16012KT 10SM CLR 16/06 A2994 RMK AO2 SLP135 T01610061 PNO $,KEWK,2021-10-19T01:56:00Z,38.05,-97.27,16.1,6.1,160,12,,10.0,29.940945,1013.5,,TRUE,TRUE,TRUE,,,,,,CLR,,,,,,,,VFR,,,,,,,,,,,,METAR,468.0
KEUL 190156Z AUTO 02007KT 10SM FEW100 14/02 A2979 RMK AO2 SLP083 T01440022,KEUL,2021-10-19T01:56:00Z,43.63,-116.62,14.4,2.2,20,7,,10.0,29.790354,1008.3,,TRUE,TRUE,,,,,,,FEW,10000,,,,,,,VFR,,,,,,,,,,,,SPECI,741.0
KESC 190156Z AUTO 19005KT 10SM CLR 13/11 A3002 RMK AO2 SLP172 T01330106 $,KESC,2021-10-19T01:56:00Z,45.72,-87.08,13.3,10.6,190,5,,10.0,30.02067,1017.2,,TRUE,TRUE,TRUE,,,,,,CLR,,,,,,,,VFR,,,,,,,,,,,,SPECI,180.0
KENV 190156Z AUTO 30010KT CLR 08/04 A2979 RMK AO2 SLP085 T00780039 PWINO $,KENV,2021-10-19T01:56:00Z,40.72,-114.02,7.8,3.9,300,10,,,29.790354,1008.5,,TRUE,TRUE,TRUE,,,,TRUE,,CLR,,,,,,,,,,,,,,,,,,,,SPECI,1291.0
KEND 190156Z AUTO 14011KT 10SM CLR 16/07 A2994 RMK AO2 SLP138 T01620066 $,KEND,2021-10-19T01:56:00Z,36.33,-97.92,16.2,6.6,140,11,,10.0,29.940945,1013.8,,TRUE,TRUE,TRUE,,,,,,CLR,,,,,,,,VFR,,,,,,,,,,,,METAR,392.0
KELZ 190156Z AUTO 28009KT 10SM CLR 04/01 A3004 RMK AO2 SLP185 T00390011,KELZ,2021-10-19T01:56:00Z,42.1,-77.98,3.9,1.1,280,9,,10.0,30.041338,1018.5,,TRUE,TRUE,,,,,,,CLR,,,,,,,,VFR,,,,,,,,,,,,SPECI,639.0
KEKY 190156Z AUTO 00000KT 10SM CLR 12/11 A3018 RMK AO2 SLP069 T01170106,KEKY,2021-10-19T01:56:00Z,33.32,-86.93,11.7,10.6,0,0,,10.0,30.180119,1006.9,,TRUE,TRUE,,,,,,,CLR,,,,,,,,VFR,,,,,,,,,,,,METAR,213.0
KEKQ 190156Z AUTO 00000KT 10SM CLR 07/07 A3022 RMK AO2 SLP230 T00720072,KEKQ,2021-10-19T01:56:00Z,36.85,-84.85,7.2,7.2,0,0,,10.0,30.221457,1023.0,,TRUE,TRUE,,,,,,,CLR,,,,,,,,VFR,,,,,,,,,,,,METAR,291.0
KEKO 190156Z AUTO 22010KT 10SM OVC028 03/01 A2990 RMK AO2 RAE39UPB39E54SNB40E49 SLP119 P0006 T00280011,KEKO,2021-10-19T01:56:00Z,40.82,-115.78,2.8,1.1,220,10,,10.0,29.899607,1011.9,,TRUE,TRUE,,,,,,,OVC,2800,,,,,,,MVFR,,,,,,0.06,,,,,,SPECI,1541.0
KEHR 190156Z AUTO 00000KT 10SM CLR 08/06 A3016 RMK AO2 SLP215 T00830061,KEHR,2021-10-19T01:56:00Z,37.82,-87.67,8.3,6.1,0,0,,10.0,30.159449,1021.5,,TRUE,TRUE,,,,,,,CLR,,,,,,,,VFR,,,,,,,,,,,,METAR,117.0
KEGI 190156Z AUTO 00000KT 10SM FEW220 13/08 A3014 RMK AO2 SLP207 T01330081 $,KEGI,2021-10-19T01:56:00Z,30.65,-86.52,13.3,8.1,0,0,,10.0,30.138779,1020.7,,TRUE,TRUE,TRUE,,,,,,FEW,22000,,,,,,,VFR,,,,,,,,,,,,SPECI,59.0
KEGE 190156Z AUTO 23006KT 10SM BKN110 15/M06 A2980 RMK AO2 SLP080 T01501056,KEGE,2021-10-19T01:56:00Z,39.63,-106.92,15.0,-5.6,230,6,,10.0,29.799213,1008.0,,TRUE,TRUE,,,,,,,BKN,11000,,,,,,,VFR,,,,,,,,,,,,SPECI,1993.0
KEEN 190156Z AUTO 00000KT 10SM CLR 06/04 A2987 RMK AO2 SLP121 T00560039 $,KEEN,2021-10-19T01:56:00Z,42.88,-72.27,5.6,3.9,0,0,,10.0,29.870079,1012.1,,TRUE,TRUE,TRUE,,,,,,CLR,,,,,,,,VFR,,,,,,,,,,,,SPECI,143.0
KEED 190156Z AUTO 30016KT 10SM SCT090 21/M01 A2983 RMK AO2 SLP081 T02111006,KEED,2021-10-19T01:56:00Z,34.77,-114.62,21.1,-0.6,300,16,,10.0,29.828741,1008.1,,TRUE,TRUE,,,,,,,SCT,9000,,,,,,,VFR,,,,,,,,,,,,SPECI,271.0
KEAU 190156Z AUTO 18006KT 10SM CLR 16/06 A2996 RMK AO2 SLP148 T01560061,KEAU,2021-10-19T01:56:00Z,44.87,-91.48,15.6,6.1,180,6,,10.0,29.958662,1014.8,,TRUE,TRUE,,,,,,,CLR,,,,,,,,VFR,,,,,,,,,,,,SPECI,271.0
KEAR 190156Z AUTO 16012KT 10SM CLR 15/06 A2983 RMK AO2 SLP100 T01500061,KEAR,2021-10-19T01:56:00Z,40.72,-99.0,15.0,6.1,160,12,,10.0,29.828741,1010.0,,TRUE,TRUE,,,,,,,CLR,,,,,,,,VFR,,,,,,,,,,,,SPECI,649.0
KDYS 190156Z AUTO 13011KT 10SM CLR 19/07 A2995 RMK AO2 SLP120 T01940072,KDYS,2021-10-19T01:56:00Z,32.42,-99.83,19.4,7.2,130,11,,10.0,29.949802,1012.0,,TRUE,TRUE,,,,,,,CLR,,,,,,,,VFR,,,,,,,,,,,,SPECI,544.0
KDYR 190156Z AUTO 00000KT 10SM CLR 11/09 A3016 RMK AO2 SLP219 T01110094 PNO $,KDYR,2021-10-19T01:56:00Z,36.0,-89.4,11.1,9.4,0,0,,10.0,30.159449,1021.9,,TRUE,TRUE,TRUE,,,,,,CLR,,,,,,,,VFR,,,,,,,,,,,,METAR,98.0
KDWU 190156Z AUTO 00000KT 10SM CLR 09/09 A3019 RMK AO2 SLP225 T00940089,KDWU,2021-10-19T01:56:00Z,38.55,-82.73,9.4,8.9,0,0,,10.0,30.188976,1022.5,,TRUE,TRUE,,,,,,,CLR,,,,,,,,VFR,,,,,,,,,,,,METAR,165.0
KDVL 190156Z AUTO 20005KT 10SM CLR 14/07 A2969 RMK AO2 SLP639 P0001 T01440072,KDVL,2021-10-19T01:56:00Z,48.12,-98.92,14.4,7.2,200,5,,10.0,29.68996,963.9,,TRUE,TRUE,,,,,,,CLR,,,,,,,,VFR,,,,,,0.01,,,,,,SPECI,439.0
KDOV 190156Z AUTO 34005KT 10SM BKN080 11/04 A3003 RMK AO2 SLP173 T01060043 $,KDOV,2021-10-19T01:56:00Z,39.12,-75.47,10.6,4.3,340,5,,10.0,30.029528,1017.3,,TRUE,TRUE,TRUE,,,,,,BKN,8000,,,,,,,VFR,,,,,,,,,,,,SPECI,6.0
KDLF 190156Z AUTO 12008KT 10SM CLR 23/13 A2998 RMK AO2 SLP145 T02270126 $,KDLF,2021-10-19T01:56:00Z,29.37,-100.78,22.7,12.6,120,8,,10.0,29.97933,1014.5,,TRUE,TRUE,TRUE,,,,,,CLR,,,,,,,,VFR,,,,,,,,,,,,SPECI,328.0
KDIK 190156Z AUTO 32007KT 10SM CLR 11/04 A2974 RMK AO2 SLP076 T01110039,KDIK,2021-10-19T01:56:00Z,46.8,-102.8,11.1,3.9,320,7,,10.0,29.740158,1007.6,,TRUE,TRUE,,,,,,,CLR,,,,,,,,VFR,,,,,,,,,,,,SPECI,788.0
KDIJ 190156Z AUTO 03012G17KT 10SM -RA OVC075 09/03 A2982 RMK AO2 LTG DSNT SE AND S RAB00 SLP087 P0000 T00890028,KDIJ,2021-10-19T01:56:00Z,43.75,-111.1,8.9,2.8,30,12,17,10.0,29.819881,1008.7,,TRUE,TRUE,,,,,,-RA,OVC,7500,,,,,,,VFR,,,,,,0.005,,,,,,SPECI,1896.0
KDAY 190156Z 23004KT 10SM CLR 12/03 A3016 RMK AO2 SLP214 T01220028,KDAY,2021-10-19T01:56:00Z,39.9,-84.22,12.2,2.8,230,4,,10.0,30.159449,1021.4,,,TRUE,,,,,,,CLR,,,,,,,,VFR,,,,,,,,,,,,SPECI,303.0
KDAA 190156Z AUTO 00000KT 10SM CLR 08/07 A3007 RMK AO2 SLP186 T00820067 $,KDAA,2021-10-19T01:56:00Z,38.72,-77.17,8.2,6.7,0,0,,10.0,30.070866,1018.6,,TRUE,TRUE,TRUE,,,,,,CLR,,,,,,,,VFR,,,,,,,,,,,,METAR,17.0
KD07 190156Z AUTO 00000KT 18/04 A2972 RMK AO1 SLP063 T01830044,KD07,2021-10-19T01:56:00Z,45.03,-102.02,18.3,4.4,0,0,,,29.719488,1006.3,,TRUE,TRUE,,,,,,,,,,,,,,,,,,,,,,,,,,,METAR,786.0
KCXY 190156Z AUTO 32010G16KT 10SM CLR 15/01 A3004 RMK AO2 SLP174 T01500011,KCXY,2021-10-19T01:56:00Z,40.22,-76.85,15.0,1.1,320,10,16,10.0,30.041338,1017.4,,TRUE,TRUE,,,,,,,CLR,,,,,,,,VFR,,,,,,,,,,,,SPECI,102.0
KCWI 190156Z AUTO 15005KT 10SM CLR 14/08 A3004 RMK AO2 SLP178 T01390078,KCWI,2021-10-19T01:56:00Z,41.82,-90.32,13.9,7.8,150,5,,10.0,30.041338,1017.8,,TRUE,TRUE,,,,,,,CLR,,,,,,,,VFR,,,,,,,,,,,,SPECI,212.0
KCVO 190156Z AUTO 00000KT 10SM OVC046 12/08 A3000 RMK AO2 SLP161 T01170083,KCVO,2021-10-19T01:56:00Z,44.5,-123.28,11.7,8.3,0,0,,10.0,30.0,1016.1,,TRUE,TRUE,,,,,,,OVC,4600,,,,,,,VFR,,,,,,,,,,,,SPECI,75.0
KCVN 190156Z AUTO 15007KT 10SM CLR 15/06 A2993 RMK AO2 SLP120 T01500061,KCVN,2021-10-19T01:56:00Z,34.42,-103.07,15.0,6.1,150,7,,10.0,29.929134,1012.0,,TRUE,TRUE,,,,,,,CLR,,,,,,,,VFR,,,,,,,,,,,,SPECI,1278.0
KCTB 190156Z AUTO 33009KT 10SM BKN026 03/M01 A3006 RMK AO2 SLP205 T00281011,KCTB,2021-10-19T01:56:00Z,48.6,-112.37,2.8,-1.1,330,9,,10.0,30.059055,1020.5,,TRUE,TRUE,,,,,,,BKN,2600,,,,,,,MVFR,,,,,,,,,,,,SPECI,1172.0
KCQM 190156Z AUTO 16004KT 10SM CLR 12/05 A2987 RMK AO2,KCQM,2021-10-19T01:56:00Z,47.82,-92.68,12.0,5.0,160,4,,10.0,29.870079,,,TRUE,TRUE,,,,,,,CLR,,,,,,,,VFR,,,,,,,,,,,,METAR,406.0
KCOF 190156Z AUTO 07009KT 10SM SCT043 SCT055 25/17 A3008 RMK AO2 SLP191 T02460166 $,KCOF,2021-10-19T01:56:00Z,28.23,-80.6,24.6,16.6,70,9,,10.0,30.079725,1019.1,,TRUE,TRUE,TRUE,,,,,,SCT,4300,SCT,5500,,,,,VFR,,,,,,,,,,,,SPECI,1.0
KCOE 190156Z AUTO 00000KT 10SM CLR 11/04 A2986 RMK AO2 SLP136 T01060044 PNO $,KCOE,2021-10-19T01:56:00Z,47.77,-116.82,10.6,4.4,0,0,,10.0,29.861221,1013.6,,TRUE,TRUE,TRUE,,,,,,CLR,,,,,,,,VFR,,,,,,,,,,,,SPECI,693.0
KCOD 190156Z AUTO 35009G16KT 10SM OVC110 13/M02 A2987 RMK AO2 SLP101 T01331017,KCOD,2021-10-19T01:56:00Z,44.52,-109.02,13.3,-1.7,350,9,16,10.0,29.870079,1010.1,,TRUE,TRUE,,,,,,,OVC,11000,,,,,,,VFR,,,,,,,,,,,,SPECI,1550.0
KCIU 190156Z AUTO 00000KT 9SM CLR 07/05 A3004 RMK AO2 SLP178 T00720050,KCIU,2021-10-19T01:56:00Z,46.25,-84.47,7.2,5.0,0,0,,9.0,30.041338,1017.8,,TRUE,TRUE,,,,,,,CLR,,,,,,,,VFR,,,,,,,,,,,,SPECI,242.0
KCHS 190156Z 00000KT 10SM CLR 14/10 A3016 RMK AO2 SLP212 T01390100,KCHS,2021-10-19T01:56:00Z,32.9,-80.03,13.9,10.0,0,0,,10.0,30.159449,1021.2,,,TRUE,,,,,,,CLR,,,,,,,,VFR,,,,,,,,,,,,METAR,12.0
KCGZ 190156Z AUTO 22009KT 10SM CLR 23/09 A2983 RMK AO2 SLP093 T02330094,KCGZ,2021-10-19T01:56:00Z,32.95,-111.77,23.3,9.4,220,9,,10.0,29.828741,1009.3,,TRUE,TRUE,,,,,,,CLR,,,,,,,,VFR,,,,,,,,,,,,SPECI,444.0
KCEF 190156Z 31006KT 10SM FEW080 SCT220 07/03 A2987 RMK AO2A SLP122 T00690026,KCEF,2021-10-19T01:56:00Z,42.2,-72.52,6.9,2.6,310,6,,10.0,29.870079,1012.2,,,TRUE,,,,,,,FEW,8000,SCT,22000,,,,,VFR,,,,,,,,,,,,METAR,72.0
KCEC 190156Z AUTO 00000KT 5SM BR CLR 09/08 A3001 RMK AO2 SLP164 T00940078,KCEC,2021-10-19T01:56:00Z,41.78,-124.23,9.4,7.8,0,0,,5.0,30.008858,1016.4,,TRUE,TRUE,,,,,,BR,CLR,,,,,,,,MVFR,,,,,,,,,,,,SPECI,17.0
KCBM 190156Z AUTO 00000KT 10SM R13C/4500FT CLR 11/10 A3014 RMK AO2 SLP209 T01120103 $,KCBM,2021-10-19T01:56:00Z,33.65,-88.45,11.2,10.3,0,0,,10.0,30.138779,1020.9,,TRUE,TRUE,TRUE,,,,,,CLR,,,,,,,,VFR,,,,,,,,,,,,SPECI,59.0
KCAE 190156Z 26004KT 10SM CLR 12/09 A3016 RMK AO2 SLP211 T01170089,KCAE,2021-10-19T01:56:00Z,33.93,-81.12,11.7,8.9,260,4,,10.0,30.159449,1021.1,,,TRUE,,,,,,,CLR,,,,,,,,VFR,,,,,,,,,,,,SPECI,69.0
KBZN 190156Z 00000KT 10SM OVC095 12/01 A2987 RMK AO2 SLP117 T01220011 $,KBZN,2021-10-19T01:56:00Z,45.78,-111.17,12.2,1.1,0,0,,10.0,29.870079,1011.7,,,TRUE,TRUE,,,,,,OVC,9500,,,,,,,VFR,,,,,,,,,,,,SPECI,1349.0
KBVX 190156Z AUTO 10SM CLR 14/07 RMK AO2 SLPNO T01390067 $,KBVX,2021-10-19T01:56:00Z,35.73,-91.65,13.9,6.7,,,,10.0,,,,TRUE,TRUE,TRUE,,,,,,CLR,,,,,,,,VFR,,,,,,,,,,,,METAR,137.0
KBUR 190156Z 17006KT 10SM SCT050 15/08 A2993 RMK AO2 T01500078,KBUR,2021-10-19T01:56:00Z,34.2,-118.37,15.0,7.8,170,6,,10.0,29.929134,,,,TRUE,,,,,,,SCT,5000,,,,,,,VFR,,,,,,,,,,,,METAR,221.0
KBTP 190156Z AUTO 00000KT 10SM CLR 07/03 A3012 RMK AO2 SLP209 T00720033,KBTP,2021-10-19T01:56:00Z,40.77,-79.95,7.2,3.3,0,0,,10.0,30.121063,1020.9,,TRUE,TRUE,,,,,,,CLR,,,,,,,,VFR,,,,,,,,,,,,SPECI,375.0
KBOK 190156Z AUTO 00000KT 10SM CLR 08/08 A3001 RMK AO2 SLP164 T00830083,KBOK,2021-10-19T01:56:00Z,42.07,-124.28,8.3,8.3,0,0,,10.0,30.008858,1016.4,,TRUE,TRUE,,,,,,,CLR,,,,,,,,VFR,,,,,,,,,,,,SPECI,140.0
KBMI 190156Z 20007KT 10SM CLR 13/08 A3010 RMK AO2 SLP191 T01280083,KBMI,2021-10-19T01:56:00Z,40.47,-88.92,12.8,8.3,200,7,,10.0,30.100393,1019.1,,,TRUE,,,,,,,CLR,,,,,,,,VFR,,,,,,,,,,,,METAR,262.0
KBLV 190156Z 00000KT 10SM CLR 14/08 A3011 RMK AO2A SLP200 T01430078 $,KBLV,2021-10-19T01:56:00Z,38.53,-89.83,14.3,7.8,0,0,,10.0,30.109253,1020.0,,,TRUE,TRUE,,,,,,CLR,,,,,,,,VFR,,,,,,,,,,,,METAR,134.0
KBLM 190156Z AUTO 28006KT 10SM SCT070 09/03 A3000 RMK AO2 SLP161 T00940033 PNO $,KBLM,2021-10-19T01:56:00Z,40.17,-74.12,9.4,3.3,280,6,,10.0,30.0,1016.1,,TRUE,TRUE,TRUE,,,,,,SCT,7000,,,,,,,VFR,,,,,,,,,,,,SPECI,45.0
KBKX 190156Z AUTO 15012KT 10SM CLR 16/03 A2984 RMK AO2 SLP119 T01560033,KBKX,2021-10-19T01:56:00Z,44.3,-96.82,15.6,3.3,150,12,,10.0,29.840551,1011.9,,TRUE,TRUE,,,,,,,CLR,,,,,,,,VFR,,,,,,,,,,,,SPECI,494.0
KBJJ 190156Z AUTO 00000KT 10SM CLR 06/04 A3013 RMK AO2 RAB0058E10 SLP207 P0000 T00560039,KBJJ,2021-10-19T01:56:00Z,40.87,-81.88,5.6,3.9,0,0,,10.0,30.129921,1020.7,,TRUE,TRUE,,,,,,,CLR,,,,,,,,VFR,,,,,,0.005,,,,,,SPECI,338.0
KBIX 190156Z AUTO 08003KT 10SM CLR 17/12 A3012 RMK AO2 SLP203 T01660115,KBIX,2021-10-19T01:56:00Z,30.42,-88.92,16.6,11.5,80,3,,10.0,30.121063,1020.3,,TRUE,TRUE,,,,,,,CLR,,,,,,,,VFR,,,,,,,,,,,,SPECI,4.0
KBIH 190156Z AUTO 35010KT 10SM CLR 11/M08 A2991 RMK AO2 SLP106 T01111083,KBIH,2021-10-19T01:56:00Z,37.37,-118.35,11.1,-8.3,350,10,,10.0,29.911417,1010.6,,TRUE,TRUE,,,,,,,CLR,,,,,,,,VFR,,,,,,,,,,,,SPECI,1252.0
KBID 190156Z AUTO 32015G22KT 10SM CLR 09/04 A2987 RMK AO2 SLP114 T00940039,KBID,2021-10-19T01:56:00Z,41.17,-71.58,9.4,3.9,320,15,22,10.0,29.870079,1011.4,,TRUE,TRUE,,,,,,,CLR,,,,,,,,VFR,,,,,,,,,,,,SPECI,32.0
KBHB 190156Z AUTO VRB04KT 10SM CLR 09/04 A2969 RMK AO2 SLP055 T00890044,KBHB,2021-10-19T01:56:00Z,44.45,-68.37,8.9,4.4,0,4,,10.0,29.68996,1005.5,,TRUE,TRUE,,,,,,,CLR,,,,,,,,VFR,,,,,,,,,,,,METAR,21.0
KBAD 190156Z AUTO 13004KT 10SM CLR 13/06 A3009 RMK AO2 SLP192 T01310055,KBAD,2021-10-19T01:56:00Z,32.5,-93.67,13.1,5.5,130,4,,10.0,30.088583,1019.2,,TRUE,TRUE,,,,,,,CLR,,,,,,,,VFR,,,,,,,,,,,,METAR,49.0
KAWO 190156Z AUTO 00000KT 10SM FEW040 OVC055 11/07 A3001 RMK AO2 SLP167 T01060072 PNO $,KAWO,2021-10-19T01:56:00Z,48.17,-122.17,10.6,7.2,0,0,,10.0,30.008858,1016.7,,TRUE,TRUE,TRUE,,,,,,FEW,4000,OVC,5500,,,,,VFR,,,,,,,,,,,,SPECI,38.0
KAUO 190156Z AUTO 00000KT 10SM CLR 13/10 A3019 RMK AO2 SLP222 T01280100,KAUO,2021-10-19T01:56:00Z,32.62,-85.43,12.8,10.0,0,0,,10.0,30.188976,1022.2,,TRUE,TRUE,,,,,,,CLR,,,,,,,,VFR,,,,,,,,,,,,METAR,231.0
KASH 190156Z AUTO 31005KT 10SM CLR 08/04 A2984 RMK AO2 SLP108 T00830044,KASH,2021-10-19T01:56:00Z,42.78,-71.52,8.3,4.4,310,5,,10.0,29.840551,1010.8,,TRUE,TRUE,,,,,,,CLR,,,,,,,,VFR,,,,,,,,,,,,SPECI,56.0
KART 190156Z AUTO A2996 RMK AO2 SLPNO PWINO FZRANO,KART,2021-10-19T01:56:00Z,43.98,-76.03,,,,,,,29.958662,,,TRUE,TRUE,,,,TRUE,TRUE,,,,,,,,,,,,,,,,,,,,,,SPECI,100.0
KARG 190156Z AUTO 15003KT 10SM CLR 13/07 A3013 RMK AO2 SLP204 T01280072,KARG,2021-10-19T01:56:00Z,36.12,-90.92,12.8,7.2,150,3,,10.0,30.129921,1020.4,,TRUE,TRUE,,,,,,,CLR,,,,,,,,VFR,,,,,,,,,,,,METAR,82.0
KAND 190156Z AUTO 00000KT 10SM CLR 11/09 A3016 RMK AO2 SLP212 T01110094,KAND,2021-10-19T01:56:00Z,34.5,-82.72,11.1,9.4,0,0,,10.0,30.159449,1021.2,,TRUE,TRUE,,,,,,,CLR,,,,,,,,VFR,,,,,,,,,,,,METAR,233.0
KALK 190156Z AUTO 10SM CLR 18/07 A3002 RMK AO2 SLP096 T01780072,KALK,2021-10-19T01:56:00Z,31.6,-110.43,17.8,7.2,,,,10.0,30.02067,1009.6,,TRUE,TRUE,,,,,,,CLR,,,,,,,,VFR,,,,,,,,,,,,SPECI,1451.0
KAJO 190156Z AUTO 31007KT 10SM BKN070 15/08 A2994 RMK AO2 SLP136 T01500083,KAJO,2021-10-19T01:56:00Z,33.9,-117.6,15.0,8.3,310,7,,10.0,29.940945,1013.6,,TRUE,TRUE,,,,,,,BKN,7000,,,,,,,VFR,,,,,,,,,,,,SPECI,161.0
KAFJ 190156Z AUTO 00000KT 10SM CLR 06/03 A3016 RMK AO2 SLP217 T00610033,KAFJ,2021-10-19T01:56:00Z,40.13,-80.28,6.1,3.3,0,0,,10.0,30.159449,1021.7,,TRUE,TRUE,,,,,,,CLR,,,,,,,,VFR,,,,,,,,,,,,SPECI,360.0
KADW 190156Z AUTO 00000KT 10SM CLR 09/04 A3004 RMK AO2 SLP180 T00880042 $,KADW,2021-10-19T01:56:00Z,38.82,-76.87,8.8,4.2,0,0,,10.0,30.041338,1018.0,,TRUE,TRUE,TRUE,,,,,,CLR,,,,,,,,VFR,,,,,,,,,,,,METAR,87.0
KADF 190156Z AUTO 00000KT 10SM CLR 09/08 A3012 RMK AO2 SLP201 T00940078,KADF,2021-10-19T01:56:00Z,34.1,-93.07,9.4,7.8,0,0,,10.0,30.121063,1020.1,,TRUE,TRUE,,,,,,,CLR,,,,,,,,VFR,,,,,,,,,,,,METAR,54.0
KADC 190156Z AUTO 15005KT 10SM CLR 12/04 A2983 RMK AO2 TSNO,KADC,2021-10-19T01:56:00Z,46.45,-95.22,12.0,4.0,150,5,,10.0,29.828741,,,TRUE,TRUE,,,TRUE,,,,CLR,,,,,,,,VFR,,,,,,,,,,,,SPECI,416.0
K8D3 190156Z AUTO 18008KT 14/06 A2977 RMK AO1 SLP081 T01390056,K8D3,2021-10-19T01:56:00Z,45.67,-96.98,13.9,5.6,180,8,,,29.769686,1008.1,,TRUE,TRUE,,,,,,,,,,,,,,,,,,,,,,,,,,,METAR,535.0
K7N0 190156Z AUTO VRB05KT 10SM CLR 21/16 A3013 RMK AO2 SLP203 T02060156,K7N0,2021-10-19T01:56:00Z,29.95,-90.07,20.6,15.6,0,5,,10.0,30.129921,1020.3,,TRUE,TRUE,,,,,,,CLR,,,,,,,,VFR,,,,,,,,,,,,METAR,0.0
K79J 190156Z AUTO 00000KT 10SM CLR 14/11 A3016 RMK AO2 SLP210 T01440106,K79J,2021-10-19T01:56:00Z,31.32,-86.4,14.4,10.6,0,0,,10.0,30.159449,1021.0,,TRUE,TRUE,,,,,,,CLR,,,,,,,,VFR,,,,,,,,,,,,METAR,93.0
K2WX 190156Z AUTO 33015KT 14/04 A2973 RMK AO1 SLP069 T01390039,K2WX,2021-10-19T01:56:00Z,45.6,-103.55,13.9,3.9,330,15,,,29.731298,1006.9,,TRUE,TRUE,,,,,,,,,,,,,,,,,,,,,,,,,,,SPECI,925.0
K2DP 190156Z AUTO 24004KT 10SM CLR 08/08 A3007 RMK AO2 SLPNO T00840084 $,K2DP,2021-10-19T01:56:00Z,35.68,-75.9,8.4,8.4,240,4,,10.0,30.070866,,,TRUE,TRUE,TRUE,,,,,,CLR,,,,,,,,VFR,,,,,,,,,,,,SPECI,1.0
K1M4 190156Z AUTO 00000KT 10SM CLR 10/09 A3020 RMK AO2 SLP728 T01000094,K1M4,2021-10-19T01:56:00Z,34.28,-87.6,10.0,9.4,0,0,,10.0,30.200787,972.8,,TRUE,TRUE,,,,,,,CLR,,,,,,,,VFR,,,,,,,,,,,,METAR,283.0
ETOU 190156Z AUTO 11004KT 9000 BR BKN170 06/04 A3023 RMK AO2 SLP243 T00600040,ETOU,2021-10-19T01:56:00Z,50.03,8.32,6.0,4.0,110,4,,5.59,30.230314,1024.3,,TRUE,TRUE,,,,,,BR,BKN,17000,,,,,,,VFR,,,,,,,,,,,,SPECI,141.0
ETIH 190156Z AUTO 27003KT 9000 BR CLR 02/00 A3027 RMK AO2 SLP260 T00160003,ETIH,2021-10-19T01:56:00Z,49.22,11.83,1.6,0.3,270,3,,5.59,30.268702,1026.0,,TRUE,TRUE,,,,,,BR,CLR,,,,,,,,VFR,,,,,,,,,,,,METAR,436.0
ETIC 190156Z AUTO 00000KT 9999 CLR 02/01 A3025 RMK AO2 SLP254 T00160012 $,ETIC,2021-10-19T01:56:00Z,49.7,11.93,1.6,1.2,0,0,,6.21,30.250984,1025.4,,TRUE,TRUE,TRUE,,,,,,CLR,,,,,,,,VFR,,,,,,,,,,,,METAR,414.0
ETEB 190156Z AUTO 20004KT 0600 FG BKN000 04/04 A3026 RMK AO2 BKN V SCT SLP272 T00410040 RVRNO $,ETEB,2021-10-19T01:56:00Z,49.32,10.63,4.1,4.0,200,4,,0.37,30.259842,1027.2,,TRUE,TRUE,TRUE,,,,,FG,BKN,0,,,,,,,LIFR,,,,,,,,,,,,METAR,466.0
ETAR 190156Z 00000KT 9999 SCT100 06/06 A3022 RMK AO2A VIS 3600 RWY08 VIS 2400 RWY09 SLP241 T00550055,ETAR,2021-10-19T01:56:00Z,49.43,7.58,5.5,5.5,0,0,,6.21,30.221457,1024.1,,,TRUE,,,,,,,SCT,10000,,,,,,,VFR,,,,,,,,,,,,SPECI,231.0
ETAD 190156Z AUTO 00000KT 8000 -RA BR OVC029 09/08 A3018 RMK AO2 RAE0059DZB13E20RAB20 OVC V BKN SLP213 P0002 T00870081,ETAD,2021-10-19T01:56:00Z,49.98,6.7,8.7,8.1,0,0,,4.97,30.180119,1021.3,,TRUE,TRUE,,,,,,-RA BR,OVC,2900,,,,,,,MVFR,,,,,,0.02,,,,,,SPECI,365.0
EGVA 190156Z AUTO 19007KT 9999 OVC004 16/16 A2989 RMK AO2 SLP124 T01600158 $,EGVA,2021-10-19T01:56:00Z,51.67,-1.78,16.0,15.8,190,7,,6.21,29.890747,1012.4,,TRUE,TRUE,TRUE,,,,,,OVC,400,,,,,,,LIFR,,,,,,,,,,,,SPECI,84.0
EGUN 190156Z 20003KT 9999 OVC012 16/16 A2991 RMK AO2A DZB0026E35 SLP132 T01600160 FZRANO $,EGUN,2021-10-19T01:56:00Z,52.37,0.48,16.0,16.0,200,3,,6.21,29.911417,1013.2,,,TRUE,TRUE,,,TRUE,,,OVC,1200,,,,,,,MVFR,,,,,,,,,,,,SPECI,10.0
EGUL 190156Z AUTO 21005KT 9999 OVC010 16/07 A2990 RMK AO2 VIS 2400 RWY06 SLP128 T01600070 $,EGUL,2021-10-19T01:56:00Z,52.42,0.57,16.0,7.0,210,5,,6.21,29.899607,1012.8,,TRUE,TRUE,TRUE,,,,,,OVC,1000,,,,,,,MVFR,,,,,,,,,,,,SPECI,8.0
TXKF 190155Z 31009KT 9999 FEW046 BKN069 24/14 Q1014 ,TXKF,2021-10-19T01:55:00Z,32.37,-64.68,24.0,14.0,310,9,,6.21,29.940945,,,,,,,,,,,FEW,4600,BKN,6900,,,,,VFR,,,,,,,,,,,,METAR,4.0
TNCE 190155Z AUTO VRB02KT //// // ///////// 27/25 Q1014 RE//,TNCE,2021-10-19T01:55:00Z,17.48,-62.97,27.0,25.0,0,2,,,29.940945,,,TRUE,,,,,,,,,,,,,,,,,,,,,,,,,,,,SPECI,38.0
TNCB 190155Z AUTO 07009KT 9999 FEW016/// 29/25 Q1012,TNCB,2021-10-19T01:55:00Z,12.13,-68.28,29.0,25.0,70,9,,6.21,29.88189,,,TRUE,,,,,,,,FEW,1600,,,,,,,VFR,,,,,,,,,,,,METAR,6.0
PTRO 190155Z 08007KT 13SM SCT017 BKN120 BKN300 30/24 A2992 ,PTRO,2021-10-19T01:55:00Z,7.37,134.55,30.0,24.0,80,7,,13.0,29.920275,,,,,,,,,,,SCT,1700,BKN,12000,BKN,30000,,,VFR,,,,,,,,,,,,METAR,30.0
PATL 190155Z AUTO VRB04KT 10SM CLR M03/M06 A2962 RMK AO2 SLP050 T10271064,PATL,2021-10-19T01:55:00Z,62.9,-155.97,-2.7,-6.4,0,4,,10.0,29.619095,1005.0,,TRUE,TRUE,,,,,,,CLR,,,,,,,,VFR,,,,,,,,,,,,METAR,261.0
PATC 190155Z AUTO 13010KT 10SM BKN020 M02/M06 A2949 RMK AO2 SLP991 T10251058,PATC,2021-10-19T01:55:00Z,65.57,-167.92,-2.5,-5.8,130,10,,10.0,29.489174,999.1,,TRUE,TRUE,,,,,,,BKN,2000,,,,,,,MVFR,,,,,,,,,,,,METAR,77.0
PASV 190155Z AUTO 24001KT 10SM FEW200 03/M06 A2953 RMK AO2 SLP026 T00261061 $,PASV,2021-10-19T01:55:00Z,61.1,-155.57,2.6,-6.1,240,1,,10.0,29.530512,1002.6,,TRUE,TRUE,TRUE,,,,,,FEW,20000,,,,,,,VFR,,,,,,,,,,,,METAR,462.0
PALU 190155Z AUTO 13014KT 080V150 10SM CLR M08/M15 A2971 RMK AO2 SLP061 T10791155,PALU,2021-10-19T01:55:00Z,68.88,-166.1,-7.9,-15.5,130,14,,10.0,29.71063,1006.1,,TRUE,TRUE,,,,,,,CLR,,,,,,,,VFR,,,,,,,,,,,,METAR,8.0
PAKX 190155Z AUTO 00000KT 10SM CLR 07/M02 A2959 RMK AO2,PAKX,2021-10-19T01:55:00Z,60.2,-154.32,7.0,-2.0,0,0,,10.0,29.589567,,,TRUE,TRUE,,,,,,,CLR,,,,,,,,VFR,,,,,,,,,,,,METAR,88.0
PAIM 190155Z AUTO 12009KT 10SM CLR M07/M10 A2962 RMK AO2 SLP060 T10711100,PAIM,2021-10-19T01:55:00Z,66.0,-153.7,-7.1,-10.0,120,9,,10.0,29.619095,1006.0,,TRUE,TRUE,,,,,,,CLR,,,,,,,,VFR,,,,,,,,,,,,METAR,309.0
PAAD 190155Z AUTO 23016KT 7SM SCT029 BKN035 OVC100 M11/M13 A2983 RMK AO2 T11151135,PAAD,2021-10-19T01:55:00Z,70.13,-146.28,-11.5,-13.5,230,16,,7.0,29.828741,,,TRUE,TRUE,,,,,,,SCT,2900,BKN,3500,OVC,10000,,,VFR,,,,,,,,,,,,METAR,8.0
OPST 190155Z 00000KT 4000 FU NSC 19/17 Q1008 NOSIG RH90,OPST,2021-10-19T01:55:00Z,32.53,74.37,19.0,17.0,0,0,,2.49,29.763779,,,,,,TRUE,,,,FU,CLR,,,,,,,,IFR,,,,,,,,,,,,METAR,234.0
OPLA 190155Z 27003KT 1500 FU NSC 23/19 Q1008 BECMG 1000 RMK QFE980 RMK A29.78,OPLA,2021-10-19T01:55:00Z,31.52,74.4,23.0,19.0,270,3,,0.93,29.763779,,,,,,,,,,FU,CLR,,,,,,,,LIFR,,,,,,,,,,,,METAR,217.0
OPIS 190155Z 23008KT 5000 FU NSC 16/14 Q1010 BECMG 6000,OPIS,2021-10-19T01:55:00Z,33.55,72.83,16.0,14.0,230,8,,3.11,29.822834,,,,,,,,,,FU,CLR,,,,,,,,MVFR,,,,,,,,,,,,METAR,542.0
OPFA 190155Z 00000KT 1500 BR NSC 21/20 Q1009 BECMG 2000,OPFA,2021-10-19T01:55:00Z,31.37,73.0,21.0,20.0,0,0,,0.93,29.793306,,,,,,,,,,BR,CLR,,,,,,,,LIFR,,,,,,,,,,,,METAR,180.0
NZCM 190155Z AUTO 07021G31KT 9999 OVC160 M17/M23 A2888 RMK AO2 PK WND 09032/0103 SLP787 T11661234 $,NZCM,2021-10-19T01:55:00Z,-77.85,166.67,-16.6,-23.4,70,21,31,6.21,28.880905,978.7,,TRUE,TRUE,TRUE,,,,,,OVC,16000,,,,,,,VFR,,,,,,,,,,,,METAR,24.0
MUHA 190155Z 07006KT 9000 SCT030 25/23 Q1017,MUHA,2021-10-19T01:55:00Z,22.98,-82.42,25.0,23.0,70,6,,5.59,30.029528,,,,,,,,,,,SCT,3000,,,,,,,VFR,,,,,,,,,,,,METAR,61.0
LIVP 190155Z 25003KT CAVOK 04/M05 Q1028 RMK SKC MON LIB VAL NIL VIS MIN 9999,LIVP,2021-10-19T01:55:00Z,46.15,11.03,4.0,-5.0,250,3,,6.21,30.35433,,,,,,,,,,,CAVOK,,,,,,,,VFR,,,,,,,,,,,,METAR,2099.0
LIVM 190155Z AUTO VRB03KT //// 09/06 Q1027,LIVM,2021-10-19T01:55:00Z,44.45,12.3,9.0,6.0,0,3,,,30.324802,,,TRUE,,,,,,,,,,,,,,,,,,,,,,,,,,,,METAR,6.0
LIVF 190155Z 26004KT CAVOK 08/01 Q1026 RMK SKC MON LIB VAL NIL VIS MIN 9999,LIVF,2021-10-19T01:55:00Z,43.52,12.72,8.0,1.0,260,4,,6.21,30.295275,,,,,,,,,,,CAVOK,,,,,,,,VFR,,,,,,,,,,,,METAR,549.0
LIVE 190155Z 03004KT CAVOK 04/01 Q1028 RMK SKC VIS MIN 9999,LIVE,2021-10-19T01:55:00Z,46.82,10.5,4.0,1.0,30,4,,6.21,30.35433,,,,,,,,,,,CAVOK,,,,,,,,VFR,,,,,,,,,,,,METAR,1684.0
LIRM 190155Z /////KT CAVOK 13/11 Q1026,LIRM,2021-10-19T01:55:00Z,41.05,14.07,13.0,11.0,,,,6.21,30.295275,,,,,,,,,,,CAVOK,,,,,,,,VFR,,,,,,,,,,,,SPECI,6.0
LIRK 190155Z AUTO 29007KT //// 03/00 Q1029,LIRK,2021-10-19T01:55:00Z,42.47,12.97,3.0,0.0,290,7,,,30.383858,,,TRUE,,,,,,,,,,,,,,,,,,,,,,,,,,,,METAR,1721.0
LIPS 190155Z 04002KT 8000 NSC 10/08 Q1026 RMK SKC VIS MIN 8000 WIND THR26 01002KT WIND THR08 04002KT BLK BLU,LIPS,2021-10-19T01:55:00Z,45.68,12.1,10.0,8.0,40,2,,4.97,30.295275,,,,,,,,,,,CLR,,,,,,,,MVFR,,,,,,,,,,,,METAR,42.0
LIPL 190155Z 36002KT 3000 BR NSC 09/08 Q1027 RMK SKC VIS MIN 3000 WIND THR31 34002KT WIND THR13 34001KT YLO,LIPL,2021-10-19T01:55:00Z,45.42,10.27,9.0,8.0,360,2,,1.86,30.324802,,,,,,,,,,BR,CLR,,,,,,,,IFR,,,,,,,,,,,,METAR,96.0
LIPI 190155Z 03005KT CAVOK 07/06 Q1027 RMK FEW FEW200 VIS MIN 9999 WIND THR06 01003KT WIND THR24 35003KT BLU,LIPI,2021-10-19T01:55:00Z,45.97,13.05,7.0,6.0,30,5,,6.21,30.324802,,,,,,,,,,,CAVOK,,,,,,,,VFR,,,,,,,,,,,,METAR,49.0
LIPC 190155Z 32003KT CAVOK 06/05 Q1027 RMK SKC VIS MIN 9999 WIND THR11 30003KT WIND THR29 31004KT BLU,LIPC,2021-10-19T01:55:00Z,44.22,12.3,6.0,5.0,320,3,,6.21,30.324802,,,,,,,,,,,CAVOK,,,,,,,,VFR,,,,,,,,,,,,METAR,10.0
LIED 190155Z 32002KT 9999 FEW010 11/09 Q1026 RMK FEW VIS MIN 9999 WIND THR35 00000KT WIND THR17 31002KT BLU,LIED,2021-10-19T01:55:00Z,39.35,8.97,11.0,9.0,320,2,,6.21,30.295275,,,,,,,,,,,FEW,1000,,,,,,,VFR,,,,,,,,,,,,METAR,26.0
LICZ 190155Z 28002KT 9999 FEW020 SCT040 BKN100 17/17 Q1024 RMK BKN VIS MIN 9999 WIND THR28 28002KT WIND THR10 28002KT A3026 BLU,LICZ,2021-10-19T01:55:00Z,37.4,14.92,17.0,17.0,280,2,,6.21,30.236221,,,,,,,,,,,FEW,2000,SCT,4000,BKN,10000,,,VFR,,,,,,,,,,,,SPECI,22.0
LICT 190155Z 10003KT CAVOK 14/14 Q1024,LICT,2021-10-19T01:55:00Z,37.92,12.5,14.0,14.0,100,3,,6.21,30.236221,,,,,,,,,,,CAVOK,,,,,,,,VFR,,,,,,,,,,,,METAR,4.0
LICF 190155Z 33002KT CAVOK 17/14 Q1024 RMK SCT SCT080 QUK / QUL / VIS MAR 20 KM MON INVIS NC VIS MIN 9999,LICF,2021-10-19T01:55:00Z,38.2,15.55,17.0,14.0,330,2,,6.21,30.236221,,,,,,,,,,,CAVOK,,,,,,,,VFR,,,,,,,,,,,,METAR,66.0
LIBA 190155Z 28007KT CAVOK 12/10 Q1026 RMK SKC VIS MIN 9999 WIND THR11 28007KT WIND THR29 /////KT BLU,LIBA,2021-10-19T01:55:00Z,41.53,15.72,12.0,10.0,280,7,,6.21,30.295275,,,,,,,,,,,CAVOK,,,,,,,,VFR,,,,,,,,,,,,METAR,55.0
KZPH 190155Z AUTO CLR 19/15 A3013 RMK A02 PWINO T01860146,KZPH,2021-10-19T01:55:00Z,28.23,-82.15,18.6,14.6,,,,,30.129921,,,TRUE,TRUE,,,,,TRUE,,CLR,,,,,,,,,,,,,,,,,,,,METAR,26.0
KY70 190155Z AUTO 25004KT 10SM CLR 11/03 A3009 RMK AO2 T01070028,KY70,2021-10-19T01:55:00Z,42.93,-85.07,10.7,2.8,250,4,,10.0,30.088583,,,TRUE,TRUE,,,,,,,CLR,,,,,,,,VFR,,,,,,,,,,,,METAR,247.0
KY63 190155Z AUTO 17011KT 10SM CLR 15/05 A2981 RMK AO2 T01500050,KY63,2021-10-19T01:55:00Z,45.98,-96.0,15.0,5.0,170,11,,10.0,29.811024,,,TRUE,TRUE,,,,,,,CLR,,,,,,,,VFR,,,,,,,,,,,,METAR,367.0
KY49 190155Z AUTO 15005KT 10SM CLR 17/06 A2982 RMK AO2 T01670062,KY49,2021-10-19T01:55:00Z,47.15,-94.65,16.7,6.2,150,5,,10.0,29.819881,,,TRUE,TRUE,,,,,,,CLR,,,,,,,,VFR,,,,,,,,,,,,METAR,413.0
KY31 190155Z AUTO 00000KT 10SM CLR 05/05 A3006 RMK AO2 T00490045,KY31,2021-10-19T01:55:00Z,44.25,-84.18,4.9,4.5,0,0,,10.0,30.059055,,,TRUE,TRUE,,,,,,,CLR,,,,,,,,VFR,,,,,,,,,,,,METAR,264.0
KY23 190155Z AUTO 00000KT 10SM CLR 14/06 A2997 RMK AO2 T01350064,KY23,2021-10-19T01:55:00Z,45.3,-91.63,13.5,6.4,0,0,,10.0,29.970472,,,TRUE,TRUE,,,,,,,CLR,,,,,,,,VFR,,,,,,,,,,,,METAR,322.0
KY19 190155Z AUTO 00000KT 10SM CLR 15/10 A2972 RMK AO2,KY19,2021-10-19T01:55:00Z,46.77,-100.9,15.0,10.0,0,0,,10.0,29.719488,,,TRUE,TRUE,,,,,,,CLR,,,,,,,,VFR,,,,,,,,,,,,METAR,591.0
KXSA 190155Z AUTO 00000KT 10SM CLR 08/08 A3007 RMK AO2 T00840084,KXSA,2021-10-19T01:55:00Z,37.87,-76.9,8.4,8.4,0,0,,10.0,30.070866,,,TRUE,TRUE,,,,,,,CLR,,,,,,,,VFR,,,,,,,,,,,,METAR,41.0
KXNX 190155Z AUTO 00000KT 1/2SM FG VV005 11/09 A3020 RMK A01,KXNX,2021-10-19T01:55:00Z,36.38,-86.42,11.0,9.0,0,0,,0.5,30.200787,,,TRUE,TRUE,,,,,,FG,OVX,0,,,,,,,LIFR,,,,,,,,,,,500,METAR,178.0
KXLL 190155Z AUTO 30004KT 10SM SCT070 10/02 A3002 RMK AO2,KXLL,2021-10-19T01:55:00Z,40.57,-75.48,10.0,2.0,300,4,,10.0,30.02067,,,TRUE,TRUE,,,,,,,SCT,7000,,,,,,,VFR,,,,,,,,,,,,METAR,118.0
KXBP 190155Z AUTO 16004KT 10SM CLR 18/08 A3004 RMK AO2 T01760075,KXBP,2021-10-19T01:55:00Z,33.18,-97.83,17.6,7.5,160,4,,10.0,30.041338,,,TRUE,TRUE,,,,,,,CLR,,,,,,,,VFR,,,,,,,,,,,,METAR,256.0
KX26 190155Z AUTO 06006KT 10SM CLR 23/14 A3010 RMK AO2 T02280141,KX26,2021-10-19T01:55:00Z,27.82,-80.5,22.8,14.1,60,6,,10.0,30.100393,,,TRUE,TRUE,,,,,,,CLR,,,,,,,,VFR,,,,,,,,,,,,METAR,5.0
KX07 190155Z AUTO 07004KT 10SM FEW043 20/15 A3013 RMK A01,KX07,2021-10-19T01:55:00Z,27.9,-81.62,20.0,15.0,70,4,,10.0,30.129921,,,TRUE,TRUE,,,,,,,FEW,4300,,,,,,,VFR,,,,,,,,,,,,METAR,36.0
KWYS 190155Z AUTO 18004KT 10SM FEW034 BKN040 OVC055 07/03 A2991 RMK AO2,KWYS,2021-10-19T01:55:00Z,44.68,-111.12,7.0,3.0,180,4,,10.0,29.911417,,,TRUE,TRUE,,,,,,,FEW,3400,BKN,4000,OVC,5500,,,VFR,,,,,,,,,,,,SPECI,2025.0
KWDR 190155Z AUTO 00000KT 10SM CLR 11/09 A3019 RMK AO2,KWDR,2021-10-19T01:55:00Z,33.98,-83.67,11.0,9.0,0,0,,10.0,30.188976,,,TRUE,TRUE,,,,,,,CLR,,,,,,,,VFR,,,,,,,,,,,,METAR,280.0
KW96 190155Z AUTO 00000KT 10SM CLR 09/07 A3006 RMK AO1 T00920074,KW96,2021-10-19T01:55:00Z,37.5,-77.12,9.2,7.4,0,0,,10.0,30.059055,,,TRUE,TRUE,,,,,,,CLR,,,,,,,,VFR,,,,,,,,,,,,METAR,35.0
KW81 190155Z AUTO 30004KT 10SM CLR 13/01 A3008 RMK AO1 T01330006,KW81,2021-10-19T01:55:00Z,37.18,-78.1,13.3,0.6,300,4,,10.0,30.079725,,,TRUE,TRUE,,,,,,,CLR,,,,,,,,VFR,,,,,,,,,,,,METAR,121.0
KW78 190155Z AUTO 00000KT 10SM CLR 09/04 A3012 RMK AO1 T00900044,KW78,2021-10-19T01:55:00Z,36.7,-78.85,9.0,4.4,0,0,,10.0,30.121063,,,TRUE,TRUE,,,,,,,CLR,,,,,,,,VFR,,,,,,,,,,,,METAR,120.0
KW75 190155Z AUTO 00000KT 10SM CLR 11/08 A3006 RMK AO1 T01140078,KW75,2021-10-19T01:55:00Z,37.6,-76.45,11.4,7.8,0,0,,10.0,30.059055,,,TRUE,TRUE,,,,,,,CLR,,,,,,,,VFR,,,,,,,,,,,,METAR,8.0
KW43 190155Z AUTO 00000KT 10SM CLR 13/00 A2984 RMK AO2,KW43,2021-10-19T01:55:00Z,44.67,-104.57,13.0,0.0,0,0,,10.0,29.840551,,,TRUE,TRUE,,,,,,,CLR,,,,,,,,VFR,,,,,,,,,,,,METAR,1292.0
KW31 190155Z AUTO 00000KT 10SM CLR 12/05 A3009 RMK AO1 T01230045,KW31,2021-10-19T01:55:00Z,36.95,-78.18,12.3,4.5,0,0,,10.0,30.088583,,,TRUE,TRUE,,,,,,,CLR,,,,,,,,VFR,,,,,,,,,,,,METAR,159.0
KW22 190155Z AUTO 19003KT 10SM FEW046 10/04 A3016 RMK AO2,KW22,2021-10-19T01:55:00Z,39.0,-80.27,10.0,4.0,190,3,,10.0,30.159449,,,TRUE,TRUE,,,,,,,FEW,4600,,,,,,,VFR,,,,,,,,,,,,METAR,497.0
KW13 190155Z AUTO 26005KT 10SM CLR 13/02 A3011 RMK AO1 T01250021,KW13,2021-10-19T01:55:00Z,38.08,-78.95,12.5,2.1,260,5,,10.0,30.109253,,,TRUE,TRUE,,,,,,,CLR,,,,,,,,VFR,,,,,,,,,,,,METAR,440.0
KVYS 190155Z AUTO 16005KT 10SM CLR 16/08 A3007 RMK AO2 T01600077,KVYS,2021-10-19T01:55:00Z,41.35,-89.15,16.0,7.7,160,5,,10.0,30.070866,,,TRUE,TRUE,,,,,,,CLR,,,,,,,,VFR,,,,,,,,,,,,METAR,198.0
KVWU 190155Z AUTO 15004KT 10SM CLR 17/07 A2979 RMK AO2,KVWU,2021-10-19T01:55:00Z,48.15,-94.52,17.0,7.0,150,4,,10.0,29.790354,,,TRUE,TRUE,,,,,,,CLR,,,,,,,,VFR,,,,,,,,,,,,METAR,359.0
KVVV 190155Z AUTO 16004KT 10SM CLR 13/06 A2981 RMK AO2,KVVV,2021-10-19T01:55:00Z,45.3,-96.42,13.0,6.0,160,4,,10.0,29.811024,,,TRUE,TRUE,,,,,,,CLR,,,,,,,,VFR,,,,,,,,,,,,METAR,334.0
KVVS 190155Z AUTO 10003KT 10SM CLR 07/03 A3014 RMK AO2 T00650031,KVVS,2021-10-19T01:55:00Z,39.95,-79.65,6.5,3.1,100,3,,10.0,30.138779,,,TRUE,TRUE,,,,,,,CLR,,,,,,,,VFR,,,,,,,,,,,,METAR,386.0
KVUJ 190155Z AUTO 00000KT 10SM CLR 09/08 A3019 RMK AO2 T00920077,KVUJ,2021-10-19T01:55:00Z,35.42,-80.15,9.2,7.7,0,0,,10.0,30.188976,,,TRUE,TRUE,,,,,,,CLR,,,,,,,,VFR,,,,,,,,,,,,METAR,174.0
KVTP 190155Z AUTO 23013G18KT 200V260 10SM CLR 06/M06 A3006 RMK AO2,KVTP,2021-10-19T01:55:00Z,37.5,-105.17,6.0,-6.0,230,13,18,10.0,30.059055,,,TRUE,TRUE,,,,,,,CLR,,,,,,,,VFR,,,,,,,,,,,,METAR,3086.0
KVTI 190155Z AUTO 16003KT 10SM CLR 15/08 A3000 RMK AO2 T01460075,KVTI,2021-10-19T01:55:00Z,42.22,-92.02,14.6,7.5,160,3,,10.0,30.0,,,TRUE,TRUE,,,,,,,CLR,,,,,,,,VFR,,,,,,,,,,,,METAR,256.0
KVPC 190155Z AUTO 00000KT 10SM CLR 11/09 A3019 RMK AO2,KVPC,2021-10-19T01:55:00Z,34.1,-84.85,11.0,9.0,0,0,,10.0,30.188976,,,TRUE,TRUE,,,,,,,CLR,,,,,,,,VFR,,,,,,,,,,,,METAR,234.0
KVNW 190155Z AUTO 00000KT 10SM CLR 08/05 A3013 RMK AO2,KVNW,2021-10-19T01:55:00Z,40.87,-84.62,8.0,5.0,0,0,,10.0,30.129921,,,TRUE,TRUE,,,,,,,CLR,,,,,,,,VFR,,,,,,,,,,,,METAR,238.0
KVNC 190155Z AUTO 07009KT 9SM 23/16 A3009 RMK AO2,KVNC,2021-10-19T01:55:00Z,27.07,-82.43,23.0,16.0,70,9,,9.0,30.088583,,,TRUE,TRUE,,,,,,,,,,,,,,,,,,,,,,,,,,,METAR,4.0
KVLL 190155Z AUTO 00000KT 10SM CLR 11/06 A3011 RMK AO2 T01080063,KVLL,2021-10-19T01:55:00Z,42.55,-83.18,10.8,6.3,0,0,,10.0,30.109253,,,TRUE,TRUE,,,,,,,CLR,,,,,,,,VFR,,,,,,,,,,,,METAR,214.0
KVKY 190155Z AUTO 10015KT 10SM FEW038 23/15 A3012 RMK A01,KVKY,2021-10-19T01:55:00Z,29.25,-88.43,23.0,15.0,100,15,,10.0,30.121063,,,TRUE,TRUE,,,,,,,FEW,3800,,,,,,,VFR,,,,,,,,,,,,METAR,32.0
KVKS 190155Z AUTO 00000KT 10SM CLR 12/12 A3012 RMK A01,KVKS,2021-10-19T01:55:00Z,32.23,-90.93,12.0,12.0,0,0,,10.0,30.121063,,,TRUE,TRUE,,,,,,,CLR,,,,,,,,VFR,,,,,,,,,,,,METAR,31.0
KVJI 190155Z AUTO 00000KT 10SM CLR 09/05 A3022 RMK AO2 T00890050,KVJI,2021-10-19T01:55:00Z,36.68,-82.03,8.9,5.0,0,0,,10.0,30.221457,,,TRUE,TRUE,,,,,,,CLR,,,,,,,,VFR,,,,,,,,,,,,METAR,636.0
KVHN 190155Z AUTO 26007KT 10SM CLR 24/02 A2999 RMK AO2 T02380019,KVHN,2021-10-19T01:55:00Z,31.07,-104.78,23.8,1.9,260,7,,10.0,29.991142,,,TRUE,TRUE,,,,,,,CLR,,,,,,,,VFR,,,,,,,,,,,,METAR,1200.0
KVGC 190155Z AUTO 00000KT 10SM BKN033 OVC045 05/03 A2998 RMK AO2,KVGC,2021-10-19T01:55:00Z,42.85,-75.57,5.0,3.0,0,0,,10.0,29.97933,,,TRUE,TRUE,,,,,,,BKN,3300,OVC,4500,,,,,VFR,,,,,,,,,,,,METAR,346.0
KVES 190155Z AUTO 00000KT 10SM CLR 09/06 A3015 RMK AO2,KVES,2021-10-19T01:55:00Z,40.2,-84.53,9.0,6.0,0,0,,10.0,30.15059,,,TRUE,TRUE,,,,,,,CLR,,,,,,,,VFR,,,,,,,,,,,,METAR,308.0
KVDI 190155Z AUTO 00000KT 10SM CLR 13/09 A3018 RMK AO2,KVDI,2021-10-19T01:55:00Z,32.2,-82.37,13.0,9.0,0,0,,10.0,30.180119,,,TRUE,TRUE,,,,,,,CLR,,,,,,,,VFR,,,,,,,,,,,,METAR,81.0
KVDF 190155Z AUTO 00000KT 10SM CLR 20/16 A3012 RMK AO2,KVDF,2021-10-19T01:55:00Z,28.02,-82.33,20.0,16.0,0,0,,10.0,30.121063,,,TRUE,TRUE,,,,,,,CLR,,,,,,,,VFR,,,,,,,,,,,,METAR,5.0
KVBW 190155Z AUTO 31003KT 10SM CLR 11/04 A3010 RMK AO1 T01120038,KVBW,2021-10-19T01:55:00Z,38.37,-78.97,11.2,3.8,310,3,,10.0,30.100393,,,TRUE,TRUE,,,,,,,CLR,,,,,,,,VFR,,,,,,,,,,,,METAR,362.0
KVAF 190155Z AUTO 10SM CLR 24/14 A3006 RMK A01,KVAF,2021-10-19T01:55:00Z,27.35,-94.63,24.0,14.0,,,,10.0,30.059055,,,TRUE,TRUE,,,,,,,CLR,,,,,,,,VFR,,,,,,,,,,,,SPECI,38.0
KUYF 190155Z AUTO 26004KT 10SM CLR 07/05 A3015 RMK AO2,KUYF,2021-10-19T01:55:00Z,39.93,-83.47,7.0,5.0,260,4,,10.0,30.15059,,,TRUE,TRUE,,,,,,,CLR,,,,,,,,VFR,,,,,,,,,,,,METAR,326.0
KUXL 190155Z AUTO 10SM CLR 18/07 A3011 RMK AO2 T01760074 PWINO,KUXL,2021-10-19T01:55:00Z,30.13,-93.38,17.6,7.4,,,,10.0,30.109253,,,TRUE,TRUE,,,,,TRUE,,CLR,,,,,,,,VFR,,,,,,,,,,,,METAR,2.0
KUTA 190155Z AUTO 00000KT CLR 12/10 A3015 RMK AO2 TSNO,KUTA,2021-10-19T01:55:00Z,34.68,-90.35,12.0,10.0,0,0,,,30.15059,,,TRUE,TRUE,,,TRUE,,,,CLR,,,,,,,,,,,,,,,,,,,,METAR,58.0
KUSE 190155Z AUTO 00000KT 10SM CLR 11/08 A3011 RMK AO2,KUSE,2021-10-19T01:55:00Z,41.62,-84.13,11.0,8.0,0,0,,10.0,30.109253,,,TRUE,TRUE,,,,,,,CLR,,,,,,,,VFR,,,,,,,,,,,,SPECI,237.0
KUOX 190155Z AUTO 00000KT 10SM CLR 10/10 A3017 RMK AO2 PWINO,KUOX,2021-10-19T01:55:00Z,34.38,-89.53,10.0,10.0,0,0,,10.0,30.171259,,,TRUE,TRUE,,,,,TRUE,,CLR,,,,,,,,VFR,,,,,,,,,,,,METAR,123.0
KUNI 190155Z AUTO 00000KT 10SM CLR 08/07 A3016 RMK AO2 T00750068,KUNI,2021-10-19T01:55:00Z,39.22,-82.23,7.5,6.8,0,0,,10.0,30.159449,,,TRUE,TRUE,,,,,,,CLR,,,,,,,,VFR,,,,,,,,,,,,METAR,232.0
KULS 190155Z AUTO 16021G26KT 10SM CLR 18/05 A2979 RMK AO2,KULS,2021-10-19T01:55:00Z,37.6,-101.37,18.0,5.0,160,21,26,10.0,29.790354,,,TRUE,TRUE,,,,,,,CLR,,,,,,,,VFR,,,,,,,,,,,,METAR,934.0
KULM 190155Z AUTO 17006KT 10SM CLR 14/04 A2989 RMK AO2,KULM,2021-10-19T01:55:00Z,44.32,-94.5,14.0,4.0,170,6,,10.0,29.890747,,,TRUE,TRUE,,,,,,,CLR,,,,,,,,VFR,,,,,,,,,,,,METAR,305.0
KUKT 190155Z AUTO 30004KT 10SM BKN065 09/02 A3001 RMK A01,KUKT,2021-10-19T01:55:00Z,40.43,-75.38,9.0,2.0,300,4,,10.0,30.008858,,,TRUE,TRUE,,,,,,,BKN,6500,,,,,,,VFR,,,,,,,,,,,,METAR,156.0
KUKL 190155Z AUTO 17011G14KT 10SM CLR 16/06 A2999 RMK AO2 T01600055,KUKL,2021-10-19T01:55:00Z,38.3,-95.73,16.0,5.5,170,11,14,10.0,29.991142,,,TRUE,TRUE,,,,,,,CLR,,,,,,,,VFR,,,,,,,,,,,,METAR,357.0
KUKF 190155Z AUTO 00000KT 10SM CLR 10/05 A3022 RMK AO2,KUKF,2021-10-19T01:55:00Z,36.22,-81.1,10.0,5.0,0,0,,10.0,30.221457,,,TRUE,TRUE,,,,,,,CLR,,,,,,,,VFR,,,,,,,,,,,,METAR,383.0
KUGN 190155Z AUTO 24004KT 10SM CLR 12/07 A3006 RMK AO2 SLP179 T01220072,KUGN,2021-10-19T01:55:00Z,42.42,-87.87,12.2,7.2,240,4,,10.0,30.059055,1017.9,,TRUE,TRUE,,,,,,,CLR,,,,,,,,VFR,,,,,,,,,,,,SPECI,217.0
KUCY 190155Z AUTO 00000KT 10SM CLR 10/09 A3014 RMK A01,KUCY,2021-10-19T01:55:00Z,36.38,-88.98,10.0,9.0,0,0,,10.0,30.138779,,,TRUE,TRUE,,,,,,,CLR,,,,,,,,VFR,,,,,,,,,,,,METAR,97.0
KUBE 190155Z AUTO 16006KT 10SM CLR 12/03 A2996 RMK AO2,KUBE,2021-10-19T01:55:00Z,45.5,-91.98,12.0,3.0,160,6,,10.0,29.958662,,,TRUE,TRUE,,,,,,,CLR,,,,,,,,VFR,,,,,,,,,,,,METAR,376.0
KU69 190155Z AUTO 27016G25KT 3SM HZ FEW014 BKN027 OVC034 05/03 A2982 RMK A01 P0001,KU69,2021-10-19T01:55:00Z,40.2,-110.38,5.0,3.0,270,16,25,3.0,29.819881,,,TRUE,TRUE,,,,,,HZ,FEW,1400,BKN,2700,OVC,3400,,,MVFR,,,,,,0.01,,,,,,METAR,1776.0
KU68 190155Z AUTO 03023G29KT 10SM CLR 16/M02 A2981 RMK AO2,KU68,2021-10-19T01:55:00Z,44.92,-108.45,16.0,-2.0,30,23,29,10.0,29.811024,,,TRUE,TRUE,,,,,,,CLR,,,,,,,,VFR,,,,,,,,,,,,METAR,1244.0
KU55 190155Z AUTO 13008KT 10SM FEW048 SCT055 OVC075 01/M06 A2990 RMK A01,KU55,2021-10-19T01:55:00Z,37.85,-112.38,1.0,-6.0,130,8,,10.0,29.899607,,,TRUE,TRUE,,,,,,,FEW,4800,SCT,5500,OVC,7500,,,VFR,,,,,,,,,,,,METAR,2060.0
KU52 190155Z AUTO 13011G18KT 10SM FEW090 BKN120 01/M02 A2987 RMK AO2,KU52,2021-10-19T01:55:00Z,38.23,-112.67,1.0,-2.0,130,11,18,10.0,29.870079,,,TRUE,TRUE,,,,,,,FEW,9000,BKN,12000,,,,,VFR,,,,,,,,,,,,METAR,1787.0
KU42 190155Z AUTO 22009KT 10SM BKN038 OVC110 07/06 A2982 RMK AO1 T00650056,KU42,2021-10-19T01:55:00Z,40.62,-111.98,6.5,5.6,220,9,,10.0,29.819881,,,TRUE,TRUE,,,,,,,BKN,3800,OVC,11000,,,,,VFR,,,,,,,,,,,,METAR,1399.0
KTZR 190155Z AUTO 00000KT 10SM CLR 08/06 A3016 RMK AO2 T00760057,KTZR,2021-10-19T01:55:00Z,39.9,-83.13,7.6,5.7,0,0,,10.0,30.159449,,,TRUE,TRUE,,,,,,,CLR,,,,,,,,VFR,,,,,,,,,,,,METAR,275.0
KTYQ 190155Z AUTO 00000KT 10SM CLR 08/07 A3015 RMK AO2 T00790070,KTYQ,2021-10-19T01:55:00Z,40.03,-86.25,7.9,7.0,0,0,,10.0,30.15059,,,TRUE,TRUE,,,,,,,CLR,,,,,,,,VFR,,,,,,,,,,,,SPECI,279.0
KTYL 190155Z AUTO 22010KT 10SM CLR 13/04 A2996 RMK AO2,KTYL,2021-10-19T01:55:00Z,34.45,-110.12,13.0,4.0,220,10,,10.0,29.958662,,,TRUE,TRUE,,,,,,,CLR,,,,,,,,VFR,,,,,,,,,,,,SPECI,1748.0
KTXW 190155Z AUTO 00000KT 10SM OVC110 22/15 A3002 RMK AO2 T02220150,KTXW,2021-10-19T01:55:00Z,26.18,-97.97,22.2,15.0,0,0,,10.0,30.02067,,,TRUE,TRUE,,,,,,,OVC,11000,,,,,,,VFR,,,,,,,,,,,,METAR,21.0
KTWM 190155Z AUTO 36003KT 10SM CLR 07/04 A2991 RMK AO2,KTWM,2021-10-19T01:55:00Z,47.05,-91.75,7.0,4.0,360,3,,10.0,29.911417,,,TRUE,TRUE,,,,,,,CLR,,,,,,,,VFR,,,,,,,,,,,,METAR,331.0
KTVY 190155Z AUTO 16004KT 10SM SCT065 BKN080 07/05 A2980 RMK AO2,KTVY,2021-10-19T01:55:00Z,40.62,-112.35,7.0,5.0,160,4,,10.0,29.799213,,,TRUE,TRUE,,,,,,,SCT,6500,BKN,8000,,,,,VFR,,,,,,,,,,,,METAR,1310.0
KTVK 190155Z AUTO 15006KT 10SM CLR 12/06 A3003 RMK AO2,KTVK,2021-10-19T01:55:00Z,40.68,-92.9,12.0,6.0,150,6,,10.0,30.029528,,,TRUE,TRUE,,,,,,,CLR,,,,,,,,VFR,,,,,,,,,,,,SPECI,311.0
KTVI 190155Z AUTO 04003KT 10SM CLR 13/12 A3018 RMK AO2,KTVI,2021-10-19T01:55:00Z,30.9,-83.88,13.0,12.0,40,3,,10.0,30.180119,,,TRUE,TRUE,,,,,,,CLR,,,,,,,,VFR,,,,,,,,,,,,METAR,74.0
KTTF 190155Z AUTO 00000KT 10SM CLR 09/07 A3010 RMK AO2 T00880069,KTTF,2021-10-19T01:55:00Z,41.93,-83.42,8.8,6.9,0,0,,10.0,30.100393,,,TRUE,TRUE,,,,,,,CLR,,,,,,,,VFR,,,,,,,,,,,,METAR,186.0
KTTA 190155Z AUTO 00000KT 10SM CLR 09/09 A3012 RMK AO2 T00860086,KTTA,2021-10-19T01:55:00Z,35.58,-79.1,8.6,8.6,0,0,,10.0,30.121063,,,TRUE,TRUE,,,,,,,CLR,,,,,,,,VFR,,,,,,,,,,,,SPECI,71.0
KTSP 190155Z AUTO 28009G14KT 10SM CLR 05/M01 A3000 RMK AO2,KTSP,2021-10-19T01:55:00Z,35.13,-118.43,5.0,-1.0,280,9,14,10.0,30.0,,,TRUE,TRUE,,,,,,,CLR,,,,,,,,VFR,,,,,,,,,,,,METAR,1209.0
KTRK 190155Z AUTO 00000KT 10SM OVC034 02/01 A3002 RMK AO2,KTRK,2021-10-19T01:55:00Z,39.32,-120.13,2.0,1.0,0,0,,10.0,30.02067,,,TRUE,TRUE,,,,,,,OVC,3400,,,,,,,VFR,,,,,,,,,,,,METAR,1800.0
KTQK 190155Z AUTO 17018G23KT 10SM CLR 18/06 A2980 RMK AO2 T01800060,KTQK,2021-10-19T01:55:00Z,38.47,-100.88,18.0,6.0,170,18,23,10.0,29.799213,,,TRUE,TRUE,,,,,,,CLR,,,,,,,,VFR,,,,,,,,,,,,METAR,906.0
KTQH 190155Z AUTO 00000KT 10SM CLR 11/08 A3006 RMK AO2,KTQH,2021-10-19T01:55:00Z,35.93,-95.0,11.0,8.0,0,0,,10.0,30.059055,,,TRUE,TRUE,,,,,,,CLR,,,,,,,,VFR,,,,,,,,,,,,METAR,265.0
KTPF 190155Z AUTO 09007KT 10SM OVC110 23/15 A3011 RMK AO2,KTPF,2021-10-19T01:55:00Z,27.92,-82.45,23.0,15.0,90,7,,10.0,30.109253,,,TRUE,TRUE,,,,,,,OVC,11000,,,,,,,VFR,,,,,,,,,,,,METAR,1.0
KTOC 190155Z AUTO 00000KT 10SM CLR 12/09 A3017 RMK AO2 T01160093,KTOC,2021-10-19T01:55:00Z,34.6,-83.3,11.6,9.3,0,0,,10.0,30.171259,,,TRUE,TRUE,,,,,,,CLR,,,,,,,,VFR,,,,,,,,,,,,METAR,292.0
KTOB 190155Z AUTO 14006KT 10SM 12/03 A2996 RMK AO2,KTOB,2021-10-19T01:55:00Z,44.02,-92.82,12.0,3.0,140,6,,10.0,29.958662,,,TRUE,TRUE,,,,,,,,,,,,,,,,,,,,,,,,,,,METAR,394.0
KTNU 190155Z AUTO 18008KT 10SM CLR 15/06 A2999 RMK A01,KTNU,2021-10-19T01:55:00Z,41.67,-93.02,15.0,6.0,180,8,,10.0,29.991142,,,TRUE,TRUE,,,,,,,CLR,,,,,,,,VFR,,,,,,,,,,,,METAR,287.0
KTNB 190155Z AUTO 30011KT 10SM 10/01 A3021 RMK AO2 T01000007,KTNB,2021-10-19T01:55:00Z,36.2,-81.65,10.0,0.7,300,11,,10.0,30.209646,,,TRUE,TRUE,,,,,,,,,,,,,,,,,,,,,,,,,,,METAR,958.0
KTMT 190155Z AUTO 05004KT 10SM OVC039 02/00 A2997 RMK AO2 T00231005,KTMT,2021-10-19T01:55:00Z,39.47,-117.2,2.3,-0.5,50,4,,10.0,29.970472,,,TRUE,TRUE,,,,,,,OVC,3900,,,,,,,VFR,,,,,,,,,,,,METAR,1748.0
KTMK 190155Z AUTO 00000KT 10SM 08/07 A3000 RMK AO2,KTMK,2021-10-19T01:55:00Z,45.42,-123.82,8.0,7.0,0,0,,10.0,30.0,,,TRUE,TRUE,,,,,,,,,,,,,,,,,,,,,,,,,,,METAR,8.0
KTME 190155Z AUTO 17006KT 9SM CLR 17/13 A3009 RMK AO2,KTME,2021-10-19T01:55:00Z,29.8,-95.9,17.0,13.0,170,6,,9.0,30.088583,,,TRUE,TRUE,,,,,,,CLR,,,,,,,,VFR,,,,,,,,,,,,METAR,49.0
KTMA 190155Z AUTO 00000KT 10SM CLR 11/10 A3018 RMK AO2 T01120103,KTMA,2021-10-19T01:55:00Z,31.43,-83.48,11.2,10.3,0,0,,10.0,30.180119,,,TRUE,TRUE,,,,,,,CLR,,,,,,,,VFR,,,,,,,,,,,,METAR,105.0
KTKX 190155Z AUTO 00000KT 10SM CLR 13/08 A3013 RMK AO2,KTKX,2021-10-19T01:55:00Z,36.22,-90.03,13.0,8.0,0,0,,10.0,30.129921,,,TRUE,TRUE,,,,,,,CLR,,,,,,,,VFR,,,,,,,,,,,,METAR,73.0
KTKV 190155Z AUTO 00000KT 10SM 08/04 A3001 RMK AO2 T00780042 PWINO,KTKV,2021-10-19T01:55:00Z,45.47,-89.82,7.8,4.2,0,0,,10.0,30.008858,,,TRUE,TRUE,,,,,TRUE,,,,,,,,,,,,,,,,,,,,,,SPECI,449.0
KTKC 190155Z AUTO 18006KT 10SM CLR 16/01 A2987 RMK AO2 T01600011,KTKC,2021-10-19T01:55:00Z,44.25,-95.62,16.0,1.1,180,6,,10.0,29.870079,,,TRUE,TRUE,,,,,,,CLR,,,,,,,,VFR,,,,,,,,,,,,METAR,408.0
KTIP 190155Z AUTO 17004KT 10SM CLR 13/08 A3011 RMK AO2 T01290079,KTIP,2021-10-19T01:55:00Z,40.28,-88.15,12.9,7.9,170,4,,10.0,30.109253,,,TRUE,TRUE,,,,,,,CLR,,,,,,,,VFR,,,,,,,,,,,,METAR,224.0
KTIF 190155Z AUTO 00000KT 10SM CLR 09/03 A2980 RMK AO2 T00880031,KTIF,2021-10-19T01:55:00Z,41.97,-100.57,8.8,3.1,0,0,,10.0,29.799213,,,TRUE,TRUE,,,,,,,CLR,,,,,,,,VFR,,,,,,,,,,,,METAR,888.0
KTHM 190155Z AUTO 00000KT 10SM 08/02 A2991 RMK Thompson Falls ,KTHM,2021-10-19T01:55:00Z,,,8.0,2.0,0,0,,10.0,29.911417,,,TRUE,,,,,,,,,,,,,,,,,,,,,,,,,,,,METAR,
KTHA 190155Z AUTO 00000KT 10SM CLR 10/08 A3018 RMK A01,KTHA,2021-10-19T01:55:00Z,35.38,-86.25,10.0,8.0,0,0,,10.0,30.180119,,,TRUE,TRUE,,,,,,,CLR,,,,,,,,VFR,,,,,,,,,,,,METAR,333.0
KTGI 190155Z AUTO 35006KT 10SM CLR 17/08 A3005 RMK AO1 T01710078,KTGI,2021-10-19T01:55:00Z,37.82,-75.98,17.1,7.8,350,6,,10.0,30.050198,,,TRUE,TRUE,,,,,,,CLR,,,,,,,,VFR,,,,,,,,,,,,METAR,1.0
KTFP 190155Z AUTO 11004KT 10SM CLR 21/17 A3004 RMK AO2 T02120166,KTFP,2021-10-19T01:55:00Z,27.92,-97.22,21.2,16.6,110,4,,10.0,30.041338,,,TRUE,TRUE,,,,,,,CLR,,,,,,,,VFR,,,,,,,,,,,,METAR,5.0
KTEX 190155Z AUTO 17013G29KT 140V200 10SM SCT075 09/M07 A2994 RMK AO2,KTEX,2021-10-19T01:55:00Z,37.95,-107.9,9.0,-7.0,170,13,29,10.0,29.940945,,,TRUE,TRUE,,,,,,,SCT,7500,,,,,,,VFR,,,,,,,,,,,,METAR,2760.0
KTEW 190155Z AUTO 00000KT 10SM CLR 09/06 A3011 RMK AO2 T00920056,KTEW,2021-10-19T01:55:00Z,42.57,-84.42,9.2,5.6,0,0,,10.0,30.109253,,,TRUE,TRUE,,,,,,,CLR,,,,,,,,VFR,,,,,,,,,,,,METAR,281.0
KTDF 190155Z AUTO 00000KT 10SM CLR 07/07 A3014 RMK AO2,KTDF,2021-10-19T01:55:00Z,36.28,-78.98,7.0,7.0,0,0,,10.0,30.138779,,,TRUE,TRUE,,,,,,,CLR,,,,,,,,VFR,,,,,,,,,,,,METAR,180.0
KTCY 190155Z AUTO 33004KT 10SM SCT048 15/05 A3000 RMK A01,KTCY,2021-10-19T01:55:00Z,37.68,-121.43,15.0,5.0,330,4,,10.0,30.0,,,TRUE,TRUE,,,,,,,SCT,4800,,,,,,,VFR,,,,,,,,,,,,METAR,51.0
KTBR 190155Z AUTO 00000KT 10SM CLR 10/09 A3018 RMK AO2 T01000089,KTBR,2021-10-19T01:55:00Z,32.48,-81.73,10.0,8.9,0,0,,10.0,30.180119,,,TRUE,TRUE,,,,,,,CLR,,,,,,,,VFR,,,,,,,,,,,,METAR,54.0
KTAZ 190155Z AUTO 17007KT 10SM CLR 15/09 A3011 RMK AO2 PWINO,KTAZ,2021-10-19T01:55:00Z,39.53,-89.33,15.0,9.0,170,7,,10.0,30.109253,,,TRUE,TRUE,,,,,TRUE,,CLR,,,,,,,,VFR,,,,,,,,,,,,METAR,188.0
KT89 190155Z AUTO 03005KT 10SM CLR 26/05 A2991 RMK A01,KT89,2021-10-19T01:55:00Z,,,26.0,5.0,30,5,,10.0,29.911417,,,TRUE,TRUE,,,,,,,CLR,,,,,,,,VFR,,,,,,,,,,,,SPECI,
KT78 190155Z AUTO 00000KT 10SM CLR 14/14 A3009 RMK AO2,KT78,2021-10-19T01:55:00Z,,,14.0,14.0,0,0,,10.0,30.088583,,,TRUE,TRUE,,,,,,,CLR,,,,,,,,VFR,,,,,,,,,,,,METAR,
KT74 190155Z AUTO 15006KT 10SM CLR 18/09 A3005 RMK AO2 T01780094,KT74,2021-10-19T01:55:00Z,30.57,-97.45,17.8,9.4,150,6,,10.0,30.050198,,,TRUE,TRUE,,,,,,,CLR,,,,,,,,VFR,,,,,,,,,,,,METAR,169.0
KT69 190155Z AUTO 00000KT 10SM CLR 19/17 A3005 RMK A01,KT69,2021-10-19T01:55:00Z,28.03,-97.55,19.0,17.0,0,0,,10.0,30.050198,,,TRUE,TRUE,,,,,,,CLR,,,,,,,,VFR,,,,,,,,,,,,METAR,15.0
KT41 190155Z AUTO 10005KT 10SM CLR 18/13 A3009 RMK AO2 T01820129,KT41,2021-10-19T01:55:00Z,29.67,-95.07,18.2,12.9,100,5,,10.0,30.088583,,,TRUE,TRUE,,,,,,,CLR,,,,,,,,VFR,,,,,,,,,,,,METAR,8.0
KT35 190155Z AUTO 14005KT 10SM CLR 19/11 A3006 RMK AO2 T01870105,KT35,2021-10-19T01:55:00Z,30.88,-96.97,18.7,10.5,140,5,,10.0,30.059055,,,TRUE,TRUE,,,,,,,CLR,,,,,,,,VFR,,,,,,,,,,,,METAR,122.0
KT20 190155Z AUTO 14005KT 4SM HZ CLR 20/13 A3005 RMK AO2 T01950131,KT20,2021-10-19T01:55:00Z,29.52,-97.47,19.5,13.1,140,5,,4.0,30.050198,,,TRUE,TRUE,,,,,,HZ,CLR,,,,,,,,MVFR,,,,,,,,,,,,METAR,107.0
KSZT 190155Z AUTO 00000KT 07/05 A2987 RMK AO2 PWINO,KSZT,2021-10-19T01:55:00Z,48.3,-116.57,7.0,5.0,0,0,,,29.870079,,,TRUE,TRUE,,,,,TRUE,,,,,,,,,,,,,,,,,,,,,,METAR,649.0
KSYN 190155Z AUTO 15007KT 10SM CLR 19/04 A2993 RMK AO2 T01850035,KSYN,2021-10-19T01:55:00Z,44.47,-93.02,18.5,3.5,150,7,,10.0,29.929134,,,TRUE,TRUE,,,,,,,CLR,,,,,,,,VFR,,,,,,,,,,,,METAR,280.0
KSYM 190155Z AUTO 18003KT 10SM CLR 11/07 A3019 RMK AO2,KSYM,2021-10-19T01:55:00Z,38.22,-83.58,11.0,7.0,180,3,,10.0,30.188976,,,TRUE,TRUE,,,,,,,CLR,,,,,,,,VFR,,,,,,,,,,,,METAR,307.0
KSYI 190155Z AUTO 06003KT 10SM CLR 11/09 A3017 RMK A01,KSYI,2021-10-19T01:55:00Z,35.57,-86.45,11.0,9.0,60,3,,10.0,30.171259,,,TRUE,TRUE,,,,,,,CLR,,,,,,,,VFR,,,,,,,,,,,,METAR,244.0
KSYF 190155Z AUTO 14013KT 7SM CLR 16/04 A2974 RMK AO2 T01600036 PWINO,KSYF,2021-10-19T01:55:00Z,39.77,-101.8,16.0,3.6,140,13,,7.0,29.740158,,,TRUE,TRUE,,,,,TRUE,,CLR,,,,,,,,VFR,,,,,,,,,,,,METAR,1041.0
KSXU 190155Z AUTO 17009KT 10SM CLR 18/04 A2990 RMK AO2 T01760041,KSXU,2021-10-19T01:55:00Z,34.93,-104.65,17.6,4.1,170,9,,10.0,29.899607,,,TRUE,TRUE,,,,,,,CLR,,,,,,,,VFR,,,,,,,,,,,,METAR,1465.0
KSXK 190155Z AUTO 15010KT 10SM CLR 15/05 A2986 RMK AO2,KSXK,2021-10-19T01:55:00Z,42.98,-96.17,15.0,5.0,150,10,,10.0,29.861221,,,TRUE,TRUE,,,,,,,CLR,,,,,,,,VFR,,,,,,,,,,,,METAR,430.0
KSWW 190155Z AUTO 15010KT 10SM CLR 20/11 A3000 RMK AO2 T02020108,KSWW,2021-10-19T01:55:00Z,32.47,-100.47,20.2,10.8,150,10,,10.0,30.0,,,TRUE,TRUE,,,,,,,CLR,,,,,,,,VFR,,,,,,,,,,,,METAR,718.0
KSVH 190155Z AUTO 00000KT 10SM CLR 13/05 A3015 RMK AO2 T01300049,KSVH,2021-10-19T01:55:00Z,35.75,-80.95,13.0,4.9,0,0,,10.0,30.15059,,,TRUE,TRUE,,,,,,,CLR,,,,,,,,VFR,,,,,,,,,,,,METAR,286.0
KSVE 190155Z AUTO 31006KT 10SM CLR 05/00 A3001 RMK AO2,KSVE,2021-10-19T01:55:00Z,40.37,-120.57,5.0,0.0,310,6,,10.0,30.008858,,,TRUE,TRUE,,,,,,,CLR,,,,,,,,VFR,,,,,,,,,,,,METAR,1263.0
KSVC 190155Z AUTO 26006KT 10SM CLR 16/M01 A3000 RMK AO2 T01601011,KSVC,2021-10-19T01:55:00Z,32.63,-108.15,16.0,-1.1,260,6,,10.0,30.0,,,TRUE,TRUE,,,,,,,CLR,,,,,,,,VFR,,,,,,,,,,,,SPECI,1638.0
KSUZ 190155Z AUTO 00000KT 10SM CLR 12/08 A3012 RMK A01,KSUZ,2021-10-19T01:55:00Z,34.58,-92.48,12.0,8.0,0,0,,10.0,30.121063,,,TRUE,TRUE,,,,,,,CLR,,,,,,,,VFR,,,,,,,,,,,,METAR,114.0
KSUW 190155Z AUTO 00000KT 10SM CLR 07/07 A2992 RMK AO2 T00700066,KSUW,2021-10-19T01:55:00Z,46.68,-92.1,7.0,6.6,0,0,,10.0,29.920275,,,TRUE,TRUE,,,,,,,CLR,,,,,,,,VFR,,,,,,,,,,,,METAR,205.0
KSUT 190155Z AUTO 32003KT 10SM CLR 15/06 A3015 RMK AO2 T01490063,KSUT,2021-10-19T01:55:00Z,33.93,-78.08,14.9,6.3,320,3,,10.0,30.15059,,,TRUE,TRUE,,,,,,,CLR,,,,,,,,VFR,,,,,,,,,,,,METAR,6.0
KSUN 190155Z 33005KT 10SM SCT085 BKN110 11/M03 A2984,KSUN,2021-10-19T01:55:00Z,43.5,-114.28,11.0,-3.0,330,5,,10.0,29.840551,,,,,,,,,,,SCT,8500,BKN,11000,,,,,VFR,,,,,,,,,,,,METAR,1619.0
KSUA 190155Z AUTO 06005KT 10SM 24/13 A3010 RMK AO2,KSUA,2021-10-19T01:55:00Z,27.18,-80.22,24.0,13.0,60,5,,10.0,30.100393,,,TRUE,TRUE,,,,,,,,,,,,,,,,,,,,,,,,,,,METAR,4.0
KSTK 190155Z AUTO 01004KT 10SM CLR 12/02 A2975 RMK AO2,KSTK,2021-10-19T01:55:00Z,40.62,-103.27,12.0,2.0,10,4,,10.0,29.749016,,,TRUE,TRUE,,,,,,,CLR,,,,,,,,VFR,,,,,,,,,,,,SPECI,1228.0
KSTE 190155Z AUTO 00000KT 10SM CLR 08/06 A3003 RMK AO2 T00820055,KSTE,2021-10-19T01:55:00Z,44.55,-89.53,8.2,5.5,0,0,,10.0,30.029528,,,TRUE,TRUE,,,,,,,CLR,,,,,,,,VFR,,,,,,,,,,,,METAR,335.0
KSRR 190155Z AUTO 24016G21KT 10SM CLR 15/M03 A3007 RMK AO2,KSRR,2021-10-19T01:55:00Z,33.47,-105.52,15.0,-3.0,240,16,21,10.0,30.070866,,,TRUE,TRUE,,,,,,,CLR,,,,,,,,VFR,,,,,,,,,,,,METAR,2063.0
KSRE 190155Z AUTO 14006KT 10SM CLR 16/05 A3001 RMK AO2,KSRE,2021-10-19T01:55:00Z,35.27,-96.68,16.0,5.0,140,6,,10.0,30.008858,,,TRUE,TRUE,,,,,,,CLR,,,,,,,,VFR,,,,,,,,,,,,METAR,306.0
KSRB 190155Z AUTO 00000KT 10SM CLR 06/06 A3019 RMK A01,KSRB,2021-10-19T01:55:00Z,36.05,-85.53,6.0,6.0,0,0,,10.0,30.188976,,,TRUE,TRUE,,,,,,,CLR,,,,,,,,VFR,,,,,,,,,,,,METAR,303.0
KSPK 190155Z AUTO 13009G15KT 10SM BKN075 OVC100 06/03 A2981 RMK AO2,KSPK,2021-10-19T01:55:00Z,40.15,-111.67,6.0,3.0,130,9,15,10.0,29.811024,,,TRUE,TRUE,,,,,,,BKN,7500,OVC,10000,,,,,VFR,,,,,,,,,,,,METAR,1381.0
KSPF 190155Z AUTO 21006KT 10SM CLR 07/02 A2982 RMK AO2,KSPF,2021-10-19T01:55:00Z,44.47,-103.78,7.0,2.0,210,6,,10.0,29.819881,,,TRUE,TRUE,,,,,,,CLR,,,,,,,,VFR,,,,,,,,,,,,METAR,1191.0
KSPA 190155Z AUTO 00000KT 10SM CLR 12/07 A3016 RMK AO2,KSPA,2021-10-19T01:55:00Z,34.92,-81.95,12.0,7.0,0,0,,10.0,30.159449,,,TRUE,TRUE,,,,,,,CLR,,,,,,,,VFR,,,,,,,,,,,,METAR,242.0
KSOW 190155Z AUTO 22022G28KT 10SM CLR 13/04 A2996 RMK AO2,KSOW,2021-10-19T01:55:00Z,34.27,-110.0,13.0,4.0,220,22,28,10.0,29.958662,,,TRUE,TRUE,,,,,,,CLR,,,,,,,,VFR,,,,,,,,,,,,METAR,1954.0
KSOA 190155Z AUTO 00000KT 10SM CLR 21/11 A3006 RMK AO2,KSOA,2021-10-19T01:55:00Z,30.58,-100.65,21.0,11.0,0,0,,10.0,30.059055,,,TRUE,TRUE,,,,,,,CLR,,,,,,,,VFR,,,,,,,,,,,,METAR,654.0
KSNL 190155Z AUTO 15009KT 10SM CLR 16/05 A3000 RMK AO2 T01600049,KSNL,2021-10-19T01:55:00Z,35.35,-96.95,16.0,4.9,150,9,,10.0,30.0,,,TRUE,TRUE,,,,,,,CLR,,,,,,,,VFR,,,,,,,,,,,,METAR,327.0
KSNK 190155Z AUTO 16010KT 10SM CLR 19/11 A2997 RMK AO2 T01910107,KSNK,2021-10-19T01:55:00Z,32.7,-100.95,19.1,10.7,160,10,,10.0,29.970472,,,TRUE,TRUE,,,,,,,CLR,,,,,,,,VFR,,,,,,,,,,,,METAR,738.0
KSNH 190155Z AUTO 00000KT 10SM CLR 11/11 A3015 RMK A01,KSNH,2021-10-19T01:55:00Z,35.17,-88.22,11.0,11.0,0,0,,10.0,30.15059,,,TRUE,TRUE,,,,,,,CLR,,,,,,,,VFR,,,,,,,,,,,,METAR,142.0
KSNC 190155Z AUTO 30005G15KT 10SM CLR 07/03 A2990 RMK AO2,KSNC,2021-10-19T01:55:00Z,41.38,-72.5,7.0,3.0,300,5,15,10.0,29.899607,,,TRUE,TRUE,,,,,,,CLR,,,,,,,,VFR,,,,,,,,,,,,METAR,114.0
KSMS 190155Z AUTO 00000KT 10SM CLR 11/08 A3016 RMK AO2,KSMS,2021-10-19T01:55:00Z,34.0,-80.37,11.0,8.0,0,0,,10.0,30.159449,,,TRUE,TRUE,,,,,,,CLR,,,,,,,,VFR,,,,,,,,,,,,METAR,53.0
KSME 190155Z AUTO 00000KT 10SM CLR 10/09 A3018 RMK AO2,KSME,2021-10-19T01:55:00Z,37.05,-84.62,10.0,9.0,0,0,,10.0,30.180119,,,TRUE,TRUE,,,,,,,CLR,,,,,,,,VFR,,,,,,,,,,,,METAR,279.0
KSMD 190155Z AUTO 00000KT 9SM CLR 10/08 A3013 RMK A01,KSMD,2021-10-19T01:55:00Z,41.15,-85.15,10.0,8.0,0,0,,9.0,30.129921,,,TRUE,TRUE,,,,,,,CLR,,,,,,,,VFR,,,,,,,,,,,,METAR,252.0
KSLR 190155Z AUTO 14004KT 10SM CLR 17/06 A3008 RMK AO2 T01680063,KSLR,2021-10-19T01:55:00Z,33.17,-95.62,16.8,6.3,140,4,,10.0,30.079725,,,TRUE,TRUE,,,,,,,CLR,,,,,,,,VFR,,,,,,,,,,,,SPECI,144.0
KSLO 190155Z AUTO 15003KT 10SM CLR 13/08 A3014 RMK AO2 T01250077,KSLO,2021-10-19T01:55:00Z,38.65,-88.97,12.5,7.7,150,3,,10.0,30.138779,,,TRUE,TRUE,,,,,,,CLR,,,,,,,,VFR,,,,,,,,,,,,SPECI,173.0
KSLH 190155Z AUTO 22005KT 10SM CLR 07/05 A3004 RMK AO2,KSLH,2021-10-19T01:55:00Z,45.65,-84.52,7.0,5.0,220,5,,10.0,30.041338,,,TRUE,TRUE,,,,,,,CLR,,,,,,,,VFR,,,,,,,,,,,,METAR,193.0
KSLB 190155Z AUTO 17009KT 10SM CLR 15/04 A2992 RMK AO2,KSLB,2021-10-19T01:55:00Z,42.6,-95.23,15.0,4.0,170,9,,10.0,29.920275,,,TRUE,TRUE,,,,,,,CLR,,,,,,,,VFR,,,,,,,,,,,,METAR,450.0
KSJX 190155Z AUTO 00000KT 10SM CLR 06/06 A3005 RMK AO2 T00580057,KSJX,2021-10-19T01:55:00Z,45.7,-85.57,5.8,5.7,0,0,,10.0,30.050198,,,TRUE,TRUE,,,,,,,CLR,,,,,,,,VFR,,,,,,,,,,,,METAR,202.0
KSJS 190155Z AUTO 00000KT 10SM CLR 11/06 A3020 RMK AO2 T01140060,KSJS,2021-10-19T01:55:00Z,37.75,-82.63,11.4,6.0,0,0,,10.0,30.200787,,,TRUE,TRUE,,,,,,,CLR,,,,,,,,VFR,,,,,,,,,,,,METAR,359.0
KSIK 190155Z AUTO 00000KT 10SM CLR 12/08 A3014 RMK AO2 TSNO,KSIK,2021-10-19T01:55:00Z,36.9,-89.57,12.0,8.0,0,0,,10.0,30.138779,,,TRUE,TRUE,,,TRUE,,,,CLR,,,,,,,,VFR,,,,,,,,,,,,METAR,95.0
KSIF 190155Z AUTO 00000KT 10SM CLR 07/06 A3015 RMK AO2 T00690061,KSIF,2021-10-19T01:55:00Z,36.43,-79.85,6.9,6.1,0,0,,10.0,30.15059,,,TRUE,TRUE,,,,,,,CLR,,,,,,,,VFR,,,,,,,,,,,,METAR,206.0
KSHL 190155Z AUTO 16009KT CLR 15/03 A2987 RMK AO2,KSHL,2021-10-19T01:55:00Z,43.22,-95.83,15.0,3.0,160,9,,,29.870079,,,TRUE,TRUE,,,,,,,CLR,,,,,,,,,,,,,,,,,,,,METAR,430.0
KSHD 190155Z AUTO 16004KT 10SM CLR 09/03 A3013 RMK AO2 T00920029,KSHD,2021-10-19T01:55:00Z,38.27,-78.9,9.2,2.9,160,4,,10.0,30.129921,,,TRUE,TRUE,,,,,,,CLR,,,,,,,,VFR,,,,,,,,,,,,SPECI,360.0
KSGS 190155Z AUTO 16003KT 10SM CLR 17/05 A2992 RMK AO2 T01650046,KSGS,2021-10-19T01:55:00Z,44.87,-93.03,16.5,4.6,160,3,,10.0,29.920275,,,TRUE,TRUE,,,,,,,CLR,,,,,,,,VFR,,,,,,,,,,,,METAR,250.0
KSFY 190155Z AUTO 00000KT 10SM CLR 11/08 A3004 RMK AO2,KSFY,2021-10-19T01:55:00Z,42.05,-90.12,11.0,8.0,0,0,,10.0,30.041338,,,TRUE,TRUE,,,,,,,CLR,,,,,,,,VFR,,,,,,,,,,,,METAR,188.0
KSFQ 190155Z AUTO 24003KT 10SM CLR 13/06 A3007 RMK AO2 T01260063,KSFQ,2021-10-19T01:55:00Z,36.68,-76.6,12.6,6.3,240,3,,10.0,30.070866,,,TRUE,TRUE,,,,,,,CLR,,,,,,,,VFR,,,,,,,,,,,,METAR,19.0
KSEZ 190155Z AUTO 19018G23KT 10SM BKN050 BKN065 15/04 A2989 RMK AO2,KSEZ,2021-10-19T01:55:00Z,34.85,-111.78,15.0,4.0,190,18,23,10.0,29.890747,,,TRUE,TRUE,,,,,,,BKN,5000,BKN,6500,,,,,VFR,,,,,,,,,,,,SPECI,1455.0
KSEP 190155Z AUTO 15004KT 10SM CLR 18/07 A3006 RMK AO2 T01800073,KSEP,2021-10-19T01:55:00Z,32.22,-98.17,18.0,7.3,150,4,,10.0,30.059055,,,TRUE,TRUE,,,,,,,CLR,,,,,,,,VFR,,,,,,,,,,,,SPECI,399.0
KSEM 190155Z AUTO 00000KT 10SM CLR 12/11 A3016 RMK AO2,KSEM,2021-10-19T01:55:00Z,32.35,-86.98,12.0,11.0,0,0,,10.0,30.159449,,,TRUE,TRUE,,,,,,,CLR,,,,,,,,VFR,,,,,,,,,,,,METAR,48.0
KSEF 190155Z AUTO 06003KT 10SM CLR 19/16 A3011 RMK AO2 T01940164,KSEF,2021-10-19T01:55:00Z,27.45,-81.35,19.4,16.4,60,3,,10.0,30.109253,,,TRUE,TRUE,,,,,,,CLR,,,,,,,,VFR,,,,,,,,,,,,METAR,17.0
KSDC 190155Z AUTO 00000KT 10SM BKN044 OVC050 09/02 A3000 RMK AO2,KSDC,2021-10-19T01:55:00Z,43.23,-77.12,9.0,2.0,0,0,,10.0,30.0,,,TRUE,TRUE,,,,,,,BKN,4400,OVC,5000,,,,,VFR,,,,,,,,,,,,METAR,127.0
KSDA 190155Z AUTO 14006KT 10SM CLR 15/06 A2993 RMK AO2,KSDA,2021-10-19T01:55:00Z,40.75,-95.42,15.0,6.0,140,6,,10.0,29.929134,,,TRUE,TRUE,,,,,,,CLR,,,,,,,,VFR,,,,,,,,,,,,METAR,293.0
KSCX 190155Z AUTO 00000KT 9SM CLR 09/08 A3020 RMK A01,KSCX,2021-10-19T01:55:00Z,36.45,-84.58,9.0,8.0,0,0,,9.0,30.200787,,,TRUE,TRUE,,,,,,,CLR,,,,,,,,VFR,,,,,,,,,,,,METAR,462.0
KSCR 190155Z AUTO 00000KT 10SM CLR 08/08 A3014 RMK AO2 T00840079,KSCR,2021-10-19T01:55:00Z,35.7,-79.5,8.4,7.9,0,0,,10.0,30.138779,,,TRUE,TRUE,,,,,,,CLR,,,,,,,,VFR,,,,,,,,,,,,METAR,182.0
KSCK 190155Z 32006KT 10SM CLR 13/03 A3000 RMK AO2 SLP158 T01330033 $,KSCK,2021-10-19T01:55:00Z,37.88,-121.22,13.3,3.3,320,6,,10.0,30.0,1015.8,,,TRUE,TRUE,,,,,,CLR,,,,,,,,VFR,,,,,,,,,,,,SPECI,8.0
KSCD 190155Z AUTO 00000KT 10SM CLR 11/11 A3018 RMK AO2 T01070105,KSCD,2021-10-19T01:55:00Z,33.17,-86.3,10.7,10.5,0,0,,10.0,30.180119,,,TRUE,TRUE,,,,,,,CLR,,,,,,,,VFR,,,,,,,,,,,,METAR,164.0
KSBS 190155Z AUTO 31005KT 10SM OVC110 11/M02 A2977 RMK AO1 T01081022,KSBS,2021-10-19T01:55:00Z,40.52,-106.87,10.8,-2.2,310,5,,10.0,29.769686,,,TRUE,TRUE,,,,,,,OVC,11000,,,,,,,VFR,,,,,,,,,,,,METAR,2097.0
KSAZ 190155Z AUTO 15005KT 10SM CLR 17/06 A2984 RMK AO2,KSAZ,2021-10-19T01:55:00Z,46.37,-94.8,17.0,6.0,150,5,,10.0,29.840551,,,TRUE,TRUE,,,,,,,CLR,,,,,,,,VFR,,,,,,,,,,,,METAR,391.0
KSAR 190155Z AUTO 15004KT 10SM CLR 14/08 A3014 RMK AO2 T01350075,KSAR,2021-10-19T01:55:00Z,38.15,-89.7,13.5,7.5,150,4,,10.0,30.138779,,,TRUE,TRUE,,,,,,,CLR,,,,,,,,VFR,,,,,,,,,,,,METAR,162.0
KSAA 190155Z AUTO 33004KT 10SM SCT100 BKN120 08/M01 A2982 RMK AO2,KSAA,2021-10-19T01:55:00Z,41.45,-106.8,8.0,-1.0,330,4,,10.0,29.819881,,,TRUE,TRUE,,,,,,,SCT,10000,BKN,12000,,,,,VFR,,,,,,,,,,,,SPECI,2093.0
KS52 190155Z AUTO 00000KT 10SM SCT100 SCT120 11/01 A2985 RMK AO2 T01150006,KS52,2021-10-19T01:55:00Z,48.42,-120.15,11.5,0.6,0,0,,10.0,29.84941,,,TRUE,TRUE,,,,,,,SCT,10000,SCT,12000,,,,,VFR,,,,,,,,,,,,METAR,517.0
KS39 190155Z AUTO 32004KT 10SM FEW070 10/M00 A2991 RMK AO2,KS39,2021-10-19T01:55:00Z,44.28,-120.9,10.0,0.0,320,4,,10.0,29.911417,,,TRUE,TRUE,,,,,,,FEW,7000,,,,,,,VFR,,,,,,,,,,,,SPECI,987.0
KS34 190155Z AUTO 00000KT 10SM 08/M04 A2987 RMK Plains ,KS34,2021-10-19T01:55:00Z,47.47,-114.9,8.0,-4.0,0,0,,10.0,29.870079,,,TRUE,,,,,,,,,,,,,,,,,,,,,,,,,,,,METAR,752.0
KS33 190155Z AUTO 33008KT 10SM CLR 08/02 A2994 RMK AO2,KS33,2021-10-19T01:55:00Z,44.67,-121.15,8.0,2.0,330,8,,10.0,29.940945,,,TRUE,TRUE,,,,,,,CLR,,,,,,,,VFR,,,,,,,,,,,,SPECI,739.0
KS25 190155Z AUTO 36012KT 10SM CLR 12/04 A2980 RMK AO2,KS25,2021-10-19T01:55:00Z,47.8,-103.25,12.0,4.0,360,12,,10.0,29.799213,,,TRUE,TRUE,,,,,,,CLR,,,,,,,,VFR,,,,,,,,,,,,METAR,632.0
KS21 190155Z AUTO 18006KT 10SM FEW046 06/01 A2997 RMK AO2,KS21,2021-10-19T01:55:00Z,43.88,-121.45,6.0,1.0,180,6,,10.0,29.970472,,,TRUE,TRUE,,,,,,,FEW,4600,,,,,,,VFR,,,,,,,,,,,,METAR,1269.0
KRZT 190155Z AUTO 22003KT 10SM CLR 09/05 A3015 RMK AO2 PWINO,KRZT,2021-10-19T01:55:00Z,39.43,-83.02,9.0,5.0,220,3,,10.0,30.15059,,,TRUE,TRUE,,,,,TRUE,,CLR,,,,,,,,VFR,,,,,,,,,,,,METAR,217.0
KRZR 190155Z AUTO 00000KT 10SM CLR 09/09 A3017 RMK A01,KRZR,2021-10-19T01:55:00Z,35.22,-84.8,9.0,9.0,0,0,,10.0,30.171259,,,TRUE,TRUE,,,,,,,CLR,,,,,,,,VFR,,,,,,,,,,,,METAR,259.0
KRZN 190155Z AUTO 16005KT 10SM CLR 16/05 A2993 RMK AO2 T01560048,KRZN,2021-10-19T01:55:00Z,45.82,-92.37,15.6,4.8,160,5,,10.0,29.929134,,,TRUE,TRUE,,,,,,,CLR,,,,,,,,VFR,,,,,,,,,,,,METAR,301.0
KRZL 190155Z AUTO 00000KT 10SM CLR 12/06 A3011 RMK AO2,KRZL,2021-10-19T01:55:00Z,40.95,-87.18,12.0,6.0,0,0,,10.0,30.109253,,,TRUE,TRUE,,,,,,,CLR,,,,,,,,VFR,,,,,,,,,,,,SPECI,210.0
KRYW 190155Z AUTO 15005KT 10SM CLR 19/10 A3005 RMK AO2 T01850097,KRYW,2021-10-19T01:55:00Z,30.5,-97.97,18.5,9.7,150,5,,10.0,30.050198,,,TRUE,TRUE,,,,,,,CLR,,,,,,,,VFR,,,,,,,,,,,,METAR,370.0
KRYV 190155Z AUTO 00000KT 10SM CLR 09/06 A3005 RMK AO2 T00850059,KRYV,2021-10-19T01:55:00Z,43.17,-88.72,8.5,5.9,0,0,,10.0,30.050198,,,TRUE,TRUE,,,,,,,CLR,,,,,,,,VFR,,,,,,,,,,,,METAR,249.0
KRWV 190155Z AUTO 12004KT 10SM CLR 17/12 A3007 RMK AO2 T01740116,KRWV,2021-10-19T01:55:00Z,30.52,-96.7,17.4,11.6,120,4,,10.0,30.070866,,,TRUE,TRUE,,,,,,,CLR,,,,,,,,VFR,,,,,,,,,,,,METAR,116.0
KRVL 190155Z AUTO 28005KT 10SM CLR 10/03 A3005 RMK AO2,KRVL,2021-10-19T01:55:00Z,40.68,-77.63,10.0,3.0,280,5,,10.0,30.050198,,,TRUE,TRUE,,,,,,,CLR,,,,,,,,VFR,,,,,,,,,,,,METAR,250.0
KRVJ 190155Z AUTO 00000KT 10SM CLR 11/07 A3018 RMK AO2 T01070072,KRVJ,2021-10-19T01:55:00Z,32.07,-82.15,10.7,7.2,0,0,,10.0,30.180119,,,TRUE,TRUE,,,,,,,CLR,,,,,,,,VFR,,,,,,,,,,,,METAR,60.0
KRVF 190155Z AUTO 02024G31KT 10SM 12/M02 A2985 RMK AO2,KRVF,2021-10-19T01:55:00Z,45.53,-112.3,12.0,-2.0,20,24,31,10.0,29.84941,,,TRUE,TRUE,,,,,,,,,,,,,,,,,,,,,,,,,,,METAR,1445.0
KRUQ 190155Z AUTO 00000KT 10SM CLR 08/07 A3015 RMK AO2 T00820070,KRUQ,2021-10-19T01:55:00Z,35.65,-80.52,8.2,7.0,0,0,,10.0,30.15059,,,TRUE,TRUE,,,,,,,CLR,,,,,,,,VFR,,,,,,,,,,,,METAR,231.0
KRUG 190155Z AUTO 27005KT 10SM CLR 09/07 A2969 RMK AO2,KRUG,2021-10-19T01:55:00Z,48.38,-100.02,9.0,7.0,270,5,,10.0,29.68996,,,TRUE,TRUE,,,,,,,CLR,,,,,,,,VFR,,,,,,,,,,,,METAR,469.0
KRTS 190155Z AUTO 28006KT 10SM OVC049 06/M01 A3000 RMK AO2,KRTS,2021-10-19T01:55:00Z,39.67,-119.88,6.0,-1.0,280,6,,10.0,30.0,,,TRUE,TRUE,,,,,,,OVC,4900,,,,,,,VFR,,,,,,,,,,,,SPECI,1537.0
KRSV 190155Z AUTO 00000KT 10SM CLR 09/07 A3015 RMK AO2 T00880070,KRSV,2021-10-19T01:55:00Z,39.02,-87.65,8.8,7.0,0,0,,10.0,30.15059,,,TRUE,TRUE,,,,,,,CLR,,,,,,,,VFR,,,,,,,,,,,,METAR,139.0
KRSN 190155Z AUTO 00000KT 10SM CLR 11/09 A3016 RMK AO2 T01080094,KRSN,2021-10-19T01:55:00Z,32.52,-92.58,10.8,9.4,0,0,,10.0,30.159449,,,TRUE,TRUE,,,,,,,CLR,,,,,,,,VFR,,,,,,,,,,,,METAR,86.0
KRRT 190155Z AUTO 16008KT 10SM CLR 17/09 A2973 RMK AO2,KRRT,2021-10-19T01:55:00Z,48.93,-95.33,17.0,9.0,160,8,,10.0,29.731298,,,TRUE,TRUE,,,,,,,CLR,,,,,,,,VFR,,,,,,,,,,,,METAR,327.0
KRQO 190155Z AUTO 16013KT 10SM CLR 16/08 A3000 RMK AO2 T01560075,KRQO,2021-10-19T01:55:00Z,35.47,-98.0,15.6,7.5,160,13,,10.0,30.0,,,TRUE,TRUE,,,,,,,CLR,,,,,,,,VFR,,,,,,,,,,,,METAR,431.0
KRQB 190155Z AUTO 00000KT 10SM CLR 07/05 A3008 RMK AO2 T00660047,KRQB,2021-10-19T01:55:00Z,43.72,-85.5,6.6,4.7,0,0,,10.0,30.079725,,,TRUE,TRUE,,,,,,,CLR,,,,,,,,VFR,,,,,,,,,,,,METAR,282.0
KRPX 190155Z AUTO 34006KT 10SM 12/M03 A2984 RMK Roundup ,KRPX,2021-10-19T01:55:00Z,46.47,-108.55,12.0,-3.0,340,6,,10.0,29.840551,,,TRUE,,,,,,,,,,,,,,,,,,,,,,,,,,,,METAR,1062.0
KRPJ 190155Z AUTO 13004KT 10SM CLR 10/06 A3006 RMK AO2 T01000058,KRPJ,2021-10-19T01:55:00Z,41.88,-89.08,10.0,5.8,130,4,,10.0,30.059055,,,TRUE,TRUE,,,,,,,CLR,,,,,,,,VFR,,,,,,,,,,,,METAR,234.0
KROX 190155Z AUTO 16008KT 10SM CLR 17/06 A2971 RMK AO2,KROX,2021-10-19T01:55:00Z,48.85,-95.7,17.0,6.0,160,8,,10.0,29.71063,,,TRUE,TRUE,,,,,,,CLR,,,,,,,,VFR,,,,,,,,,,,,METAR,320.0
KROS 190155Z AUTO 16006KT 10SM SCT110 16/05 A2991 RMK AO2 T01630047,KROS,2021-10-19T01:55:00Z,45.7,-92.95,16.3,4.7,160,6,,10.0,29.911417,,,TRUE,TRUE,,,,,,,SCT,11000,,,,,,,VFR,,,,,,,,,,,,SPECI,282.0
KRNP 190155Z AUTO 00000KT 10SM CLR 08/06 A3009 RMK AO2 T00800062,KRNP,2021-10-19T01:55:00Z,43.0,-84.13,8.0,6.2,0,0,,10.0,30.088583,,,TRUE,TRUE,,,,,,,CLR,,,,,,,,VFR,,,,,,,,,,,,METAR,224.0
KRNO 190155Z 36006KT 10SM BKN055 BKN070 08/M01 A2998 RMK AO2 SLP144 T00781006,KRNO,2021-10-19T01:55:00Z,39.5,-119.77,7.8,-0.6,360,6,,10.0,29.97933,1014.4,,,TRUE,,,,,,,BKN,5500,BKN,7000,,,,,VFR,,,,,,,,,,,,SPECI,1344.0
KRNH 190155Z AUTO 16005KT 10SM CLR 15/04 A2994 RMK AO2 T01530039,KRNH,2021-10-19T01:55:00Z,45.15,-92.53,15.3,3.9,160,5,,10.0,29.940945,,,TRUE,TRUE,,,,,,,CLR,,,,,,,,VFR,,,,,,,,,,,,METAR,302.0
KRNC 190155Z AUTO 00000KT 10SM CLR 09/09 A3018 RMK A01,KRNC,2021-10-19T01:55:00Z,35.7,-85.85,9.0,9.0,0,0,,10.0,30.180119,,,TRUE,TRUE,,,,,,,CLR,,,,,,,,VFR,,,,,,,,,,,,METAR,310.0
KRMY 190155Z AUTO 00000KT 10SM CLR 08/07 A3011 RMK AO2 T00780065,KRMY,2021-10-19T01:55:00Z,42.25,-84.95,7.8,6.5,0,0,,10.0,30.109253,,,TRUE,TRUE,,,,,,,CLR,,,,,,,,VFR,,,,,,,,,,,,METAR,285.0
KRMN 190155Z AUTO 31005KT 10SM CLR 09/06 A3011 RMK AO2 T00860055,KRMN,2021-10-19T01:55:00Z,38.4,-77.45,8.6,5.5,310,5,,10.0,30.109253,,,TRUE,TRUE,,,,,,,CLR,,,,,,,,VFR,,,,,,,,,,,,METAR,50.0
KRLD 190155Z AUTO 18004KT 10SM CLR 17/05 A2985 RMK AO2 T01710051,KRLD,2021-10-19T01:55:00Z,46.3,-119.3,17.1,5.1,180,4,,10.0,29.84941,,,TRUE,TRUE,,,,,,,CLR,,,,,,,,VFR,,,,,,,,,,,,SPECI,118.0
KRKR 190155Z AUTO 00000KT 10SM CLR 12/07 A3008 RMK AO2,KRKR,2021-10-19T01:55:00Z,35.02,-94.62,12.0,7.0,0,0,,10.0,30.079725,,,TRUE,TRUE,,,,,,,CLR,,,,,,,,VFR,,,,,,,,,,,,METAR,136.0
KRID 190155Z AUTO 24005KT 10SM CLR 10/06 A3016 RMK AO2,KRID,2021-10-19T01:55:00Z,39.75,-84.85,10.0,6.0,240,5,,10.0,30.159449,,,TRUE,TRUE,,,,,,,CLR,,,,,,,,VFR,,,,,,,,,,,,METAR,346.0
KRGK 190155Z AUTO 15006KT 10SM CLR 18/04 A2994 RMK AO2,KRGK,2021-10-19T01:55:00Z,44.58,-92.48,18.0,4.0,150,6,,10.0,29.940945,,,TRUE,TRUE,,,,,,,CLR,,,,,,,,VFR,,,,,,,,,,,,METAR,238.0
KRGA 190155Z AUTO 00000KT 10SM CLR 12/08 A3018 RMK AO2,KRGA,2021-10-19T01:55:00Z,37.63,-84.33,12.0,8.0,0,0,,10.0,30.180119,,,TRUE,TRUE,,,,,,,CLR,,,,,,,,VFR,,,,,,,,,,,,METAR,301.0
KRFI 190155Z AUTO 00000KT 10SM CLR 14/08 A3010 RMK AO2 T01350084,KRFI,2021-10-19T01:55:00Z,32.15,-94.85,13.5,8.4,0,0,,10.0,30.100393,,,TRUE,TRUE,,,,,,,CLR,,,,,,,,VFR,,,,,,,,,,,,SPECI,133.0
KREG 190155Z AUTO 00000KT 10SM CLR 15/13 A3011 RMK AO2 T01520132,KREG,2021-10-19T01:55:00Z,30.17,-90.93,15.2,13.2,0,0,,10.0,30.109253,,,TRUE,TRUE,,,,,,,CLR,,,,,,,,VFR,,,,,,,,,,,,METAR,3.0
KRDK 190155Z AUTO 17005KT 10SM FEW250 16/06 A2995 RMK AO2,KRDK,2021-10-19T01:55:00Z,41.02,-95.27,16.0,6.0,170,5,,10.0,29.949802,,,TRUE,TRUE,,,,,,,FEW,25000,,,,,,,VFR,,,,,,,,,,,,METAR,317.0
KRCZ 190155Z AUTO 00000KT 10SM CLR 13/08 A3014 RMK AO2 T01290079,KRCZ,2021-10-19T01:55:00Z,34.88,-79.77,12.9,7.9,0,0,,10.0,30.138779,,,TRUE,TRUE,,,,,,,CLR,,,,,,,,VFR,,,,,,,,,,,,METAR,110.0
KRCX 190155Z AUTO 00000KT 10SM 15/05 A3000 RMK AO2 T01500045,KRCX,2021-10-19T01:55:00Z,45.5,-91.0,15.0,4.5,0,0,,10.0,30.0,,,TRUE,TRUE,,,,,,,,,,,,,,,,,,,,,,,,,,,METAR,373.0
KRCV 190155Z AUTO 19005KT 10SM CLR 10/M09 A2996 RMK AO2 T01031087,KRCV,2021-10-19T01:55:00Z,37.72,-106.35,10.3,-8.7,190,5,,10.0,29.958662,,,TRUE,TRUE,,,,,,,CLR,,,,,,,,VFR,,,,,,,,,,,,METAR,2418.0
KRCR 190155Z AUTO 00000KT 1SM HZ VV007 11/08 A3012 RMK AO2,KRCR,2021-10-19T01:55:00Z,41.07,-86.18,11.0,8.0,0,0,,1.0,30.121063,,,TRUE,TRUE,,,,,,HZ,OVX,0,,,,,,,LIFR,,,,,,,,,,,700,METAR,240.0
KRCM 190155Z AUTO 16004KT 10SM CLR 13/07 A3003 RMK AO2,KRCM,2021-10-19T01:55:00Z,38.78,-93.8,13.0,7.0,160,4,,10.0,30.029528,,,TRUE,TRUE,,,,,,,CLR,,,,,,,,VFR,,,,,,,,,,,,METAR,242.0
KRCE 190155Z AUTO 16011KT 10SM CLR 17/05 A2998 RMK AO2,KRCE,2021-10-19T01:55:00Z,35.48,-97.82,17.0,5.0,160,11,,10.0,29.97933,,,TRUE,TRUE,,,,,,,CLR,,,,,,,,VFR,,,,,,,,,,,,METAR,412.0
KRBW 190155Z AUTO 00000KT 10SM CLR 10/09 A3018 RMK AO2,KRBW,2021-10-19T01:55:00Z,32.92,-80.63,10.0,9.0,0,0,,10.0,30.180119,,,TRUE,TRUE,,,,,,,CLR,,,,,,,,VFR,,,,,,,,,,,,METAR,30.0
KRBO 190155Z AUTO 10004KT 10SM CLR 21/18 A3005 RMK AO2 T02100178,KRBO,2021-10-19T01:55:00Z,27.78,-97.68,21.0,17.8,100,4,,10.0,30.050198,,,TRUE,TRUE,,,,,,,CLR,,,,,,,,VFR,,,,,,,,,,,,METAR,24.0
KRAW 190155Z AUTO 17004KT 10SM CLR 15/07 A3006 RMK AO2 T01450069,KRAW,2021-10-19T01:55:00Z,38.35,-93.35,14.5,6.9,170,4,,10.0,30.059055,,,TRUE,TRUE,,,,,,,CLR,,,,,,,,VFR,,,,,,,,,,,,METAR,285.0
KRAS 190155Z AUTO 10008KT 10SM SCT039 24/17 A3006 RMK AO2 T02350166,KRAS,2021-10-19T01:55:00Z,27.82,-97.08,23.5,16.6,100,8,,10.0,30.059055,,,TRUE,TRUE,,,,,,,SCT,3900,,,,,,,VFR,,,,,,,,,,,,METAR,3.0
KQTZ 190155Z 33002KT 9999 SKC 21/11 A2995 RMK SLP146,KQTZ,2021-10-19T01:55:00Z,,,21.0,11.0,330,2,,6.21,29.949802,1014.6,,,,,,,,,,SKC,,,,,,,,VFR,,,,,,,,,,,,SPECI,
KPZZ 190155Z AUTO 08015KT 8SM SCT034 BKN044 24/16 A3010 RMK A01,KPZZ,2021-10-19T01:55:00Z,28.43,-91.03,24.0,16.0,80,15,,8.0,30.100393,,,TRUE,TRUE,,,,,,,SCT,3400,BKN,4400,,,,,VFR,,,,,,,,,,,,METAR,25.0
KPZQ 190155Z AUTO 24004KT 10SM CLR 09/05 A3006 RMK AO2 T00860047,KPZQ,2021-10-19T01:55:00Z,45.4,-83.82,8.6,4.7,240,4,,10.0,30.059055,,,TRUE,TRUE,,,,,,,CLR,,,,,,,,VFR,,,,,,,,,,,,SPECI,199.0
KPYX 190155Z AUTO 17012KT 10SM CLR 17/05 A2988 RMK AO2 T01700046,KPYX,2021-10-19T01:55:00Z,36.42,-100.75,17.0,4.6,170,12,,10.0,29.878937,,,TRUE,TRUE,,,,,,,CLR,,,,,,,,VFR,,,,,,,,,,,,SPECI,890.0
KPXE 190155Z AUTO 00000KT 10SM CLR 11/10 A3019 RMK AO2 T01070101,KPXE,2021-10-19T01:55:00Z,32.52,-83.77,10.7,10.1,0,0,,10.0,30.188976,,,TRUE,TRUE,,,,,,,CLR,,,,,,,,VFR,,,,,,,,,,,,METAR,126.0
KPWD 190155Z AUTO 34014G19KT 10SM CLR 08/03 A2985 RMK A01,KPWD,2021-10-19T01:55:00Z,48.78,-104.52,8.0,3.0,340,14,19,10.0,29.84941,,,TRUE,TRUE,,,,,,,CLR,,,,,,,,VFR,,,,,,,,,,,,METAR,690.0
KPWC 190155Z AUTO 17005KT 10SM CLR 14/07 A2988 RMK AO2,KPWC,2021-10-19T01:55:00Z,46.72,-94.38,14.0,7.0,170,5,,10.0,29.878937,,,TRUE,TRUE,,,,,,,CLR,,,,,,,,VFR,,,,,,,,,,,,METAR,394.0
KPVW 190155Z AUTO 17011KT 10SM CLR 17/07 A2994 RMK AO2 T01690067,KPVW,2021-10-19T01:55:00Z,34.17,-101.72,16.9,6.7,170,11,,10.0,29.940945,,,TRUE,TRUE,,,,,,,CLR,,,,,,,,VFR,,,,,,,,,,,,METAR,1029.0
KPVJ 190155Z AUTO 00000KT 10SM CLR 16/06 A3000 RMK AO2 T01570062,KPVJ,2021-10-19T01:55:00Z,34.72,-97.22,15.7,6.2,0,0,,10.0,30.0,,,TRUE,TRUE,,,,,,,CLR,,,,,,,,VFR,,,,,,,,,,,,METAR,287.0
KPVF 190155Z AUTO 00000KT 10SM CLR 08/04 A3003 RMK AO1,KPVF,2021-10-19T01:55:00Z,38.72,-120.75,8.0,4.0,0,0,,10.0,30.029528,,,TRUE,TRUE,,,,,,,CLR,,,,,,,,VFR,,,,,,,,,,,,METAR,788.0
KPVE 190155Z AUTO 00000KT 8SM CLR 10/10 A3015 RMK A01,KPVE,2021-10-19T01:55:00Z,35.65,-88.2,10.0,10.0,0,0,,8.0,30.15059,,,TRUE,TRUE,,,,,,,CLR,,,,,,,,VFR,,,,,,,,,,,,METAR,146.0
KPVB 190155Z AUTO 13006KT 10SM CLR 14/07 A3003 RMK AO1 T01400065,KPVB,2021-10-19T01:55:00Z,42.68,-90.43,14.0,6.5,130,6,,10.0,30.029528,,,TRUE,TRUE,,,,,,,CLR,,,,,,,,VFR,,,,,,,,,,,,SPECI,311.0
KPUJ 190155Z AUTO 00000KT 10SM CLR 11/06 A3019 RMK AO2,KPUJ,2021-10-19T01:55:00Z,33.92,-84.93,11.0,6.0,0,0,,10.0,30.188976,,,TRUE,TRUE,,,,,,,CLR,,,,,,,,VFR,,,,,,,,,,,,METAR,385.0
KPTT 190155Z AUTO 17015G21KT 10SM CLR 18/05 A2990 RMK AO2 T01810050,KPTT,2021-10-19T01:55:00Z,37.7,-98.75,18.1,5.0,170,15,21,10.0,29.899607,,,TRUE,TRUE,,,,,,,CLR,,,,,,,,VFR,,,,,,,,,,,,METAR,594.0
KPTS 190155Z AUTO 16004KT 10SM CLR 14/08 A3002 RMK AO2 T01400081,KPTS,2021-10-19T01:55:00Z,37.45,-94.73,14.0,8.1,160,4,,10.0,30.02067,,,TRUE,TRUE,,,,,,,CLR,,,,,,,,VFR,,,,,,,,,,,,METAR,286.0
KPTD 190155Z AUTO 25006KT 10SM OVC070 07/05 A2993 RMK AO2,KPTD,2021-10-19T01:55:00Z,44.68,-74.95,7.0,5.0,250,6,,10.0,29.929134,,,TRUE,TRUE,,,,,,,OVC,7000,,,,,,,VFR,,,,,,,,,,,,SPECI,144.0
KPTB 190155Z AUTO 25005KT 10SM CLR 08/06 A3007 RMK AO2 T00750057 TSNO,KPTB,2021-10-19T01:55:00Z,37.17,-77.52,7.5,5.7,250,5,,10.0,30.070866,,,TRUE,TRUE,,,TRUE,,,,CLR,,,,,,,,VFR,,,,,,,,,,,,METAR,56.0
KPSO 190155Z AUTO 00000KT 10SM CLR 10/M05 A2997 RMK AO2 T01021054,KPSO,2021-10-19T01:55:00Z,37.28,-107.05,10.2,-5.4,0,0,,10.0,29.970472,,,TRUE,TRUE,,,,,,,CLR,,,,,,,,VFR,,,,,,,,,,,,METAR,2332.0
KPSN 190155Z AUTO 13004KT 10SM CLR 15/10 A3007 RMK AO2,KPSN,2021-10-19T01:55:00Z,31.78,-95.7,15.0,10.0,130,4,,10.0,30.070866,,,TRUE,TRUE,,,,,,,CLR,,,,,,,,VFR,,,,,,,,,,,,METAR,124.0
KPSK 190155Z AUTO 26005KT 10SM CLR 12/05 A3020 RMK AO2 T01220047,KPSK,2021-10-19T01:55:00Z,37.13,-80.67,12.2,4.7,260,5,,10.0,30.200787,,,TRUE,TRUE,,,,,,,CLR,,,,,,,,VFR,,,,,,,,,,,,METAR,629.0
KPRS 190155Z AUTO 00000KT 10SM CLR 26/07 A2993 RMK AO2 T02610071,KPRS,2021-10-19T01:55:00Z,29.63,-104.35,26.1,7.1,0,0,,10.0,29.929134,,,TRUE,TRUE,,,,,,,CLR,,,,,,,,VFR,,,,,,,,,,,,SPECI,890.0
KPRG 190155Z AUTO 18007KT 10SM CLR 10/08 A3014 RMK AO2 T01000082,KPRG,2021-10-19T01:55:00Z,39.7,-87.67,10.0,8.2,180,7,,10.0,30.138779,,,TRUE,TRUE,,,,,,,CLR,,,,,,,,VFR,,,,,,,,,,,,METAR,197.0
KPQN 190155Z AUTO 18011KT 10SM CLR 16/04 A2986 RMK AO2,KPQN,2021-10-19T01:55:00Z,43.98,-96.28,16.0,4.0,180,11,,10.0,29.861221,,,TRUE,TRUE,,,,,,,CLR,,,,,,,,VFR,,,,,,,,,,,,METAR,529.0
KPPQ 190155Z AUTO 00000KT 10SM CLR 13/10 A3009 RMK AO2 T01330102,KPPQ,2021-10-19T01:55:00Z,39.63,-90.78,13.3,10.2,0,0,,10.0,30.088583,,,TRUE,TRUE,,,,,,,CLR,,,,,,,,VFR,,,,,,,,,,,,METAR,215.0
KPPO 190155Z AUTO 00000KT 10SM CLR 09/07 A3011 RMK AO2 T00910072,KPPO,2021-10-19T01:55:00Z,41.57,-86.73,9.1,7.2,0,0,,10.0,30.109253,,,TRUE,TRUE,,,,,,,CLR,,,,,,,,VFR,,,,,,,,,,,,METAR,242.0
KPPA 190155Z AUTO 16015G19KT 10SM CLR 18/07 A2993 RMK AO2 T01800068,KPPA,2021-10-19T01:55:00Z,35.62,-101.0,18.0,6.8,160,15,19,10.0,29.929134,,,TRUE,TRUE,,,,,,,CLR,,,,,,,,VFR,,,,,,,,,,,,METAR,989.0
KPOY 190155Z AUTO 35007KT 10SM CLR 10/M03 A2986 RMK AO2,KPOY,2021-10-19T01:55:00Z,44.87,-108.8,10.0,-3.0,350,7,,10.0,29.861221,,,TRUE,TRUE,,,,,,,CLR,,,,,,,,VFR,,,,,,,,,,,,METAR,1547.0
KPOV 190155Z AUTO 00000KT 10SM CLR 05/04 A3011 RMK AO2 T00510038 PWINO,KPOV,2021-10-19T01:55:00Z,41.22,-81.25,5.1,3.8,0,0,,10.0,30.109253,,,TRUE,TRUE,,,,,TRUE,,CLR,,,,,,,,VFR,,,,,,,,,,,,METAR,363.0
KPNT 190155Z AUTO 00000KT 10SM CLR 11/08 A3009 RMK AO2 T01080082,KPNT,2021-10-19T01:55:00Z,40.92,-88.62,10.8,8.2,0,0,,10.0,30.088583,,,TRUE,TRUE,,,,,,,CLR,,,,,,,,VFR,,,,,,,,,,,,METAR,199.0
KPNM 190155Z AUTO 14004KT 10SM 17/05 A2989 RMK AO2,KPNM,2021-10-19T01:55:00Z,45.53,-93.6,17.0,5.0,140,4,,10.0,29.890747,,,TRUE,TRUE,,,,,,,,,,,,,,,,,,,,,,,,,,,METAR,298.0
KPMV 190155Z AUTO 15011G14KT 10SM CLR 18/06 A2993 RMK AO2 T01780058,KPMV,2021-10-19T01:55:00Z,40.95,-95.92,17.8,5.8,150,11,14,10.0,29.929134,,,TRUE,TRUE,,,,,,,CLR,,,,,,,,VFR,,,,,,,,,,,,SPECI,365.0
KPMU 190155Z AUTO 00000KT 10SM CLR 10/10 A3015 RMK AO2,KPMU,2021-10-19T01:55:00Z,34.37,-89.9,10.0,10.0,0,0,,10.0,30.15059,,,TRUE,TRUE,,,,,,,CLR,,,,,,,,VFR,,,,,,,,,,,,METAR,67.0
KPMH 190155Z AUTO 00000KT 10SM CLR 09/07 A3019 RMK AO2 T00920071,KPMH,2021-10-19T01:55:00Z,38.83,-82.85,9.2,7.1,0,0,,10.0,30.188976,,,TRUE,TRUE,,,,,,,CLR,,,,,,,,VFR,,,,,,,,,,,,METAR,200.0
KPLU 190155Z AUTO 00000KT 10SM FEW025 FEW034 OVC043 11/08 A3001 RMK AO2,KPLU,2021-10-19T01:55:00Z,47.1,-122.28,11.0,8.0,0,0,,10.0,30.008858,,,TRUE,TRUE,,,,,,,FEW,2500,FEW,3400,OVC,4300,,,VFR,,,,,,,,,,,,METAR,164.0
KPLR 190155Z AUTO 00000KT 10SM CLR 10/10 A3018 RMK A01,KPLR,2021-10-19T01:55:00Z,33.57,-86.25,10.0,10.0,0,0,,10.0,30.180119,,,TRUE,TRUE,,,,,,,CLR,,,,,,,,VFR,,,,,,,,,,,,METAR,145.0
KPKV 190155Z AUTO 11005KT 10SM CLR 20/15 A3007 RMK AO2 T02040153,KPKV,2021-10-19T01:55:00Z,28.65,-96.68,20.4,15.3,110,5,,10.0,30.070866,,,TRUE,TRUE,,,,,,,CLR,,,,,,,,VFR,,,,,,,,,,,,METAR,8.0
KPJC 190155Z AUTO 00000KT 10SM CLR 05/04 A3012 RMK AO2,KPJC,2021-10-19T01:55:00Z,40.8,-80.17,5.0,4.0,0,0,,10.0,30.121063,,,TRUE,TRUE,,,,,,,CLR,,,,,,,,VFR,,,,,,,,,,,,METAR,273.0
KPHT 190155Z AUTO 00000KT 10SM CLR 10/08 A3016 RMK A01,KPHT,2021-10-19T01:55:00Z,36.33,-88.38,10.0,8.0,0,0,,10.0,30.159449,,,TRUE,TRUE,,,,,,,CLR,,,,,,,,VFR,,,,,,,,,,,,METAR,172.0
KPHP 190155Z AUTO 17010KT 10SM CLR 16/05 A2969 RMK AO2 SLP049 T01610050 TSNO,KPHP,2021-10-19T01:55:00Z,44.05,-101.6,16.1,5.0,170,10,,10.0,29.68996,1004.9,,TRUE,TRUE,,,TRUE,,,,CLR,,,,,,,,VFR,,,,,,,,,,,,SPECI,673.0
KPHN 190155Z AUTO 00000KT 5SM BR CLR 06/05 A3009 RMK AO2,KPHN,2021-10-19T01:55:00Z,42.92,-82.52,6.0,5.0,0,0,,5.0,30.088583,,,TRUE,TRUE,,,,,,BR,CLR,,,,,,,,MVFR,,,,,,,,,,,,METAR,195.0
KPGV 190155Z AUTO 00000KT 7SM CLR 10/06 A3011 RMK AO2,KPGV,2021-10-19T01:55:00Z,35.63,-77.4,10.0,6.0,0,0,,7.0,30.109253,,,TRUE,TRUE,,,,,,,CLR,,,,,,,,VFR,,,,,,,,,,,,METAR,6.0
KPEZ 190155Z AUTO 14007KT 10SM CLR 22/14 A3004 RMK AO2 T02240144,KPEZ,2021-10-19T01:55:00Z,28.95,-98.52,22.4,14.4,140,7,,10.0,30.041338,,,TRUE,TRUE,,,,,,,CLR,,,,,,,,VFR,,,,,,,,,,,,SPECI,126.0
KPEX 190155Z AUTO 15004KT 10SM CLR 16/08 A2988 RMK AO2,KPEX,2021-10-19T01:55:00Z,45.37,-94.73,16.0,8.0,150,4,,10.0,29.878937,,,TRUE,TRUE,,,,,,,CLR,,,,,,,,VFR,,,,,,,,,,,,METAR,359.0
KPEA 190155Z AUTO 16005KT 10SM 17/07 A3001 RMK AO2 T01650071,KPEA,2021-10-19T01:55:00Z,41.4,-92.95,16.5,7.1,160,5,,10.0,30.008858,,,TRUE,TRUE,,,,,,,,,,,,,,,,,,,,,,,,,,,METAR,264.0
KPCZ 190155Z AUTO 00000KT 10SM CLR 11/07 A3003 RMK AO2 T01090067,KPCZ,2021-10-19T01:55:00Z,44.33,-89.02,10.9,6.7,0,0,,10.0,30.029528,,,TRUE,TRUE,,,,,,,CLR,,,,,,,,VFR,,,,,,,,,,,,METAR,248.0
KPCW 190155Z AUTO 00000KT 5SM BR CLR 10/08 A3010 RMK AO2,KPCW,2021-10-19T01:55:00Z,41.52,-82.87,10.0,8.0,0,0,,5.0,30.100393,,,TRUE,TRUE,,,,,,BR,CLR,,,,,,,,MVFR,,,,,,,,,,,,METAR,179.0
KPCM 190155Z AUTO 08004KT 10SM CLR 22/15 A3013 RMK AO2,KPCM,2021-10-19T01:55:00Z,28.0,-82.17,22.0,15.0,80,4,,10.0,30.129921,,,TRUE,TRUE,,,,,,,CLR,,,,,,,,VFR,,,,,,,,,,,,METAR,43.0
KPCD 190155Z AUTO 12004KT 10SM CLR 11/08 A3013 RMK AO2 T01060076,KPCD,2021-10-19T01:55:00Z,37.87,-89.87,10.6,7.6,120,4,,10.0,30.129921,,,TRUE,TRUE,,,,,,,CLR,,,,,,,,VFR,,,,,,,,,,,,METAR,112.0
KPBX 190155Z AUTO 00000KT 10SM CLR 13/05 A3020 RMK AO2 T01300054,KPBX,2021-10-19T01:55:00Z,37.57,-82.57,13.0,5.4,0,0,,10.0,30.200787,,,TRUE,TRUE,,,,,,,CLR,,,,,,,,VFR,,,,,,,,,,,,METAR,447.0
KPAN 190155Z AUTO 23011KT 10SM FEW050 14/05 A2995 RMK AO2,KPAN,2021-10-19T01:55:00Z,34.25,-111.33,14.0,5.0,230,11,,10.0,29.949802,,,TRUE,TRUE,,,,,,,FEW,5000,,,,,,,VFR,,,,,,,,,,,,METAR,1575.0
KP08 190155Z AUTO 25005KT 10SM CLR 24/10 A2983 RMK AO2,KP08,2021-10-19T01:55:00Z,32.93,-111.43,24.0,10.0,250,5,,10.0,29.828741,,,TRUE,TRUE,,,,,,,CLR,,,,,,,,VFR,,,,,,,,,,,,SPECI,477.0
KOZW 190155Z AUTO 25004KT 10SM CLR 10/06 A3010 RMK AO2 T01000059,KOZW,2021-10-19T01:55:00Z,42.62,-83.98,10.0,5.9,250,4,,10.0,30.100393,,,TRUE,TRUE,,,,,,,CLR,,,,,,,,VFR,,,,,,,,,,,,METAR,288.0
KOYM 190155Z AUTO 27006KT 10SM OVC110 06/03 A3009 RMK AO2 PWINO,KOYM,2021-10-19T01:55:00Z,41.42,-78.5,6.0,3.0,270,6,,10.0,30.088583,,,TRUE,TRUE,,,,,TRUE,,OVC,11000,,,,,,,VFR,,,,,,,,,,,,METAR,582.0
KOXV 190155Z AUTO 16007KT 10SM CLR 16/06 A2999 RMK AO2,KOXV,2021-10-19T01:55:00Z,41.28,-93.12,16.0,6.0,160,7,,10.0,29.991142,,,TRUE,TRUE,,,,,,,CLR,,,,,,,,VFR,,,,,,,,,,,,METAR,280.0
KOXI 190155Z AUTO 00000KT 10SM CLR 09/08 A3010 RMK AO1,KOXI,2021-10-19T01:55:00Z,41.33,-86.67,9.0,8.0,0,0,,10.0,30.100393,,,TRUE,TRUE,,,,,,,CLR,,,,,,,,VFR,,,,,,,,,,,,METAR,208.0
KOWX 190155Z AUTO 00000KT 10SM CLR 07/00 A3015 RMK AO1,KOWX,2021-10-19T01:55:00Z,41.03,-83.98,7.0,0.0,0,0,,10.0,30.15059,,,TRUE,TRUE,,,,,,,CLR,,,,,,,,VFR,,,,,,,,,,,,METAR,232.0
KOWP 190155Z AUTO 17007KT 10SM CLR 18/07 A3002 RMK AO2 T01840071 PWINO,KOWP,2021-10-19T01:55:00Z,36.18,-96.15,18.4,7.1,170,7,,10.0,30.02067,,,TRUE,TRUE,,,,,TRUE,,CLR,,,,,,,,VFR,,,,,,,,,,,,METAR,267.0
KOWI 190155Z AUTO 16009KT 10SM CLR 15/08 A2998 RMK AO2,KOWI,2021-10-19T01:55:00Z,38.53,-95.25,15.0,8.0,160,9,,10.0,29.97933,,,TRUE,TRUE,,,,,,,CLR,,,,,,,,VFR,,,,,,,,,,,,METAR,292.0
KOVL 190155Z AUTO 15005KT 10SM CLR 14/03 A2986 RMK AO2,KOVL,2021-10-19T01:55:00Z,44.78,-95.03,14.0,3.0,150,5,,10.0,29.861221,,,TRUE,TRUE,,,,,,,CLR,,,,,,,,VFR,,,,,,,,,,,,METAR,329.0
KOSC 190155Z AUTO 00000KT 10SM CLR 06/05 A3006 RMK AO2 T00550052,KOSC,2021-10-19T01:55:00Z,44.45,-83.4,5.5,5.2,0,0,,10.0,30.059055,,,TRUE,TRUE,,,,,,,CLR,,,,,,,,VFR,,,,,,,,,,,,METAR,191.0
KOSA 190155Z AUTO 11004KT 10SM CLR 14/08 A3008 RMK AO2 T01380080,KOSA,2021-10-19T01:55:00Z,33.1,-94.97,13.8,8.0,110,4,,10.0,30.079725,,,TRUE,TRUE,,,,,,,CLR,,,,,,,,VFR,,,,,,,,,,,,METAR,108.0
KORS 190155Z AUTO 00000KT 10SM CLR 08/07 A3000 RMK AO2,KORS,2021-10-19T01:55:00Z,48.7,-122.92,8.0,7.0,0,0,,10.0,30.0,,,TRUE,TRUE,,,,,,,CLR,,,,,,,,VFR,,,,,,,,,,,,METAR,7.0
KORK 190155Z AUTO 15004KT 10SM FEW021 BKN026 15/07 A3011 RMK AO2,KORK,2021-10-19T01:55:00Z,34.83,-92.25,15.0,7.0,150,4,,10.0,30.109253,,,TRUE,TRUE,,,,,,,FEW,2100,BKN,2600,,,,,MVFR,,,,,,,,,,,,METAR,166.0
KORG 190155Z AUTO 00000KT 10SM CLR 15/13 A3013 RMK AO2 T01520133,KORG,2021-10-19T01:55:00Z,30.07,-93.8,15.2,13.3,0,0,,10.0,30.129921,,,TRUE,TRUE,,,,,,,CLR,,,,,,,,VFR,,,,,,,,,,,,METAR,2.0
KOQN 190155Z AUTO 26003KT 10SM OVC080 10/03 A3003 RMK AO2,KOQN,2021-10-19T01:55:00Z,39.98,-75.58,10.0,3.0,260,3,,10.0,30.029528,,,TRUE,TRUE,,,,,,,OVC,8000,,,,,,,VFR,,,,,,,,,,,,METAR,141.0
KOPN 190155Z AUTO 00000KT 10SM CLR 11/10 A3021 RMK AO2,KOPN,2021-10-19T01:55:00Z,32.95,-84.27,11.0,10.0,0,0,,10.0,30.209646,,,TRUE,TRUE,,,,,,,CLR,,,,,,,,VFR,,,,,,,,,,,,METAR,241.0
KOPL 190155Z AUTO 00000KT 10SM CLR 11/09 A3012 RMK AO2 T01140086,KOPL,2021-10-19T01:55:00Z,30.55,-92.1,11.4,8.6,0,0,,10.0,30.121063,,,TRUE,TRUE,,,,,,,CLR,,,,,,,,VFR,,,,,,,,,,,,METAR,22.0
KOOA 190155Z AUTO 00000KT 10SM CLR 14/07 A3002 RMK AO2 T01380071,KOOA,2021-10-19T01:55:00Z,41.23,-92.5,13.8,7.1,0,0,,10.0,30.02067,,,TRUE,TRUE,,,,,,,CLR,,,,,,,,VFR,,,,,,,,,,,,METAR,256.0
KONZ 190155Z AUTO 00000KT 10SM BKN110 11/09 A3009 RMK AO2 T01070090,KONZ,2021-10-19T01:55:00Z,42.1,-83.15,10.7,9.0,0,0,,10.0,30.088583,,,TRUE,TRUE,,,,,,,BKN,11000,,,,,,,VFR,,,,,,,,,,,,METAR,179.0
KONX 190155Z AUTO 21004KT 10SM CLR 12/05 A3006 RMK AO2 T01210046,KONX,2021-10-19T01:55:00Z,36.4,-76.02,12.1,4.6,210,4,,10.0,30.059055,,,TRUE,TRUE,,,,,,,CLR,,,,,,,,VFR,,,,,,,,,,,,METAR,4.0
KONP 190155Z AUTO 11003KT 10SM CLR 07/06 A3002 RMK AO2,KONP,2021-10-19T01:55:00Z,44.57,-124.05,7.0,6.0,110,3,,10.0,30.02067,,,TRUE,TRUE,,,,,,,CLR,,,,,,,,VFR,,,,,,,,,,,,METAR,43.0
KONM 190155Z AUTO 21008KT 10SM CLR 19/M05 A2992 RMK AO2 T01901053,KONM,2021-10-19T01:55:00Z,34.02,-106.9,19.0,-5.3,210,8,,10.0,29.920275,,,TRUE,TRUE,,,,,,,CLR,,,,,,,,VFR,,,,,,,,,,,,SPECI,1467.0
KONL 190155Z AUTO 15009KT 10SM CLR 16/03 A2981 RMK AO2 T01560029,KONL,2021-10-19T01:55:00Z,42.47,-98.68,15.6,2.9,150,9,,10.0,29.811024,,,TRUE,TRUE,,,,,,,CLR,,,,,,,,VFR,,,,,,,,,,,,METAR,619.0
KONA 190155Z AUTO 00000KT 10SM CLR 11/08 A2998 RMK AO2,KONA,2021-10-19T01:55:00Z,44.07,-91.7,11.0,8.0,0,0,,10.0,29.97933,,,TRUE,TRUE,,,,,,,CLR,,,,,,,,VFR,,,,,,,,,,,,METAR,200.0
KOMH 190155Z AUTO 00000KT 10SM CLR 08/05 A3008 RMK AO2,KOMH,2021-10-19T01:55:00Z,38.25,-78.05,8.0,5.0,0,0,,10.0,30.079725,,,TRUE,TRUE,,,,,,,CLR,,,,,,,,VFR,,,,,,,,,,,,METAR,136.0
KOLZ 190155Z AUTO 15006KT 10SM CLR 13/06 A3000 RMK A01,KOLZ,2021-10-19T01:55:00Z,42.67,-91.97,13.0,6.0,150,6,,10.0,30.0,,,TRUE,TRUE,,,,,,,CLR,,,,,,,,VFR,,,,,,,,,,,,METAR,328.0
KOLY 190155Z AUTO 18003KT 10SM CLR 14/07 A3015 RMK AO2 T01370065,KOLY,2021-10-19T01:55:00Z,38.72,-88.18,13.7,6.5,180,3,,10.0,30.15059,,,TRUE,TRUE,,,,,,,CLR,,,,,,,,VFR,,,,,,,,,,,,METAR,144.0
KOLG 190155Z AUTO 00000KT 10SM CLR 13/05 A2992 RMK AO1,KOLG,2021-10-19T01:55:00Z,46.3,-91.82,13.0,5.0,0,0,,10.0,29.920275,,,TRUE,TRUE,,,,,,,CLR,,,,,,,,VFR,,,,,,,,,,,,METAR,334.0
KOKZ 190155Z AUTO 00000KT 10SM CLR 10/09 A3018 RMK AO2 T01030089,KOKZ,2021-10-19T01:55:00Z,32.97,-82.83,10.3,8.9,0,0,,10.0,30.180119,,,TRUE,TRUE,,,,,,,CLR,,,,,,,,VFR,,,,,,,,,,,,METAR,128.0
KOKV 190155Z AUTO 00000KT 10SM CLR 07/03 A3008 RMK AO2,KOKV,2021-10-19T01:55:00Z,39.13,-78.15,7.0,3.0,0,0,,10.0,30.079725,,,TRUE,TRUE,,,,,,,CLR,,,,,,,,VFR,,,,,,,,,,,,METAR,213.0
KOKM 190155Z AUTO 14004KT 10SM CLR 14/08 A3003 RMK AO2 T01410075,KOKM,2021-10-19T01:55:00Z,35.67,-95.95,14.1,7.5,140,4,,10.0,30.029528,,,TRUE,TRUE,,,,,,,CLR,,,,,,,,VFR,,,,,,,,,,,,METAR,215.0
KOJA 190155Z AUTO 16011KT 10SM CLR 18/07 A2996 RMK AO2 T01760069,KOJA,2021-10-19T01:55:00Z,35.55,-98.67,17.6,6.9,160,11,,10.0,29.958662,,,TRUE,TRUE,,,,,,,CLR,,,,,,,,VFR,,,,,,,,,,,,METAR,490.0
KOIN 190155Z AUTO 16014G20KT 10SM CLR 17/06 A2980 RMK AO1 T01700061,KOIN,2021-10-19T01:55:00Z,39.83,-100.53,17.0,6.1,160,14,20,10.0,29.799213,,,TRUE,TRUE,,,,,,,CLR,,,,,,,,VFR,,,,,,,,,,,,METAR,810.0
KOIC 190155Z AUTO 00000KT 10SM CLR 04/04 A3001 RMK AO2 T00400037 PWINO,KOIC,2021-10-19T01:55:00Z,42.57,-75.52,4.0,3.7,0,0,,10.0,30.008858,,,TRUE,TRUE,,,,,TRUE,,CLR,,,,,,,,VFR,,,,,,,,,,,,METAR,312.0
KOGS 190155Z AUTO 27003KT 10SM SCT075 07/04 A2992 RMK AO2,KOGS,2021-10-19T01:55:00Z,44.67,-75.47,7.0,4.0,270,3,,10.0,29.920275,,,TRUE,TRUE,,,,,,,SCT,7500,,,,,,,VFR,,,,,,,,,,,,SPECI,88.0
KOGA 190155Z AUTO 00000KT 10SM CLR 09/03 A2978 RMK AO2 T00880025,KOGA,2021-10-19T01:55:00Z,41.12,-101.77,8.8,2.5,0,0,,10.0,29.778543,,,TRUE,TRUE,,,,,,,CLR,,,,,,,,VFR,,,,,,,,,,,,METAR,991.0
KOEO 190155Z AUTO 16008KT 10SM CLR 16/05 A2995 RMK AO2 T01600047,KOEO,2021-10-19T01:55:00Z,45.32,-92.7,16.0,4.7,160,8,,10.0,29.949802,,,TRUE,TRUE,,,,,,,CLR,,,,,,,,VFR,,,,,,,,,,,,METAR,269.0
KOEL 190155Z AUTO 16012KT 10SM CLR 16/04 A2978 RMK AO1 T01610043,KOEL,2021-10-19T01:55:00Z,39.12,-100.82,16.1,4.3,160,12,,10.0,29.778543,,,TRUE,TRUE,,,,,,,CLR,,,,,,,,VFR,,,,,,,,,,,,METAR,924.0
KOEL 190155Z AUTO 16012KT 10SM CLR 16/04 A2978 RMK AO1 T01610043,KOEL,2021-10-19T01:55:00Z,39.12,-100.82,16.1,4.3,160,12,,10.0,29.778543,,,TRUE,TRUE,,,,,,,CLR,,,,,,,,VFR,,,,,,,,,,,,METAR,924.0
KOEB 190155Z AUTO 00000KT 10SM CLR 08/07 A3012 RMK AO2 T00780068,KOEB,2021-10-19T01:55:00Z,41.92,-85.05,7.8,6.8,0,0,,10.0,30.121063,,,TRUE,TRUE,,,,,,,CLR,,,,,,,,VFR,,,,,,,,,,,,METAR,291.0
KOCQ 190155Z AUTO 17004KT 10SM CLR 13/09 A3002 RMK AO1 T01280087,KOCQ,2021-10-19T01:55:00Z,44.87,-87.92,12.8,8.7,170,4,,10.0,30.02067,,,TRUE,TRUE,,,,,,,CLR,,,,,,,,VFR,,,,,,,,,,,,METAR,181.0
KOBE 190155Z AUTO 03003KT 10SM CLR 19/16 A3009 RMK AO2,KOBE,2021-10-19T01:55:00Z,27.27,-80.85,19.0,16.0,30,3,,10.0,30.088583,,,TRUE,TRUE,,,,,,,CLR,,,,,,,,VFR,,,,,,,,,,,,METAR,11.0
KOAR 190155Z AUTO 28005KT 10SM CLR M01/M07 A3003 RMK AO2,KOAR,2021-10-19T01:55:00Z,,,-1.0,-7.0,280,5,,10.0,30.029528,,,TRUE,TRUE,,,,,,,CLR,,,,,,,,VFR,,,,,,,,,,,,METAR,
KO86 190155Z AUTO 15008KT 10SM BKN029 OVC034 09/03 A3001 RMK AO1,KO86,2021-10-19T01:55:00Z,40.98,-122.7,9.0,3.0,150,8,,10.0,30.008858,,,TRUE,TRUE,,,,,,,BKN,2900,OVC,3400,,,,,MVFR,,,,,,,,,,,,SPECI,729.0
KO69 190155Z AUTO 00000KT 10SM CLR 12/08 A3003 RMK A01,KO69,2021-10-19T01:55:00Z,38.25,-122.6,12.0,8.0,0,0,,10.0,30.029528,,,TRUE,TRUE,,,,,,,CLR,,,,,,,,VFR,,,,,,,,,,,,SPECI,26.0
KO22 190155Z AUTO 00000KT 10SM CLR 09/04 A3000 RMK A01,KO22,2021-10-19T01:55:00Z,38.03,-120.42,9.0,4.0,0,0,,10.0,30.0,,,TRUE,TRUE,,,,,,,CLR,,,,,,,,VFR,,,,,,,,,,,,METAR,637.0
KO05 190155Z AUTO 00000KT 10SM 05/02 A3002 RMK A01,KO05,2021-10-19T01:55:00Z,,,5.0,2.0,0,0,,10.0,30.02067,,,TRUE,TRUE,,,,,,,,,,,,,,,,,,,,,,,,,,,METAR,
KNY0 190155Z AUTO 30005KT 10SM CLR 03/03 A2993 RMK AO2,KNY0,2021-10-19T01:55:00Z,42.98,-74.33,3.0,3.0,300,5,,10.0,29.929134,,,TRUE,TRUE,,,,,,,CLR,,,,,,,,VFR,,,,,,,,,,,,METAR,266.0
KNUQ 190155Z AUTO 00000KT 10SM CLR 14/08 A3002 RMK AO2,KNUQ,2021-10-19T01:55:00Z,37.4,-122.05,14.0,8.0,0,0,,10.0,30.02067,,,TRUE,TRUE,,,,,,,CLR,,,,,,,,VFR,,,,,,,,,,,,SPECI,9.0
KNRN 190155Z AUTO 15008KT 10SM CLR 15/05 A2982 RMK AO2,KNRN,2021-10-19T01:55:00Z,39.85,-99.9,15.0,5.0,150,8,,10.0,29.819881,,,TRUE,TRUE,,,,,,,CLR,,,,,,,,VFR,,,,,,,,,,,,METAR,726.0
KNQA 190155Z AUTO 10SM CLR 11/10 A3014 RMK A01,KNQA,2021-10-19T01:55:00Z,35.35,-89.87,11.0,10.0,,,,10.0,30.138779,,,TRUE,TRUE,,,,,,,CLR,,,,,,,,VFR,,,,,,,,,,,,METAR,90.0
KNOW 190155Z AUTO 00000KT 10SM CLR 09/07 A3000 RMK AO2 T00870071,KNOW,2021-10-19T01:55:00Z,48.13,-123.4,8.7,7.1,0,0,,10.0,30.0,,,TRUE,TRUE,,,,,,,CLR,,,,,,,,VFR,,,,,,,,,,,,METAR,3.0
KNKX 190155Z 28004KT 10SM FEW030 13/08 A2998 RMK AO2 SLP147 T01330083 $,KNKX,2021-10-19T01:55:00Z,32.87,-117.13,13.3,8.3,280,4,,10.0,29.97933,1014.7,,,TRUE,TRUE,,,,,,FEW,3000,,,,,,,VFR,,,,,,,,,,,,METAR,138.0
KNFG 190155Z 00000KT 10SM SCT040 15/09 A2997 RMK AO2 SLP148 T01500089,KNFG,2021-10-19T01:55:00Z,33.3,-117.35,15.0,8.9,0,0,,10.0,29.970472,1014.8,,,TRUE,,,,,,,SCT,4000,,,,,,,VFR,,,,,,,,,,,,METAR,21.0
KNBG 190155Z 06003KT 10SM FEW040 SCT150 SCT250 18/15 A3012 RMK AO2 SLP198 T01780150 $,KNBG,2021-10-19T01:55:00Z,29.83,-90.02,17.8,15.0,60,3,,10.0,30.121063,1019.8,,,TRUE,TRUE,,,,,,FEW,4000,SCT,15000,SCT,25000,,,VFR,,,,,,,,,,,,METAR,0.0
KN03 190155Z AUTO 00000KT 10SM SCT041 BKN060 06/04 A2999 RMK AO2,KN03,2021-10-19T01:55:00Z,42.6,-76.22,6.0,4.0,0,0,,10.0,29.991142,,,TRUE,TRUE,,,,,,,SCT,4100,BKN,6000,,,,,VFR,,,,,,,,,,,,METAR,361.0
KMZZ 190155Z AUTO 00000KT 10SM CLR A3014 RMK AO2,KMZZ,2021-10-19T01:55:00Z,40.48,-85.68,,,0,0,,10.0,30.138779,,,TRUE,TRUE,,,,,,,CLR,,,,,,,,VFR,,,,,,,,,,,,SPECI,260.0
KMZJ 190155Z AUTO 26010G15KT 10SM 23/11 A2986 RMK AO2,KMZJ,2021-10-19T01:55:00Z,32.52,-111.32,23.0,11.0,260,10,15,10.0,29.861221,,,TRUE,TRUE,,,,,,,,,,,,,,,,,,,,,,,,,,,METAR,574.0
KMZH 190155Z AUTO 03003KT 10SM CLR 11/06 A2988 RMK AO2,KMZH,2021-10-19T01:55:00Z,46.42,-92.8,11.0,6.0,30,3,,10.0,29.878937,,,TRUE,TRUE,,,,,,,CLR,,,,,,,,VFR,,,,,,,,,,,,METAR,331.0
KMYZ 190155Z AUTO 16009KT 10SM CLR 17/05 A2993 RMK AO2,KMYZ,2021-10-19T01:55:00Z,39.85,-96.63,17.0,5.0,160,9,,10.0,29.929134,,,TRUE,TRUE,,,,,,,CLR,,,,,,,,VFR,,,,,,,,,,,,METAR,388.0
KMYJ 190155Z AUTO 15005KT 10SM CLR 12/08 A3007 RMK AO2,KMYJ,2021-10-19T01:55:00Z,39.15,-91.82,12.0,8.0,150,5,,10.0,30.070866,,,TRUE,TRUE,,,,,,,CLR,,,,,,,,VFR,,,,,,,,,,,,METAR,249.0
KMXO 190155Z AUTO 00000KT 10SM CLR 11/08 A3002 RMK AO2,KMXO,2021-10-19T01:55:00Z,42.22,-91.17,11.0,8.0,0,0,,10.0,30.02067,,,TRUE,TRUE,,,,,,,CLR,,,,,,,,VFR,,,,,,,,,,,,METAR,251.0
KMWO 190155Z AUTO 00000KT 10SM CLR 09/07 A3017 RMK AO2 T0087////,KMWO,2021-10-19T01:55:00Z,39.53,-84.4,8.7,7.0,0,0,,10.0,30.171259,,,TRUE,TRUE,,,,,,,CLR,,,,,,,,VFR,,,,,,,,,,,,SPECI,197.0
KMWN 190155Z 28052G61KT 1/16SM -SHSN FZFG VV000 M04/M04 RMK VRY LGT ICG,KMWN,2021-10-19T01:55:00Z,44.27,-71.3,-4.0,-4.0,280,52,61,0.06,,,,,,,,,,,-SHSN FZFG,OVX,0,,,,,,,LIFR,,,,,,,,,,,0,METAR,1911.0
KMWM 190155Z AUTO 16006KT 10SM CLR 14/04 A2989 RMK AO2,KMWM,2021-10-19T01:55:00Z,43.9,-95.1,14.0,4.0,160,6,,10.0,29.890747,,,TRUE,TRUE,,,,,,,CLR,,,,,,,,VFR,,,,,,,,,,,,METAR,427.0
KMWK 190155Z AUTO 00000KT 10SM 10/06 A3018 RMK AO2 T00960061,KMWK,2021-10-19T01:55:00Z,36.47,-80.55,9.6,6.1,0,0,,10.0,30.180119,,,TRUE,TRUE,,,,,,,,,,,,,,,,,,,,,,,,,,,METAR,374.0
KMWC 190155Z AUTO 00000KT 10SM CLR 10/07 A3007 RMK AO2,KMWC,2021-10-19T01:55:00Z,43.12,-88.03,10.0,7.0,0,0,,10.0,30.070866,,,TRUE,TRUE,,,,,,,CLR,,,,,,,,VFR,,,,,,,,,,,,METAR,225.0
KMWA 190155Z AUTO 00000KT 10SM CLR 11/08 A3015 RMK AO2 T01120075,KMWA,2021-10-19T01:55:00Z,37.77,-89.02,11.2,7.5,0,0,,10.0,30.15059,,,TRUE,TRUE,,,,,,,CLR,,,,,,,,VFR,,,,,,,,,,,,METAR,142.0
KMVH 190155Z AUTO 31009KT 10SM CLR 10/M02 A2997 RMK AO2 PWINO,KMVH,2021-10-19T01:55:00Z,46.83,-108.93,10.0,-2.0,310,9,,10.0,29.970472,,,TRUE,TRUE,,,,,TRUE,,CLR,,,,,,,,VFR,,,,,,,,,,,,SPECI,1352.0
KMVE 190155Z AUTO 20006KT 10SM CLR 17/00 A2984 RMK AO2,KMVE,2021-10-19T01:55:00Z,44.97,-95.72,17.0,0.0,200,6,,10.0,29.840551,,,TRUE,TRUE,,,,,,,CLR,,,,,,,,VFR,,,,,,,,,,,,METAR,319.0
KMUT 190155Z AUTO 00000KT 5SM BR CLR 13/10 A3003 RMK AO2,KMUT,2021-10-19T01:55:00Z,41.37,-91.15,13.0,10.0,0,0,,5.0,30.029528,,,TRUE,TRUE,,,,,,BR,CLR,,,,,,,,MVFR,,,,,,,,,,,,METAR,166.0
KMTV 190155Z AUTO 00000KT 10SM CLR 08/06 A3018 RMK AO2 T00760060,KMTV,2021-10-19T01:55:00Z,36.63,-80.02,7.6,6.0,0,0,,10.0,30.180119,,,TRUE,TRUE,,,,,,,CLR,,,,,,,,VFR,,,,,,,,,,,,METAR,276.0
KMRT 190155Z AUTO 00000KT 10SM CLR 09/04 A3015 RMK AO2 T00870042,KMRT,2021-10-19T01:55:00Z,40.22,-83.35,8.7,4.2,0,0,,10.0,30.15059,,,TRUE,TRUE,,,,,,,CLR,,,,,,,,VFR,,,,,,,,,,,,METAR,302.0
KMRN 190155Z AUTO 00000KT 10SM CLR 09/07 A3021 RMK AO2 T00870070,KMRN,2021-10-19T01:55:00Z,35.82,-81.62,8.7,7.0,0,0,,10.0,30.209646,,,TRUE,TRUE,,,,,,,CLR,,,,,,,,VFR,,,,,,,,,,,,METAR,375.0
KMRJ 190155Z AUTO 14003KT 10SM CLR 16/03 A3004 RMK AO2,KMRJ,2021-10-19T01:55:00Z,42.88,-90.23,16.0,3.0,140,3,,10.0,30.041338,,,TRUE,TRUE,,,,,,,CLR,,,,,,,,VFR,,,,,,,,,,,,METAR,350.0
KMQS 190155Z AUTO 00000KT 10SM OVC065 09/05 A3004 RMK AO2,KMQS,2021-10-19T01:55:00Z,39.98,-75.87,9.0,5.0,0,0,,10.0,30.041338,,,TRUE,TRUE,,,,,,,OVC,6500,,,,,,,VFR,,,,,,,,,,,,SPECI,200.0
KMQJ 190155Z AUTO 00000KT 10SM CLR 12/08 A3016 RMK AO1,KMQJ,2021-10-19T01:55:00Z,39.85,-85.9,12.0,8.0,0,0,,10.0,30.159449,,,TRUE,TRUE,,,,,,,CLR,,,,,,,,VFR,,,,,,,,,,,,METAR,262.0
KMQI 190155Z AUTO 28003KT 10SM CLR 17/08 A3008 RMK AO2 T01650080,KMQI,2021-10-19T01:55:00Z,35.92,-75.7,16.5,8.0,280,3,,10.0,30.079725,,,TRUE,TRUE,,,,,,,CLR,,,,,,,,VFR,,,,,,,,,,,,SPECI,3.0
KMQB 190155Z AUTO 19007KT 10SM CLR 13/09 A3008 RMK AO2 T01340085,KMQB,2021-10-19T01:55:00Z,40.52,-90.65,13.4,8.5,190,7,,10.0,30.079725,,,TRUE,TRUE,,,,,,,CLR,,,,,,,,VFR,,,,,,,,,,,,METAR,205.0
KMPZ 190155Z AUTO 18005KT 10SM CLR 13/09 A3003 RMK AO2,KMPZ,2021-10-19T01:55:00Z,40.95,-91.52,13.0,9.0,180,5,,10.0,30.029528,,,TRUE,TRUE,,,,,,,CLR,,,,,,,,VFR,,,,,,,,,,,,METAR,222.0
KMOX 190155Z AUTO 17008KT 10SM CLR 14/02 A2983 RMK AO2,KMOX,2021-10-19T01:55:00Z,45.57,-95.97,14.0,2.0,170,8,,10.0,29.828741,,,TRUE,TRUE,,,,,,,CLR,,,,,,,,VFR,,,,,,,,,,,,METAR,346.0
KMOR 190155Z AUTO 00000KT 10SM CLR 11/09 A3019 RMK A01,KMOR,2021-10-19T01:55:00Z,36.18,-83.37,11.0,9.0,0,0,,10.0,30.188976,,,TRUE,TRUE,,,,,,,CLR,,,,,,,,VFR,,,,,,,,,,,,METAR,393.0
KMOP 190155Z AUTO 25003KT 10SM CLR 10/06 A3008 RMK AO2 T00950058,KMOP,2021-10-19T01:55:00Z,43.62,-84.73,9.5,5.8,250,3,,10.0,30.079725,,,TRUE,TRUE,,,,,,,CLR,,,,,,,,VFR,,,,,,,,,,,,METAR,229.0
KMNZ 190155Z AUTO 15007KT 10SM CLR 17/08 A3004 RMK AO2 T01740076,KMNZ,2021-10-19T01:55:00Z,31.67,-98.15,17.4,7.6,150,7,,10.0,30.041338,,,TRUE,TRUE,,,,,,,CLR,,,,,,,,VFR,,,,,,,,,,,,METAR,397.0
KMNV 190155Z AUTO 00000KT 10SM CLR 09/09 A3019 RMK A01,KMNV,2021-10-19T01:55:00Z,35.55,-84.38,9.0,9.0,0,0,,10.0,30.188976,,,TRUE,TRUE,,,,,,,CLR,,,,,,,,VFR,,,,,,,,,,,,METAR,306.0
KMNI 190155Z AUTO 00000KT 10SM CLR 10/07 A3016 RMK AO2,KMNI,2021-10-19T01:55:00Z,33.58,-80.22,10.0,7.0,0,0,,10.0,30.159449,,,TRUE,TRUE,,,,,,,CLR,,,,,,,,VFR,,,,,,,,,,,,METAR,29.0
KMNH 190155Z AUTO 16009KT 10SM CLR 12/M05 A2988 RMK AO2,KMNH,2021-10-19T01:55:00Z,39.22,-104.65,12.0,-5.0,160,9,,10.0,29.878937,,,TRUE,TRUE,,,,,,,CLR,,,,,,,,VFR,,,,,,,,,,,,METAR,2152.0
KMMI 190155Z AUTO 00000KT 10SM CLR 10/09 A3020 RMK A01,KMMI,2021-10-19T01:55:00Z,35.4,-84.57,10.0,9.0,0,0,,10.0,30.200787,,,TRUE,TRUE,,,,,,,CLR,,,,,,,,VFR,,,,,,,,,,,,METAR,252.0
KMMH 190155Z AUTO 26003KT 10SM CLR 01/M07 A3000 RMK AO2,KMMH,2021-10-19T01:55:00Z,37.62,-118.83,1.0,-7.0,260,3,,10.0,30.0,,,TRUE,TRUE,,,,,,,CLR,,,,,,,,VFR,,,,,,,,,,,,METAR,2167.0
KMLE 190155Z AUTO 13007KT 10SM CLR 17/06 A2992 RMK AO2 T01720056,KMLE,2021-10-19T01:55:00Z,41.2,-96.12,17.2,5.6,130,7,,10.0,29.920275,,,TRUE,TRUE,,,,,,,CLR,,,,,,,,VFR,,,,,,,,,,,,METAR,318.0
KMKS 190155Z AUTO 00000KT 10SM CLR 10/10 A3016 RMK AO2,KMKS,2021-10-19T01:55:00Z,33.18,-80.03,10.0,10.0,0,0,,10.0,30.159449,,,TRUE,TRUE,,,,,,,CLR,,,,,,,,VFR,,,,,,,,,,,,METAR,22.0
KMKN 190155Z AUTO 15008KT 10SM CLR 18/09 A3002 RMK AO2 T01750087,KMKN,2021-10-19T01:55:00Z,31.92,-98.6,17.5,8.7,150,8,,10.0,30.02067,,,TRUE,TRUE,,,,,,,CLR,,,,,,,,VFR,,,,,,,,,,,,METAR,428.0
KMKJ 190155Z AUTO 00000KT 10SM CLR 08/05 A3023 RMK AO2 T00770049,KMKJ,2021-10-19T01:55:00Z,36.88,-81.33,7.7,4.9,0,0,,10.0,30.230314,,,TRUE,TRUE,,,,,,,CLR,,,,,,,,VFR,,,,,,,,,,,,METAR,777.0
KMKG 190155Z 13003KT 10SM CLR 11/08 A3008 RMK AO2 SLP189 T01060083,KMKG,2021-10-19T01:55:00Z,43.17,-86.23,10.6,8.3,130,3,,10.0,30.079725,1018.9,,,TRUE,,,,,,,CLR,,,,,,,,VFR,,,,,,,,,,,,SPECI,190.0
KMJQ 190155Z AUTO 18010KT 10SM CLR 16/02 A2991 RMK AO2 PWINO,KMJQ,2021-10-19T01:55:00Z,43.63,-94.98,16.0,2.0,180,10,,10.0,29.911417,,,TRUE,TRUE,,,,,TRUE,,CLR,,,,,,,,VFR,,,,,,,,,,,,METAR,439.0
KMIS 190155Z AUTO VRB06G14KT 10SM BKN040 24/15 A3010 RMK A01,KMIS,2021-10-19T01:55:00Z,29.3,-88.85,24.0,15.0,0,6,14,10.0,30.100393,,,TRUE,TRUE,,,,,,,BKN,4000,,,,,,,VFR,,,,,,,,,,,,METAR,24.0
KMIO 190155Z AUTO 14006KT 10SM CLR 15/08 A3003 RMK AO2,KMIO,2021-10-19T01:55:00Z,36.92,-94.88,15.0,8.0,140,6,,10.0,30.029528,,,TRUE,TRUE,,,,,,,CLR,,,,,,,,VFR,,,,,,,,,,,,METAR,245.0
KMHR 190155Z AUTO 34003KT 10SM CLR 15/04 A3000 RMK A01,KMHR,2021-10-19T01:55:00Z,38.55,-121.28,15.0,4.0,340,3,,10.0,30.0,,,TRUE,TRUE,,,,,,,CLR,,,,,,,,VFR,,,,,,,,,,,,SPECI,30.0
KMHP 190155Z AUTO 00000KT 10SM CLR 12/11 A3018 RMK AO2 T01170110,KMHP,2021-10-19T01:55:00Z,32.37,-82.08,11.7,11.0,0,0,,10.0,30.180119,,,TRUE,TRUE,,,,,,,CLR,,,,,,,,VFR,,,,,,,,,,,,METAR,60.0
KMHL 190155Z AUTO 15004KT 10SM CLR 13/07 A3005 RMK AO2,KMHL,2021-10-19T01:55:00Z,39.1,-93.2,13.0,7.0,150,4,,10.0,30.050198,,,TRUE,TRUE,,,,,,,CLR,,,,,,,,VFR,,,,,,,,,,,,METAR,236.0
KMGR 190155Z AUTO 00000KT 10SM CLR 15/11 A3019 RMK AO2,KMGR,2021-10-19T01:55:00Z,31.08,-83.8,15.0,11.0,0,0,,10.0,30.188976,,,TRUE,TRUE,,,,,,,CLR,,,,,,,,VFR,,,,,,,,,,,,METAR,86.0
KMGN 190155Z AUTO 00000KT 10SM CLR 06/05 A3006 RMK AO2 T00620053,KMGN,2021-10-19T01:55:00Z,45.43,-84.92,6.2,5.3,0,0,,10.0,30.059055,,,TRUE,TRUE,,,,,,,CLR,,,,,,,,VFR,,,,,,,,,,,,METAR,205.0
KMGC 190155Z AUTO 00000KT 10SM CLR 09/08 A3010 RMK AO2,KMGC,2021-10-19T01:55:00Z,41.7,-86.82,9.0,8.0,0,0,,10.0,30.100393,,,TRUE,TRUE,,,,,,,CLR,,,,,,,,VFR,,,,,,,,,,,,METAR,199.0
KMEZ 190155Z AUTO 00000KT 10SM CLR 10/08 A3010 RMK AO2,KMEZ,2021-10-19T01:55:00Z,34.55,-94.2,10.0,8.0,0,0,,10.0,30.100393,,,TRUE,TRUE,,,,,,,CLR,,,,,,,,VFR,,,,,,,,,,,,SPECI,320.0
KMEV 190155Z AUTO 32006KT 10SM BKN055 06/M03 A2998 RMK AO2,KMEV,2021-10-19T01:55:00Z,38.98,-119.75,6.0,-3.0,320,6,,10.0,29.97933,,,TRUE,TRUE,,,,,,,BKN,5500,,,,,,,VFR,,,,,,,,,,,,SPECI,1437.0
KMDQ 190155Z AUTO 00000KT 10SM CLR 10/09 A3018 RMK A02 T01010092,KMDQ,2021-10-19T01:55:00Z,34.87,-86.55,10.1,9.2,0,0,,10.0,30.180119,,,TRUE,TRUE,,,,,,,CLR,,,,,,,,VFR,,,,,,,,,,,,METAR,221.0
KMDD 190155Z AUTO 16013KT 10SM CLR 20/08 A2996 RMK AO2 T02010084,KMDD,2021-10-19T01:55:00Z,32.03,-102.1,20.1,8.4,160,13,,10.0,29.958662,,,TRUE,TRUE,,,,,,,CLR,,,,,,,,VFR,,,,,,,,,,,,SPECI,853.0
KMCJ 190155Z AUTO 13010G15KT 10SM FEW035 20/12 A3007 RMK A01,KMCJ,2021-10-19T01:55:00Z,29.72,-95.4,20.0,12.0,130,10,15,10.0,30.070866,,,TRUE,TRUE,,,,,,,FEW,3500,,,,,,,VFR,,,,,,,,,,,,METAR,70.0
KMCD 190155Z AUTO 23005KT 10SM CLR 11/07 A3004 RMK AO2 T01110070,KMCD,2021-10-19T01:55:00Z,45.85,-84.63,11.1,7.0,230,5,,10.0,30.041338,,,TRUE,TRUE,,,,,,,CLR,,,,,,,,VFR,,,,,,,,,,,,METAR,228.0
KMCC 190155Z AUTO 34005KT 10SM CLR 14/03 A3001 RMK AO2,KMCC,2021-10-19T01:55:00Z,38.67,-121.4,14.0,3.0,340,5,,10.0,30.008858,,,TRUE,TRUE,,,,,,,CLR,,,,,,,,VFR,,,,,,,,,,,,SPECI,21.0
KMBY 190155Z AUTO 14004KT 10SM CLR 13/07 A3006 RMK AO2,KMBY,2021-10-19T01:55:00Z,39.47,-92.43,13.0,7.0,140,4,,10.0,30.059055,,,TRUE,TRUE,,,,,,,CLR,,,,,,,,VFR,,,,,,,,,,,,METAR,263.0
KMBT 190155Z AUTO 00000KT 10SM FEW039 13/09 A3017 RMK A01,KMBT,2021-10-19T01:55:00Z,35.88,-86.38,13.0,9.0,0,0,,10.0,30.171259,,,TRUE,TRUE,,,,,,,FEW,3900,,,,,,,VFR,,,,,,,,,,,,METAR,187.0
KMAW 190155Z AUTO 00000KT 10SM CLR 13/07 A3015 RMK AO2,KMAW,2021-10-19T01:55:00Z,36.6,-90.0,13.0,7.0,0,0,,10.0,30.15059,,,TRUE,TRUE,,,,,,,CLR,,,,,,,,VFR,,,,,,,,,,,,METAR,88.0
KMAN 190155Z AUTO 03004KT 10SM CLR 16/01 A2978 RMK A01,KMAN,2021-10-19T01:55:00Z,43.58,-116.52,16.0,1.0,30,4,,10.0,29.778543,,,TRUE,TRUE,,,,,,,CLR,,,,,,,,VFR,,,,,,,,,,,,METAR,773.0
KM91 190155Z AUTO 00000KT 10SM SCT036 10/09 A3016 RMK A01,KM91,2021-10-19T01:55:00Z,36.53,-86.92,10.0,9.0,0,0,,10.0,30.159449,,,TRUE,TRUE,,,,,,,SCT,3600,,,,,,,VFR,,,,,,,,,,,,METAR,214.0
KM75 190155Z AUTO 01014G21KT 10SM CLR 11/01 A2991 RMK A01,KM75,2021-10-19T01:55:00Z,48.37,-107.92,11.0,1.0,10,14,21,10.0,29.911417,,,TRUE,TRUE,,,,,,,CLR,,,,,,,,VFR,,,,,,,,,,,,SPECI,687.0
KM54 190155Z AUTO 00000KT 10SM CLR 10/08 A3016 RMK A01,KM54,2021-10-19T01:55:00Z,36.18,-86.32,10.0,8.0,0,0,,10.0,30.159449,,,TRUE,TRUE,,,,,,,CLR,,,,,,,,VFR,,,,,,,,,,,,METAR,168.0
KM40 190155Z AUTO 00000KT 10SM CLR 11/11 A3017 RMK AO2,KM40,2021-10-19T01:55:00Z,33.87,-88.48,11.0,11.0,0,0,,10.0,30.171259,,,TRUE,TRUE,,,,,,,CLR,,,,,,,,VFR,,,,,,,,,,,,METAR,68.0
KM30 190155Z AUTO 00000KT 10SM CLR 10/09 A3016 RMK AO2 T01010090,KM30,2021-10-19T01:55:00Z,37.18,-88.75,10.1,9.0,0,0,,10.0,30.159449,,,TRUE,TRUE,,,,,,,CLR,,,,,,,,VFR,,,,,,,,,,,,METAR,116.0
KM21 190155Z AUTO 00000KT 10SM CLR 09/07 A3017 RMK AO2 T00920074,KM21,2021-10-19T01:55:00Z,37.22,-87.15,9.2,7.4,0,0,,10.0,30.171259,,,TRUE,TRUE,,,,,,,CLR,,,,,,,,VFR,,,,,,,,,,,,METAR,127.0
KM04 190155Z AUTO 00000KT 6SM BR CLR 11/09 A3014 RMK A01,KM04,2021-10-19T01:55:00Z,35.58,-89.58,11.0,9.0,0,0,,6.0,30.138779,,,TRUE,TRUE,,,,,,BR,CLR,,,,,,,,VFR,,,,,,,,,,,,METAR,83.0
KM02 190155Z AUTO 00000KT 10SM FEW039 FEW045 10/08 A3016 RMK A01,KM02,2021-10-19T01:55:00Z,36.13,-87.43,10.0,8.0,0,0,,10.0,30.159449,,,TRUE,TRUE,,,,,,,FEW,3900,FEW,4500,,,,,VFR,,,,,,,,,,,,METAR,268.0
KLZZ 190155Z AUTO 15004KT 10SM CLR 17/09 A3002 RMK AO2 T01730092,KLZZ,2021-10-19T01:55:00Z,31.1,-98.2,17.3,9.2,150,4,,10.0,30.02067,,,TRUE,TRUE,,,,,,,CLR,,,,,,,,VFR,,,,,,,,,,,,METAR,356.0
KLYO 190155Z AUTO 16016KT 10SM CLR 17/06 A2989 RMK AO2 T01660062,KLYO,2021-10-19T01:55:00Z,38.35,-98.23,16.6,6.2,160,16,,10.0,29.890747,,,TRUE,TRUE,,,,,,,CLR,,,,,,,,VFR,,,,,,,,,,,,METAR,515.0
KLXY 190155Z AUTO 19008KT 10SM CLR 17/10 A3006 RMK AO2 T01680099,KLXY,2021-10-19T01:55:00Z,31.63,-96.52,16.8,9.9,190,8,,10.0,30.059055,,,TRUE,TRUE,,,,,,,CLR,,,,,,,,VFR,,,,,,,,,,,,METAR,164.0
KLXN 190155Z AUTO 13007KT 10SM CLR 15/06 A2980 RMK AO2 T01470062,KLXN,2021-10-19T01:55:00Z,40.78,-99.77,14.7,6.2,130,7,,10.0,29.799213,,,TRUE,TRUE,,,,,,,CLR,,,,,,,,VFR,,,,,,,,,,,,METAR,734.0
KLXL 190155Z AUTO 13004KT 10SM CLR 15/05 A2987 RMK AO2,KLXL,2021-10-19T01:55:00Z,45.95,-94.33,15.0,5.0,130,4,,10.0,29.870079,,,TRUE,TRUE,,,,,,,CLR,,,,,,,,VFR,,,,,,,,,,,,SPECI,335.0
KLWB 190155Z AUTO 00000KT 10SM CLR 08/04 A3019 RMK AO2 T00840038,KLWB,2021-10-19T01:55:00Z,37.87,-80.4,8.4,3.8,0,0,,10.0,30.188976,,,TRUE,TRUE,,,,,,,CLR,,,,,,,,VFR,,,,,,,,,,,,METAR,702.0
KLWA 190155Z AUTO 00000KT 10SM CLR 09/07 A3009 RMK AO2 T00860072,KLWA,2021-10-19T01:55:00Z,42.35,-86.25,8.6,7.2,0,0,,10.0,30.088583,,,TRUE,TRUE,,,,,,,CLR,,,,,,,,VFR,,,,,,,,,,,,METAR,199.0
KLVN 190155Z AUTO 15005KT 10SM CLR 16/03 A2993 RMK AO2,KLVN,2021-10-19T01:55:00Z,44.63,-93.23,16.0,3.0,150,5,,10.0,29.929134,,,TRUE,TRUE,,,,,,,CLR,,,,,,,,VFR,,,,,,,,,,,,METAR,292.0
KLVL 190155Z AUTO 00000KT 10SM CLR 11/06 A3009 RMK AO1 T01070063,KLVL,2021-10-19T01:55:00Z,36.78,-77.8,10.7,6.3,0,0,,10.0,30.088583,,,TRUE,TRUE,,,,,,,CLR,,,,,,,,VFR,,,,,,,,,,,,METAR,98.0
KLUX 190155Z AUTO 00000KT 10SM CLR 12/09 A3017 RMK AO2,KLUX,2021-10-19T01:55:00Z,34.5,-81.95,12.0,9.0,0,0,,10.0,30.171259,,,TRUE,TRUE,,,,,,,CLR,,,,,,,,VFR,,,,,,,,,,,,SPECI,213.0
KLUV 190155Z AUTO 16010KT 10SM CLR 18/08 A2998 RMK AO2,KLUV,2021-10-19T01:55:00Z,32.75,-101.92,18.0,8.0,160,10,,10.0,29.97933,,,TRUE,TRUE,,,,,,,CLR,,,,,,,,VFR,,,,,,,,,,,,METAR,910.0
KLUL 190155Z AUTO 00000KT 10SM CLR 12/11 A3016 RMK A02 T01180108,KLUL,2021-10-19T01:55:00Z,31.67,-89.17,11.8,10.8,0,0,,10.0,30.159449,,,TRUE,TRUE,,,,,,,CLR,,,,,,,,VFR,,,,,,,,,,,,METAR,74.0
KLUG 190155Z AUTO 00000KT 10SM CLR 08/08 A3017 RMK A01,KLUG,2021-10-19T01:55:00Z,35.52,-86.8,8.0,8.0,0,0,,10.0,30.171259,,,TRUE,TRUE,,,,,,,CLR,,,,,,,,VFR,,,,,,,,,,,,METAR,218.0
KLUD 190155Z AUTO 15006KT 10SM CLR 18/07 A3002 RMK AO2 T01800068,KLUD,2021-10-19T01:55:00Z,33.25,-97.58,18.0,6.8,150,6,,10.0,30.02067,,,TRUE,TRUE,,,,,,,CLR,,,,,,,,VFR,,,,,,,,,,,,METAR,319.0
KLUA 190155Z AUTO 00000KT 10SM CLR 13/03 A3008 RMK AO2,KLUA,2021-10-19T01:55:00Z,38.67,-78.5,13.0,3.0,0,0,,10.0,30.079725,,,TRUE,TRUE,,,,,,,CLR,,,,,,,,VFR,,,,,,,,,,,,METAR,273.0
KLRY 190155Z AUTO 16003KT 10SM CLR 15/07 A3005 RMK AO2,KLRY,2021-10-19T01:55:00Z,38.62,-94.35,15.0,7.0,160,3,,10.0,30.050198,,,TRUE,TRUE,,,,,,,CLR,,,,,,,,VFR,,,,,,,,,,,,METAR,272.0
KLRU 190155Z AUTO 23006KT 10SM CLR 20/M03 A2996 RMK AO2 T02011026,KLRU,2021-10-19T01:55:00Z,32.28,-106.92,20.1,-2.6,230,6,,10.0,29.958662,,,TRUE,TRUE,,,,,,,CLR,,,,,,,,VFR,,,,,,,,,,,,SPECI,1355.0
KLRO 190155Z AUTO 00000KT 10SM CLR 12/11 A3016 RMK AO2,KLRO,2021-10-19T01:55:00Z,32.9,-79.78,12.0,11.0,0,0,,10.0,30.159449,,,TRUE,TRUE,,,,,,,CLR,,,,,,,,VFR,,,,,,,,,,,,METAR,3.0
KLRJ 190155Z AUTO 15009KT 10SM CLR 16/05 A2986 RMK AO2,KLRJ,2021-10-19T01:55:00Z,42.77,-96.2,16.0,5.0,150,9,,10.0,29.861221,,,TRUE,TRUE,,,,,,,CLR,,,,,,,,VFR,,,,,,,,,,,,METAR,363.0
KLQK 190155Z AUTO 00000KT 10SM CLR 09/09 A3016 RMK AO2 T00910086,KLQK,2021-10-19T01:55:00Z,34.82,-82.7,9.1,8.6,0,0,,10.0,30.159449,,,TRUE,TRUE,,,,,,,CLR,,,,,,,,VFR,,,,,,,,,,,,METAR,291.0
KLOT 190155Z AUTO 16004KT 10SM CLR 13/08 A3008 RMK AO2 T01250075,KLOT,2021-10-19T01:55:00Z,41.6,-88.1,12.5,7.5,160,4,,10.0,30.079725,,,TRUE,TRUE,,,,,,,CLR,,,,,,,,VFR,,,,,,,,,,,,METAR,205.0
KLNP 190155Z AUTO 00000KT 10SM CLR 10/03 A3023 RMK AO2,KLNP,2021-10-19T01:55:00Z,36.98,-82.52,10.0,3.0,0,0,,10.0,30.230314,,,TRUE,TRUE,,,,,,,CLR,,,,,,,,VFR,,,,,,,,,,,,METAR,817.0
KLNN 190155Z AUTO 00000KT 10SM CLR 08/06 A3011 RMK AO1 T00750062,KLNN,2021-10-19T01:55:00Z,41.68,-81.38,7.5,6.2,0,0,,10.0,30.109253,,,TRUE,TRUE,,,,,,,CLR,,,,,,,,VFR,,,,,,,,,,,,METAR,190.0
KLNL 190155Z AUTO 20003KT 10SM CLR 11/04 A3001 RMK AO2 T01110036,KLNL,2021-10-19T01:55:00Z,46.15,-89.22,11.1,3.6,200,3,,10.0,30.008858,,,TRUE,TRUE,,,,,,,CLR,,,,,,,,VFR,,,,,,,,,,,,METAR,517.0
KLNC 190155Z AUTO 00000KT 10SM CLR 16/09 A3005 RMK AO2 T01600086,KLNC,2021-10-19T01:55:00Z,32.58,-96.72,16.0,8.6,0,0,,10.0,30.050198,,,TRUE,TRUE,,,,,,,CLR,,,,,,,,VFR,,,,,,,,,,,,SPECI,152.0
KLNA 190155Z AUTO 06009KT 10SM SCT046 SCT050 26/17 A3008 RMK AO2 T02580165 PNO,KLNA,2021-10-19T01:55:00Z,26.6,-80.08,25.8,16.5,60,9,,10.0,30.079725,,,TRUE,TRUE,,,,,,,SCT,4600,SCT,5000,,,,,VFR,,,,,,,,,,,,METAR,3.0
KLMO 190155Z AUTO 01004KT 10SM CLR 19/M04 A2978 RMK AO2 T01901039,KLMO,2021-10-19T01:55:00Z,40.17,-105.17,19.0,-3.9,10,4,,10.0,29.778543,,,TRUE,TRUE,,,,,,,CLR,,,,,,,,VFR,,,,,,,,,,,,SPECI,1535.0
KLLN 190155Z AUTO 16012G17KT 10SM CLR 18/07 A2995 RMK AO2,KLLN,2021-10-19T01:55:00Z,,,18.0,7.0,160,12,17,10.0,29.949802,,,TRUE,TRUE,,,,,,,CLR,,,,,,,,VFR,,,,,,,,,,,,METAR,
KLLJ 190155Z AUTO 26006KT 10SM BKN100 11/00 A2983 RMK AO2 SLP090 T01060000,KLLJ,2021-10-19T01:55:00Z,44.52,-114.22,10.6,0.0,260,6,,10.0,29.828741,1009.0,,TRUE,TRUE,,,,,,,BKN,10000,,,,,,,VFR,,,,,,,,,,,,METAR,1535.0
KLKU 190155Z AUTO 22003KT 10SM CLR 06/05 A3013 RMK AO2 T00620052,KLKU,2021-10-19T01:55:00Z,38.02,-77.97,6.2,5.2,220,3,,10.0,30.129921,,,TRUE,TRUE,,,,,,,CLR,,,,,,,,VFR,,,,,,,,,,,,METAR,146.0
KLKR 190155Z AUTO 00000KT 10SM FEW034 FEW039 SCT045 12/07 A3016 RMK AO2,KLKR,2021-10-19T01:55:00Z,34.72,-80.85,12.0,7.0,0,0,,10.0,30.159449,,,TRUE,TRUE,,,,,,,FEW,3400,FEW,3900,SCT,4500,,,VFR,,,,,,,,,,,,METAR,166.0
KLJF 190155Z AUTO 16003KT 10SM CLR 17/07 A2988 RMK AO2,KLJF,2021-10-19T01:55:00Z,45.1,-94.52,17.0,7.0,160,3,,10.0,29.878937,,,TRUE,TRUE,,,,,,,CLR,,,,,,,,VFR,,,,,,,,,,,,METAR,347.0
KLIC 190155Z AUTO 00000KT 10SM CLR 11/M06 A2980 RMK AO2 SLP057 T01061056,KLIC,2021-10-19T01:55:00Z,39.27,-103.67,10.6,-5.6,0,0,,10.0,29.799213,1005.7,,TRUE,TRUE,,,,,,,CLR,,,,,,,,VFR,,,,,,,,,,,,SPECI,1635.0
KLHZ 190155Z AUTO 24004KT 10SM CLR 13/06 A3014 RMK AO2,KLHZ,2021-10-19T01:55:00Z,36.02,-78.33,13.0,6.0,240,4,,10.0,30.138779,,,TRUE,TRUE,,,,,,,CLR,,,,,,,,VFR,,,,,,,,,,,,METAR,104.0
KLHM 190155Z AUTO 03004KT 10SM CLR 12/06 A3001 RMK AO1,KLHM,2021-10-19T01:55:00Z,38.92,-121.35,12.0,6.0,30,4,,10.0,30.008858,,,TRUE,TRUE,,,,,,,CLR,,,,,,,,VFR,,,,,,,,,,,,METAR,36.0
KLHB 190155Z AUTO 00000KT 10SM CLR 18/11 A3007 RMK AO2 T01840110,KLHB,2021-10-19T01:55:00Z,30.87,-96.62,18.4,11.0,0,0,,10.0,30.070866,,,TRUE,TRUE,,,,,,,CLR,,,,,,,,VFR,,,,,,,,,,,,SPECI,83.0
KLGC 190155Z AUTO 00000KT 10SM CLR 11/10 A3019 RMK AO2 T01080102,KLGC,2021-10-19T01:55:00Z,33.0,-85.07,10.8,10.2,0,0,,10.0,30.188976,,,TRUE,TRUE,,,,,,,CLR,,,,,,,,VFR,,,,,,,,,,,,METAR,209.0
KLDM 190155Z AUTO 00000KT 10SM CLR 08/07 A3007 RMK AO2 T00770071,KLDM,2021-10-19T01:55:00Z,43.97,-86.4,7.7,7.1,0,0,,10.0,30.070866,,,TRUE,TRUE,,,,,,,CLR,,,,,,,,VFR,,,,,,,,,,,,METAR,194.0
KLCQ 190155Z AUTO 00000KT 10SM CLR 16/13 A3016 RMK AO2,KLCQ,2021-10-19T01:55:00Z,30.18,-82.58,16.0,13.0,0,0,,10.0,30.159449,,,TRUE,TRUE,,,,,,,CLR,,,,,,,,VFR,,,,,,,,,,,,METAR,59.0
KLCK 190155Z AUTO 00000KT 10SM CLR 11/06 A3015 RMK AO2 T01090055,KLCK,2021-10-19T01:55:00Z,39.82,-82.92,10.9,5.5,0,0,,10.0,30.15059,,,TRUE,TRUE,,,,,,,CLR,,,,,,,,VFR,,,,,,,,,,,,SPECI,225.0
KLCG 190155Z AUTO 17009KT 10SM CLR 13/03 A2986 RMK AO2 T01310032,KLCG,2021-10-19T01:55:00Z,42.25,-96.98,13.1,3.2,170,9,,10.0,29.861221,,,TRUE,TRUE,,,,,,,CLR,,,,,,,,VFR,,,,,,,,,,,,METAR,434.0
KLBO 190155Z AUTO 17004KT 10SM CLR 13/06 A3010 RMK AO2,KLBO,2021-10-19T01:55:00Z,37.65,-92.65,13.0,6.0,170,4,,10.0,30.100393,,,TRUE,TRUE,,,,,,,CLR,,,,,,,,VFR,,,,,,,,,,,,METAR,399.0
KLAM 190155Z AUTO 18006KT 10SM CLR 14/M05 A2999 RMK AO2 T01441050,KLAM,2021-10-19T01:55:00Z,35.87,-106.27,14.4,-5.0,180,6,,10.0,29.991142,,,TRUE,TRUE,,,,,,,CLR,,,,,,,,VFR,,,,,,,,,,,,SPECI,2166.0
KL52 190155Z AUTO 00000KT 7SM CLR 13/07 A2999 RMK A01,KL52,2021-10-19T01:55:00Z,35.1,-120.62,13.0,7.0,0,0,,7.0,29.991142,,,TRUE,TRUE,,,,,,,CLR,,,,,,,,VFR,,,,,,,,,,,,METAR,3.0
KL35 190155Z AUTO 26006KT 10SM SCT019 01/M01 A2998 RMK AO2,KL35,2021-10-19T01:55:00Z,34.27,-116.85,1.0,-1.0,260,6,,10.0,29.97933,,,TRUE,TRUE,,,,,,,SCT,1900,,,,,,,VFR,,,,,,,,,,,,SPECI,2062.0
KL08 190155Z AUTO 27016KT 10SM FEW044 18/04 A2989 RMK AO2,KL08,2021-10-19T01:55:00Z,33.27,-116.32,18.0,4.0,270,16,,10.0,29.890747,,,TRUE,TRUE,,,,,,,FEW,4400,,,,,,,VFR,,,,,,,,,,,,METAR,156.0
KKY8 190155Z AUTO 00000KT 3SM BR CLR 10/10 A3017 RMK A01,KKY8,2021-10-19T01:55:00Z,37.95,-86.87,10.0,10.0,0,0,,3.0,30.171259,,,TRUE,TRUE,,,,,,BR,CLR,,,,,,,,MVFR,,,,,,,,,,,,METAR,124.0
KK88 190155Z AUTO 14008KT 10SM CLR 14/07 A3001 RMK AO1 T01360071,KK88,2021-10-19T01:55:00Z,37.87,-95.38,13.6,7.1,140,8,,10.0,30.008858,,,TRUE,TRUE,,,,,,,CLR,,,,,,,,VFR,,,,,,,,,,,,METAR,308.0
KK82 190155Z AUTO 13012KT 10SM CLR 15/05 A2986 RMK AO2,KK82,2021-10-19T01:55:00Z,39.77,-98.8,15.0,5.0,130,12,,10.0,29.861221,,,TRUE,TRUE,,,,,,,CLR,,,,,,,,VFR,,,,,,,,,,,,METAR,548.0
KK62 190155Z AUTO 26003KT 10SM CLR 12/05 A3017 RMK AO2,KK62,2021-10-19T01:55:00Z,38.7,-84.4,12.0,5.0,260,3,,10.0,30.171259,,,TRUE,TRUE,,,,,,,CLR,,,,,,,,VFR,,,,,,,,,,,,METAR,274.0
KJZP 190155Z AUTO 00000KT 10SM CLR 12/09 A3022 RMK AO2 T01180086,KJZP,2021-10-19T01:55:00Z,34.45,-84.47,11.8,8.6,0,0,,10.0,30.221457,,,TRUE,TRUE,,,,,,,CLR,,,,,,,,VFR,,,,,,,,,,,,METAR,462.0
KJZI 190155Z AUTO 00000KT 8SM CLR 13/11 A3017 RMK AO2,KJZI,2021-10-19T01:55:00Z,32.7,-80.0,13.0,11.0,0,0,,8.0,30.171259,,,TRUE,TRUE,,,,,,,CLR,,,,,,,,VFR,,,,,,,,,,,,METAR,5.0
KJYR 190155Z AUTO 15011KT 10SM CLR 17/03 A2986 RMK AO2,KJYR,2021-10-19T01:55:00Z,40.9,-97.62,17.0,3.0,150,11,,10.0,29.861221,,,TRUE,TRUE,,,,,,,CLR,,,,,,,,VFR,,,,,,,,,,,,METAR,508.0
KJYO 190155Z AUTO 33003KT 10SM CLR 10/06 A3008 RMK AO2,KJYO,2021-10-19T01:55:00Z,39.07,-77.57,10.0,6.0,330,3,,10.0,30.079725,,,TRUE,TRUE,,,,,,,CLR,,,,,,,,VFR,,,,,,,,,,,,METAR,112.0
KJYM 190155Z AUTO 00000KT 10SM CLR 08/07 A3011 RMK AO2 T00810068,KJYM,2021-10-19T01:55:00Z,41.92,-84.58,8.1,6.8,0,0,,10.0,30.109253,,,TRUE,TRUE,,,,,,,CLR,,,,,,,,VFR,,,,,,,,,,,,METAR,357.0
KJYL 190155Z AUTO 00000KT 10SM CLR 10/09 A3019 RMK AO2 T01010092,KJYL,2021-10-19T01:55:00Z,32.65,-81.6,10.1,9.2,0,0,,10.0,30.188976,,,TRUE,TRUE,,,,,,,CLR,,,,,,,,VFR,,,,,,,,,,,,METAR,54.0
KJXI 190155Z AUTO 00000KT 10SM CLR A3008 RMK AO2,KJXI,2021-10-19T01:55:00Z,32.7,-94.95,,,0,0,,10.0,30.079725,,,TRUE,TRUE,,,,,,,CLR,,,,,,,,VFR,,,,,,,,,,,,METAR,130.0
KJWY 190155Z AUTO 00000KT 10SM CLR 17/09 A3006 RMK AO2 T01660087,KJWY,2021-10-19T01:55:00Z,32.45,-96.92,16.6,8.7,0,0,,10.0,30.059055,,,TRUE,TRUE,,,,,,,CLR,,,,,,,,VFR,,,,,,,,,,,,METAR,211.0
KJWG 190155Z AUTO 15008KT 10SM CLR 17/07 A2997 RMK AO2 T01730070,KJWG,2021-10-19T01:55:00Z,35.87,-98.42,17.3,7.0,150,8,,10.0,29.970472,,,TRUE,TRUE,,,,,,,CLR,,,,,,,,VFR,,,,,,,,,,,,METAR,469.0
KJVY 190155Z AUTO 00000KT 10SM CLR 09/08 A3017 RMK AO2,KJVY,2021-10-19T01:55:00Z,38.37,-85.73,9.0,8.0,0,0,,10.0,30.171259,,,TRUE,TRUE,,,,,,,CLR,,,,,,,,VFR,,,,,,,,,,,,METAR,141.0
KJVW 190155Z AUTO 00000KT 10SM CLR 11/11 A3014 RMK AO2,KJVW,2021-10-19T01:55:00Z,32.3,-90.42,11.0,11.0,0,0,,10.0,30.138779,,,TRUE,TRUE,,,,,,,CLR,,,,,,,,VFR,,,,,,,,,,,,METAR,73.0
KJTC 190155Z AUTO 19011KT 10SM CLR 12/02 A3001 RMK AO2,KJTC,2021-10-19T01:55:00Z,34.13,-109.32,12.0,2.0,190,11,,10.0,30.008858,,,TRUE,TRUE,,,,,,,CLR,,,,,,,,VFR,,,,,,,,,,,,SPECI,2148.0
KJSY 190155Z AUTO 20004KT 10SM CLR 07/00 A2991 RMK AO2 T00650000,KJSY,2021-10-19T01:55:00Z,45.35,-117.25,6.5,0.0,200,4,,10.0,29.911417,,,TRUE,TRUE,,,,,,,CLR,,,,,,,,VFR,,,,,,,,,,,,METAR,1256.0
KJSV 190155Z AUTO 15004KT 10SM CLR 16/06 A3006 RMK AO2,KJSV,2021-10-19T01:55:00Z,35.43,-94.8,16.0,6.0,150,4,,10.0,30.059055,,,TRUE,TRUE,,,,,,,CLR,,,,,,,,VFR,,,,,,,,,,,,METAR,158.0
KJSO 190155Z AUTO 17003KT 10SM CLR 17/06 A3010 RMK AO2 T01730060,KJSO,2021-10-19T01:55:00Z,31.87,-95.22,17.3,6.0,170,3,,10.0,30.100393,,,TRUE,TRUE,,,,,,,CLR,,,,,,,,VFR,,,,,,,,,,,,METAR,204.0
KJOT 190155Z AUTO 00000KT 10SM CLR 11/09 A3008 RMK AO2 T01140088,KJOT,2021-10-19T01:55:00Z,41.52,-88.18,11.4,8.8,0,0,,10.0,30.079725,,,TRUE,TRUE,,,,,,,CLR,,,,,,,,VFR,,,,,,,,,,,,METAR,175.0
KJNX 190155Z AUTO 00000KT 10SM CLR 09/08 A3011 RMK AO2,KJNX,2021-10-19T01:55:00Z,35.53,-78.38,9.0,8.0,0,0,,10.0,30.109253,,,TRUE,TRUE,,,,,,,CLR,,,,,,,,VFR,,,,,,,,,,,,METAR,41.0
KJMR 190155Z AUTO 15003KT 10SM 16/05 A2991 RMK AO2,KJMR,2021-10-19T01:55:00Z,45.88,-93.27,16.0,5.0,150,3,,10.0,29.911417,,,TRUE,TRUE,,,,,,,,,,,,,,,,,,,,,,,,,,,METAR,301.0
KJKJ 190155Z AUTO 16011KT 10SM CLR 17/06 A2976 RMK AO2,KJKJ,2021-10-19T01:55:00Z,46.83,-96.67,17.0,6.0,160,11,,10.0,29.760826,,,TRUE,TRUE,,,,,,,CLR,,,,,,,,VFR,,,,,,,,,,,,METAR,280.0
KJKA 190155Z AUTO 00000KT 10SM CLR 13/13 A3015 RMK AO2 T01330125,KJKA,2021-10-19T01:55:00Z,30.28,-87.67,13.3,12.5,0,0,,10.0,30.15059,,,TRUE,TRUE,,,,,,,CLR,,,,,,,,VFR,,,,,,,,,,,,METAR,5.0
KJHN 190155Z AUTO 16019G25KT 10SM CLR 19/04 A2980 RMK AO2 T01920043,KJHN,2021-10-19T01:55:00Z,37.58,-101.73,19.2,4.3,160,19,25,10.0,29.799213,,,TRUE,TRUE,,,,,,,CLR,,,,,,,,VFR,,,,,,,,,,,,METAR,1013.0
KJGG 190155Z AUTO 29004KT 10SM CLR 12/09 A3007 RMK AO1,KJGG,2021-10-19T01:55:00Z,37.23,-76.72,12.0,9.0,290,4,,10.0,30.070866,,,TRUE,TRUE,,,,,,,CLR,,,,,,,,VFR,,,,,,,,,,,,METAR,13.0
KJFZ 190155Z AUTO 00000KT 10SM CLR 10/04 A3023 RMK AO2 T00970040,KJFZ,2021-10-19T01:55:00Z,37.07,-81.8,9.7,4.0,0,0,,10.0,30.230314,,,TRUE,TRUE,,,,,,,CLR,,,,,,,,VFR,,,,,,,,,,,,METAR,809.0
KJFX 190155Z AUTO 00000KT 10SM CLR 09/10 A3017 RMK AO2 PWINO,KJFX,2021-10-19T01:55:00Z,33.9,-87.32,9.0,10.0,0,0,,10.0,30.171259,,,TRUE,TRUE,,,,,TRUE,,CLR,,,,,,,,VFR,,,,,,,,,,,,METAR,144.0
KJES 190155Z AUTO 00000KT 10SM CLR 13/11 A3021 RMK AO2,KJES,2021-10-19T01:55:00Z,31.55,-81.88,13.0,11.0,0,0,,10.0,30.209646,,,TRUE,TRUE,,,,,,,CLR,,,,,,,,VFR,,,,,,,,,,,,METAR,26.0
KJDD 190155Z AUTO 00000KT 10SM CLR 12/09 A3007 RMK AO2,KJDD,2021-10-19T01:55:00Z,32.75,-95.5,12.0,9.0,0,0,,10.0,30.070866,,,TRUE,TRUE,,,,,,,CLR,,,,,,,,VFR,,,,,,,,,,,,METAR,127.0
KJCA 190155Z AUTO 00000KT 10SM CLR 12/09 A3018 RMK AO2 T01190091,KJCA,2021-10-19T01:55:00Z,34.18,-83.57,11.9,9.1,0,0,,10.0,30.180119,,,TRUE,TRUE,,,,,,,CLR,,,,,,,,VFR,,,,,,,,,,,,METAR,287.0
KJAU 190155Z AUTO 00000KT 10SM CLR 09/08 A3024 RMK A01,KJAU,2021-10-19T01:55:00Z,36.33,-84.17,9.0,8.0,0,0,,10.0,30.239174,,,TRUE,TRUE,,,,,,,CLR,,,,,,,,VFR,,,,,,,,,,,,METAR,350.0
KJAS 190155Z AUTO 00000KT 10SM 13/11 A3009 RMK AO2,KJAS,2021-10-19T01:55:00Z,30.88,-94.03,13.0,11.0,0,0,,10.0,30.088583,,,TRUE,TRUE,,,,,,,,,,,,,,,,,,,,,,,,,,,METAR,60.0
KIZA 190155Z AUTO 29007KT 10SM CLR 12/06 A2999 RMK AO2,KIZA,2021-10-19T01:55:00Z,34.6,-120.07,12.0,6.0,290,7,,10.0,29.991142,,,TRUE,TRUE,,,,,,,CLR,,,,,,,,VFR,,,,,,,,,,,,SPECI,200.0
KIYA 190155Z AUTO 00000KT 10SM CLR 15/12 A3011 RMK AO2 T01460118,KIYA,2021-10-19T01:55:00Z,29.98,-92.08,14.6,11.8,0,0,,10.0,30.109253,,,TRUE,TRUE,,,,,,,CLR,,,,,,,,VFR,,,,,,,,,,,,METAR,4.0
KIXA 190155Z AUTO 22003KT 10SM CLR 10/08 A3009 RMK AO2,KIXA,2021-10-19T01:55:00Z,36.33,-77.63,10.0,8.0,220,3,,10.0,30.088583,,,TRUE,TRUE,,,,,,,CLR,,,,,,,,VFR,,,,,,,,,,,,METAR,43.0
KIUA 190155Z AUTO 28007KT 10SM BKN060 09/05 A3001 RMK AO2 T00870047,KIUA,2021-10-19T01:55:00Z,42.92,-77.33,8.7,4.7,280,7,,10.0,30.008858,,,TRUE,TRUE,,,,,,,BKN,6000,,,,,,,VFR,,,,,,,,,,,,METAR,248.0
KISQ 190155Z AUTO 19004KT 10SM CLR 13/10 A3002 RMK AO2 T01270100,KISQ,2021-10-19T01:55:00Z,45.97,-86.17,12.7,10.0,190,4,,10.0,30.02067,,,TRUE,TRUE,,,,,,,CLR,,,,,,,,VFR,,,,,,,,,,,,METAR,206.0
KISO 190155Z AUTO 00000KT 10SM CLR 09/07 A3012 RMK AO2 T00920066,KISO,2021-10-19T01:55:00Z,35.32,-77.62,9.2,6.6,0,0,,10.0,30.121063,,,TRUE,TRUE,,,,,,,CLR,,,,,,,,VFR,,,,,,,,,,,,METAR,27.0
KIRS 190155Z AUTO 00000KT 10SM CLR 10/09 A3011 RMK AO2 T00950091,KIRS,2021-10-19T01:55:00Z,41.8,-85.43,9.5,9.1,0,0,,10.0,30.109253,,,TRUE,TRUE,,,,,,,CLR,,,,,,,,VFR,,,,,,,,,,,,METAR,282.0
KIPJ 190155Z AUTO 00000KT 10SM CLR 08/07 A3016 RMK AO2 T00810067,KIPJ,2021-10-19T01:55:00Z,35.48,-81.17,8.1,6.7,0,0,,10.0,30.159449,,,TRUE,TRUE,,,,,,,CLR,,,,,,,,VFR,,,,,,,,,,,,METAR,266.0
KIOB 190155Z AUTO 25003KT 10SM CLR 08/07 A3020 RMK AO2,KIOB,2021-10-19T01:55:00Z,38.05,-83.98,8.0,7.0,250,3,,10.0,30.200787,,,TRUE,TRUE,,,,,,,CLR,,,,,,,,VFR,,,,,,,,,,,,METAR,301.0
KINF 190155Z AUTO 10SM CLR 20/16 A3013 RMK AO2,KINF,2021-10-19T01:55:00Z,28.8,-82.32,20.0,16.0,,,,10.0,30.129921,,,TRUE,TRUE,,,,,,,CLR,,,,,,,,VFR,,,,,,,,,,,,METAR,14.0
KIMS 190155Z AUTO 00000KT 10SM CLR 10/09 A3019 RMK AO2,KIMS,2021-10-19T01:55:00Z,38.75,-85.47,10.0,9.0,0,0,,10.0,30.188976,,,TRUE,TRUE,,,,,,,CLR,,,,,,,,VFR,,,,,,,,,,,,METAR,244.0
KIMM 190155Z AUTO 09005KT 10SM FEW045 21/17 A3008 RMK AO2 PWINO,KIMM,2021-10-19T01:55:00Z,26.43,-81.4,21.0,17.0,90,5,,10.0,30.079725,,,TRUE,TRUE,,,,,TRUE,,FEW,4500,,,,,,,VFR,,,,,,,,,,,,METAR,11.0
KIKW 190155Z AUTO 00000KT 10SM CLR 07/07 A3007 RMK AO2 T00720066,KIKW,2021-10-19T01:55:00Z,43.67,-84.27,7.2,6.6,0,0,,10.0,30.070866,,,TRUE,TRUE,,,,,,,CLR,,,,,,,,VFR,,,,,,,,,,,,SPECI,190.0
KIKV 190155Z AUTO VRB03KT 10SM CLR 14/06 A2998 RMK AO2,KIKV,2021-10-19T01:55:00Z,41.68,-93.57,14.0,6.0,0,3,,10.0,29.97933,,,TRUE,TRUE,,,,,,,CLR,,,,,,,,VFR,,,,,,,,,,,,METAR,270.0
KIKG 190155Z AUTO 07003KT 10SM CLR 19/15 A3004 RMK AO2 T01860150,KIKG,2021-10-19T01:55:00Z,27.55,-98.03,18.6,15.0,70,3,,10.0,30.041338,,,TRUE,TRUE,,,,,,,CLR,,,,,,,,VFR,,,,,,,,,,,,SPECI,37.0
KIJX 190155Z AUTO 00000KT 10SM CLR 16/08 A3008 RMK AO2 T01560084,KIJX,2021-10-19T01:55:00Z,39.77,-90.25,15.6,8.4,0,0,,10.0,30.079725,,,TRUE,TRUE,,,,,,,CLR,,,,,,,,VFR,,,,,,,,,,,,SPECI,187.0
KIIY 190155Z AUTO 00000KT 10SM CLR 12/10 A3018 RMK AO2 T01170096,KIIY,2021-10-19T01:55:00Z,33.78,-82.82,11.7,9.6,0,0,,10.0,30.180119,,,TRUE,TRUE,,,,,,,CLR,,,,,,,,VFR,,,,,,,,,,,,METAR,192.0
KIIB 190155Z AUTO 13007KT 10SM CLR 11/08 A3000 RMK AO2 T01050075,KIIB,2021-10-19T01:55:00Z,42.45,-91.95,10.5,7.5,130,7,,10.0,30.0,,,TRUE,TRUE,,,,,,,CLR,,,,,,,,VFR,,,,,,,,,,,,METAR,294.0
KIGQ 190155Z AUTO 00000KT 10SM CLR 11/08 A3009 RMK AO2 T01130080,KIGQ,2021-10-19T01:55:00Z,41.53,-87.53,11.3,8.0,0,0,,10.0,30.088583,,,TRUE,TRUE,,,,,,,CLR,,,,,,,,VFR,,,,,,,,,,,,METAR,187.0
KIFP 190155Z AUTO 32006G12KT 10SM BKN090 22/M02 A2982 RMK AO2,KIFP,2021-10-19T01:55:00Z,35.15,-114.57,22.0,-2.0,320,6,12,10.0,29.819881,,,TRUE,TRUE,,,,,,,BKN,9000,,,,,,,VFR,,,,,,,,,,,,SPECI,210.0
KIFA 190155Z AUTO 16005KT 10SM CLR 13/06 A2999 RMK AO2 T01310060,KIFA,2021-10-19T01:55:00Z,42.47,-93.27,13.1,6.0,160,5,,10.0,29.991142,,,TRUE,TRUE,,,,,,,CLR,,,,,,,,VFR,,,,,,,,,,,,METAR,344.0
KIER 190155Z AUTO 00000KT 10SM CLR 12/09 A3012 RMK AO2 T01210091,KIER,2021-10-19T01:55:00Z,31.73,-93.1,12.1,9.1,0,0,,10.0,30.121063,,,TRUE,TRUE,,,,,,,CLR,,,,,,,,VFR,,,,,,,,,,,,METAR,35.0
KIDP 190155Z AUTO 17006KT 10SM CLR 13/08 A3001 RMK AO2 T01300078,KIDP,2021-10-19T01:55:00Z,37.17,-95.78,13.0,7.8,170,6,,10.0,30.008858,,,TRUE,TRUE,,,,,,,CLR,,,,,,,,VFR,,,,,,,,,,,,METAR,252.0
KIDI 190155Z AUTO 30004KT 10SM CLR 09/03 A3014 RMK A01,KIDI,2021-10-19T01:55:00Z,40.63,-79.1,9.0,3.0,300,4,,10.0,30.138779,,,TRUE,TRUE,,,,,,,CLR,,,,,,,,VFR,,,,,,,,,,,,METAR,425.0
KICL 190155Z AUTO 19005KT 10SM CLR 14/06 A2998 RMK AO2,KICL,2021-10-19T01:55:00Z,40.72,-95.02,14.0,6.0,190,5,,10.0,29.97933,,,TRUE,TRUE,,,,,,,CLR,,,,,,,,VFR,,,,,,,,,,,,METAR,299.0
KIBM 190155Z AUTO 13003KT 10SM CLR 09/00 A2981 RMK AO2 T00861005,KIBM,2021-10-19T01:55:00Z,41.18,-103.68,8.6,-0.5,130,3,,10.0,29.811024,,,TRUE,TRUE,,,,,,,CLR,,,,,,,,VFR,,,,,,,,,,,,METAR,1494.0
KI75 190155Z AUTO 16005KT 10SM CLR 13/07 A3000 RMK AO2 T01340072,KI75,2021-10-19T01:55:00Z,41.05,-93.68,13.4,7.2,160,5,,10.0,30.0,,,TRUE,TRUE,,,,,,,CLR,,,,,,,,VFR,,,,,,,,,,,,METAR,336.0
KI74 190155Z AUTO 00000KT 10SM CLR 07/05 A3016 RMK AO2,KI74,2021-10-19T01:55:00Z,40.12,-83.75,7.0,5.0,0,0,,10.0,30.159449,,,TRUE,TRUE,,,,,,,CLR,,,,,,,,VFR,,,,,,,,,,,,METAR,322.0
KI69 190155Z AUTO 00000KT 10SM CLR 11/08 A3017 RMK AO2 T01130075,KI69,2021-10-19T01:55:00Z,39.08,-84.22,11.3,7.5,0,0,,10.0,30.171259,,,TRUE,TRUE,,,,,,,CLR,,,,,,,,VFR,,,,,,,,,,,,METAR,238.0
KI68 190155Z AUTO 00000KT 10SM CLR 12/05 A3016 RMK AO1 T01150051,KI68,2021-10-19T01:55:00Z,39.47,-84.25,11.5,5.1,0,0,,10.0,30.159449,,,TRUE,TRUE,,,,,,,CLR,,,,,,,,VFR,,,,,,,,,,,,SPECI,274.0
KI67 190155Z AUTO 00000KT 10SM CLR 10/07 A3016 RMK AO1,KI67,2021-10-19T01:55:00Z,39.25,-84.78,10.0,7.0,0,0,,10.0,30.159449,,,TRUE,TRUE,,,,,,,CLR,,,,,,,,VFR,,,,,,,,,,,,METAR,177.0
KI63 190155Z AUTO 19004KT 10SM CLR 14/08 A3007 RMK AO2 T01410080,KI63,2021-10-19T01:55:00Z,39.98,-90.8,14.1,8.0,190,4,,10.0,30.070866,,,TRUE,TRUE,,,,,,,CLR,,,,,,,,VFR,,,,,,,,,,,,SPECI,221.0
KI35 190155Z AUTO 00000KT 10SM CLR 08/08 A3022 RMK AO2 T00830083,KI35,2021-10-19T01:55:00Z,36.87,-83.37,8.3,8.3,0,0,,10.0,30.221457,,,TRUE,TRUE,,,,,,,CLR,,,,,,,,VFR,,,,,,,,,,,,METAR,467.0
KI23 190155Z AUTO 20004KT 10SM CLR 06/04 A3015 RMK AO1,KI23,2021-10-19T01:55:00Z,39.57,-83.42,6.0,4.0,200,4,,10.0,30.15059,,,TRUE,TRUE,,,,,,,CLR,,,,,,,,VFR,,,,,,,,,,,,METAR,298.0
KI19 190155Z AUTO 00000KT 10SM CLR 10/07 A3017 RMK AO2 T01040065,KI19,2021-10-19T01:55:00Z,39.7,-83.98,10.4,6.5,0,0,,10.0,30.171259,,,TRUE,TRUE,,,,,,,CLR,,,,,,,,VFR,,,,,,,,,,,,METAR,285.0
KI16 190155Z AUTO 10SM CLR 08/06 A3025 RMK AO2 T00760061,KI16,2021-10-19T01:55:00Z,37.6,-81.57,7.6,6.1,,,,10.0,30.250984,,,TRUE,TRUE,,,,,,,CLR,,,,,,,,VFR,,,,,,,,,,,,METAR,528.0
KHZX 190155Z AUTO 14005KT 10SM CLR 15/06 A2988 RMK AO2,KHZX,2021-10-19T01:55:00Z,46.62,-93.32,15.0,6.0,140,5,,10.0,29.878937,,,TRUE,TRUE,,,,,,,CLR,,,,,,,,VFR,,,,,,,,,,,,METAR,374.0
KHZR 190155Z AUTO 00000KT 10SM CLR 13/11 A3013 RMK AO2 T01250112,KHZR,2021-10-19T01:55:00Z,30.72,-91.48,12.5,11.2,0,0,,10.0,30.129921,,,TRUE,TRUE,,,,,,,CLR,,,,,,,,VFR,,,,,,,,,,,,METAR,11.0
KHZL 190155Z AUTO 29005KT 10SM OVC060 07/02 A3004 RMK AO2,KHZL,2021-10-19T01:55:00Z,40.98,-76.0,7.0,2.0,290,5,,10.0,30.041338,,,TRUE,TRUE,,,,,,,OVC,6000,,,,,,,VFR,,,,,,,,,,,,METAR,481.0
KHZE 190155Z AUTO 00000KT 10SM CLR 06/06 A2974 RMK AO2,KHZE,2021-10-19T01:55:00Z,47.28,-101.58,6.0,6.0,0,0,,10.0,29.740158,,,TRUE,TRUE,,,,,,,CLR,,,,,,,,VFR,,,,,,,,,,,,METAR,542.0
KHYX 190155Z AUTO 24006KT 10SM CLR 11/07 A3007 RMK AO2 T01070065,KHYX,2021-10-19T01:55:00Z,43.43,-83.87,10.7,6.5,240,6,,10.0,30.070866,,,TRUE,TRUE,,,,,,,CLR,,,,,,,,VFR,,,,,,,,,,,,METAR,181.0
KHYW 190155Z AUTO 00000KT 10SM CLR 10/08 A3015 RMK AO2,KHYW,2021-10-19T01:55:00Z,33.83,-79.12,10.0,8.0,0,0,,10.0,30.15059,,,TRUE,TRUE,,,,,,,CLR,,,,,,,,VFR,,,,,,,,,,,,METAR,10.0
KHXD 190155Z AUTO 00000KT 10SM CLR 13/11 A3019 RMK AO2 PWINO,KHXD,2021-10-19T01:55:00Z,32.22,-80.7,13.0,11.0,0,0,,10.0,30.188976,,,TRUE,TRUE,,,,,TRUE,,CLR,,,,,,,,VFR,,,,,,,,,,,,METAR,5.0
KHWY 190155Z AUTO 00000KT 10SM CLR 05/04 A3007 RMK AO2 T00530040,KHWY,2021-10-19T01:55:00Z,38.58,-77.72,5.3,4.0,0,0,,10.0,30.070866,,,TRUE,TRUE,,,,,,,CLR,,,,,,,,VFR,,,,,,,,,,,,METAR,93.0
KHVS 190155Z AUTO 00000KT 10SM FEW036 SCT046 12/06 A3015 RMK AO2,KHVS,2021-10-19T01:55:00Z,34.4,-80.12,12.0,6.0,0,0,,10.0,30.15059,,,TRUE,TRUE,,,,,,,FEW,3600,SCT,4600,,,,,VFR,,,,,,,,,,,,METAR,110.0
KHVE 190155Z AUTO 25015G27KT 10SM SCT048 BKN060 OVC100 10/03 A2976 RMK AO2,KHVE,2021-10-19T01:55:00Z,38.42,-110.7,10.0,3.0,250,15,27,10.0,29.760826,,,TRUE,TRUE,,,,,,,SCT,4800,BKN,6000,OVC,10000,,,VFR,,,,,,,,,,,,SPECI,1351.0
KHTO 190155Z AUTO 32009G15KT 10SM CLR 10/03 A2990 RMK AO2 P0001 T00950032,KHTO,2021-10-19T01:55:00Z,40.95,-72.25,9.5,3.2,320,9,15,10.0,29.899607,,,TRUE,TRUE,,,,,,,CLR,,,,,,,,VFR,,,,,,0.01,,,,,,METAR,10.0
KHTH 190155Z AUTO 01011KT 10SM OVC065 10/M04 A2996 RMK A01,KHTH,2021-10-19T01:55:00Z,,,10.0,-4.0,10,11,,10.0,29.958662,,,TRUE,TRUE,,,,,,,OVC,6500,,,,,,,VFR,,,,,,,,,,,,SPECI,
KHSP 190155Z AUTO 28019G26KT 10SM CLR 09/03 A3014 RMK AO2 T00910028,KHSP,2021-10-19T01:55:00Z,37.95,-79.82,9.1,2.8,280,19,26,10.0,30.138779,,,TRUE,TRUE,,,,,,,CLR,,,,,,,,VFR,,,,,,,,,,,,METAR,1148.0
KHSG 190155Z AUTO 00000KT 10SM CLR 12/00 A2981 RMK AO2 T01191005,KHSG,2021-10-19T01:55:00Z,43.72,-108.38,11.9,-0.5,0,0,,10.0,29.811024,,,TRUE,TRUE,,,,,,,CLR,,,,,,,,VFR,,,,,,,,,,,,SPECI,1497.0
KHSD 190155Z AUTO 16008KT 10SM CLR 18/06 A2997 RMK A01,KHSD,2021-10-19T01:55:00Z,35.6,-97.72,18.0,6.0,160,8,,10.0,29.970472,,,TRUE,TRUE,,,,,,,CLR,,,,,,,,VFR,,,,,,,,,,,,METAR,358.0
KHSB 190155Z AUTO 00000KT 10SM CLR 10/07 A3016 RMK AO2 T00970070,KHSB,2021-10-19T01:55:00Z,37.82,-88.55,9.7,7.0,0,0,,10.0,30.159449,,,TRUE,TRUE,,,,,,,CLR,,,,,,,,VFR,,,,,,,,,,,,METAR,118.0
KHRX 190155Z AUTO 18012KT 10SM CLR 19/06 A2992 RMK AO2 T01920057,KHRX,2021-10-19T01:55:00Z,34.87,-102.33,19.2,5.7,180,12,,10.0,29.920275,,,TRUE,TRUE,,,,,,,CLR,,,,,,,,VFR,,,,,,,,,,,,SPECI,1153.0
KHRJ 190155Z AUTO 00000KT 10SM CLR 12/08 A3012 RMK AO2 T01160078,KHRJ,2021-10-19T01:55:00Z,35.38,-78.73,11.6,7.8,0,0,,10.0,30.121063,,,TRUE,TRUE,,,,,,,CLR,,,,,,,,VFR,,,,,,,,,,,,METAR,55.0
KHRF 190155Z AUTO 36007KT 10SM FEW080 BKN095 BKN120 13/M01 A2983 RMK AO2 Hamilton ,KHRF,2021-10-19T01:55:00Z,,,13.0,-1.0,360,7,,10.0,29.828741,,,TRUE,TRUE,,,,,,,FEW,8000,BKN,9500,BKN,12000,,,VFR,,,,,,,,,,,,METAR,
KHQZ 190155Z AUTO 15003KT 10SM CLR 15/08 A3006 RMK AO1 T01500077,KHQZ,2021-10-19T01:55:00Z,32.75,-96.53,15.0,7.7,150,3,,10.0,30.059055,,,TRUE,TRUE,,,,,,,CLR,,,,,,,,VFR,,,,,,,,,,,,SPECI,136.0
KHQU 190155Z AUTO 00000KT 10SM CLR 11/11 A3018 RMK AO2 T01090106,KHQU,2021-10-19T01:55:00Z,33.53,-82.52,10.9,10.6,0,0,,10.0,30.180119,,,TRUE,TRUE,,,,,,,CLR,,,,,,,,VFR,,,,,,,,,,,,METAR,141.0
KHQG 190155Z AUTO 17017G22KT 10SM CLR 18/05 A2984 RMK AO2 T01760050,KHQG,2021-10-19T01:55:00Z,37.17,-101.37,17.6,5.0,170,17,22,10.0,29.840551,,,TRUE,TRUE,,,,,,,CLR,,,,,,,,VFR,,,,,,,,,,,,METAR,956.0
KHQG 190155Z AUTO 17017G22KT 10SM CLR 18/05 A2984 RMK AO2 T01760050,KHQG,2021-10-19T01:55:00Z,37.17,-101.37,17.6,5.0,170,17,22,10.0,29.840551,,,TRUE,TRUE,,,,,,,CLR,,,,,,,,VFR,,,,,,,,,,,,METAR,956.0
KHPT 190155Z AUTO 18006KT 10SM CLR 11/05 A2997 RMK AO2,KHPT,2021-10-19T01:55:00Z,42.72,-93.23,11.0,5.0,180,6,,10.0,29.970472,,,TRUE,TRUE,,,,,,,CLR,,,,,,,,VFR,,,,,,,,,,,,SPECI,354.0
KHON 190155Z AUTO 15008KT 10SM CLR 15/04 A2977 RMK AO2 SLP083 T01500039,KHON,2021-10-19T01:55:00Z,44.38,-98.23,15.0,3.9,150,8,,10.0,29.769686,1008.3,,TRUE,TRUE,,,,,,,CLR,,,,,,,,VFR,,,,,,,,,,,,SPECI,391.0
KHOE 190155Z AUTO 00000KT 10SM CLR 12/12 A3018 RMK AO2 T01300120,KHOE,2021-10-19T01:55:00Z,31.05,-82.78,13.0,12.0,0,0,,10.0,30.180119,,,TRUE,TRUE,,,,,,,CLR,,,,,,,,VFR,,,,,,,,,,,,METAR,56.0
KHNZ 190155Z AUTO 24003KT 10SM CLR 09/05 A3011 RMK AO2 T00860051,KHNZ,2021-10-19T01:55:00Z,36.37,-78.53,8.6,5.1,240,3,,10.0,30.109253,,,TRUE,TRUE,,,,,,,CLR,,,,,,,,VFR,,,,,,,,,,,,SPECI,158.0
KHNR 190155Z AUTO 17010KT 10SM CLR 16/06 A2994 RMK A01,KHNR,2021-10-19T01:55:00Z,41.58,-95.33,16.0,6.0,170,10,,10.0,29.940945,,,TRUE,TRUE,,,,,,,CLR,,,,,,,,VFR,,,,,,,,,,,,METAR,364.0
KHMT 190155Z AUTO 20004KT 10SM CLR 13/09 A2995 RMK AO2 T01290086,KHMT,2021-10-19T01:55:00Z,33.73,-117.02,12.9,8.6,200,4,,10.0,29.949802,,,TRUE,TRUE,,,,,,,CLR,,,,,,,,VFR,,,,,,,,,,,,METAR,462.0
KHMP 190155Z AUTO 00000KT 10SM CLR 09/09 A3022 RMK AO2 T00910090,KHMP,2021-10-19T01:55:00Z,33.38,-84.33,9.1,9.0,0,0,,10.0,30.221457,,,TRUE,TRUE,,,,,,,CLR,,,,,,,,VFR,,,,,,,,,,,,METAR,263.0
KHLX 190155Z AUTO 00000KT 10SM CLR 11/02 A3018 RMK AO2 T01130023,KHLX,2021-10-19T01:55:00Z,36.77,-80.82,11.3,2.3,0,0,,10.0,30.180119,,,TRUE,TRUE,,,,,,,CLR,,,,,,,,VFR,,,,,,,,,,,,METAR,819.0
KHLB 190155Z AUTO 00000KT 10SM CLR 09/09 A3016 RMK A01,KHLB,2021-10-19T01:55:00Z,,,9.0,9.0,0,0,,10.0,30.159449,,,TRUE,TRUE,,,,,,,CLR,,,,,,,,VFR,,,,,,,,,,,,SPECI,
KHJH 190155Z AUTO 16009KT 10SM CLR 17/04 A2989 RMK AO2 T01670041,KHJH,2021-10-19T01:55:00Z,40.15,-97.58,16.7,4.1,160,9,,10.0,29.890747,,,TRUE,TRUE,,,,,,,CLR,,,,,,,,VFR,,,,,,,,,,,,METAR,449.0
KHII 190155Z AUTO 34015G24KT 10SM BKN090 22/01 A2981 RMK AO2,KHII,2021-10-19T01:55:00Z,34.57,-114.37,22.0,1.0,340,15,24,10.0,29.811024,,,TRUE,TRUE,,,,,,,BKN,9000,,,,,,,VFR,,,,,,,,,,,,SPECI,241.0
KHFJ 190155Z AUTO 16006KT 10SM CLR 13/07 A3007 RMK AO2,KHFJ,2021-10-19T01:55:00Z,36.9,-94.02,13.0,7.0,160,6,,10.0,30.070866,,,TRUE,TRUE,,,,,,,CLR,,,,,,,,VFR,,,,,,,,,,,,METAR,398.0
KHEQ 190155Z AUTO 06007KT 10SM CLR 10/02 A2977 RMK AO2,KHEQ,2021-10-19T01:55:00Z,40.57,-102.28,10.0,2.0,60,7,,10.0,29.769686,,,TRUE,TRUE,,,,,,,CLR,,,,,,,,VFR,,,,,,,,,,,,METAR,1136.0
KHEG 190155Z AUTO 02005KT 10SM CLR 18/13 A3018 RMK AO2,KHEG,2021-10-19T01:55:00Z,30.28,-81.8,18.0,13.0,20,5,,10.0,30.180119,,,TRUE,TRUE,,,,,,,CLR,,,,,,,,VFR,,,,,,,,,,,,METAR,25.0
KHDE 190155Z AUTO 15011KT 10SM CLR 16/06 A2981 RMK AO2 T01550057,KHDE,2021-10-19T01:55:00Z,40.45,-99.33,15.5,5.7,150,11,,10.0,29.811024,,,TRUE,TRUE,,,,,,,CLR,,,,,,,,VFR,,,,,,,,,,,,METAR,703.0
KHCR 190155Z AUTO 00000KT 7SM UP BKN010 BKN019 OVC029 01/00 A2985 RMK AO2,KHCR,2021-10-19T01:55:00Z,40.48,-111.43,1.0,0.0,0,0,,7.0,29.84941,,,TRUE,TRUE,,,,,,UP,BKN,1000,BKN,1900,OVC,2900,,,MVFR,,,,,,,,,,,,METAR,1708.0
KHCO 190155Z AUTO 17012KT 10SM CLR 16/09 A2966 RMK AO2,KHCO,2021-10-19T01:55:00Z,48.75,-96.93,16.0,9.0,170,12,,10.0,29.660433,,,TRUE,TRUE,,,,,,,CLR,,,,,,,,VFR,,,,,,,,,,,,METAR,250.0
KHCD 190155Z AUTO 14003KT 10SM CLR 15/06 A2990 RMK AO2 T01530061,KHCD,2021-10-19T01:55:00Z,44.87,-94.38,15.3,6.1,140,3,,10.0,29.899607,,,TRUE,TRUE,,,,,,,CLR,,,,,,,,VFR,,,,,,,,,,,,METAR,320.0
KHBV 190155Z AUTO 12008KT 10SM CLR 21/14 A3004 RMK AO2 T02120141,KHBV,2021-10-19T01:55:00Z,27.35,-98.73,21.2,14.1,120,8,,10.0,30.041338,,,TRUE,TRUE,,,,,,,CLR,,,,,,,,VFR,,,,,,,,,,,,METAR,200.0
KHBI 190155Z AUTO 00000KT 10SM CLR 10/07 A3017 RMK AO2 T00990065,KHBI,2021-10-19T01:55:00Z,35.65,-79.9,9.9,6.5,0,0,,10.0,30.171259,,,TRUE,TRUE,,,,,,,CLR,,,,,,,,VFR,,,,,,,,,,,,METAR,199.0
KHAI 190155Z AUTO 00000KT 10SM CLR 09/08 A3012 RMK AO2 T00910078,KHAI,2021-10-19T01:55:00Z,41.97,-85.6,9.1,7.8,0,0,,10.0,30.121063,,,TRUE,TRUE,,,,,,,CLR,,,,,,,,VFR,,,,,,,,,,,,METAR,250.0
KHAF 190155Z AUTO 31004KT 6SM HZ FEW014 FEW029 11/08 A3004 RMK AO2,KHAF,2021-10-19T01:55:00Z,37.52,-122.5,11.0,8.0,310,4,,6.0,30.041338,,,TRUE,TRUE,,,,,,HZ,FEW,1400,FEW,2900,,,,,VFR,,,,,,,,,,,,METAR,11.0
KHAE 190155Z AUTO 15003KT 7SM CLR 16/06 A3007 RMK AO2,KHAE,2021-10-19T01:55:00Z,39.73,-91.45,16.0,6.0,150,3,,7.0,30.070866,,,TRUE,TRUE,,,,,,,CLR,,,,,,,,VFR,,,,,,,,,,,,METAR,230.0
KH71 190155Z AUTO 14005KT 10SM CLR 15/08 A3002 RMK AO2,KH71,2021-10-19T01:55:00Z,36.22,-95.33,15.0,8.0,140,5,,10.0,30.02067,,,TRUE,TRUE,,,,,,,CLR,,,,,,,,VFR,,,,,,,,,,,,METAR,190.0
KGZS 190155Z AUTO 00000KT 8SM CLR 09/08 A3017 RMK A01,KGZS,2021-10-19T01:55:00Z,35.15,-87.05,9.0,8.0,0,0,,8.0,30.171259,,,TRUE,TRUE,,,,,,,CLR,,,,,,,,VFR,,,,,,,,,,,,METAR,198.0
KGYL 190155Z AUTO 14005KT 4SM HZ CLR 17/05 A2989 RMK AO2 T01650052,KGYL,2021-10-19T01:55:00Z,44.77,-94.08,16.5,5.2,140,5,,4.0,29.890747,,,TRUE,TRUE,,,,,,HZ,CLR,,,,,,,,MVFR,,,,,,,,,,,,METAR,304.0
KGYI 190155Z AUTO 13007KT 10SM CLR 18/07 A3005 RMK AO2 T01750065,KGYI,2021-10-19T01:55:00Z,33.72,-96.67,17.5,6.5,130,7,,10.0,30.050198,,,TRUE,TRUE,,,,,,,CLR,,,,,,,,VFR,,,,,,,,,,,,METAR,227.0
KGYH 190155Z AUTO 25004KT 10SM CLR 15/07 A3017 RMK A02 T01490074,KGYH,2021-10-19T01:55:00Z,34.75,-82.38,14.9,7.4,250,4,,10.0,30.171259,,,TRUE,TRUE,,,,,,,CLR,,,,,,,,VFR,,,,,,,,,,,,SPECI,283.0
KGYF 190155Z AUTO 08011G18KT 040V110 10SM BKN037 OVC043 A3003 RMK AO2,KGYF,2021-10-19T01:55:00Z,26.13,-94.9,,,80,11,18,10.0,30.029528,,,TRUE,TRUE,,,,,,,BKN,3700,OVC,4300,,,,,VFR,,,,,,,,,,,,METAR,65.0
KGYB 190155Z AUTO 00000KT 10SM CLR 18/12 A3007 RMK AO2 T01750119,KGYB,2021-10-19T01:55:00Z,30.17,-96.98,17.5,11.9,0,0,,10.0,30.070866,,,TRUE,TRUE,,,,,,,CLR,,,,,,,,VFR,,,,,,,,,,,,METAR,140.0
KGWW 190155Z AUTO 00000KT 10SM CLR 10/07 A3012 RMK AO2 T00960069,KGWW,2021-10-19T01:55:00Z,35.47,-77.97,9.6,6.9,0,0,,10.0,30.121063,,,TRUE,TRUE,,,,,,,CLR,,,,,,,,VFR,,,,,,,,,,,,METAR,40.0
KGWB 190155Z AUTO 00000KT 10SM CLR 08/07 A3013 RMK AO2,KGWB,2021-10-19T01:55:00Z,41.3,-85.07,8.0,7.0,0,0,,10.0,30.129921,,,TRUE,TRUE,,,,,,,CLR,,,,,,,,VFR,,,,,,,,,,,,METAR,268.0
KGVT 190155Z AUTO 14005KT 7SM CLR 14/07 A3006 RMK AO2 TSNO T01410074,KGVT,2021-10-19T01:55:00Z,33.07,-96.07,14.1,7.4,140,5,,7.0,30.059055,,,TRUE,TRUE,,,TRUE,,,,CLR,,,,,,,,VFR,,,,,,,,,,,,SPECI,165.0
KGVE 190155Z AUTO 00000KT 10SM CLR 08/06 A3008 RMK AO1 T00820056,KGVE,2021-10-19T01:55:00Z,38.15,-78.17,8.2,5.6,0,0,,10.0,30.079725,,,TRUE,TRUE,,,,,,,CLR,,,,,,,,VFR,,,,,,,,,,,,METAR,138.0
KGUL 190155Z AUTO 07003KT 10SM CLR 24/15 A3005 RMK A01,KGUL,2021-10-19T01:55:00Z,27.3,-93.53,24.0,15.0,70,3,,10.0,30.050198,,,TRUE,TRUE,,,,,,,CLR,,,,,,,,VFR,,,,,,,,,,,,SPECI,20.0
KGRN 190155Z AUTO 11003KT 10SM CLR 13/03 A2978 RMK AO2 T01260030,KGRN,2021-10-19T01:55:00Z,42.8,-102.17,12.6,3.0,110,3,,10.0,29.778543,,,TRUE,TRUE,,,,,,,CLR,,,,,,,,VFR,,,,,,,,,,,,METAR,1080.0
KGPI 190155Z 35008KT 10SM CLR 13/M01 A2986 RMK AO2 SLP124 T01331011,KGPI,2021-10-19T01:55:00Z,48.32,-114.25,13.3,-1.1,350,8,,10.0,29.861221,1012.4,,,TRUE,,,,,,,CLR,,,,,,,,VFR,,,,,,,,,,,,SPECI,903.0
KGPC 190155Z AUTO 19004KT 10SM CLR 10/08 A3015 RMK AO2 T01040084,KGPC,2021-10-19T01:55:00Z,39.63,-86.82,10.4,8.4,190,4,,10.0,30.15059,,,TRUE,TRUE,,,,,,,CLR,,,,,,,,VFR,,,,,,,,,,,,SPECI,254.0
KGOP 190155Z AUTO 00000KT 10SM CLR 17/09 A3005 RMK AO2,KGOP,2021-10-19T01:55:00Z,31.42,-97.8,17.0,9.0,0,0,,10.0,30.050198,,,TRUE,TRUE,,,,,,,CLR,,,,,,,,VFR,,,,,,,,,,,,SPECI,272.0
KGOO 190155Z AUTO 00000KT 10SM CLR 06/05 A3001 RMK A01,KGOO,2021-10-19T01:55:00Z,39.22,-121.0,6.0,5.0,0,0,,10.0,30.008858,,,TRUE,TRUE,,,,,,,CLR,,,,,,,,VFR,,,,,,,,,,,,SPECI,950.0
KGNT 190155Z AUTO 18006G15KT 10SM CLR 15/M05 A2998 RMK AO2 T01481051,KGNT,2021-10-19T01:55:00Z,35.17,-107.9,14.8,-5.1,180,6,15,10.0,29.97933,,,TRUE,TRUE,,,,,,,CLR,,,,,,,,VFR,,,,,,,,,,,,METAR,1988.0
KGNG 190155Z AUTO 27006KT 10SM FEW041 BKN050 BKN055 11/01 A2980 RMK AO2,KGNG,2021-10-19T01:55:00Z,,,11.0,1.0,270,6,,10.0,29.799213,,,TRUE,TRUE,,,,,,,FEW,4100,BKN,5000,BKN,5500,,,VFR,,,,,,,,,,,,SPECI,
KGNC 190155Z AUTO 15008KT 10SM CLR 19/07 A3000 RMK AO2 T01920073,KGNC,2021-10-19T01:55:00Z,32.68,-102.65,19.2,7.3,150,8,,10.0,30.0,,,TRUE,TRUE,,,,,,,CLR,,,,,,,,VFR,,,,,,,,,,,,METAR,1002.0
KGNB 190155Z AUTO 15004KT 10SM CLR 10/M05 A2990 RMK AO2 T00991048,KGNB,2021-10-19T01:55:00Z,40.08,-105.92,9.9,-4.8,150,4,,10.0,29.899607,,,TRUE,TRUE,,,,,,,CLR,,,,,,,,VFR,,,,,,,,,,,,METAR,2500.0
KGMJ 190155Z AUTO 00000KT CLR 13/08 A3006 RMK AO2 PWINO,KGMJ,2021-10-19T01:55:00Z,36.6,-94.73,13.0,8.0,0,0,,,30.059055,,,TRUE,TRUE,,,,,TRUE,,CLR,,,,,,,,,,,,,,,,,,,,METAR,251.0
KGLY 190155Z AUTO 15005KT 10SM CLR 14/08 A3004 RMK AO2,KGLY,2021-10-19T01:55:00Z,38.35,-93.68,14.0,8.0,150,5,,10.0,30.041338,,,TRUE,TRUE,,,,,,,CLR,,,,,,,,VFR,,,,,,,,,,,,METAR,247.0
KGLW 190155Z AUTO 00000KT 10SM CLR 10/09 A3018 RMK AO2 T00990090,KGLW,2021-10-19T01:55:00Z,37.03,-85.95,9.9,9.0,0,0,,10.0,30.180119,,,TRUE,TRUE,,,,,,,CLR,,,,,,,,VFR,,,,,,,,,,,,METAR,216.0
KGLE 190155Z AUTO 14006KT 10SM CLR 15/08 A3004 RMK AO2 T01470076,KGLE,2021-10-19T01:55:00Z,33.65,-97.2,14.7,7.6,140,6,,10.0,30.041338,,,TRUE,TRUE,,,,,,,CLR,,,,,,,,VFR,,,,,,,,,,,,SPECI,250.0
KGKT 190155Z AUTO 00000KT 10SM CLR 10/09 A3019 RMK A01,KGKT,2021-10-19T01:55:00Z,35.85,-83.53,10.0,9.0,0,0,,10.0,30.188976,,,TRUE,TRUE,,,,,,,CLR,,,,,,,,VFR,,,,,,,,,,,,METAR,305.0
KGIC 190155Z AUTO 08003KT 10SM BKN110 08/02 A2989 RMK AO1,KGIC,2021-10-19T01:55:00Z,45.95,-116.12,8.0,2.0,80,3,,10.0,29.890747,,,TRUE,TRUE,,,,,,,BKN,11000,,,,,,,VFR,,,,,,,,,,,,SPECI,1002.0
KGHW 190155Z AUTO 00000KT 10SM CLR A2985 RMK AO2,KGHW,2021-10-19T01:55:00Z,45.63,-95.32,,,0,0,,10.0,29.84941,,,TRUE,TRUE,,,,,,,CLR,,,,,,,,VFR,,,,,,,,,,,,METAR,423.0
KGHG 190155Z AUTO 30007G19KT 250V340 10SM SCT060 10/03 A2981 RMK AO2,KGHG,2021-10-19T01:55:00Z,42.1,-70.67,10.0,3.0,300,7,19,10.0,29.811024,,,TRUE,TRUE,,,,,,,SCT,6000,,,,,,,VFR,,,,,,,,,,,,SPECI,3.0
KGHB 190155Z AUTO 08014KT 10SM FEW027 FEW032 SCT040 24/19 RMK A01,KGHB,2021-10-19T01:55:00Z,27.83,-91.98,24.0,19.0,80,14,,10.0,,,,TRUE,TRUE,,,,,,,FEW,2700,FEW,3200,SCT,4000,,,VFR,,,,,,,,,,,,METAR,30.0
KGGP 190155Z AUTO 36006KT 10SM CLR 10/07 A3013 RMK AO2,KGGP,2021-10-19T01:55:00Z,40.72,-86.37,10.0,7.0,360,6,,10.0,30.129921,,,TRUE,TRUE,,,,,,,CLR,,,,,,,,VFR,,,,,,,,,,,,METAR,224.0
KGGI 190155Z AUTO 17007KT 10SM CLR 15/08 A3001 RMK AO2 T01470076,KGGI,2021-10-19T01:55:00Z,41.72,-92.73,14.7,7.6,170,7,,10.0,30.008858,,,TRUE,TRUE,,,,,,,CLR,,,,,,,,VFR,,,,,,,,,,,,METAR,305.0
KGEV 190155Z AUTO 28007G18KT 10SM CLR 12/00 A3020 RMK AO2 T01170001,KGEV,2021-10-19T01:55:00Z,36.43,-81.42,11.7,0.1,280,7,18,10.0,30.200787,,,TRUE,TRUE,,,,,,,CLR,,,,,,,,VFR,,,,,,,,,,,,METAR,961.0
KGDJ 190155Z AUTO 13008KT 10SM CLR 19/09 A3003 RMK AO2 T01850090,KGDJ,2021-10-19T01:55:00Z,32.45,-97.82,18.5,9.0,130,8,,10.0,30.029528,,,TRUE,TRUE,,,,,,,CLR,,,,,,,,VFR,,,,,,,,,,,,SPECI,235.0
KGDB 190155Z AUTO 14008KT 10SM CLR 16/04 A2986 RMK AO2 T01590043,KGDB,2021-10-19T01:55:00Z,44.75,-95.55,15.9,4.3,140,8,,10.0,29.861221,,,TRUE,TRUE,,,,,,,CLR,,,,,,,,VFR,,,,,,,,,,,,METAR,316.0
KGCY 190155Z AUTO 00000KT 10SM CLR 12/07 A3020 RMK A01,KGCY,2021-10-19T01:55:00Z,36.2,-82.82,12.0,7.0,0,0,,10.0,30.200787,,,TRUE,TRUE,,,,,,,CLR,,,,,,,,VFR,,,,,,,,,,,,METAR,488.0
KGCM 190155Z AUTO 00000KT 10SM CLR 13/06 A3005 RMK AO2,KGCM,2021-10-19T01:55:00Z,36.3,-95.48,13.0,6.0,0,0,,10.0,30.050198,,,TRUE,TRUE,,,,,,,CLR,,,,,,,,VFR,,,,,,,,,,,,METAR,215.0
KGCD 190155Z AUTO 30006KT 10SM CLR 11/03 A2990 RMK AO2 T01100025,KGCD,2021-10-19T01:55:00Z,44.4,-118.97,11.0,2.5,300,6,,10.0,29.899607,,,TRUE,TRUE,,,,,,,CLR,,,,,,,,VFR,,,,,,,,,,,,METAR,1122.0
KGBG 190155Z AUTO 15003KT 10SM CLR 12/07 A3006 RMK AO2 T01210069,KGBG,2021-10-19T01:55:00Z,40.93,-90.43,12.1,6.9,150,3,,10.0,30.059055,,,TRUE,TRUE,,,,,,,CLR,,,,,,,,VFR,,,,,,,,,,,,METAR,230.0
KGAF 190155Z AUTO 17008KT 10SM CLR 14/08 A2967 RMK AO2,KGAF,2021-10-19T01:55:00Z,48.4,-97.37,14.0,8.0,170,8,,10.0,29.66929,,,TRUE,TRUE,,,,,,,CLR,,,,,,,,VFR,,,,,,,,,,,,METAR,250.0
KFZG 190155Z AUTO 00000KT 10SM CLR 11/11 A3020 RMK AO2 T01120105,KFZG,2021-10-19T01:55:00Z,31.68,-83.27,11.2,10.5,0,0,,10.0,30.200787,,,TRUE,TRUE,,,,,,,CLR,,,,,,,,VFR,,,,,,,,,,,,METAR,105.0
KFYJ 190155Z AUTO 00000KT 10SM 08/06 A3006 RMK AO1 T00840063,KFYJ,2021-10-19T01:55:00Z,37.52,-76.77,8.4,6.3,0,0,,10.0,30.059055,,,TRUE,TRUE,,,,,,,,,,,,,,,,,,,,,,,,,,,METAR,3.0
KFYG 190155Z AUTO 00000KT 10SM CLR 12/10 A3008 RMK AO2,KFYG,2021-10-19T01:55:00Z,38.58,-91.0,12.0,10.0,0,0,,10.0,30.079725,,,TRUE,TRUE,,,,,,,CLR,,,,,,,,VFR,,,,,,,,,,,,METAR,147.0
KFYE 190155Z AUTO 00000KT 10SM CLR 11/09 A3014 RMK A01,KFYE,2021-10-19T01:55:00Z,35.2,-89.38,11.0,9.0,0,0,,10.0,30.138779,,,TRUE,TRUE,,,,,,,CLR,,,,,,,,VFR,,,,,,,,,,,,METAR,133.0
KFXY 190155Z AUTO 16006KT 10SM CLR 12/05 A2996 RMK AO2,KFXY,2021-10-19T01:55:00Z,43.23,-93.62,12.0,5.0,160,6,,10.0,29.958662,,,TRUE,TRUE,,,,,,,CLR,,,,,,,,VFR,,,,,,,,,,,,METAR,366.0
KFWS 190155Z AUTO 14005KT 10SM CLR 15/08 A3005 RMK AO2 T01570090,KFWS,2021-10-19T01:55:00Z,32.57,-97.3,15.7,9.0,140,5,,10.0,30.050198,,,TRUE,TRUE,,,,,,,CLR,,,,,,,,VFR,,,,,,,,,,,,METAR,211.0
KFWC 190155Z AUTO 00000KT 09/08 A3014 RMK AO1 T00900075 PWINO,KFWC,2021-10-19T01:55:00Z,38.38,-88.42,9.0,7.5,0,0,,,30.138779,,,TRUE,TRUE,,,,,TRUE,,,,,,,,,,,,,,,,,,,,,,METAR,131.0
KFWB 190155Z AUTO 16004KT 10SM CLR 15/08 A3009 RMK AO2,KFWB,2021-10-19T01:55:00Z,36.7,-93.4,15.0,8.0,160,4,,10.0,30.088583,,,TRUE,TRUE,,,,,,,CLR,,,,,,,,VFR,,,,,,,,,,,,METAR,392.0
KFVX 190155Z AUTO 00000KT 10SM CLR 10/04 A3009 RMK AO2 T01010037,KFVX,2021-10-19T01:55:00Z,37.35,-78.43,10.1,3.7,0,0,,10.0,30.088583,,,TRUE,TRUE,,,,,,,CLR,,,,,,,,VFR,,,,,,,,,,,,METAR,129.0
KFSW 190155Z AUTO 18004KT 10SM 16/09 A3005 RMK AO2,KFSW,2021-10-19T01:55:00Z,40.67,-91.32,16.0,9.0,180,4,,10.0,30.050198,,,TRUE,TRUE,,,,,,,,,,,,,,,,,,,,,,,,,,,METAR,219.0
KFSE 190155Z AUTO 16010KT 10SM CLR 17/04 A2977 RMK AO2,KFSE,2021-10-19T01:55:00Z,47.58,-95.77,17.0,4.0,160,10,,10.0,29.769686,,,TRUE,TRUE,,,,,,,CLR,,,,,,,,VFR,,,,,,,,,,,,SPECI,389.0
KFRR 190155Z AUTO 10SM CLR 12/02 A3008 RMK AO1,KFRR,2021-10-19T01:55:00Z,38.92,-78.25,12.0,2.0,,,,10.0,30.079725,,,TRUE,TRUE,,,,,,,CLR,,,,,,,,VFR,,,,,,,,,,,,METAR,213.0
KFRH 190155Z AUTO 00000KT 10SM CLR 12/07 A3016 RMK AO1,KFRH,2021-10-19T01:55:00Z,38.5,-86.63,12.0,7.0,0,0,,10.0,30.159449,,,TRUE,TRUE,,,,,,,CLR,,,,,,,,VFR,,,,,,,,,,,,METAR,241.0
KFQD 190155Z AUTO 00000KT 10SM CLR 12/08 A3018 RMK AO2,KFQD,2021-10-19T01:55:00Z,35.42,-81.93,12.0,8.0,0,0,,10.0,30.180119,,,TRUE,TRUE,,,,,,,CLR,,,,,,,,VFR,,,,,,,,,,,,METAR,325.0
KFPY 190155Z AUTO 03005KT 10SM CLR 18/14 A3015 RMK AO2 T01770135,KFPY,2021-10-19T01:55:00Z,30.07,-83.57,17.7,13.5,30,5,,10.0,30.15059,,,TRUE,TRUE,,,,,,,CLR,,,,,,,,VFR,,,,,,,,,,,,METAR,12.0
KFPK 190155Z AUTO 00000KT 10SM CLR 08/06 A3010 RMK AO2 T00810061,KFPK,2021-10-19T01:55:00Z,42.57,-84.82,8.1,6.1,0,0,,10.0,30.100393,,,TRUE,TRUE,,,,,,,CLR,,,,,,,,VFR,,,,,,,,,,,,METAR,269.0
KFOT 190155Z AUTO 30005KT 10SM CLR 09/09 A3001 RMK AO1,KFOT,2021-10-19T01:55:00Z,40.55,-124.13,9.0,9.0,300,5,,10.0,30.008858,,,TRUE,TRUE,,,,,,,CLR,,,,,,,,VFR,,,,,,,,,,,,SPECI,118.0
KFOA 190155Z AUTO 00000KT 10SM 10/08 A3014 RMK AO2,KFOA,2021-10-19T01:55:00Z,38.67,-88.45,10.0,8.0,0,0,,10.0,30.138779,,,TRUE,TRUE,,,,,,,,,,,,,,,,,,,,,,,,,,,METAR,141.0
KFMH 190155Z 32007KT 10SM CLR 10/03 A2981,KFMH,2021-10-19T01:55:00Z,41.65,-70.52,10.0,3.0,320,7,,10.0,29.811024,,,,,,,,,,,CLR,,,,,,,,VFR,,,,,,,,,,,,METAR,35.0
KFME 190155Z AUTO 00000KT 10SM CLR 07/06 A3008 RMK AO1,KFME,2021-10-19T01:55:00Z,39.08,-76.77,7.0,6.0,0,0,,10.0,30.079725,,,TRUE,TRUE,,,,,,,CLR,,,,,,,,VFR,,,,,,,,,,,,SPECI,43.0
KFLY 190155Z AUTO 16003KT 10SM CLR 12/M05 A2988 RMK AO2 T01161049,KFLY,2021-10-19T01:55:00Z,38.95,-104.57,11.6,-4.9,160,3,,10.0,29.878937,,,TRUE,TRUE,,,,,,,CLR,,,,,,,,VFR,,,,,,,,,,,,SPECI,2096.0
KFKS 190155Z AUTO 00000KT 10SM CLR 07/06 A3006 RMK AO2 T00710061,KFKS,2021-10-19T01:55:00Z,44.63,-86.2,7.1,6.1,0,0,,10.0,30.059055,,,TRUE,TRUE,,,,,,,CLR,,,,,,,,VFR,,,,,,,,,,,,METAR,189.0
KFKR 190155Z AUTO 16005KT 10SM FEW040 BKN050 11/07 A3013 RMK AO2,KFKR,2021-10-19T01:55:00Z,40.27,-86.57,11.0,7.0,160,5,,10.0,30.129921,,,TRUE,TRUE,,,,,,,FEW,4000,BKN,5000,,,,,VFR,,,,,,,,,,,,SPECI,260.0
KFKN 190155Z AUTO 00000KT 10SM CLR 10/07 A3007 RMK AO2 T00950066,KFKN,2021-10-19T01:55:00Z,36.7,-76.9,9.5,6.6,0,0,,10.0,30.070866,,,TRUE,TRUE,,,,,,,CLR,,,,,,,,VFR,,,,,,,,,,,,METAR,9.0
KFKA 190155Z AUTO 16005KT 10SM CLR 14/05 A2999 RMK AO2 T01380045,KFKA,2021-10-19T01:55:00Z,43.68,-92.17,13.8,4.5,160,5,,10.0,29.991142,,,TRUE,TRUE,,,,,,,CLR,,,,,,,,VFR,,,,,,,,,,,,METAR,388.0
KFIN 190155Z AUTO 00000KT CLR 19/15 A3013 RMK AO2 T01890152 PWINO TSNO,KFIN,2021-10-19T01:55:00Z,29.47,-81.2,18.9,15.2,0,0,,,30.129921,,,TRUE,TRUE,,,TRUE,,TRUE,,CLR,,,,,,,,,,,,,,,,,,,,METAR,10.0
KFHB 190155Z AUTO 02004KT 10SM CLR 19/11 A3017 RMK AO2 T01860112,KFHB,2021-10-19T01:55:00Z,30.62,-81.47,18.6,11.2,20,4,,10.0,30.171259,,,TRUE,TRUE,,,,,,,CLR,,,,,,,,VFR,,,,,,,,,,,,METAR,4.0
KFGX 190155Z AUTO 00000KT 10SM CLR 12/05 A3019 RMK AO2 T01210047,KFGX,2021-10-19T01:55:00Z,38.55,-83.75,12.1,4.7,0,0,,10.0,30.188976,,,TRUE,TRUE,,,,,,,CLR,,,,,,,,VFR,,,,,,,,,,,,METAR,279.0
KFGN 190155Z AUTO 17008KT 10SM CLR 14/10 A2972 RMK AO2,KFGN,2021-10-19T01:55:00Z,49.32,-94.9,14.0,10.0,170,8,,10.0,29.719488,,,TRUE,TRUE,,,,,,,CLR,,,,,,,,VFR,,,,,,,,,,,,METAR,327.0
KFFX 190155Z AUTO 00000KT 10SM CLR 09/07 A3008 RMK AO2 T00880066,KFFX,2021-10-19T01:55:00Z,43.43,-86.0,8.8,6.6,0,0,,10.0,30.079725,,,TRUE,TRUE,,,,,,,CLR,,,,,,,,VFR,,,,,,,,,,,,SPECI,234.0
KFFM 190155Z AUTO 17010KT 10SM CLR 16/05 A2976 RMK AO2,KFFM,2021-10-19T01:55:00Z,46.28,-96.15,16.0,5.0,170,10,,10.0,29.760826,,,TRUE,TRUE,,,,,,,CLR,,,,,,,,VFR,,,,,,,,,,,,METAR,362.0
KFFL 190155Z AUTO 18007KT 2SM HZ CLR 15/07 A3002 RMK A01,KFFL,2021-10-19T01:55:00Z,41.05,-91.97,15.0,7.0,180,7,,2.0,30.02067,,,TRUE,TRUE,,,,,,HZ,CLR,,,,,,,,IFR,,,,,,,,,,,,METAR,240.0
KFFA 190155Z AUTO 27005KT 10SM CLR 18/06 A3006 RMK AO2 T01780060,KFFA,2021-10-19T01:55:00Z,36.02,-75.67,17.8,6.0,270,5,,10.0,30.059055,,,TRUE,TRUE,,,,,,,CLR,,,,,,,,VFR,,,,,,,,,,,,METAR,2.0
KFET 190155Z AUTO 15008KT 10SM CLR 18/05 A2990 RMK AO2 T01760052,KFET,2021-10-19T01:55:00Z,41.45,-96.52,17.6,5.2,150,8,,10.0,29.899607,,,TRUE,TRUE,,,,,,,CLR,,,,,,,,VFR,,,,,,,,,,,,METAR,366.0
KFDK 190155Z AUTO 00000KT 10SM CLR 09/06 A3007 RMK AO2,KFDK,2021-10-19T01:55:00Z,39.42,-77.37,9.0,6.0,0,0,,10.0,30.070866,,,TRUE,TRUE,,,,,,,CLR,,,,,,,,VFR,,,,,,,,,,,,METAR,82.0
KFBR 190155Z AUTO 27012KT 10SM SCT048 SCT060 BKN110 06/01 A2984 RMK AO2 T00560007,KFBR,2021-10-19T01:55:00Z,41.4,-110.4,5.6,0.7,270,12,,10.0,29.840551,,,TRUE,TRUE,,,,,,,SCT,4800,SCT,6000,BKN,11000,,,VFR,,,,,,,,,,,,METAR,2140.0
KFBL 190155Z AUTO 13009KT 10SM CLR 17/05 A2993 RMK AO2,KFBL,2021-10-19T01:55:00Z,44.33,-93.32,17.0,5.0,130,9,,10.0,29.929134,,,TRUE,TRUE,,,,,,,CLR,,,,,,,,VFR,,,,,,,,,,,,METAR,318.0
KF70 190155Z AUTO 20008KT 10SM CLR 13/08 A2996 RMK AO2,KF70,2021-10-19T01:55:00Z,33.57,-117.13,13.0,8.0,200,8,,10.0,29.958662,,,TRUE,TRUE,,,,,,,CLR,,,,,,,,VFR,,,,,,,,,,,,SPECI,406.0
KF46 190155Z AUTO 11003KT 10SM CLR 17/07 A3006 RMK AO2 T01720070,KF46,2021-10-19T01:55:00Z,32.93,-96.43,17.2,7.0,110,3,,10.0,30.059055,,,TRUE,TRUE,,,,,,,CLR,,,,,,,,VFR,,,,,,,,,,,,METAR,175.0
KF44 190155Z AUTO 00000KT 10SM CLR 13/09 A3006 RMK AO2,KF44,2021-10-19T01:55:00Z,32.17,-95.83,13.0,9.0,0,0,,10.0,30.059055,,,TRUE,TRUE,,,,,,,CLR,,,,,,,,VFR,,,,,,,,,,,,METAR,137.0
KF17 190155Z AUTO 00000KT 10SM CLR 15/11 A3011 RMK AO2,KF17,2021-10-19T01:55:00Z,31.83,-94.15,15.0,11.0,0,0,,10.0,30.109253,,,TRUE,TRUE,,,,,,,CLR,,,,,,,,VFR,,,,,,,,,,,,METAR,93.0
KF05 190155Z AUTO 15008KT 10SM CLR 20/07 A2997 RMK AO2 T02000072,KF05,2021-10-19T01:55:00Z,34.23,-99.28,20.0,7.2,150,8,,10.0,29.970472,,,TRUE,TRUE,,,,,,,CLR,,,,,,,,VFR,,,,,,,,,,,,METAR,384.0
KF00 190155Z AUTO 15005KT 10SM CLR 16/07 A3006 RMK AO2 T01620069,KF00,2021-10-19T01:55:00Z,33.62,-96.18,16.2,6.9,150,5,,10.0,30.059055,,,TRUE,TRUE,,,,,,,CLR,,,,,,,,VFR,,,,,,,,,,,,SPECI,189.0
KEZZ 190155Z AUTO 16007KT 10SM CLR 14/07 A3001 RMK AO2 T01390067,KEZZ,2021-10-19T01:55:00Z,39.72,-94.28,13.9,6.7,160,7,,10.0,30.008858,,,TRUE,TRUE,,,,,,,CLR,,,,,,,,VFR,,,,,,,,,,,,METAR,317.0
KEZM 190155Z AUTO 00000KT 1/4SM FG VV002 10/10 A3019 RMK AO2 T01020099,KEZM,2021-10-19T01:55:00Z,32.22,-83.13,10.2,9.9,0,0,,0.25,30.188976,,,TRUE,TRUE,,,,,,FG,OVX,0,,,,,,,LIFR,,,,,,,,,,,200,METAR,86.0
KEZF 190155Z AUTO 00000KT 10SM CLR 09/06 A3006 RMK AO2 T00930055,KEZF,2021-10-19T01:55:00Z,38.27,-77.45,9.3,5.5,0,0,,10.0,30.059055,,,TRUE,TRUE,,,,,,,CLR,,,,,,,,VFR,,,,,,,,,,,,METAR,26.0
KEYF 190155Z AUTO 00000KT 10SM CLR 12/07 A3014 RMK AO2 T01210068,KEYF,2021-10-19T01:55:00Z,34.6,-78.58,12.1,6.8,0,0,,10.0,30.138779,,,TRUE,TRUE,,,,,,,CLR,,,,,,,,VFR,,,,,,,,,,,,METAR,39.0
KEXX 190155Z AUTO 00000KT 10SM CLR 11/08 A3014 RMK AO2 T01070081,KEXX,2021-10-19T01:55:00Z,35.78,-80.3,10.7,8.1,0,0,,10.0,30.138779,,,TRUE,TRUE,,,,,,,CLR,,,,,,,,VFR,,,,,,,,,,,,METAR,221.0
KEVU 190155Z AUTO 16008KT 10SM CLR 16/07 A2997 RMK AO2 T01610075,KEVU,2021-10-19T01:55:00Z,40.35,-94.92,16.1,7.5,160,8,,10.0,29.970472,,,TRUE,TRUE,,,,,,,CLR,,,,,,,,VFR,,,,,,,,,,,,METAR,351.0
KEVM 190155Z AUTO 00000KT 10SM CLR 11/05 A2991 RMK AO2,KEVM,2021-10-19T01:55:00Z,47.42,-92.5,11.0,5.0,0,0,,10.0,29.911417,,,TRUE,TRUE,,,,,,,CLR,,,,,,,,VFR,,,,,,,,,,,,METAR,419.0
KETN 190155Z AUTO 14008KT 10SM CLR 17/08 A3000 RMK AO2 T01680075,KETN,2021-10-19T01:55:00Z,32.42,-98.82,16.8,7.5,140,8,,10.0,30.0,,,TRUE,TRUE,,,,,,,CLR,,,,,,,,VFR,,,,,,,,,,,,SPECI,445.0
KETC 190155Z AUTO 00000KT 10SM CLR 08/08 A3010 RMK AO2 T00850080,KETC,2021-10-19T01:55:00Z,35.93,-77.55,8.5,8.0,0,0,,10.0,30.100393,,,TRUE,TRUE,,,,,,,CLR,,,,,,,,VFR,,,,,,,,,,,,SPECI,15.0
KERY 190155Z AUTO 23005KT 10SM CLR 07/06 A3003 RMK AO2 T00730062,KERY,2021-10-19T01:55:00Z,46.3,-85.45,7.3,6.2,230,5,,10.0,30.029528,,,TRUE,TRUE,,,,,,,CLR,,,,,,,,VFR,,,,,,,,,,,,METAR,261.0
KERV 190155Z AUTO 13004KT 10SM CLR 17/13 A3005 RMK AO2 T01740125,KERV,2021-10-19T01:55:00Z,29.98,-99.08,17.4,12.5,130,4,,10.0,30.050198,,,TRUE,TRUE,,,,,,,CLR,,,,,,,,VFR,,,,,,,,,,,,SPECI,483.0
KEQA 190155Z AUTO 16011G15KT 10SM CLR 16/06 A2996 RMK AO2,KEQA,2021-10-19T01:55:00Z,37.78,-96.82,16.0,6.0,160,11,15,10.0,29.958662,,,TRUE,TRUE,,,,,,,CLR,,,,,,,,VFR,,,,,,,,,,,,SPECI,422.0
KEOK 190155Z AUTO 18004KT 10SM 17/09 A3004 RMK AO2 PWINO,KEOK,2021-10-19T01:55:00Z,40.47,-91.42,17.0,9.0,180,4,,10.0,30.041338,,,TRUE,TRUE,,,,,TRUE,,,,,,,,,,,,,,,,,,,,,,METAR,206.0
KENL 190155Z AUTO 17005KT 10SM CLR 13/07 A3013 RMK AO2 T01260072,KENL,2021-10-19T01:55:00Z,38.52,-89.1,12.6,7.2,170,5,,10.0,30.129921,,,TRUE,TRUE,,,,,,,CLR,,,,,,,,VFR,,,,,,,,,,,,METAR,161.0
KEMM 190155Z AUTO 22026G31KT 10SM SCT090 06/M02 A2982 RMK AO2,KEMM,2021-10-19T01:55:00Z,41.82,-110.55,6.0,-2.0,220,26,31,10.0,29.819881,,,TRUE,TRUE,,,,,,,SCT,9000,,,,,,,VFR,,,,,,,,,,,,METAR,2219.0
KEMK 190155Z AUTO 10SM 24/14 A3007 RMK A01,KEMK,2021-10-19T01:55:00Z,27.82,-94.32,24.0,14.0,,,,10.0,30.070866,,,TRUE,TRUE,,,,,,,,,,,,,,,,,,,,,,,,,,,SPECI,20.0
KELO 190155Z AUTO 17005KT 10SM CLR 14/04 A2989 RMK AO2,KELO,2021-10-19T01:55:00Z,47.82,-91.83,14.0,4.0,170,5,,10.0,29.890747,,,TRUE,TRUE,,,,,,,CLR,,,,,,,,VFR,,,,,,,,,,,,METAR,438.0
KELK 190155Z AUTO 16012G16KT 10SM CLR 18/07 A2997 RMK AO2 T01780067 TSNO,KELK,2021-10-19T01:55:00Z,35.43,-99.4,17.8,6.7,160,12,16,10.0,29.970472,,,TRUE,TRUE,,,TRUE,,,,CLR,,,,,,,,VFR,,,,,,,,,,,,METAR,603.0
KELA 190155Z AUTO 18005KT 10SM CLR 17/14 A3007 RMK AO2 T01730141,KELA,2021-10-19T01:55:00Z,29.6,-96.32,17.3,14.1,180,5,,10.0,30.070866,,,TRUE,TRUE,,,,,,,CLR,,,,,,,,VFR,,,,,,,,,,,,METAR,56.0
KEKX 190155Z AUTO 00000KT 10SM CLR 09/08 A3018 RMK AO2 T00930084,KEKX,2021-10-19T01:55:00Z,,,9.3,8.4,0,0,,10.0,30.180119,,,TRUE,TRUE,,,,,,,CLR,,,,,,,,VFR,,,,,,,,,,,,METAR,
KEKS 190155Z AUTO 35011KT 10SM FEW065 BKN080 OVC100 11/M01 A2990 RMK AO2,KEKS,2021-10-19T01:55:00Z,45.27,-111.65,11.0,-1.0,350,11,,10.0,29.899607,,,TRUE,TRUE,,,,,,,FEW,6500,BKN,8000,OVC,10000,,,VFR,,,,,,,,,,,,SPECI,1636.0
KEKE 190155Z AUTO 06013KT 10SM 23/17 A3013 RMK A01,KEKE,2021-10-19T01:55:00Z,,,23.0,17.0,60,13,,10.0,30.129921,,,TRUE,TRUE,,,,,,,,,,,,,,,,,,,,,,,,,,,METAR,
KEIK 190155Z AUTO 12008KT 10SM CLR 17/M05 A2975 RMK AO2 T01721055 PWINO,KEIK,2021-10-19T01:55:00Z,40.02,-105.05,17.2,-5.5,120,8,,10.0,29.749016,,,TRUE,TRUE,,,,,TRUE,,CLR,,,,,,,,VFR,,,,,,,,,,,,METAR,1551.0
KEHO 190155Z AUTO 00000KT 10SM CLR 10/08 A3017 RMK AO2 T01030079,KEHO,2021-10-19T01:55:00Z,35.25,-81.6,10.3,7.9,0,0,,10.0,30.171259,,,TRUE,TRUE,,,,,,,CLR,,,,,,,,VFR,,,,,,,,,,,,METAR,261.0
KEHA 190155Z AUTO 16017KT 10SM CLR 18/05 A2986 RMK AO2 T01820050,KEHA,2021-10-19T01:55:00Z,37.0,-101.87,18.2,5.0,160,17,,10.0,29.861221,,,TRUE,TRUE,,,,,,,CLR,,,,,,,,VFR,,,,,,,,,,,,SPECI,1103.0
KEGV 190155Z AUTO 21003KT 10SM CLR 14/03 A3000 RMK AO2 T01400032,KEGV,2021-10-19T01:55:00Z,45.93,-89.27,14.0,3.2,210,3,,10.0,30.0,,,TRUE,TRUE,,,,,,,CLR,,,,,,,,VFR,,,,,,,,,,,,METAR,499.0
KEFT 190155Z AUTO 17008KT 10SM CLR 16/04 A3004 RMK AO2 T01550037,KEFT,2021-10-19T01:55:00Z,42.62,-89.6,15.5,3.7,170,8,,10.0,30.041338,,,TRUE,TRUE,,,,,,,CLR,,,,,,,,VFR,,,,,,,,,,,,METAR,332.0
KEFK 190155Z AUTO 29005KT 10SM SCT038 BKN047 OVC070 07/05 A2983 RMK AO2 T00650053,KEFK,2021-10-19T01:55:00Z,44.88,-72.23,6.5,5.3,290,5,,10.0,29.828741,,,TRUE,TRUE,,,,,,,SCT,3800,BKN,4700,OVC,7000,,,VFR,,,,,,,,,,,,METAR,282.0
KEDU 190155Z AUTO 00000KT 10SM CLR 14/04 A3002 RMK AO1,KEDU,2021-10-19T01:55:00Z,38.53,-121.78,14.0,4.0,0,0,,10.0,30.02067,,,TRUE,TRUE,,,,,,,CLR,,,,,,,,VFR,,,,,,,,,,,,SPECI,20.0
KEDN 190155Z AUTO 00000KT 10SM CLR 15/09 A3016 RMK AO2 T01520091,KEDN,2021-10-19T01:55:00Z,31.3,-85.9,15.2,9.1,0,0,,10.0,30.159449,,,TRUE,TRUE,,,,,,,CLR,,,,,,,,VFR,,,,,,,,,,,,METAR,103.0
KEDJ 190155Z AUTO 18003KT 2 1/2SM CLR 08/05 A3016 RMK AO1,KEDJ,2021-10-19T01:55:00Z,40.37,-83.82,8.0,5.0,180,3,,2.5,30.159449,,,TRUE,TRUE,,,,,,,CLR,,,,,,,,IFR,,,,,,,,,,,,METAR,341.0
KEDE 190155Z AUTO 27005KT 10SM CLR 18/09 A3009 RMK AO2 T01770090,KEDE,2021-10-19T01:55:00Z,36.03,-76.57,17.7,9.0,270,5,,10.0,30.088583,,,TRUE,TRUE,,,,,,,CLR,,,,,,,,VFR,,,,,,,,,,,,METAR,4.0
KEDC 190155Z AUTO 16004KT 10SM 18/09 A3004 RMK AO2,KEDC,2021-10-19T01:55:00Z,30.4,-97.57,18.0,9.0,160,4,,10.0,30.041338,,,TRUE,TRUE,,,,,,,,,,,,,,,,,,,,,,,,,,,SPECI,184.0
KECU 190155Z AUTO 15008KT 10SM CLR 19/11 A3008 RMK AO2,KECU,2021-10-19T01:55:00Z,29.95,-100.17,19.0,11.0,150,8,,10.0,30.079725,,,TRUE,TRUE,,,,,,,CLR,,,,,,,,VFR,,,,,,,,,,,,METAR,725.0
KECS 190155Z AUTO 03008KT 10SM CLR 13/00 A2980 RMK AO2,KECS,2021-10-19T01:55:00Z,43.88,-104.32,13.0,0.0,30,8,,10.0,29.799213,,,TRUE,TRUE,,,,,,,CLR,,,,,,,,VFR,,,,,,,,,,,,METAR,1273.0
KEBS 190155Z AUTO 17008KT CLR 15/06 A2994 RMK AO2,KEBS,2021-10-19T01:55:00Z,42.43,-93.87,15.0,6.0,170,8,,,29.940945,,,TRUE,TRUE,,,,,,,CLR,,,,,,,,,,,,,,,,,,,,METAR,340.0
KEBG 190155Z AUTO 10003KT 10SM CLR 21/16 A3004 RMK AO2 T02110161 TSNO,KEBG,2021-10-19T01:55:00Z,26.45,-98.13,21.1,16.1,100,3,,10.0,30.041338,,,TRUE,TRUE,,,TRUE,,,,CLR,,,,,,,,VFR,,,,,,,,,,,,METAR,21.0
KEAT 190155Z AUTO 33006KT 10SM CLR 15/02 A2984 RMK AO2 SLP106 T01500022,KEAT,2021-10-19T01:55:00Z,47.4,-120.2,15.0,2.2,330,6,,10.0,29.840551,1010.6,,TRUE,TRUE,,,,,,,CLR,,,,,,,,VFR,,,,,,,,,,,,SPECI,375.0
KEAN 190155Z AUTO 04004KT 10SM 12/01 A2978 RMK AO2 T01240006,KEAN,2021-10-19T01:55:00Z,42.05,-104.93,12.4,0.6,40,4,,10.0,29.778543,,,TRUE,TRUE,,,,,,,,,,,,,,,,,,,,,,,,,,,METAR,1452.0
KE42 190155Z AUTO 16016KT 10SM CLR 18/05 A2989 RMK AO2 T01760049,KE42,2021-10-19T01:55:00Z,36.22,-101.2,17.6,4.9,160,16,,10.0,29.890747,,,TRUE,TRUE,,,,,,,CLR,,,,,,,,VFR,,,,,,,,,,,,SPECI,942.0
KE41 190155Z AUTO 16010KT 10SM CLR 19/10 A3001 RMK AO2 T01880104,KE41,2021-10-19T01:55:00Z,31.2,-101.47,18.8,10.4,160,10,,10.0,30.008858,,,TRUE,TRUE,,,,,,,CLR,,,,,,,,VFR,,,,,,,,,,,,SPECI,825.0
KE38 190155Z AUTO 21003KT 10SM CLR 20/05 A3008 RMK AO2 T01960045,KE38,2021-10-19T01:55:00Z,30.38,-103.68,19.6,4.5,210,3,,10.0,30.079725,,,TRUE,TRUE,,,,,,,CLR,,,,,,,,VFR,,,,,,,,,,,,METAR,1372.0
KE16 190155Z AUTO 25004KT 10SM FEW048 14/06 A3003 RMK AO2 PWINO PNO,KE16,2021-10-19T01:55:00Z,37.08,-121.6,14.0,6.0,250,4,,10.0,30.029528,,,TRUE,TRUE,,,,,TRUE,,FEW,4800,,,,,,,VFR,,,,,,,,,,,,SPECI,84.0
KE11 190155Z AUTO 16015G19KT 10SM CLR 19/07 A2996 RMK AO2 T01900072,KE11,2021-10-19T01:55:00Z,32.33,-102.53,19.0,7.2,160,15,19,10.0,29.958662,,,TRUE,TRUE,,,,,,,CLR,,,,,,,,VFR,,,,,,,,,,,,METAR,966.0
KDZJ 190155Z AUTO 00000KT 10SM CLR 07/07 A3022 RMK AO2 T00730069,KDZJ,2021-10-19T01:55:00Z,34.85,-84.0,7.3,6.9,0,0,,10.0,30.221457,,,TRUE,TRUE,,,,,,,CLR,,,,,,,,VFR,,,,,,,,,,,,METAR,578.0
KDZB 190155Z AUTO 14003KT 10SM CLR 19/11 A3004 RMK AO2 T01860111,KDZB,2021-10-19T01:55:00Z,30.53,-98.37,18.6,11.1,140,3,,10.0,30.041338,,,TRUE,TRUE,,,,,,,CLR,,,,,,,,VFR,,,,,,,,,,,,METAR,329.0
KDYT 190155Z AUTO 04007KT 10SM BKN032 12/10 A2991 RMK AO2,KDYT,2021-10-19T01:55:00Z,46.72,-92.03,12.0,10.0,40,7,,10.0,29.911417,,,TRUE,TRUE,,,,,,,BKN,3200,,,,,,,VFR,,,,,,,,,,,,METAR,185.0
KDYA 190155Z AUTO 10SM CLR 10/10 A3016 RMK AO2 T01040102,KDYA,2021-10-19T01:55:00Z,32.47,-87.95,10.4,10.2,,,,10.0,30.159449,,,TRUE,TRUE,,,,,,,CLR,,,,,,,,VFR,,,,,,,,,,,,METAR,33.0
KDXX 190155Z AUTO 15007KT 10SM CLR 15/04 A2984 RMK AO2,KDXX,2021-10-19T01:55:00Z,44.98,-96.18,15.0,4.0,150,7,,10.0,29.840551,,,TRUE,TRUE,,,,,,,CLR,,,,,,,,VFR,,,,,,,,,,,,METAR,327.0
KDWX 190155Z AUTO 30005KT 10SM SCT090 13/M05 A2981 RMK AO2 T01311049,KDWX,2021-10-19T01:55:00Z,41.03,-107.5,13.1,-4.9,300,5,,10.0,29.811024,,,TRUE,TRUE,,,,,,,SCT,9000,,,,,,,VFR,,,,,,,,,,,,SPECI,1974.0
KDVO 190155Z AUTO 07004KT 10SM CLR 12/07 A3002 RMK AO2,KDVO,2021-10-19T01:55:00Z,38.15,-122.55,12.0,7.0,70,4,,10.0,30.02067,,,TRUE,TRUE,,,,,,,CLR,,,,,,,,VFR,,,,,,,,,,,,METAR,1.0
KDVK 190155Z AUTO 00000KT 10SM CLR 09/07 A3021 RMK AO2,KDVK,2021-10-19T01:55:00Z,37.58,-84.77,9.0,7.0,0,0,,10.0,30.209646,,,TRUE,TRUE,,,,,,,CLR,,,,,,,,VFR,,,,,,,,,,,,METAR,309.0
KDUX 190155Z AUTO 14012KT 10SM CLR 17/04 A2989 RMK AO2 T01730037,KDUX,2021-10-19T01:55:00Z,35.85,-102.02,17.3,3.7,140,12,,10.0,29.890747,,,TRUE,TRUE,,,,,,,CLR,,,,,,,,VFR,,,,,,,,,,,,METAR,1129.0
KDUH 190155Z AUTO 00000KT 10SM CLR 09/08 A3011 RMK AO2 T00880078,KDUH,2021-10-19T01:55:00Z,41.73,-83.65,8.8,7.8,0,0,,10.0,30.109253,,,TRUE,TRUE,,,,,,,CLR,,,,,,,,VFR,,,,,,,,,,,,METAR,203.0
KDUC 190155Z AUTO 15005KT 10SM CLR 16/07 A3002 RMK AO2 T01570067,KDUC,2021-10-19T01:55:00Z,34.47,-97.97,15.7,6.7,150,5,,10.0,30.02067,,,TRUE,TRUE,,,,,,,CLR,,,,,,,,VFR,,,,,,,,,,,,METAR,339.0
KDUB 190155Z AUTO 00000KT 10SM CLR 06/M02 A2986 RMK AO2,KDUB,2021-10-19T01:55:00Z,43.55,-109.68,6.0,-2.0,0,0,,10.0,29.861221,,,TRUE,TRUE,,,,,,,CLR,,,,,,,,VFR,,,,,,,,,,,,METAR,2205.0
KDUA 190155Z AUTO 16003KT 10SM CLR 15/06 A3006 RMK AO2,KDUA,2021-10-19T01:55:00Z,33.95,-96.4,15.0,6.0,160,3,,10.0,30.059055,,,TRUE,TRUE,,,,,,,CLR,,,,,,,,VFR,,,,,,,,,,,,METAR,209.0
KDTL 190155Z AUTO 17007KT 10SM CLR 16/04 A2979 RMK AO2,KDTL,2021-10-19T01:55:00Z,46.82,-95.88,16.0,4.0,170,7,,10.0,29.790354,,,TRUE,TRUE,,,,,,,CLR,,,,,,,,VFR,,,,,,,,,,,,METAR,425.0
KDTA 190155Z AUTO 17022G27KT 10SM BKN065 OVC075 06/01 A2979 RMK AO1,KDTA,2021-10-19T01:55:00Z,39.38,-112.5,6.0,1.0,170,22,27,10.0,29.790354,,,TRUE,TRUE,,,,,,,BKN,6500,OVC,7500,,,,,VFR,,,,,,,,,,,,METAR,1452.0
KDRM 190155Z AUTO 00000KT 10SM CLR 06/06 A3003 RMK AO2 T00600056,KDRM,2021-10-19T01:55:00Z,46.0,-83.75,6.0,5.6,0,0,,10.0,30.029528,,,TRUE,TRUE,,,,,,,CLR,,,,,,,,VFR,,,,,,,,,,,,METAR,201.0
KDRI 190155Z AUTO 00000KT 10SM CLR 14/11 A3013 RMK AO2 T01400111,KDRI,2021-10-19T01:55:00Z,30.83,-93.33,14.0,11.1,0,0,,10.0,30.129921,,,TRUE,TRUE,,,,,,,CLR,,,,,,,,VFR,,,,,,,,,,,,METAR,59.0
KDQH 190155Z AUTO 00000KT 10SM CLR 12/11 A3020 RMK AO2 T01240110,KDQH,2021-10-19T01:55:00Z,31.48,-82.87,12.4,11.0,0,0,,10.0,30.200787,,,TRUE,TRUE,,,,,,,CLR,,,,,,,,VFR,,,,,,,,,,,,METAR,76.0
KDPL 190155Z 10SM CLR 08/06 A3013 RMK AO2,KDPL,2021-10-19T01:55:00Z,35.0,-77.97,8.0,6.0,,,,10.0,30.129921,,,,TRUE,,,,,,,CLR,,,,,,,,VFR,,,,,,,,,,,,METAR,39.0
KDNV 190155Z AUTO 00000KT 10SM CLR 14/08 A3013 RMK AO2 T01400078,KDNV,2021-10-19T01:55:00Z,40.2,-87.6,14.0,7.8,0,0,,10.0,30.129921,,,TRUE,TRUE,,,,,,,CLR,,,,,,,,VFR,,,,,,,,,,,,METAR,208.0
KDNS 190155Z AUTO 17011KT 10SM CLR 16/02 A2994 RMK AO2,KDNS,2021-10-19T01:55:00Z,41.98,-95.37,16.0,2.0,170,11,,10.0,29.940945,,,TRUE,TRUE,,,,,,,CLR,,,,,,,,VFR,,,,,,,,,,,,METAR,382.0
KDNN 190155Z AUTO 00000KT 10SM CLR 11/11 A3020 RMK AO2,KDNN,2021-10-19T01:55:00Z,34.72,-84.87,11.0,11.0,0,0,,10.0,30.200787,,,TRUE,TRUE,,,,,,,CLR,,,,,,,,VFR,,,,,,,,,,,,METAR,216.0
KDNA 190155Z AUTO 23005KT 10SM CLR 23/00 A2994 RMK AO2,KDNA,2021-10-19T01:55:00Z,31.88,-106.7,23.0,0.0,230,5,,10.0,29.940945,,,TRUE,TRUE,,,,,,,CLR,,,,,,,,VFR,,,,,,,,,,,,METAR,1254.0
KDMW 190155Z AUTO 33004KT 10SM CLR 13/04 A3005 RMK AO2,KDMW,2021-10-19T01:55:00Z,39.6,-77.0,13.0,4.0,330,4,,10.0,30.050198,,,TRUE,TRUE,,,,,,,CLR,,,,,,,,VFR,,,,,,,,,,,,SPECI,239.0
KDLZ 190155Z AUTO 00000KT 10SM CLR 08/03 A3015 RMK AO2,KDLZ,2021-10-19T01:55:00Z,40.28,-83.12,8.0,3.0,0,0,,10.0,30.15059,,,TRUE,TRUE,,,,,,,CLR,,,,,,,,VFR,,,,,,,,,,,,METAR,287.0
KDLO 190155Z AUTO 00000KT 10SM CLR 13/02 A2999 RMK AO2 T01330021,KDLO,2021-10-19T01:55:00Z,35.75,-119.23,13.3,2.1,0,0,,10.0,29.991142,,,TRUE,TRUE,,,,,,,CLR,,,,,,,,VFR,,,,,,,,,,,,METAR,97.0
KDLH 190155Z 12007KT 10SM CLR 09/04 A2992 RMK AO2 SLP140 T00890039,KDLH,2021-10-19T01:55:00Z,46.85,-92.2,8.9,3.9,120,7,,10.0,29.920275,1014.0,,,TRUE,,,,,,,CLR,,,,,,,,VFR,,,,,,,,,,,,SPECI,434.0
KDKX 190155Z AUTO 00000KT 10SM CLR 11/11 A3020 RMK A01,KDKX,2021-10-19T01:55:00Z,35.97,-83.87,11.0,11.0,0,0,,10.0,30.200787,,,TRUE,TRUE,,,,,,,CLR,,,,,,,,VFR,,,,,,,,,,,,METAR,253.0
KDKR 190155Z AUTO 00000KT 10SM 12/10 A3008 RMK AO2,KDKR,2021-10-19T01:55:00Z,31.3,-95.4,12.0,10.0,0,0,,10.0,30.079725,,,TRUE,TRUE,,,,,,,,,,,,,,,,,,,,,,,,,,,METAR,105.0
KDKB 190155Z 15003KT 10SM CLR A3008 RMK AO2,KDKB,2021-10-19T01:55:00Z,41.93,-88.7,,,150,3,,10.0,30.079725,,,,TRUE,,,,,,,CLR,,,,,,,,VFR,,,,,,,,,,,,METAR,277.0
KDEH 190155Z AUTO 16006KT 10SM FEW045 15/05 A2999 RMK AO2,KDEH,2021-10-19T01:55:00Z,43.27,-91.73,15.0,5.0,160,6,,10.0,29.991142,,,TRUE,TRUE,,,,,,,FEW,4500,,,,,,,VFR,,,,,,,,,,,,METAR,348.0
KDCY 190155Z AUTO 00000KT 10SM CLR 10/07 A3015 RMK AO2 T01020070,KDCY,2021-10-19T01:55:00Z,38.7,-87.13,10.2,7.0,0,0,,10.0,30.15059,,,TRUE,TRUE,,,,,,,CLR,,,,,,,,VFR,,,,,,,,,,,,METAR,143.0
KDCM 190155Z AUTO 00000KT 10SM CLR 11/05 A3017 RMK AO2,KDCM,2021-10-19T01:55:00Z,34.78,-81.2,11.0,5.0,0,0,,10.0,30.171259,,,TRUE,TRUE,,,,,,,CLR,,,,,,,,VFR,,,,,,,,,,,,METAR,191.0
KDBN 190155Z AUTO 00000KT 10SM CLR 10/09 A3020 RMK AO2,KDBN,2021-10-19T01:55:00Z,32.57,-82.98,10.0,9.0,0,0,,10.0,30.200787,,,TRUE,TRUE,,,,,,,CLR,,,,,,,,VFR,,,,,,,,,,,,METAR,90.0
KD95 190155Z AUTO 00000KT 10SM CLR 06/06 A3009 RMK AO2 T00600060,KD95,2021-10-19T01:55:00Z,43.07,-83.27,6.0,6.0,0,0,,10.0,30.088583,,,TRUE,TRUE,,,,,,,CLR,,,,,,,,VFR,,,,,,,,,,,,METAR,253.0
KD60 190155Z AUTO 33010G17KT 10SM CLR 10/03 A2980 RMK AO2,KD60,2021-10-19T01:55:00Z,48.38,-102.9,10.0,3.0,330,10,17,10.0,29.799213,,,TRUE,TRUE,,,,,,,CLR,,,,,,,,VFR,,,,,,,,,,,,METAR,682.0
KD57 190155Z AUTO 29006KT 10SM CLR 06/03 A2971 RMK AO2,KD57,2021-10-19T01:55:00Z,46.82,-101.87,6.0,3.0,290,6,,10.0,29.71063,,,TRUE,TRUE,,,,,,,CLR,,,,,,,,VFR,,,,,,,,,,,,METAR,636.0
KD55 190155Z AUTO 21011KT 10SM CLR 13/11 A2968 RMK AO2,KD55,2021-10-19T01:55:00Z,48.75,-98.4,13.0,11.0,210,11,,10.0,29.681103,,,TRUE,TRUE,,,,,,,CLR,,,,,,,,VFR,,,,,,,,,,,,METAR,488.0
KD50 190155Z AUTO 32012KT 10SM CLR 09/04 A2981 RMK AO2,KD50,2021-10-19T01:55:00Z,48.93,-103.3,9.0,4.0,320,12,,10.0,29.811024,,,TRUE,TRUE,,,,,,,CLR,,,,,,,,VFR,,,,,,,,,,,,METAR,591.0
KD39 190155Z AUTO 14005KT 10SM CLR 13/06 A2985 RMK AO2 T01270060,KD39,2021-10-19T01:55:00Z,45.7,-94.93,12.7,6.0,140,5,,10.0,29.84941,,,TRUE,TRUE,,,,,,,CLR,,,,,,,,VFR,,,,,,,,,,,,METAR,378.0
KD25 190155Z AUTO 18003KT 10SM CLR 12/04 A2998 RMK AO2 T01170044,KD25,2021-10-19T01:55:00Z,46.12,-89.88,11.7,4.4,180,3,,10.0,29.97933,,,TRUE,TRUE,,,,,,,CLR,,,,,,,,VFR,,,,,,,,,,,,SPECI,490.0
KCZL 190155Z AUTO 00000KT 10SM CLR 10/10 A3020 RMK AO2,KCZL,2021-10-19T01:55:00Z,34.47,-84.93,10.0,10.0,0,0,,10.0,30.200787,,,TRUE,TRUE,,,,,,,CLR,,,,,,,,VFR,,,,,,,,,,,,METAR,197.0
KCYD 190155Z AUTO 07017KT 10SM SCT031 SCT036 SCT055 25/17 A3009 RMK A02 T02460174,KCYD,2021-10-19T01:55:00Z,28.17,-89.22,24.6,17.4,70,17,,10.0,30.088583,,,TRUE,TRUE,,,,,,,SCT,3100,SCT,3600,SCT,5500,,,VFR,,,,,,,,,,,,METAR,30.0
KCXU 190155Z AUTO 00000KT 10SM CLR 12/11 A3018 RMK AO1 T01210105,KCXU,2021-10-19T01:55:00Z,31.22,-84.23,12.1,10.5,0,0,,10.0,30.180119,,,TRUE,TRUE,,,,,,,CLR,,,,,,,,VFR,,,,,,,,,,,,METAR,48.0
KCXP 190155Z AUTO 33008KT 10SM SCT060 08/M03 A2999 RMK AO2,KCXP,2021-10-19T01:55:00Z,39.18,-119.73,8.0,-3.0,330,8,,10.0,29.991142,,,TRUE,TRUE,,,,,,,SCT,6000,,,,,,,VFR,,,,,,,,,,,,SPECI,1431.0
KCXE 190155Z AUTO 00000KT 10SM CLR 14/04 A3011 RMK AO1 T01360036,KCXE,2021-10-19T01:55:00Z,36.78,-78.5,13.6,3.6,0,0,,10.0,30.109253,,,TRUE,TRUE,,,,,,,CLR,,,,,,,,VFR,,,,,,,,,,,,METAR,154.0
KCWV 190155Z AUTO 00000KT 10SM CLR 11/10 A3019 RMK AO2 T01070099,KCWV,2021-10-19T01:55:00Z,32.2,-81.87,10.7,9.9,0,0,,10.0,30.188976,,,TRUE,TRUE,,,,,,,CLR,,,,,,,,VFR,,,,,,,,,,,,METAR,32.0
KCWC 190155Z AUTO 15007KT 10SM CLR 19/07 A3001 RMK AO2 T01850070,KCWC,2021-10-19T01:55:00Z,33.85,-98.48,18.5,7.0,150,7,,10.0,30.008858,,,TRUE,TRUE,,,,,,,CLR,,,,,,,,VFR,,,,,,,,,,,,SPECI,304.0
KCVX 190155Z AUTO 00000KT 10SM CLR 07/06 A3005 RMK AO2 T00710056,KCVX,2021-10-19T01:55:00Z,45.3,-85.27,7.1,5.6,0,0,,10.0,30.050198,,,TRUE,TRUE,,,,,,,CLR,,,,,,,,VFR,,,,,,,,,,,,METAR,196.0
KCVH 190155Z AUTO 23009KT 10SM CLR 13/07 A3002 RMK A01,KCVH,2021-10-19T01:55:00Z,36.9,-121.42,13.0,7.0,230,9,,10.0,30.02067,,,TRUE,TRUE,,,,,,,CLR,,,,,,,,VFR,,,,,,,,,,,,METAR,68.0
KCUH 190155Z AUTO 16005KT 10SM CLR 16/07 A2999 RMK AO2 T01590068,KCUH,2021-10-19T01:55:00Z,35.95,-96.77,15.9,6.8,160,5,,10.0,29.991142,,,TRUE,TRUE,,,,,,,CLR,,,,,,,,VFR,,,,,,,,,,,,METAR,274.0
KCTZ 190155Z AUTO 00000KT 10SM CLR 11/08 A3013 RMK AO2 T01080081,KCTZ,2021-10-19T01:55:00Z,34.98,-78.37,10.8,8.1,0,0,,10.0,30.129921,,,TRUE,TRUE,,,,,,,CLR,,,,,,,,VFR,,,,,,,,,,,,METAR,43.0
KCTY 190155Z AUTO 04004KT 10SM CLR 19/15 A3014 RMK AO2 T01860149,KCTY,2021-10-19T01:55:00Z,29.63,-83.1,18.6,14.9,40,4,,10.0,30.138779,,,TRUE,TRUE,,,,,,,CLR,,,,,,,,VFR,,,,,,,,,,,,SPECI,12.0
KCTJ 190155Z AUTO 00000KT 10SM CLR 10/08 A3022 RMK AO2 T00960083,KCTJ,2021-10-19T01:55:00Z,33.63,-85.15,9.6,8.3,0,0,,10.0,30.221457,,,TRUE,TRUE,,,,,,,CLR,,,,,,,,VFR,,,,,,,,,,,,METAR,351.0
KCSQ 190155Z AUTO 16008KT 10SM CLR 14/06 A2998 RMK AO2,KCSQ,2021-10-19T01:55:00Z,41.02,-94.37,14.0,6.0,160,8,,10.0,29.97933,,,TRUE,TRUE,,,,,,,CLR,,,,,,,,VFR,,,,,,,,,,,,METAR,394.0
KCRX 190155Z AUTO 00000KT 10SM CLR 11/10 A3016 RMK AO2,KCRX,2021-10-19T01:55:00Z,34.92,-88.6,11.0,10.0,0,0,,10.0,30.159449,,,TRUE,TRUE,,,,,,,CLR,,,,,,,,VFR,,,,,,,,,,,,METAR,128.0
KCQW 190155Z AUTO 25004KT 10SM CLR 13/08 A3014 RMK AO2 PWINO,KCQW,2021-10-19T01:55:00Z,34.72,-79.95,13.0,8.0,250,4,,10.0,30.138779,,,TRUE,TRUE,,,,,TRUE,,CLR,,,,,,,,VFR,,,,,,,,,,,,METAR,67.0
KCQF 190155Z AUTO 00000KT 10SM CLR 12/11 A3015 RMK AO2,KCQF,2021-10-19T01:55:00Z,30.47,-87.88,12.0,11.0,0,0,,10.0,30.15059,,,TRUE,TRUE,,,,,,,CLR,,,,,,,,VFR,,,,,,,,,,,,METAR,21.0
KCQB 190155Z AUTO 14006KT 10SM CLR 15/07 A3000 RMK AO2 T01530071,KCQB,2021-10-19T01:55:00Z,35.72,-96.82,15.3,7.1,140,6,,10.0,30.0,,,TRUE,TRUE,,,,,,,CLR,,,,,,,,VFR,,,,,,,,,,,,METAR,298.0
KCPU 190155Z AUTO 35003KT 10SM CLR 12/03 A3001 RMK AO2 T01150031,KCPU,2021-10-19T01:55:00Z,38.15,-120.65,11.5,3.1,350,3,,10.0,30.008858,,,TRUE,TRUE,,,,,,,CLR,,,,,,,,VFR,,,,,,,,,,,,METAR,400.0
KCPT 190155Z AUTO 15009KT 10SM CLR 18/08 A3004 RMK A01,KCPT,2021-10-19T01:55:00Z,32.35,-97.43,18.0,8.0,150,9,,10.0,30.041338,,,TRUE,TRUE,,,,,,,CLR,,,,,,,,VFR,,,,,,,,,,,,METAR,260.0
KCPK 190155Z AUTO 00000KT 7SM CLR 10/06 A3006 RMK AO2 T00980060,KCPK,2021-10-19T01:55:00Z,36.67,-76.32,9.8,6.0,0,0,,7.0,30.059055,,,TRUE,TRUE,,,,,,,CLR,,,,,,,,VFR,,,,,,,,,,,,METAR,4.0
KCPC 190155Z AUTO 00000KT 10SM CLR 11/08 A3015 RMK AO2 T01110080,KCPC,2021-10-19T01:55:00Z,34.28,-78.72,11.1,8.0,0,0,,10.0,30.15059,,,TRUE,TRUE,,,,,,,CLR,,,,,,,,VFR,,,,,,,,,,,,METAR,27.0
KCOQ 190155Z AUTO 10003KT 10SM CLR 09/06 A2990 RMK AO2 TSNO,KCOQ,2021-10-19T01:55:00Z,46.7,-92.5,9.0,6.0,100,3,,10.0,29.899607,,,TRUE,TRUE,,,TRUE,,,,CLR,,,,,,,,VFR,,,,,,,,,,,,METAR,390.0
KCOM 190155Z AUTO 14008KT 10SM CLR 19/10 A3001 RMK AO2 T01850097,KCOM,2021-10-19T01:55:00Z,31.83,-99.4,18.5,9.7,140,8,,10.0,30.008858,,,TRUE,TRUE,,,,,,,CLR,,,,,,,,VFR,,,,,,,,,,,,METAR,516.0
KCNW 190155Z 14004KT 10SM SKC 16/09 A3005,KCNW,2021-10-19T01:55:00Z,31.63,-97.07,16.0,9.0,140,4,,10.0,30.050198,,,,,,,,,,,SKC,,,,,,,,VFR,,,,,,,,,,,,METAR,139.0
KCNK 190155Z AUTO 13006KT 10SM CLR 15/04 A2989 RMK AO2 SLP116 T01500039,KCNK,2021-10-19T01:55:00Z,39.55,-97.65,15.0,3.9,130,6,,10.0,29.890747,1011.6,,TRUE,TRUE,,,,,,,CLR,,,,,,,,VFR,,,,,,,,,,,,METAR,445.0
KCNI 190155Z AUTO 00000KT 10SM CLR 11/10 A3019 RMK AO2,KCNI,2021-10-19T01:55:00Z,34.32,-84.42,11.0,10.0,0,0,,10.0,30.188976,,,TRUE,TRUE,,,,,,,CLR,,,,,,,,VFR,,,,,,,,,,,,METAR,371.0
KCNC 190155Z AUTO 16007KT 10SM CLR 14/07 A2999 RMK AO2,KCNC,2021-10-19T01:55:00Z,41.02,-93.37,14.0,7.0,160,7,,10.0,29.991142,,,TRUE,TRUE,,,,,,,CLR,,,,,,,,VFR,,,,,,,,,,,,METAR,319.0
KCNB 190155Z AUTO 10004KT 10SM CLR 14/04 A2984 RMK AO2 T01360037,KCNB,2021-10-19T01:55:00Z,44.73,-96.27,13.6,3.7,100,4,,10.0,29.840551,,,TRUE,TRUE,,,,,,,CLR,,,,,,,,VFR,,,,,,,,,,,,METAR,363.0
KCMD 190155Z AUTO 00000KT 10SM CLR 10/09 A3019 RMK AO2,KCMD,2021-10-19T01:55:00Z,34.27,-86.85,10.0,9.0,0,0,,10.0,30.188976,,,TRUE,TRUE,,,,,,,CLR,,,,,,,,VFR,,,,,,,,,,,,METAR,294.0
KCMA 190155Z 18004KT 10SM CLR 17/09 A2992 RMK AO2 SLP141 T01720094 $,KCMA,2021-10-19T01:55:00Z,34.22,-119.1,17.2,9.4,180,4,,10.0,29.920275,1014.1,,,TRUE,TRUE,,,,,,CLR,,,,,,,,VFR,,,,,,,,,,,,SPECI,20.0
KCLW 190155Z AUTO 07004KT 10SM CLR 22/14 A3010 RMK AO2,KCLW,2021-10-19T01:55:00Z,27.98,-82.75,22.0,14.0,70,4,,10.0,30.100393,,,TRUE,TRUE,,,,,,,CLR,,,,,,,,VFR,,,,,,,,,,,,METAR,21.0
KCLS 190155Z AUTO 00000KT 10SM OVC044 10/09 A3001 RMK AO2,KCLS,2021-10-19T01:55:00Z,46.68,-122.98,10.0,9.0,0,0,,10.0,30.008858,,,TRUE,TRUE,,,,,,,OVC,4400,,,,,,,VFR,,,,,,,,,,,,METAR,52.0
KCKZ 190155Z AUTO 28003KT 10SM BKN065 07/04 A3002 RMK AO2,KCKZ,2021-10-19T01:55:00Z,40.38,-75.28,7.0,4.0,280,3,,10.0,30.02067,,,TRUE,TRUE,,,,,,,BKN,6500,,,,,,,VFR,,,,,,,,,,,,METAR,160.0
KCKP 190155Z AUTO 18005KT 10SM CLR 13/05 A2990 RMK AO2 T01280050,KCKP,2021-10-19T01:55:00Z,42.73,-95.55,12.8,5.0,180,5,,10.0,29.899607,,,TRUE,TRUE,,,,,,,CLR,,,,,,,,VFR,,,,,,,,,,,,SPECI,369.0
KCKN 190155Z AUTO 18013KT 10SM CLR 17/05 A2972 RMK AO2 PWINO,KCKN,2021-10-19T01:55:00Z,47.85,-96.62,17.0,5.0,180,13,,10.0,29.719488,,,TRUE,TRUE,,,,,TRUE,,CLR,,,,,,,,VFR,,,,,,,,,,,,METAR,272.0
KCKM 190155Z AUTO 10SM SCT024 BKN028 BKN034 14/09 A3015 RMK A01,KCKM,2021-10-19T01:55:00Z,34.3,-90.52,14.0,9.0,,,,10.0,30.15059,,,TRUE,TRUE,,,,,,,SCT,2400,BKN,2800,BKN,3400,,,MVFR,,,,,,,,,,,,METAR,52.0
KCKI 190155Z AUTO 00000KT 10SM CLR 08/05 A3016 RMK AO2,KCKI,2021-10-19T01:55:00Z,33.72,-79.85,8.0,5.0,0,0,,10.0,30.159449,,,TRUE,TRUE,,,,,,,CLR,,,,,,,,VFR,,,,,,,,,,,,METAR,19.0
KCKF 190155Z AUTO 00000KT 10SM CLR 12/10 A3020 RMK AO2 T01160097,KCKF,2021-10-19T01:55:00Z,31.98,-83.77,11.6,9.7,0,0,,10.0,30.200787,,,TRUE,TRUE,,,,,,,CLR,,,,,,,,VFR,,,,,,,,,,,,METAR,92.0
KCKC 190155Z AUTO 00000KT 10SM CLR 06/02 A2993 RMK AO2,KCKC,2021-10-19T01:55:00Z,47.83,-90.38,6.0,2.0,0,0,,10.0,29.929134,,,TRUE,TRUE,,,,,,,CLR,,,,,,,,VFR,,,,,,,,,,,,METAR,544.0
KCJR 190155Z AUTO 00000KT 10SM CLR 08/06 A3009 RMK AO2 T00810056,KCJR,2021-10-19T01:55:00Z,38.53,-77.87,8.1,5.6,0,0,,10.0,30.088583,,,TRUE,TRUE,,,,,,,CLR,,,,,,,,VFR,,,,,,,,,,,,METAR,90.0
KCIR 190155Z AUTO 00000KT 10SM CLR 10/07 A3015 RMK AO2 T00980073,KCIR,2021-10-19T01:55:00Z,37.07,-89.22,9.8,7.3,0,0,,10.0,30.15059,,,TRUE,TRUE,,,,,,,CLR,,,,,,,,VFR,,,,,,,,,,,,METAR,96.0
KCIN 190155Z AUTO 18009KT 10SM CLR 13/05 A2993 RMK AO2,KCIN,2021-10-19T01:55:00Z,42.03,-94.78,13.0,5.0,180,9,,10.0,29.929134,,,TRUE,TRUE,,,,,,,CLR,,,,,,,,VFR,,,,,,,,,,,,METAR,365.0
KCII 190155Z AUTO 35011KT 10SM 06/00 A3004 RMK A01 Choteau ,KCII,2021-10-19T01:55:00Z,47.83,-112.17,6.0,0.0,350,11,,10.0,30.041338,,,TRUE,TRUE,,,,,,,,,,,,,,,,,,,,,,,,,,,METAR,1202.0
KCHK 190155Z AUTO 14009KT 10SM CLR 17/07 A2996 RMK AO2 T01680071,KCHK,2021-10-19T01:55:00Z,35.1,-97.97,16.8,7.1,140,9,,10.0,29.958662,,,TRUE,TRUE,,,,,,,CLR,,,,,,,,VFR,,,,,,,,,,,,METAR,346.0
KCGS 190155Z AUTO 00000KT 10SM CLR 08/07 A3006 RMK AO1 T00800070,KCGS,2021-10-19T01:55:00Z,38.98,-76.92,8.0,7.0,0,0,,10.0,30.059055,,,TRUE,TRUE,,,,,,,CLR,,,,,,,,VFR,,,,,,,,,,,,METAR,15.0
KCGE 190155Z AUTO 00000KT 10SM BKN075 11/08 A3005 RMK A01,KCGE,2021-10-19T01:55:00Z,38.53,-76.03,11.0,8.0,0,0,,10.0,30.050198,,,TRUE,TRUE,,,,,,,BKN,7500,,,,,,,VFR,,,,,,,,,,,,METAR,5.0
KCGC 190155Z AUTO 00000KT 10SM CLR 21/15 A3012 RMK AO2,KCGC,2021-10-19T01:55:00Z,28.87,-82.57,21.0,15.0,0,0,,10.0,30.121063,,,TRUE,TRUE,,,,,,,CLR,,,,,,,,VFR,,,,,,,,,,,,METAR,3.0
KCFS 190155Z AUTO 00000KT 10SM CLR 06/05 A3007 RMK AO2 T00600054,KCFS,2021-10-19T01:55:00Z,43.47,-83.45,6.0,5.4,0,0,,10.0,30.070866,,,TRUE,TRUE,,,,,,,CLR,,,,,,,,VFR,,,,,,,,,,,,METAR,214.0
KCFJ 190155Z AUTO 00000KT 10SM CLR 09/05 A3014 RMK AO2 T00850050,KCFJ,2021-10-19T01:55:00Z,39.98,-86.92,8.5,5.0,0,0,,10.0,30.138779,,,TRUE,TRUE,,,,,,,CLR,,,,,,,,VFR,,,,,,,,,,,,METAR,243.0
KCFE 190155Z AUTO 16005KT 10SM SCT049 17/04 A2988 RMK AO2,KCFE,2021-10-19T01:55:00Z,45.17,-93.85,17.0,4.0,160,5,,10.0,29.878937,,,TRUE,TRUE,,,,,,,SCT,4900,,,,,,,VFR,,,,,,,,,,,,METAR,292.0
KCFD 190155Z AUTO 13005KT 10SM CLR 17/11 A3008 RMK AO2 T01730108,KCFD,2021-10-19T01:55:00Z,30.72,-96.33,17.3,10.8,130,5,,10.0,30.079725,,,TRUE,TRUE,,,,,,,CLR,,,,,,,,VFR,,,,,,,,,,,,SPECI,106.0
KCEY 190155Z AUTO 00000KT 10SM CLR 12/08 A3016 RMK AO1,KCEY,2021-10-19T01:55:00Z,36.67,-88.37,12.0,8.0,0,0,,10.0,30.159449,,,TRUE,TRUE,,,,,,,CLR,,,,,,,,VFR,,,,,,,,,,,,SPECI,172.0
KCDN 190155Z AUTO 00000KT 10SM CLR 12/07 A3016 RMK AO2,KCDN,2021-10-19T01:55:00Z,34.28,-80.57,12.0,7.0,0,0,,10.0,30.159449,,,TRUE,TRUE,,,,,,,CLR,,,,,,,,VFR,,,,,,,,,,,,METAR,90.0
KCDI 190155Z AUTO 00000KT 10SM CLR 06/06 A3014 RMK AO2 T00610057,KCDI,2021-10-19T01:55:00Z,39.97,-81.58,6.1,5.7,0,0,,10.0,30.138779,,,TRUE,TRUE,,,,,,,CLR,,,,,,,,VFR,,,,,,,,,,,,METAR,241.0
KCDH 190155Z AUTO 00000KT 10SM CLR 11/11 A3011 RMK AO2,KCDH,2021-10-19T01:55:00Z,33.62,-92.77,11.0,11.0,0,0,,10.0,30.109253,,,TRUE,TRUE,,,,,,,CLR,,,,,,,,VFR,,,,,,,,,,,,METAR,38.0
KCDD 190155Z AUTO 17003KT 10SM CLR 14/04 A2987 RMK AO2,KCDD,2021-10-19T01:55:00Z,48.27,-92.48,14.0,4.0,170,3,,10.0,29.870079,,,TRUE,TRUE,,,,,,,CLR,,,,,,,,VFR,,,,,,,,,,,,SPECI,344.0
KCDA 190155Z AUTO 25005KT 10SM OVC065 05/04 A2982 RMK AO2 T00520038,KCDA,2021-10-19T01:55:00Z,44.57,-72.02,5.2,3.8,250,5,,10.0,29.819881,,,TRUE,TRUE,,,,,,,OVC,6500,,,,,,,VFR,,,,,,,,,,,,METAR,357.0
KCCY 190155Z AUTO 14008KT 10SM CLR 15/06 A2998 RMK AO2,KCCY,2021-10-19T01:55:00Z,43.07,-92.62,15.0,6.0,140,8,,10.0,29.97933,,,TRUE,TRUE,,,,,,,CLR,,,,,,,,VFR,,,,,,,,,,,,METAR,340.0
KCCU 190155Z AUTO 11013G18KT 10SM CLR 05/M08 A3009 RMK AO2,KCCU,2021-10-19T01:55:00Z,39.48,-106.15,5.0,-8.0,110,13,18,10.0,30.088583,,,TRUE,TRUE,,,,,,,CLR,,,,,,,,VFR,,,,,,,,,,,,METAR,3672.0
KCCO 190155Z AUTO 00000KT 10SM CLR 12/09 A3019 RMK AO2 T01150090,KCCO,2021-10-19T01:55:00Z,33.32,-84.77,11.5,9.0,0,0,,10.0,30.188976,,,TRUE,TRUE,,,,,,,CLR,,,,,,,,VFR,,,,,,,,,,,,METAR,290.0
KCCB 190155Z AUTO 23007KT 10SM SCT021 BKN050 OVC065 14/04 A2994 RMK AO2,KCCB,2021-10-19T01:55:00Z,34.12,-117.68,14.0,4.0,230,7,,10.0,29.940945,,,TRUE,TRUE,,,,,,,SCT,2100,BKN,5000,OVC,6500,,,VFR,,,,,,,,,,,,METAR,440.0
KCCA 190155Z AUTO 00000KT 4SM BR CLR 10/09 A3013 RMK AO2,KCCA,2021-10-19T01:55:00Z,35.6,-92.45,10.0,9.0,0,0,,4.0,30.129921,,,TRUE,TRUE,,,,,,BR,CLR,,,,,,,,MVFR,,,,,,,,,,,,METAR,152.0
KCBK 190155Z AUTO 14013KT 10SM CLR 17/06 A2978 RMK AO2 T01680056,KCBK,2021-10-19T01:55:00Z,39.43,-101.05,16.8,5.6,140,13,,10.0,29.778543,,,TRUE,TRUE,,,,,,,CLR,,,,,,,,VFR,,,,,,,,,,,,METAR,970.0
KCBF 190155Z AUTO 16012KT 10SM CLR 16/04 A2991 RMK AO2,KCBF,2021-10-19T01:55:00Z,41.27,-95.77,16.0,4.0,160,12,,10.0,29.911417,,,TRUE,TRUE,,,,,,,CLR,,,,,,,,VFR,,,,,,,,,,,,METAR,379.0
KCBE 190155Z AUTO 36006KT 10SM CLR 12/01 A3014 RMK AO2 T01210014,KCBE,2021-10-19T01:55:00Z,39.62,-78.77,12.1,1.4,360,6,,10.0,30.138779,,,TRUE,TRUE,,,,,,,CLR,,,,,,,,VFR,,,,,,,,,,,,SPECI,226.0
KCAV 190155Z AUTO 17009KT 10SM FEW039 14/05 A2995 RMK A01,KCAV,2021-10-19T01:55:00Z,42.75,-93.77,14.0,5.0,170,9,,10.0,29.949802,,,TRUE,TRUE,,,,,,,FEW,3900,,,,,,,VFR,,,,,,,,,,,,METAR,352.0
KCAO 190155Z AUTO 20011KT 10SM CLR 15/01 A2987 RMK AO2 SLP075 T01500011,KCAO,2021-10-19T01:55:00Z,36.45,-103.15,15.0,1.1,200,11,,10.0,29.870079,1007.5,,TRUE,TRUE,,,,,,,CLR,,,,,,,,VFR,,,,,,,,,,,,SPECI,1517.0
KCAD 190155Z AUTO 00000KT 10SM CLR 04/02 A3007 RMK AO2 T00400024,KCAD,2021-10-19T01:55:00Z,44.27,-85.42,4.0,2.4,0,0,,10.0,30.070866,,,TRUE,TRUE,,,,,,,CLR,,,,,,,,VFR,,,,,,,,,,,,METAR,397.0
KC99 190155Z AUTO 20003KT 10SM OVC065 03/M07 A3007 RMK AO2,KC99,2021-10-19T01:55:00Z,39.87,-105.55,3.0,-7.0,200,3,,10.0,30.070866,,,TRUE,TRUE,,,,,,,OVC,6500,,,,,,,VFR,,,,,,,,,,,,METAR,3334.0
KC83 190155Z AUTO 00000KT 10SM CLR 12/03 A3001 RMK AO2,KC83,2021-10-19T01:55:00Z,37.83,-121.62,12.0,3.0,0,0,,10.0,30.008858,,,TRUE,TRUE,,,,,,,CLR,,,,,,,,VFR,,,,,,,,,,,,SPECI,16.0
KC75 190155Z AUTO 15003KT 10SM CLR 12/09 A3006 RMK AO2 T01150085,KC75,2021-10-19T01:55:00Z,41.02,-89.38,11.5,8.5,150,3,,10.0,30.059055,,,TRUE,TRUE,,,,,,,CLR,,,,,,,,VFR,,,,,,,,,,,,METAR,166.0
KC65 190155Z AUTO 00000KT 10SM CLR 10/09 A3011 RMK A01,KC65,2021-10-19T01:55:00Z,41.37,-86.3,10.0,9.0,0,0,,10.0,30.109253,,,TRUE,TRUE,,,,,,,CLR,,,,,,,,VFR,,,,,,,,,,,,SPECI,241.0
KC35 190155Z AUTO 00000KT 10SM CLR 10/06 A3003 RMK AO2 T00950060 PWINO,KC35,2021-10-19T01:55:00Z,43.53,-89.98,9.5,6.0,0,0,,10.0,30.029528,,,TRUE,TRUE,,,,,TRUE,,CLR,,,,,,,,VFR,,,,,,,,,,,,METAR,272.0
KC29 190155Z AUTO 00000KT 10SM CLR 09/07 A3005 RMK AO1 T00920071,KC29,2021-10-19T01:55:00Z,43.12,-89.53,9.2,7.1,0,0,,10.0,30.050198,,,TRUE,TRUE,,,,,,,CLR,,,,,,,,VFR,,,,,,,,,,,,SPECI,282.0
KC09 190155Z AUTO 15004KT 10SM CLR 15/08 A3006 RMK AO2 T01490082,KC09,2021-10-19T01:55:00Z,41.43,-88.42,14.9,8.2,150,4,,10.0,30.059055,,,TRUE,TRUE,,,,,,,CLR,,,,,,,,VFR,,,,,,,,,,,,METAR,179.0
KC07 190155Z AUTO 00000KT 10SM BKN060 OVC070 06/M07 A3000 RMK AO2,KC07,2021-10-19T01:55:00Z,40.35,-106.7,6.0,-7.0,0,0,,10.0,30.0,,,TRUE,TRUE,,,,,,,BKN,6000,OVC,7000,,,,,VFR,,,,,,,,,,,,METAR,3224.0
KBYY 190155Z AUTO 07005KT 10SM CLR 16/13 A3008 RMK AO2 T01620138,KBYY,2021-10-19T01:55:00Z,28.97,-95.87,16.2,13.8,70,5,,10.0,30.079725,,,TRUE,TRUE,,,,,,,CLR,,,,,,,,VFR,,,,,,,,,,,,METAR,12.0
KBYL 190155Z AUTO 00000KT 10SM CLR 09/09 A3020 RMK AO1,KBYL,2021-10-19T01:55:00Z,36.8,-84.2,9.0,9.0,0,0,,10.0,30.200787,,,TRUE,TRUE,,,,,,,CLR,,,,,,,,VFR,,,,,,,,,,,,METAR,355.0
KBXK 190155Z AUTO 24008KT 10SM 23/03 A2981 RMK A01,KBXK,2021-10-19T01:55:00Z,33.42,-112.68,23.0,3.0,240,8,,10.0,29.811024,,,TRUE,TRUE,,,,,,,,,,,,,,,,,,,,,,,,,,,METAR,303.0
KBXA 190155Z AUTO 00000KT 10SM CLR 14/12 A3014 RMK AO2 T01390123,KBXA,2021-10-19T01:55:00Z,30.82,-89.87,13.9,12.3,0,0,,10.0,30.138779,,,TRUE,TRUE,,,,,,,CLR,,,,,,,,VFR,,,,,,,,,,,,METAR,35.0
KBWW 190155Z AUTO 34009KT 10SM CLR 11/03 A2976 RMK AO2,KBWW,2021-10-19T01:55:00Z,46.17,-103.3,11.0,3.0,340,9,,10.0,29.760826,,,TRUE,TRUE,,,,,,,CLR,,,,,,,,VFR,,,,,,,,,,,,METAR,911.0
KBWP 190155Z AUTO 15011KT 10SM CLR 15/05 A2976 RMK AO2,KBWP,2021-10-19T01:55:00Z,46.25,-96.62,15.0,5.0,150,11,,10.0,29.760826,,,TRUE,TRUE,,,,,,,CLR,,,,,,,,VFR,,,,,,,,,,,,METAR,294.0
KBWD 190155Z AUTO 14011G14KT 10SM FEW036 19/09 A3001 RMK AO1,KBWD,2021-10-19T01:55:00Z,31.8,-98.95,19.0,9.0,140,11,14,10.0,30.008858,,,TRUE,TRUE,,,,,,,FEW,3600,,,,,,,VFR,,,,,,,,,,,,SPECI,420.0
KBVU 190155Z AUTO 34004KT 10SM CLR 15/M01 A2986 RMK AO2,KBVU,2021-10-19T01:55:00Z,35.95,-114.87,15.0,-1.0,340,4,,10.0,29.861221,,,TRUE,TRUE,,,,,,,CLR,,,,,,,,VFR,,,,,,,,,,,,METAR,654.0
KBVS 190155Z AUTO 00000KT 10SM CLR 07/05 A3001 RMK A01,KBVS,2021-10-19T01:55:00Z,48.47,-122.42,7.0,5.0,0,0,,10.0,30.008858,,,TRUE,TRUE,,,,,,,CLR,,,,,,,,VFR,,,,,,,,,,,,SPECI,31.0
KBVN 190155Z AUTO 16007KT 10SM CLR 15/03 A2985 RMK AO2 T01540026,KBVN,2021-10-19T01:55:00Z,41.73,-98.05,15.4,2.6,160,7,,10.0,29.84941,,,TRUE,TRUE,,,,,,,CLR,,,,,,,,VFR,,,,,,,,,,,,METAR,547.0
KBVI 190155Z AUTO 00000KT 10SM CLR 11/05 A3013 RMK AO2 T01050045,KBVI,2021-10-19T01:55:00Z,40.77,-80.37,10.5,4.5,0,0,,10.0,30.129921,,,TRUE,TRUE,,,,,,,CLR,,,,,,,,VFR,,,,,,,,,,,,METAR,387.0
KBUU 190155Z AUTO 00000KT 10SM 08/06 A3007 RMK AO2 T00840060 PWINO,KBUU,2021-10-19T01:55:00Z,42.68,-88.3,8.4,6.0,0,0,,10.0,30.070866,,,TRUE,TRUE,,,,,TRUE,,,,,,,,,,,,,,,,,,,,,,METAR,238.0
KBTN 190155Z AUTO 18013KT 10SM CLR 17/04 A2974 RMK AO2,KBTN,2021-10-19T01:55:00Z,45.82,-97.75,17.0,4.0,180,13,,10.0,29.740158,,,TRUE,TRUE,,,,,,,CLR,,,,,,,,VFR,,,,,,,,,,,,SPECI,402.0
KBTA 190155Z AUTO 16011KT 10SM CLR 18/05 A2991 RMK AO2 T01800051,KBTA,2021-10-19T01:55:00Z,41.42,-96.12,18.0,5.1,160,11,,10.0,29.911417,,,TRUE,TRUE,,,,,,,CLR,,,,,,,,VFR,,,,,,,,,,,,METAR,400.0
KBRG 190155Z AUTO 21008KT 10SM CLR 17/M07 A2991 RMK AO2 T01731070,KBRG,2021-10-19T01:55:00Z,34.65,-106.83,17.3,-7.0,210,8,,10.0,29.911417,,,TRUE,TRUE,,,,,,,CLR,,,,,,,,VFR,,,,,,,,,,,,METAR,1585.0
KBQX 190155Z AUTO 12008KT 10SM FEW042 24/14 A3008 RMK A01,KBQX,2021-10-19T01:55:00Z,28.5,-95.72,24.0,14.0,120,8,,10.0,30.079725,,,TRUE,TRUE,,,,,,,FEW,4200,,,,,,,VFR,,,,,,,,,,,,SPECI,34.0
KBQK 190155Z AUTO 00000KT 10SM CLR 11/10 A3018 RMK AO2 T01090102,KBQK,2021-10-19T01:55:00Z,31.25,-81.47,10.9,10.2,0,0,,10.0,30.180119,,,TRUE,TRUE,,,,,,,CLR,,,,,,,,VFR,,,,,,,,,,,,METAR,7.0
KBPG 190155Z AUTO 16015KT 10SM CLR 20/09 A2996 RMK AO2 T02050089,KBPG,2021-10-19T01:55:00Z,32.22,-101.52,20.5,8.9,160,15,,10.0,29.958662,,,TRUE,TRUE,,,,,,,CLR,,,,,,,,VFR,,,,,,,,,,,,SPECI,782.0
KBPC 190155Z AUTO 17011G16KT 10SM CLR 18/05 A2989 RMK AO2,KBPC,2021-10-19T01:55:00Z,35.88,-101.03,18.0,5.0,170,11,16,10.0,29.890747,,,TRUE,TRUE,,,,,,,CLR,,,,,,,,VFR,,,,,,,,,,,,SPECI,844.0
KBOW 190155Z AUTO 07006KT 10SM CLR 21/15 A3012 RMK AO2,KBOW,2021-10-19T01:55:00Z,27.93,-81.77,21.0,15.0,70,6,,10.0,30.121063,,,TRUE,TRUE,,,,,,,CLR,,,,,,,,VFR,,,,,,,,,,,,METAR,38.0
KBNW 190155Z AUTO 18006KT 9SM CLR 13/06 A2998 RMK AO2,KBNW,2021-10-19T01:55:00Z,42.03,-93.83,13.0,6.0,180,6,,9.0,29.97933,,,TRUE,TRUE,,,,,,,CLR,,,,,,,,VFR,,,,,,,,,,,,METAR,350.0
KBNL 190155Z AUTO 00000KT 10SM CLR 11/08 A3017 RMK AO2,KBNL,2021-10-19T01:55:00Z,33.25,-81.38,11.0,8.0,0,0,,10.0,30.171259,,,TRUE,TRUE,,,,,,,CLR,,,,,,,,VFR,,,,,,,,,,,,METAR,76.0
KBMT 190155Z AUTO 00000KT 10SM CLR 16/11 A3010 RMK AO2 T01600113,KBMT,2021-10-19T01:55:00Z,30.07,-94.22,16.0,11.3,0,0,,10.0,30.100393,,,TRUE,TRUE,,,,,,,CLR,,,,,,,,VFR,,,,,,,,,,,,METAR,8.0
KBMC 190155Z AUTO 01005KT 10SM SCT033 OVC046 07/03 A2985 RMK AO1 T00670029,KBMC,2021-10-19T01:55:00Z,41.55,-112.07,6.7,2.9,10,5,,10.0,29.84941,,,TRUE,TRUE,,,,,,,SCT,3300,OVC,4600,,,,,VFR,,,,,,,,,,,,METAR,1289.0
KBKT 190155Z AUTO 27004KT 10SM CLR 13/04 A3009 RMK AO1 T01250041,KBKT,2021-10-19T01:55:00Z,37.07,-77.95,12.5,4.1,270,4,,10.0,30.088583,,,TRUE,TRUE,,,,,,,CLR,,,,,,,,VFR,,,,,,,,,,,,METAR,134.0
KBKS 190155Z AUTO 10004KT 10SM CLR 18/14 A3003 RMK AO2 T01820140,KBKS,2021-10-19T01:55:00Z,27.2,-98.12,18.2,14.0,100,4,,10.0,30.029528,,,TRUE,TRUE,,,,,,,CLR,,,,,,,,VFR,,,,,,,,,,,,METAR,34.0
KBKN 190155Z AUTO 15010KT 10SM CLR A2997 RMK AO2,KBKN,2021-10-19T01:55:00Z,36.75,-97.35,,,150,10,,10.0,29.970472,,,TRUE,TRUE,,,,,,,CLR,,,,,,,,VFR,,,,,,,,,,,,METAR,208.0
KBKD 190155Z AUTO 13006KT 10SM CLR 18/08 A2999 RMK AO2 T01800080,KBKD,2021-10-19T01:55:00Z,32.72,-98.88,18.0,8.0,130,6,,10.0,29.991142,,,TRUE,TRUE,,,,,,,CLR,,,,,,,,VFR,,,,,,,,,,,,METAR,383.0
KBJI 190155Z AUTO 14008KT 10SM CLR 15/06 A2980 RMK AO2 T01490061,KBJI,2021-10-19T01:55:00Z,47.5,-94.92,14.9,6.1,140,8,,10.0,29.799213,,,TRUE,TRUE,,,,,,,CLR,,,,,,,,VFR,,,,,,,,,,,,SPECI,422.0
KBIJ 190155Z AUTO 00000KT 10SM CLR 11/10 A3018 RMK AO2,KBIJ,2021-10-19T01:55:00Z,31.4,-84.9,11.0,10.0,0,0,,10.0,30.180119,,,TRUE,TRUE,,,,,,,CLR,,,,,,,,VFR,,,,,,,,,,,,METAR,63.0
KBIE 190155Z AUTO 16009KT 10SM CLR 17/05 A2991 RMK AO2 T01720050,KBIE,2021-10-19T01:55:00Z,40.28,-96.75,17.2,5.0,160,9,,10.0,29.911417,,,TRUE,TRUE,,,,,,,CLR,,,,,,,,VFR,,,,,,,,,,,,METAR,398.0
KBHC 190155Z AUTO 00000KT 10SM CLR 11/11 A3018 RMK AO2,KBHC,2021-10-19T01:55:00Z,31.72,-82.4,11.0,11.0,0,0,,10.0,30.180119,,,TRUE,TRUE,,,,,,,CLR,,,,,,,,VFR,,,,,,,,,,,,METAR,61.0
KBGF 190155Z AUTO 00000KT 10SM CLR 10/09 A3018 RMK A01,KBGF,2021-10-19T01:55:00Z,35.18,-86.07,10.0,9.0,0,0,,10.0,30.180119,,,TRUE,TRUE,,,,,,,CLR,,,,,,,,VFR,,,,,,,,,,,,METAR,295.0
KBEC 190155Z AUTO 16010KT 10SM CLR 16/06 A2995 RMK AO2 T01580056,KBEC,2021-10-19T01:55:00Z,37.7,-97.22,15.8,5.6,160,10,,10.0,29.949802,,,TRUE,TRUE,,,,,,,CLR,,,,,,,,VFR,,,,,,,,,,,,METAR,421.0
KBDU 190155Z AUTO 33005KT 10SM CLR 16/M03 A2976 RMK AO2,KBDU,2021-10-19T01:55:00Z,40.03,-105.23,16.0,-3.0,330,5,,10.0,29.760826,,,TRUE,TRUE,,,,,,,CLR,,,,,,,,VFR,,,,,,,,,,,,SPECI,1614.0
KBDN 190155Z AUTO 32007KT 10SM CLR 09/01 A2993 RMK AO2,KBDN,2021-10-19T01:55:00Z,44.1,-121.2,9.0,1.0,320,7,,10.0,29.929134,,,TRUE,TRUE,,,,,,,CLR,,,,,,,,VFR,,,,,,,,,,,,SPECI,1044.0
KBDH 190155Z AUTO 15004KT 10SM CLR 13/04 A2989 RMK AO2,KBDH,2021-10-19T01:55:00Z,45.12,-95.13,13.0,4.0,150,4,,10.0,29.890747,,,TRUE,TRUE,,,,,,,CLR,,,,,,,,VFR,,,,,,,,,,,,METAR,341.0
KBCK 190155Z AUTO 00000KT 10SM CLR 06/05 A3000 RMK AO2 T00630045,KBCK,2021-10-19T01:55:00Z,44.25,-90.85,6.3,4.5,0,0,,10.0,30.0,,,TRUE,TRUE,,,,,,,CLR,,,,,,,,VFR,,,,,,,,,,,,METAR,256.0
KBCB 190155Z AUTO 00000KT 10SM CLR 11/05 A3021 RMK AO2 T01120045,KBCB,2021-10-19T01:55:00Z,37.22,-80.42,11.2,4.5,0,0,,10.0,30.209646,,,TRUE,TRUE,,,,,,,CLR,,,,,,,,VFR,,,,,,,,,,,,METAR,642.0
KBBP 190155Z AUTO 00000KT 10SM CLR 08/08 A3014 RMK AO2,KBBP,2021-10-19T01:55:00Z,34.62,-79.73,8.0,8.0,0,0,,10.0,30.138779,,,TRUE,TRUE,,,,,,,CLR,,,,,,,,VFR,,,,,,,,,,,,METAR,44.0
KBBG 190155Z AUTO 16005KT 10SM FEW031 SCT038 14/08 A3011 RMK AO2,KBBG,2021-10-19T01:55:00Z,36.53,-93.2,14.0,8.0,160,5,,10.0,30.109253,,,TRUE,TRUE,,,,,,,FEW,3100,SCT,3800,,,,,VFR,,,,,,,,,,,,METAR,403.0
KBBD 190155Z AUTO 16009KT 10SM 19/11 RMK AO2 PWINO TSNO,KBBD,2021-10-19T01:55:00Z,31.18,-99.32,19.0,11.0,160,9,,10.0,,,,TRUE,TRUE,,,TRUE,,TRUE,,,,,,,,,,,,,,,,,,,,,,METAR,554.0
KBAX 190155Z AUTO 18004KT 10SM CLR 05/05 A3007 RMK AO2 T00510048,KBAX,2021-10-19T01:55:00Z,43.78,-82.98,5.1,4.8,180,4,,10.0,30.070866,,,TRUE,TRUE,,,,,,,CLR,,,,,,,,VFR,,,,,,,,,,,,METAR,229.0
KBAM 190155Z AUTO 24006KT 10SM BKN029 OVC060 05/02 A2995 RMK AO1,KBAM,2021-10-19T01:55:00Z,,,5.0,2.0,240,6,,10.0,29.949802,,,TRUE,TRUE,,,,,,,BKN,2900,OVC,6000,,,,,MVFR,,,,,,,,,,,,METAR,
KBAC 190155Z AUTO 18007KT 10SM CLR 14/06 A2973 RMK AO2,KBAC,2021-10-19T01:55:00Z,46.93,-98.02,14.0,6.0,180,7,,10.0,29.731298,,,TRUE,TRUE,,,,,,,CLR,,,,,,,,VFR,,,,,,,,,,,,METAR,423.0
KAZE 190155Z AUTO 00000KT 10SM CLR 12/10 A3017 RMK AO2 T01180099,KAZE,2021-10-19T01:55:00Z,31.88,-82.65,11.8,9.9,0,0,,10.0,30.171259,,,TRUE,TRUE,,,,,,,CLR,,,,,,,,VFR,,,,,,,,,,,,METAR,78.0
KAZC 190155Z AUTO 31007G16KT 10SM SCT060 SCT070 OVC110 08/00 A2993 RMK AO2,KAZC,2021-10-19T01:55:00Z,36.97,-113.02,8.0,0.0,310,7,16,10.0,29.929134,,,TRUE,TRUE,,,,,,,SCT,6000,SCT,7000,OVC,11000,,,VFR,,,,,,,,,,,,METAR,1476.0
KAYS 190155Z AUTO 00000KT 10SM CLR 14/13 A3018 RMK AO2 T01390132,KAYS,2021-10-19T01:55:00Z,31.25,-82.4,13.9,13.2,0,0,,10.0,30.180119,,,TRUE,TRUE,,,,,,,CLR,,,,,,,,VFR,,,,,,,,,,,,METAR,42.0
KAXX 190155Z AUTO 21011KT 10SM CLR 07/M08 A3006 RMK AO2 T00681079,KAXX,2021-10-19T01:55:00Z,36.42,-105.28,6.8,-7.9,210,11,,10.0,30.059055,,,TRUE,TRUE,,,,,,,CLR,,,,,,,,VFR,,,,,,,,,,,,METAR,2543.0
KAXV 190155Z AUTO 00000KT 10SM CLR 07/05 A3014 RMK AO2,KAXV,2021-10-19T01:55:00Z,40.5,-84.3,7.0,5.0,0,0,,10.0,30.138779,,,TRUE,TRUE,,,,,,,CLR,,,,,,,,VFR,,,,,,,,,,,,METAR,278.0
KAXS 190155Z AUTO 15013KT 10SM CLR 20/07 A2997 RMK AO2 T01990066,KAXS,2021-10-19T01:55:00Z,34.7,-99.33,19.9,6.6,150,13,,10.0,29.970472,,,TRUE,TRUE,,,,,,,CLR,,,,,,,,VFR,,,,,,,,,,,,METAR,433.0
KAXH 190155Z AUTO 00000KT 10SM CLR 17/14 A3009 RMK AO2 T01660137,KAXH,2021-10-19T01:55:00Z,29.52,-95.48,16.6,13.7,0,0,,10.0,30.088583,,,TRUE,TRUE,,,,,,,CLR,,,,,,,,VFR,,,,,,,,,,,,METAR,18.0
KAXA 190155Z AUTO 17011KT 10SM CLR 17/04 A2992 RMK A01,KAXA,2021-10-19T01:55:00Z,43.07,-94.27,17.0,4.0,170,11,,10.0,29.920275,,,TRUE,TRUE,,,,,,,CLR,,,,,,,,VFR,,,,,,,,,,,,METAR,371.0
KAWG 190155Z AUTO 16007KT 10SM CLR 13/10 A3001 RMK AO2,KAWG,2021-10-19T01:55:00Z,41.27,-91.67,13.0,10.0,160,7,,10.0,30.008858,,,TRUE,TRUE,,,,,,,CLR,,,,,,,,VFR,,,,,,,,,,,,METAR,229.0
KAVQ 190155Z AUTO 25006KT 10SM CLR 24/08 A2984 RMK AO2 T02370076,KAVQ,2021-10-19T01:55:00Z,32.4,-111.22,23.7,7.6,250,6,,10.0,29.840551,,,TRUE,TRUE,,,,,,,CLR,,,,,,,,VFR,,,,,,,,,,,,METAR,618.0
KAVK 190155Z AUTO 16017G24KT 10SM CLR 19/06 A2990 RMK AO2,KAVK,2021-10-19T01:55:00Z,36.77,-98.67,19.0,6.0,160,17,24,10.0,29.899607,,,TRUE,TRUE,,,,,,,CLR,,,,,,,,VFR,,,,,,,,,,,,METAR,450.0
KAVC 190155Z AUTO 00000KT 10SM CLR 14/03 A3015 RMK AO2 T01400028,KAVC,2021-10-19T01:55:00Z,36.68,-78.05,14.0,2.8,0,0,,10.0,30.15059,,,TRUE,TRUE,,,,,,,CLR,,,,,,,,VFR,,,,,,,,,,,,METAR,119.0
KAUN 190155Z AUTO 00000KT 10SM CLR 08/05 A3002 RMK A01,KAUN,2021-10-19T01:55:00Z,38.95,-121.08,8.0,5.0,0,0,,10.0,30.02067,,,TRUE,TRUE,,,,,,,CLR,,,,,,,,VFR,,,,,,,,,,,,SPECI,453.0
KAUM 190155Z AUTO 14004KT 10SM CLR 16/06 A2997 RMK AO2,KAUM,2021-10-19T01:55:00Z,43.67,-92.92,16.0,6.0,140,4,,10.0,29.970472,,,TRUE,TRUE,,,,,,,CLR,,,,,,,,VFR,,,,,,,,,,,,METAR,376.0
KAUH 190155Z AUTO 16009KT 10SM CLR 16/03 A2986 RMK AO2 T01600028,KAUH,2021-10-19T01:55:00Z,40.88,-98.0,16.0,2.8,160,9,,10.0,29.861221,,,TRUE,TRUE,,,,,,,CLR,,,,,,,,VFR,,,,,,,,,,,,METAR,549.0
KATS 190155Z AUTO 18011KT 10SM CLR 21/07 A2992 RMK AO2,KATS,2021-10-19T01:55:00Z,32.85,-104.47,21.0,7.0,180,11,,10.0,29.920275,,,TRUE,TRUE,,,,,,,CLR,,,,,,,,VFR,,,,,,,,,,,,METAR,1073.0
KATP 190155Z AUTO 07018KT 10SM SCT038 BKN047 BKN055 26/18 A3003 RMK A01,KATP,2021-10-19T01:55:00Z,27.2,-90.03,26.0,18.0,70,18,,10.0,30.029528,,,TRUE,TRUE,,,,,,,SCT,3800,BKN,4700,BKN,5500,,,VFR,,,,,,,,,,,,METAR,50.0
KASW 190155Z AUTO 00000KT 10SM CLR 09/07 A3012 RMK AO2,KASW,2021-10-19T01:55:00Z,41.27,-85.83,9.0,7.0,0,0,,10.0,30.121063,,,TRUE,TRUE,,,,,,,CLR,,,,,,,,VFR,,,,,,,,,,,,METAR,253.0
KAST 190155Z AUTO 00000KT 10SM CLR 08/06 A2998 RMK AO2 SLP152 T00830056,KAST,2021-10-19T01:55:00Z,46.15,-123.88,8.3,5.6,0,0,,10.0,29.97933,1015.2,,TRUE,TRUE,,,,,,,CLR,,,,,,,,VFR,,,,,,,,,,,,SPECI,3.0
KASN 190155Z AUTO 00000KT 10SM CLR 10/10 A3018 RMK AO2 T01040095,KASN,2021-10-19T01:55:00Z,33.57,-86.05,10.4,9.5,0,0,,10.0,30.180119,,,TRUE,TRUE,,,,,,,CLR,,,,,,,,VFR,,,,,,,,,,,,METAR,159.0
KASL 190155Z AUTO 00000KT 10SM CLR 11/08 A3011 RMK AO1 T01090078,KASL,2021-10-19T01:55:00Z,32.52,-94.3,10.9,7.8,0,0,,10.0,30.109253,,,TRUE,TRUE,,,,,,,CLR,,,,,,,,VFR,,,,,,,,,,,,METAR,104.0
KASJ 190155Z AUTO 24004KT 10SM CLR 10/05 A3009 RMK AO2 T01010050,KASJ,2021-10-19T01:55:00Z,36.28,-77.17,10.1,5.0,240,4,,10.0,30.088583,,,TRUE,TRUE,,,,,,,CLR,,,,,,,,VFR,,,,,,,,,,,,METAR,20.0
KARW 190155Z AUTO 00000KT 10SM CLR 15/11 A3017 RMK AO2,KARW,2021-10-19T01:55:00Z,32.42,-80.63,15.0,11.0,0,0,,10.0,30.171259,,,TRUE,TRUE,,,,,,,CLR,,,,,,,,VFR,,,,,,,,,,,,METAR,2.0
KARV 190155Z AUTO 00000KT 10SM CLR 14/06 A3000 RMK AO2 T01380060,KARV,2021-10-19T01:55:00Z,45.92,-89.72,13.8,6.0,0,0,,10.0,30.0,,,TRUE,TRUE,,,,,,,CLR,,,,,,,,VFR,,,,,,,,,,,,METAR,494.0
KARM 190155Z AUTO 14003KT 10SM CLR 17/13 A3008 RMK AO2 T01700127,KARM,2021-10-19T01:55:00Z,29.25,-96.15,17.0,12.7,140,3,,10.0,30.079725,,,TRUE,TRUE,,,,,,,CLR,,,,,,,,VFR,,,,,,,,,,,,SPECI,29.0
KAQX 190155Z AUTO 00000KT 10SM CLR 11/10 A3016 RMK AO2,KAQX,2021-10-19T01:55:00Z,32.98,-81.27,11.0,10.0,0,0,,10.0,30.159449,,,TRUE,TRUE,,,,,,,CLR,,,,,,,,VFR,,,,,,,,,,,,METAR,48.0
KAQO 190155Z AUTO 13005KT 10SM SCT034 SCT044 19/11 A3002 RMK AO2,KAQO,2021-10-19T01:55:00Z,30.78,-98.67,19.0,11.0,130,5,,10.0,30.02067,,,TRUE,TRUE,,,,,,,SCT,3400,SCT,4400,,,,,VFR,,,,,,,,,,,,SPECI,334.0
KAPY 190155Z AUTO 13004KT 10SM CLR 26/13 A3001 RMK AO2 T02560132 TSNO,KAPY,2021-10-19T01:55:00Z,26.97,-99.25,25.6,13.2,130,4,,10.0,30.008858,,,TRUE,TRUE,,,TRUE,,,,CLR,,,,,,,,VFR,,,,,,,,,,,,SPECI,129.0
KAPS 190155Z AUTO 00000KT 10SM CLR 16/15 A3013 RMK AO2 T01610147,KAPS,2021-10-19T01:55:00Z,30.08,-90.58,16.1,14.7,0,0,,10.0,30.129921,,,TRUE,TRUE,,,,,,,CLR,,,,,,,,VFR,,,,,,,,,,,,METAR,1.0
KANW 190155Z AUTO 17003KT 10SM CLR 11/04 A2979 RMK AO2 T01060036,KANW,2021-10-19T01:55:00Z,42.57,-100.0,10.6,3.6,170,3,,10.0,29.790354,,,TRUE,TRUE,,,,,,,CLR,,,,,,,,VFR,,,,,,,,,,,,METAR,788.0
KANQ 190155Z AUTO 00000KT 10SM FEW040 09/08 A3012 RMK AO2,KANQ,2021-10-19T01:55:00Z,41.63,-85.08,9.0,8.0,0,0,,10.0,30.121063,,,TRUE,TRUE,,,,,,,FEW,4000,,,,,,,VFR,,,,,,,,,,,,METAR,299.0
KANK 190155Z AUTO 21005KT 10SM CLR 14/M12 A2999 RMK AO1 T01421118,KANK,2021-10-19T01:55:00Z,38.53,-106.05,14.2,-11.8,210,5,,10.0,29.991142,,,TRUE,TRUE,,,,,,,CLR,,,,,,,,VFR,,,,,,,,,,,,METAR,2293.0
KANJ 190155Z AUTO 00000KT 10SM CLR 07/03 A3003 RMK AO2 SLP171 T00670028,KANJ,2021-10-19T01:55:00Z,46.47,-84.37,6.7,2.8,0,0,,10.0,30.029528,1017.1,,TRUE,TRUE,,,,,,,CLR,,,,,,,,VFR,,,,,,,,,,,,SPECI,220.0
KAMN 190155Z AUTO 25004KT 10SM CLR 08/05 A3009 RMK AO2 T00820051,KAMN,2021-10-19T01:55:00Z,43.32,-84.68,8.2,5.1,250,4,,10.0,30.088583,,,TRUE,TRUE,,,,,,,CLR,,,,,,,,VFR,,,,,,,,,,,,SPECI,228.0
KALX 190155Z AUTO 00000KT 10SM CLR 12/11 A3017 RMK AO2 T01150107,KALX,2021-10-19T01:55:00Z,32.92,-85.97,11.5,10.7,0,0,,10.0,30.171259,,,TRUE,TRUE,,,,,,,CLR,,,,,,,,VFR,,,,,,,,,,,,METAR,198.0
KALM 190155Z AUTO 15007KT 10SM CLR 18/00 A2993 RMK AO2,KALM,2021-10-19T01:55:00Z,32.83,-105.98,18.0,0.0,150,7,,10.0,29.929134,,,TRUE,TRUE,,,,,,,CLR,,,,,,,,VFR,,,,,,,,,,,,METAR,1267.0
KAJZ 190155Z AUTO 19007G16KT 10SM OVC120 19/M06 A2973 RMK AO2 T01941060,KAJZ,2021-10-19T01:55:00Z,38.78,-108.07,19.4,-6.0,190,7,16,10.0,29.731298,,,TRUE,TRUE,,,,,,,OVC,12000,,,,,,,VFR,,,,,,,,,,,,METAR,1583.0
KAJR 190155Z AUTO 00000KT 7SM CLR 14/09 A3017 RMK AO2 T01360092,KAJR,2021-10-19T01:55:00Z,34.5,-83.55,13.6,9.2,0,0,,7.0,30.171259,,,TRUE,TRUE,,,,,,,CLR,,,,,,,,VFR,,,,,,,,,,,,METAR,441.0
KAJG 190155Z AUTO 00000KT 10SM CLR 11/08 A3015 RMK AO2 T01110078,KAJG,2021-10-19T01:55:00Z,38.62,-87.73,11.1,7.8,0,0,,10.0,30.15059,,,TRUE,TRUE,,,,,,,CLR,,,,,,,,VFR,,,,,,,,,,,,METAR,130.0
KAIT 190155Z AUTO 00000KT 10SM CLR 13/06 A2986 RMK AO2,KAIT,2021-10-19T01:55:00Z,46.53,-93.67,13.0,6.0,0,0,,10.0,29.861221,,,TRUE,TRUE,,,,,,,CLR,,,,,,,,VFR,,,,,,,,,,,,METAR,367.0
KAIO 190155Z AUTO 18005KT 10SM CLR 15/07 A2994 RMK AO2,KAIO,2021-10-19T01:55:00Z,41.4,-95.03,15.0,7.0,180,5,,10.0,29.940945,,,TRUE,TRUE,,,,,,,CLR,,,,,,,,VFR,,,,,,,,,,,,METAR,349.0
KAIK 190155Z AUTO 00000KT 10SM CLR 12/07 A3018 RMK AO2 T01150074,KAIK,2021-10-19T01:55:00Z,33.65,-81.68,11.5,7.4,0,0,,10.0,30.180119,,,TRUE,TRUE,,,,,,,CLR,,,,,,,,VFR,,,,,,,,,,,,METAR,155.0
KAIG 190155Z AUTO 18005KT 10SM CLR 12/05 A3002 RMK AO2 T01150052,KAIG,2021-10-19T01:55:00Z,45.15,-89.12,11.5,5.2,180,5,,10.0,30.02067,,,TRUE,TRUE,,,,,,,CLR,,,,,,,,VFR,,,,,,,,,,,,METAR,462.0
KAHQ 190155Z AUTO 16008KT 10SM CLR 15/05 A2990 RMK AO2 T01450048,KAHQ,2021-10-19T01:55:00Z,41.23,-96.6,14.5,4.8,160,8,,10.0,29.899607,,,TRUE,TRUE,,,,,,,CLR,,,,,,,,VFR,,,,,,,,,,,,METAR,372.0
KAGI 190155Z AUTO 05007KT 10SM CLR 24/17 A3005 RMK AO2 T02350170,KAGI,2021-10-19T01:55:00Z,,,23.5,17.0,50,7,,10.0,30.050198,,,TRUE,TRUE,,,,,,,CLR,,,,,,,,VFR,,,,,,,,,,,,METAR,
KAFP 190155Z AUTO 00000KT 10SM CLR 10/08 A3014 RMK AO2 T01010083,KAFP,2021-10-19T01:55:00Z,35.02,-80.08,10.1,8.3,0,0,,10.0,30.138779,,,TRUE,TRUE,,,,,,,CLR,,,,,,,,VFR,,,,,,,,,,,,METAR,91.0
KAFO 190155Z AUTO 00000KT 10SM BKN120 05/00 A2980 RMK AO2,KAFO,2021-10-19T01:55:00Z,42.72,-110.95,5.0,0.0,0,0,,10.0,29.799213,,,TRUE,TRUE,,,,,,,BKN,12000,,,,,,,VFR,,,,,,,,,,,,METAR,1881.0
KAFK 190155Z AUTO 18011KT 10SM CLR 16/06 A2994 RMK AO2 T01640060,KAFK,2021-10-19T01:55:00Z,40.6,-95.85,16.4,6.0,180,11,,10.0,29.940945,,,TRUE,TRUE,,,,,,,CLR,,,,,,,,VFR,,,,,,,,,,,,METAR,353.0
KAEL 190155Z AUTO 16008KT 10SM CLR 16/06 A2995 RMK AO2,KAEL,2021-10-19T01:55:00Z,43.68,-93.37,16.0,6.0,160,8,,10.0,29.949802,,,TRUE,TRUE,,,,,,,CLR,,,,,,,,VFR,,,,,,,,,,,,METAR,382.0
KAEJ 190155Z AUTO 15006KT 10SM CLR 10/M10 A2993 RMK AO2 T00981105,KAEJ,2021-10-19T01:55:00Z,38.82,-106.12,9.8,-10.5,150,6,,10.0,29.929134,,,TRUE,TRUE,,,,,,,CLR,,,,,,,,VFR,,,,,,,,,,,,SPECI,2420.0
KADU 190155Z AUTO 00000KT 10SM CLR 12/06 A2996 RMK AO2,KADU,2021-10-19T01:55:00Z,41.7,-94.92,12.0,6.0,0,0,,10.0,29.958662,,,TRUE,TRUE,,,,,,,CLR,,,,,,,,VFR,,,,,,,,,,,,METAR,391.0
KADH 190155Z AUTO 00000KT 10SM CLR 15/06 A3003 RMK AO2,KADH,2021-10-19T01:55:00Z,34.8,-96.67,15.0,6.0,0,0,,10.0,30.029528,,,TRUE,TRUE,,,,,,,CLR,,,,,,,,VFR,,,,,,,,,,,,METAR,301.0
KACQ 190155Z AUTO 14008KT 10SM CLR 15/04 A2995 RMK AO2,KACQ,2021-10-19T01:55:00Z,44.07,-93.55,15.0,4.0,140,8,,10.0,29.949802,,,TRUE,TRUE,,,,,,,CLR,,,,,,,,VFR,,,,,,,,,,,,METAR,339.0
KACP 190155Z AUTO 00000KT 10SM CLR 12/10 A3011 RMK AO2,KACP,2021-10-19T01:55:00Z,30.75,-92.68,12.0,10.0,0,0,,10.0,30.109253,,,TRUE,TRUE,,,,,,,CLR,,,,,,,,VFR,,,,,,,,,,,,METAR,31.0
KACJ 190155Z AUTO 00000KT 13/11 A3021 RMK AO2 PWINO,KACJ,2021-10-19T01:55:00Z,32.12,-84.18,13.0,11.0,0,0,,,30.209646,,,TRUE,TRUE,,,,,TRUE,,,,,,,,,,,,,,,,,,,,,,METAR,140.0
KACB 190155Z AUTO 00000KT 10SM CLR 06/05 A3007 RMK AO2 T00550051,KACB,2021-10-19T01:55:00Z,44.98,-85.2,5.5,5.1,0,0,,10.0,30.070866,,,TRUE,TRUE,,,,,,,CLR,,,,,,,,VFR,,,,,,,,,,,,METAR,189.0
KAAT 190155Z AUTO 24004KT 10SM CLR 04/01 A2999 RMK AO2 SLP162 T00390011,KAAT,2021-10-19T01:55:00Z,41.48,-120.57,3.9,1.1,240,4,,10.0,29.991142,1016.2,,TRUE,TRUE,,,,,,,CLR,,,,,,,,VFR,,,,,,,,,,,,SPECI,1336.0
KAAS 190155Z AUTO 00000KT 10SM CLR 11/08 A3023 RMK AO1,KAAS,2021-10-19T01:55:00Z,37.35,-85.32,11.0,8.0,0,0,,10.0,30.230314,,,TRUE,TRUE,,,,,,,CLR,,,,,,,,VFR,,,,,,,,,,,,METAR,270.0
KAAA 190155Z AUTO 00000KT 10SM CLR 14/09 A3009 RMK AO2 T01430086,KAAA,2021-10-19T01:55:00Z,40.17,-89.33,14.3,8.6,0,0,,10.0,30.088583,,,TRUE,TRUE,,,,,,,CLR,,,,,,,,VFR,,,,,,,,,,,,METAR,179.0
KA39 190155Z AUTO 23008KT 10SM CLR 23/08 A2986 RMK AO2,KA39,2021-10-19T01:55:00Z,32.98,-111.92,23.0,8.0,230,8,,10.0,29.861221,,,TRUE,TRUE,,,,,,,CLR,,,,,,,,VFR,,,,,,,,,,,,SPECI,391.0
K9V9 190155Z AUTO 14008KT 10SM CLR 14/05 A2976 RMK AO2 T01350052,K9V9,2021-10-19T01:55:00Z,43.77,-99.32,13.5,5.2,140,8,,10.0,29.760826,,,TRUE,TRUE,,,,,,,CLR,,,,,,,,VFR,,,,,,,,,,,,SPECI,511.0
K9S5 190155Z AUTO 01009G16KT 10SM 14/M02 A2988 RMK Three Forks ,K9S5,2021-10-19T01:55:00Z,,,14.0,-2.0,10,9,16,10.0,29.878937,,,TRUE,,,,,,,,,,,,,,,,,,,,,,,,,,,,METAR,
K9S2 190155Z AUTO 32011KT 07/M01 A2988 RMK Scobey ,K9S2,2021-10-19T01:55:00Z,48.8,-105.43,7.0,-1.0,320,11,,,29.878937,,,TRUE,,,,,,,,,,,,,,,,,,,,,,,,,,,,METAR,742.0
K9MN 190155Z AUTO 14005KT 10SM CLR 16/04 A2998 RMK AO1 T01610040,K9MN,2021-10-19T01:55:00Z,44.02,-92.48,16.1,4.0,140,5,,10.0,29.97933,,,TRUE,TRUE,,,,,,,CLR,,,,,,,,VFR,,,,,,,,,,,,METAR,308.0
K9D7 190155Z AUTO 00000KT 10SM CLR 10/10 A2970 RMK AO2 TSNO,K9D7,2021-10-19T01:55:00Z,48.48,-99.23,10.0,10.0,0,0,,10.0,29.698818,,,TRUE,TRUE,,,TRUE,,,,CLR,,,,,,,,VFR,,,,,,,,,,,,METAR,451.0
K9A5 190155Z AUTO 00000KT 10SM CLR 09/09 A3020 RMK AO2 T00930093,K9A5,2021-10-19T01:55:00Z,34.68,-85.28,9.3,9.3,0,0,,10.0,30.200787,,,TRUE,TRUE,,,,,,,CLR,,,,,,,,VFR,,,,,,,,,,,,METAR,234.0
K96D 190155Z AUTO 22005KT 10SM CLR 16/08 A2964 RMK AO2,K96D,2021-10-19T01:55:00Z,48.93,-97.9,16.0,8.0,220,5,,10.0,29.639763,,,TRUE,TRUE,,,,,,,CLR,,,,,,,,VFR,,,,,,,,,,,,SPECI,290.0
K8W2 190155Z AUTO 00000KT 10SM CLR 08/05 A3009 RMK AO1 T00760054,K8W2,2021-10-19T01:55:00Z,38.65,-78.7,7.6,5.4,0,0,,10.0,30.088583,,,TRUE,TRUE,,,,,,,CLR,,,,,,,,VFR,,,,,,,,,,,,METAR,295.0
K8A3 190155Z AUTO 00000KT 10SM CLR 12/06 A3018 RMK A01,K8A3,2021-10-19T01:55:00Z,36.42,-85.32,12.0,6.0,0,0,,10.0,30.180119,,,TRUE,TRUE,,,,,,,CLR,,,,,,,,VFR,,,,,,,,,,,,METAR,413.0
K82V 190155Z AUTO 12009KT 10SM CLR 13/M01 A2981 RMK AO2,K82V,2021-10-19T01:55:00Z,41.15,-104.13,13.0,-1.0,120,9,,10.0,29.811024,,,TRUE,TRUE,,,,,,,CLR,,,,,,,,VFR,,,,,,,,,,,,SPECI,1563.0
K82C 190155Z AUTO 00000KT 7SM CLR 09/07 A3002 RMK AO2 T00850069,K82C,2021-10-19T01:55:00Z,43.83,-90.13,8.5,6.9,0,0,,7.0,30.02067,,,TRUE,TRUE,,,,,,,CLR,,,,,,,,VFR,,,,,,,,,,,,SPECI,273.0
K81R 190155Z AUTO 13006KT 10SM CLR 18/11 A3004 RMK AO2 T01830107,K81R,2021-10-19T01:55:00Z,31.23,-98.72,18.3,10.7,130,6,,10.0,30.041338,,,TRUE,TRUE,,,,,,,CLR,,,,,,,,VFR,,,,,,,,,,,,SPECI,381.0
K7W6 190155Z AUTO 00000KT 10SM CLR 08/02 A3009 RMK AO2 T00810020,K7W6,2021-10-19T01:55:00Z,35.55,-75.95,8.1,2.0,0,0,,10.0,30.088583,,,TRUE,TRUE,,,,,,,CLR,,,,,,,,VFR,,,,,,,,,,,,METAR,1.0
K7W4 190155Z AUTO 00000KT 10SM CLR 09/03 A3008 RMK AO1 T00930032,K7W4,2021-10-19T01:55:00Z,37.97,-77.75,9.3,3.2,0,0,,10.0,30.079725,,,TRUE,TRUE,,,,,,,CLR,,,,,,,,VFR,,,,,,,,,,,,METAR,115.0
K7L2 190155Z AUTO 13007KT 10SM CLR 13/08 A2972 RMK AO2,K7L2,2021-10-19T01:55:00Z,46.22,-100.25,13.0,8.0,130,7,,10.0,29.719488,,,TRUE,TRUE,,,,,,,CLR,,,,,,,,VFR,,,,,,,,,,,,METAR,541.0
K7BM 190155Z AUTO 17004G14KT 10SM CLR 08/M11 A3002 RMK AO2,K7BM,2021-10-19T01:55:00Z,38.78,-106.22,8.0,-11.0,170,4,14,10.0,30.02067,,,TRUE,TRUE,,,,,,,CLR,,,,,,,,VFR,,,,,,,,,,,,METAR,2996.0
K77S 190155Z AUTO 00000KT 10SM OVC050 11/10 A2999 RMK A01,K77S,2021-10-19T01:55:00Z,43.93,-123.0,11.0,10.0,0,0,,10.0,29.991142,,,TRUE,TRUE,,,,,,,OVC,5000,,,,,,,VFR,,,,,,,,,,,,METAR,161.0
K6S8 190155Z AUTO 02011KT 10SM 13/M04 A2988 RMK A01 LAUREL,K6S8,2021-10-19T01:55:00Z,45.7,-108.77,13.0,-4.0,20,11,,10.0,29.878937,,,TRUE,TRUE,,,,,,,,,,,,,,,,,,,,,,,,,,,METAR,1072.0
K6S2 190155Z AUTO 00000KT 10SM CLR 09/08 A3000 RMK AO2 T00940078,K6S2,2021-10-19T01:55:00Z,43.98,-124.12,9.4,7.8,0,0,,10.0,30.0,,,TRUE,TRUE,,,,,,,CLR,,,,,,,,VFR,,,,,,,,,,,,METAR,16.0
K6S0 190155Z AUTO 01012KT 10SM FEW095 10/M02 A2993 RMK A01,K6S0,2021-10-19T01:55:00Z,45.8,-109.97,10.0,-2.0,10,12,,10.0,29.929134,,,TRUE,TRUE,,,,,,,FEW,9500,,,,,,,VFR,,,,,,,,,,,,METAR,1364.0
K6R3 190155Z AUTO 00000KT 10SM CLR 14/14 A3010 RMK AO2 T01390135,K6R3,2021-10-19T01:55:00Z,30.35,-95.0,13.9,13.5,0,0,,10.0,30.100393,,,TRUE,TRUE,,,,,,,CLR,,,,,,,,VFR,,,,,,,,,,,,SPECI,44.0
K6P9 190155Z AUTO 15009KT 10SM CLR 17/08 A3002 RMK AO2 T01720080,K6P9,2021-10-19T01:55:00Z,32.43,-98.6,17.2,8.0,150,9,,10.0,30.02067,,,TRUE,TRUE,,,,,,,CLR,,,,,,,,VFR,,,,,,,,,,,,METAR,451.0
K6L4 190155Z AUTO 00000KT 10SM CLR 12/07 A3019 RMK AO2,K6L4,2021-10-19T01:55:00Z,37.85,-81.92,12.0,7.0,0,0,,10.0,30.188976,,,TRUE,TRUE,,,,,,,CLR,,,,,,,,VFR,,,,,,,,,,,,METAR,504.0
K6I2 190155Z AUTO 00000KT 10SM CLR 12/09 A3019 RMK AO2,K6I2,2021-10-19T01:55:00Z,37.63,-85.25,12.0,9.0,0,0,,10.0,30.188976,,,TRUE,TRUE,,,,,,,CLR,,,,,,,,VFR,,,,,,,,,,,,METAR,258.0
K6B9 190155Z AUTO 26006KT 10SM SCT043 OVC050 08/07 A2999 RMK AO2,K6B9,2021-10-19T01:55:00Z,42.92,-76.43,8.0,7.0,260,6,,10.0,29.991142,,,TRUE,TRUE,,,,,,,SCT,4300,OVC,5000,,,,,VFR,,,,,,,,,,,,METAR,306.0
K6A2 190155Z AUTO 00000KT 10SM CLR 10/09 A3019 RMK AO2,K6A2,2021-10-19T01:55:00Z,33.23,-84.27,10.0,9.0,0,0,,10.0,30.188976,,,TRUE,TRUE,,,,,,,CLR,,,,,,,,VFR,,,,,,,,,,,,METAR,290.0
K6A1 190155Z AUTO 00000KT 10SM CLR 12/07 A3019 RMK AO2 T01200069,K6A1,2021-10-19T01:55:00Z,32.57,-84.25,12.0,6.9,0,0,,10.0,30.188976,,,TRUE,TRUE,,,,,,,CLR,,,,,,,,VFR,,,,,,,,,,,,METAR,198.0
K66R 190155Z AUTO 13003KT 10SM CLR 17/13 A3008 RMK AO2 T01670125,K66R,2021-10-19T01:55:00Z,29.65,-96.52,16.7,12.5,130,3,,10.0,30.079725,,,TRUE,TRUE,,,,,,,CLR,,,,,,,,VFR,,,,,,,,,,,,METAR,70.0
K63S 190155Z AUTO 00000KT 10SM FEW030 BKN038 OVC044 08/04 A2986 RMK A01,K63S,2021-10-19T01:55:00Z,,,8.0,4.0,0,0,,10.0,29.861221,,,TRUE,TRUE,,,,,,,FEW,3000,BKN,3800,OVC,4400,,,VFR,,,,,,,,,,,,METAR,
K5SM 190155Z AUTO 22007G17KT 10SM SCT070 SCT080 OVC100 02/M09 A3002 RMK AO2,K5SM,2021-10-19T01:55:00Z,39.43,-107.38,2.0,-9.0,220,7,17,10.0,30.02067,,,TRUE,TRUE,,,,,,,SCT,7000,SCT,8000,OVC,10000,,,VFR,,,,,,,,,,,,METAR,3229.0
K5R8 190155Z AUTO 00000KT 10SM CLR 13/11 A3012 RMK AO2 T01310106,K5R8,2021-10-19T01:55:00Z,30.43,-93.47,13.1,10.6,0,0,,10.0,30.121063,,,TRUE,TRUE,,,,,,,CLR,,,,,,,,VFR,,,,,,,,,,,,METAR,26.0
K5M9 190155Z AUTO 00000KT 10SM CLR 11/07 A3016 RMK AO2 T01080065,K5M9,2021-10-19T01:55:00Z,37.33,-88.12,10.8,6.5,0,0,,10.0,30.159449,,,TRUE,TRUE,,,,,,,CLR,,,,,,,,VFR,,,,,,,,,,,,METAR,199.0
K5H4 190155Z AUTO 24003KT 10SM CLR 10/07 A2971 RMK AO2,K5H4,2021-10-19T01:55:00Z,47.78,-99.93,10.0,7.0,240,3,,10.0,29.71063,,,TRUE,TRUE,,,,,,,CLR,,,,,,,,VFR,,,,,,,,,,,,METAR,490.0
K5C1 190155Z AUTO 15005KT 10SM CLR 18/10 A3005 RMK AO1,K5C1,2021-10-19T01:55:00Z,29.72,-98.7,18.0,10.0,150,5,,10.0,30.050198,,,TRUE,TRUE,,,,,,,CLR,,,,,,,,VFR,,,,,,,,,,,,METAR,422.0
K5A6 190155Z AUTO 00000KT 10SM CLR 10/10 A3015 RMK AO2 T01030098,K5A6,2021-10-19T01:55:00Z,33.47,-89.73,10.3,9.8,0,0,,10.0,30.15059,,,TRUE,TRUE,,,,,,,CLR,,,,,,,,VFR,,,,,,,,,,,,METAR,109.0
K57C 190155Z AUTO 00000KT 10SM CLR 10/07 A3006 RMK AO2 T00950071,K57C,2021-10-19T01:55:00Z,42.8,-88.37,9.5,7.1,0,0,,10.0,30.059055,,,TRUE,TRUE,,,,,,,CLR,,,,,,,,VFR,,,,,,,,,,,,SPECI,454.0
K54J 190155Z AUTO 00000KT 10SM CLR 15/10 A3016 RMK AO2 T01470095,K54J,2021-10-19T01:55:00Z,30.73,-86.15,14.7,9.5,0,0,,10.0,30.159449,,,TRUE,TRUE,,,,,,,CLR,,,,,,,,VFR,,,,,,,,,,,,METAR,87.0
K54A 190155Z AUTO 07008G14KT 10SM FEW050 23/17 A3008 RMK AO2,K54A,2021-10-19T01:55:00Z,26.85,-82.25,23.0,17.0,70,8,14,10.0,30.079725,,,TRUE,TRUE,,,,,,,FEW,5000,,,,,,,VFR,,,,,,,,,,,,METAR,2.0
K4V1 190155Z AUTO 24007KT 10SM CLR 14/M05 A2986 RMK AO2 T01351050,K4V1,2021-10-19T01:55:00Z,37.7,-104.78,13.5,-5.0,240,7,,10.0,29.861221,,,TRUE,TRUE,,,,,,,CLR,,,,,,,,VFR,,,,,,,,,,,,METAR,1847.0
K4V0 190155Z AUTO 36004KT 10SM BKN120 11/01 A2973 RMK AO2 T01130014,K4V0,2021-10-19T01:55:00Z,40.1,-108.77,11.3,1.4,360,4,,10.0,29.731298,,,TRUE,TRUE,,,,,,,BKN,12000,,,,,,,VFR,,,,,,,,,,,,METAR,1602.0
K4S2 190155Z AUTO 00000KT 10SM CLR 10/04 A2997 RMK AO2,K4S2,2021-10-19T01:55:00Z,45.68,-121.55,10.0,4.0,0,0,,10.0,29.970472,,,TRUE,TRUE,,,,,,,CLR,,,,,,,,VFR,,,,,,,,,,,,SPECI,183.0
K4S1 190155Z AUTO 17003KT 2 1/2SM BR CLR 10/07 A3000 RMK AO2,K4S1,2021-10-19T01:55:00Z,42.42,-124.42,10.0,7.0,170,3,,2.5,30.0,,,TRUE,TRUE,,,,,,BR,CLR,,,,,,,,IFR,,,,,,,,,,,,METAR,7.0
K4R5 190155Z AUTO 00000KT 10SM BKN110 06/05 A2991 RMK AO2 T00550054,K4R5,2021-10-19T01:55:00Z,46.78,-90.77,5.5,5.4,0,0,,10.0,29.911417,,,TRUE,TRUE,,,,,,,BKN,11000,,,,,,,VFR,,,,,,,,,,,,METAR,195.0
K4O4 190155Z AUTO 10006KT 10SM BKN038 16/07 A3008 RMK AO2,K4O4,2021-10-19T01:55:00Z,33.92,-94.87,16.0,7.0,100,6,,10.0,30.079725,,,TRUE,TRUE,,,,,,,BKN,3800,,,,,,,VFR,,,,,,,,,,,,SPECI,148.0
K4M9 190155Z AUTO 15003KT 6SM HZ CLR 13/10 A3013 RMK AO2 PWINO,K4M9,2021-10-19T01:55:00Z,36.4,-90.65,13.0,10.0,150,3,,6.0,30.129921,,,TRUE,TRUE,,,,,TRUE,HZ,CLR,,,,,,,,VFR,,,,,,,,,,,,METAR,86.0
K4I3 190155Z AUTO 27005KT 10SM CLR 11/04 RMK AO2,K4I3,2021-10-19T01:55:00Z,40.33,-82.53,11.0,4.0,270,5,,10.0,,,,TRUE,TRUE,,,,,,,CLR,,,,,,,,VFR,,,,,,,,,,,,SPECI,361.0
K4F2 190155Z AUTO 00000KT 10SM CLR 11/09 A3010 RMK AO2 T01110087,K4F2,2021-10-19T01:55:00Z,32.18,-94.3,11.1,8.7,0,0,,10.0,30.100393,,,TRUE,TRUE,,,,,,,CLR,,,,,,,,VFR,,,,,,,,,,,,METAR,76.0
K4BM 190155Z AUTO 17009G15KT 10SM CLR 03/M11 A3012 RMK AO2,K4BM,2021-10-19T01:55:00Z,39.05,-105.52,3.0,-11.0,170,9,15,10.0,30.121063,,,TRUE,TRUE,,,,,,,CLR,,,,,,,,VFR,,,,,,,,,,,,SPECI,3432.0
K4A9 190155Z AUTO 00000KT 10SM CLR 10/09 A3018 RMK AO2 T00980091,K4A9,2021-10-19T01:55:00Z,34.47,-85.72,9.8,9.1,0,0,,10.0,30.180119,,,TRUE,TRUE,,,,,,,CLR,,,,,,,,VFR,,,,,,,,,,,,METAR,273.0
K4A6 190155Z AUTO 00000KT 10SM FEW045 11/11 A3019 RMK AO2,K4A6,2021-10-19T01:55:00Z,34.68,-86.0,11.0,11.0,0,0,,10.0,30.188976,,,TRUE,TRUE,,,,,,,FEW,4500,,,,,,,VFR,,,,,,,,,,,,METAR,191.0
K49A 190155Z AUTO 00000KT 10SM CLR 10/09 A3022 RMK AO2 T00960087,K49A,2021-10-19T01:55:00Z,34.63,-84.53,9.6,8.7,0,0,,10.0,30.221457,,,TRUE,TRUE,,,,,,,CLR,,,,,,,,VFR,,,,,,,,,,,,METAR,449.0
K48A 190155Z AUTO 00000KT 10SM CLR 11/10 A3019 RMK AO2 T01060101,K48A,2021-10-19T01:55:00Z,32.4,-83.27,10.6,10.1,0,0,,10.0,30.188976,,,TRUE,TRUE,,,,,,,CLR,,,,,,,,VFR,,,,,,,,,,,,SPECI,115.0
K46U 190155Z AUTO 31009G14KT 10SM FEW060 SCT075 BKN085 10/02 A2979 RMK A01,K46U,2021-10-19T01:55:00Z,43.18,-111.05,10.0,2.0,310,9,14,10.0,29.790354,,,TRUE,TRUE,,,,,,,FEW,6000,SCT,7500,BKN,8500,,,VFR,,,,,,,,,,,,SPECI,1718.0
K46D 190155Z AUTO 20006KT 10SM CLR 11/08 A2972 RMK AO2,K46D,2021-10-19T01:55:00Z,47.45,-99.15,11.0,8.0,200,6,,10.0,29.719488,,,TRUE,TRUE,,,,,,,CLR,,,,,,,,VFR,,,,,,,,,,,,METAR,488.0
K42J 190155Z AUTO 04006KT 10SM BKN029 OVC034 18/13 A3015 RMK A01,K42J,2021-10-19T01:55:00Z,29.85,-82.05,18.0,13.0,40,6,,10.0,30.15059,,,TRUE,TRUE,,,,,,,BKN,2900,OVC,3400,,,,,MVFR,,,,,,,,,,,,METAR,57.0
K41U 190155Z AUTO 04009KT 7SM OVC020 02/02 A2982 RMK AO1 T00180018 PNO,K41U,2021-10-19T01:55:00Z,39.33,-111.6,1.8,1.8,40,9,,7.0,29.819881,,,TRUE,TRUE,,,,,,,OVC,2000,,,,,,,MVFR,,,,,,,,,,,,METAR,1676.0
K3T5 190155Z AUTO 15003KT 10SM CLR 18/13 A3004 RMK AO2 T01840130,K3T5,2021-10-19T01:55:00Z,29.9,-96.95,18.4,13.0,150,3,,10.0,30.041338,,,TRUE,TRUE,,,,,,,CLR,,,,,,,,VFR,,,,,,,,,,,,SPECI,96.0
K3S8 190155Z AUTO 11006KT 10SM FEW055 12/03 A2999 RMK AO2,K3S8,2021-10-19T01:55:00Z,42.5,-123.4,12.0,3.0,110,6,,10.0,29.991142,,,TRUE,TRUE,,,,,,,FEW,5500,,,,,,,VFR,,,,,,,,,,,,SPECI,339.0
K3R7 190155Z AUTO 07004KT 10SM CLR 14/12 A3011 RMK AO2 T01410115,K3R7,2021-10-19T01:55:00Z,30.25,-92.67,14.1,11.5,70,4,,10.0,30.109253,,,TRUE,TRUE,,,,,,,CLR,,,,,,,,VFR,,,,,,,,,,,,METAR,5.0
K3N8 190155Z AUTO 17007KT 10SM CLR 17/05 A2977 RMK AO2 T01700046,K3N8,2021-10-19T01:55:00Z,47.25,-95.92,17.0,4.6,170,7,,10.0,29.769686,,,TRUE,TRUE,,,,,,,CLR,,,,,,,,VFR,,,,,,,,,,,,METAR,379.0
K3LF 190155Z AUTO 10SM CLR 14/08 A3012 RMK AO2 T01390075,K3LF,2021-10-19T01:55:00Z,39.17,-89.67,13.9,7.5,,,,10.0,30.121063,,,TRUE,TRUE,,,,,,,CLR,,,,,,,,VFR,,,,,,,,,,,,METAR,207.0
K3L4 190155Z AUTO 13006KT 10SM FEW031 18/15 A3009 RMK A01,K3L4,2021-10-19T01:55:00Z,29.8,-92.8,18.0,15.0,130,6,,10.0,30.088583,,,TRUE,TRUE,,,,,,,FEW,3100,,,,,,,VFR,,,,,,,,,,,,METAR,1.0
K3K8 190155Z AUTO 15015G20KT 10SM CLR 17/04 A2990 RMK AO2,K3K8,2021-10-19T01:55:00Z,37.22,-99.33,17.0,4.0,150,15,20,10.0,29.899607,,,TRUE,TRUE,,,,,,,CLR,,,,,,,,VFR,,,,,,,,,,,,METAR,640.0
K3K3 190155Z AUTO 16016G26KT 10SM CLR 20/05 A2977 RMK AO2,K3K3,2021-10-19T01:55:00Z,38.0,-101.75,20.0,5.0,160,16,26,10.0,29.769686,,,TRUE,TRUE,,,,,,,CLR,,,,,,,,VFR,,,,,,,,,,,,METAR,1010.0
K3J7 190155Z AUTO 00000KT 10SM CLR 12/10 A3017 RMK AO2,K3J7,2021-10-19T01:55:00Z,33.6,-83.13,12.0,10.0,0,0,,10.0,30.171259,,,TRUE,TRUE,,,,,,,CLR,,,,,,,,VFR,,,,,,,,,,,,METAR,207.0
K3I2 190155Z AUTO 00000KT 10SM CLR 09/07 A3018 RMK AO2 T00870070,K3I2,2021-10-19T01:55:00Z,38.92,-82.1,8.7,7.0,0,0,,10.0,30.180119,,,TRUE,TRUE,,,,,,,CLR,,,,,,,,VFR,,,,,,,,,,,,METAR,195.0
K3F3 190155Z AUTO 00000KT 10SM CLR 13/08 A3014 RMK AO2 T01290076,K3F3,2021-10-19T01:55:00Z,32.07,-93.77,12.9,7.6,0,0,,10.0,30.138779,,,TRUE,TRUE,,,,,,,CLR,,,,,,,,VFR,,,,,,,,,,,,METAR,96.0
K3D2 190155Z AUTO 20005KT 10SM CLR 12/07 A3002 RMK AO2 T01210069,K3D2,2021-10-19T01:55:00Z,45.13,-87.18,12.1,6.9,200,5,,10.0,30.02067,,,TRUE,TRUE,,,,,,,CLR,,,,,,,,VFR,,,,,,,,,,,,SPECI,233.0
K35A 190155Z AUTO 00000KT 10SM CLR 12/09 A3020 RMK A02 T01160091,K35A,2021-10-19T01:55:00Z,34.68,-81.63,11.6,9.1,0,0,,10.0,30.200787,,,TRUE,TRUE,,,,,,,CLR,,,,,,,,VFR,,,,,,,,,,,,METAR,186.0
K33V 190155Z AUTO 12016G22KT 10SM BKN090 BKN110 10/M02 A2990 RMK AO1,K33V,2021-10-19T01:55:00Z,40.75,-106.28,10.0,-2.0,120,16,22,10.0,29.899607,,,TRUE,TRUE,,,,,,,BKN,9000,BKN,11000,,,,,VFR,,,,,,,,,,,,SPECI,2486.0
K33N 190155Z AUTO 00000KT 10SM OVC075 08/07 A3004 RMK A01,K33N,2021-10-19T01:55:00Z,39.22,-75.6,8.0,7.0,0,0,,10.0,30.041338,,,TRUE,TRUE,,,,,,,OVC,7500,,,,,,,VFR,,,,,,,,,,,,SPECI,17.0
K2W6 190155Z AUTO 26003KT 10SM CLR 10/08 A3007 RMK AO1,K2W6,2021-10-19T01:55:00Z,38.32,-76.55,10.0,8.0,260,3,,10.0,30.070866,,,TRUE,TRUE,,,,,,,CLR,,,,,,,,VFR,,,,,,,,,,,,METAR,40.0
K2V5 190155Z AUTO 08008KT 10SM CLR 12/01 A2976 RMK AO2,K2V5,2021-10-19T01:55:00Z,40.1,-102.25,12.0,1.0,80,8,,10.0,29.760826,,,TRUE,TRUE,,,,,,,CLR,,,,,,,,VFR,,,,,,,,,,,,METAR,1117.0
K2R9 190155Z AUTO 12008KT 10SM CLR 20/14 A3006 RMK AO2 T01990138,K2R9,2021-10-19T01:55:00Z,28.82,-97.87,19.9,13.8,120,8,,10.0,30.059055,,,TRUE,TRUE,,,,,,,CLR,,,,,,,,VFR,,,,,,,,,,,,SPECI,88.0
K2P2 190155Z AUTO 20005KT 10SM SCT110 13/11 A3002 RMK AO2 T01290105,K2P2,2021-10-19T01:55:00Z,45.38,-86.92,12.9,10.5,200,5,,10.0,30.02067,,,TRUE,TRUE,,,,,,,SCT,11000,,,,,,,VFR,,,,,,,,,,,,SPECI,182.0
K2J5 190155Z AUTO 10SM CLR 11/09 A3018 RMK AO2 T01060090,K2J5,2021-10-19T01:55:00Z,32.9,-81.97,10.6,9.0,,,,10.0,30.180119,,,TRUE,TRUE,,,,,,,CLR,,,,,,,,VFR,,,,,,,,,,,,METAR,72.0
K2J3 190155Z AUTO 00000KT 7SM HZ CLR 12/ A3018 RMK AO2 T0118////,K2J3,2021-10-19T01:55:00Z,32.98,-82.38,11.8,,0,0,,7.0,30.180119,,,TRUE,TRUE,,,,,,HZ,CLR,,,,,,,,VFR,,,,,,,,,,,,METAR,97.0
K2IS 190155Z AUTO 06006KT 10SM CLR 20/17 A3010 RMK AO2 T02020168,K2IS,2021-10-19T01:55:00Z,26.73,-81.05,20.2,16.8,60,6,,10.0,30.100393,,,TRUE,TRUE,,,,,,,CLR,,,,,,,,VFR,,,,,,,,,,,,METAR,5.0
K2I0 190155Z AUTO 00000KT 10SM CLR 12/07 A3017 RMK AO2 T01190067,K2I0,2021-10-19T01:55:00Z,37.35,-87.4,11.9,6.7,0,0,,10.0,30.171259,,,TRUE,TRUE,,,,,,,CLR,,,,,,,,VFR,,,,,,,,,,,,SPECI,127.0
K2G9 190155Z AUTO 32004KT 10SM CLR 07/00 A3011 RMK AO2,K2G9,2021-10-19T01:55:00Z,40.03,-79.02,7.0,0.0,320,4,,10.0,30.109253,,,TRUE,TRUE,,,,,,,CLR,,,,,,,,VFR,,,,,,,,,,,,SPECI,677.0
K2G4 190155Z AUTO 30007KT 262V342 10SM CLR 07/00 A3011 RMK AO1,K2G4,2021-10-19T01:55:00Z,39.58,-79.33,7.0,0.0,300,7,,10.0,30.109253,,,TRUE,TRUE,,,,,,,CLR,,,,,,,,VFR,,,,,,,,,,,,METAR,908.0
K2D5 190155Z AUTO 17011KT 10SM CLR 15/05 A2974 RMK AO2,K2D5,2021-10-19T01:55:00Z,46.17,-98.08,15.0,5.0,170,11,,10.0,29.740158,,,TRUE,TRUE,,,,,,,CLR,,,,,,,,VFR,,,,,,,,,,,,METAR,407.0
K2A0 190155Z AUTO 00000KT 10SM CLR 11/11 A3018 RMK A01,K2A0,2021-10-19T01:55:00Z,35.48,-84.93,11.0,11.0,0,0,,10.0,30.180119,,,TRUE,TRUE,,,,,,,CLR,,,,,,,,VFR,,,,,,,,,,,,METAR,219.0
K28J 190155Z AUTO 02004KT 9SM BKN033 OVC041 16/13 A3015 RMK AO2,K28J,2021-10-19T01:55:00Z,29.65,-81.68,16.0,13.0,20,4,,9.0,30.15059,,,TRUE,TRUE,,,,,,,BKN,3300,OVC,4100,,,,,VFR,,,,,,,,,,,,METAR,9.0
K27K 190155Z AUTO 00000KT 10SM CLR 09/07 A3018 RMK AO1,K27K,2021-10-19T01:55:00Z,38.23,-84.43,9.0,7.0,0,0,,10.0,30.180119,,,TRUE,TRUE,,,,,,,CLR,,,,,,,,VFR,,,,,,,,,,,,METAR,283.0
K24J 190155Z AUTO 00000KT 10SM SCT037 16/13 A3016 RMK A01,K24J,2021-10-19T01:55:00Z,30.3,-83.03,16.0,13.0,0,0,,10.0,30.159449,,,TRUE,TRUE,,,,,,,SCT,3700,,,,,,,VFR,,,,,,,,,,,,METAR,30.0
K24A 190155Z AUTO 12005KT 10SM CLR 10/04 A3024 RMK AO2 T01020042,K24A,2021-10-19T01:55:00Z,35.32,-83.2,10.2,4.2,120,5,,10.0,30.239174,,,TRUE,TRUE,,,,,,,CLR,,,,,,,,VFR,,,,,,,,,,,,METAR,864.0
K22N 190155Z AUTO 00000KT 10SM BKN065 10/01 A3002 RMK AO2,K22N,2021-10-19T01:55:00Z,40.8,-75.77,10.0,1.0,0,0,,10.0,30.02067,,,TRUE,TRUE,,,,,,,BKN,6500,,,,,,,VFR,,,,,,,,,,,,METAR,159.0
K21D 190155Z AUTO 17009KT 10SM CLR 17/05 A2993 RMK AO2,K21D,2021-10-19T01:55:00Z,45.0,-92.85,17.0,5.0,170,9,,10.0,29.929134,,,TRUE,TRUE,,,,,,,CLR,,,,,,,,VFR,,,,,,,,,,,,METAR,281.0
K20V 190155Z AUTO 00000KT 10SM SCT120 12/M03 A2983 RMK AO2,K20V,2021-10-19T01:55:00Z,40.05,-106.37,12.0,-3.0,0,0,,10.0,29.828741,,,TRUE,TRUE,,,,,,,SCT,12000,,,,,,,VFR,,,,,,,,,,,,SPECI,2259.0
K20U 190155Z AUTO 00000KT 10SM CLR 06/04 A2980 RMK AO2,K20U,2021-10-19T01:55:00Z,46.93,-103.98,6.0,4.0,0,0,,10.0,29.799213,,,TRUE,TRUE,,,,,,,CLR,,,,,,,,VFR,,,,,,,,,,,,METAR,839.0
K1V6 190155Z AUTO 23010KT 10SM CLR 17/M05 A2978 RMK AO2,K1V6,2021-10-19T01:55:00Z,38.43,-105.1,17.0,-5.0,230,10,,10.0,29.778543,,,TRUE,TRUE,,,,,,,CLR,,,,,,,,VFR,,,,,,,,,,,,SPECI,1658.0
K1U7 190155Z AUTO 32011KT 9SM BKN026 OVC033 07/06 A2979 RMK A01 P0001,K1U7,2021-10-19T01:55:00Z,42.25,-111.33,7.0,6.0,320,11,,9.0,29.790354,,,TRUE,TRUE,,,,,,,BKN,2600,OVC,3300,,,,,MVFR,,,,,,0.01,,,,,,METAR,1808.0
K1R8 190155Z AUTO 00000KT 10SM SCT015 BKN020 OVC032 12/11 A3015 RMK AO2,K1R8,2021-10-19T01:55:00Z,,,12.0,11.0,0,0,,10.0,30.15059,,,TRUE,TRUE,,,,,,,SCT,1500,BKN,2000,OVC,3200,,,MVFR,,,,,,,,,,,,METAR,
K1P1 190155Z AUTO 29008KT 10SM SCT032 BKN060 OVC080 08/04 A2981 RMK AO2 T00760038,K1P1,2021-10-19T01:55:00Z,43.78,-71.75,7.6,3.8,290,8,,10.0,29.811024,,,TRUE,TRUE,,,,,,,SCT,3200,BKN,6000,OVC,8000,,,VFR,,,,,,,,,,,,METAR,155.0
K1M5 190155Z AUTO 00000KT 10SM CLR 11/10 A3017 RMK A01,K1M5,2021-10-19T01:55:00Z,36.6,-86.48,11.0,10.0,0,0,,10.0,30.171259,,,TRUE,TRUE,,,,,,,CLR,,,,,,,,VFR,,,,,,,,,,,,METAR,239.0
K1K1 190155Z AUTO 17009G16KT 10SM CLR 16/05 A2996 RMK AO2 T01570052,K1K1,2021-10-19T01:55:00Z,37.77,-97.12,15.7,5.2,170,9,16,10.0,29.958662,,,TRUE,TRUE,,,,,,,CLR,,,,,,,,VFR,,,,,,,,,,,,METAR,411.0
K1H2 190155Z AUTO 00000KT 10SM CLR 11/08 A3014 RMK AO2 T01110080,K1H2,2021-10-19T01:55:00Z,39.07,-88.53,11.1,8.0,0,0,,10.0,30.138779,,,TRUE,TRUE,,,,,,,CLR,,,,,,,,VFR,,,,,,,,,,,,METAR,174.0
K1F0 190155Z AUTO 14008KT 10SM CLR 17/08 A3002 RMK AO2 T01690078,K1F0,2021-10-19T01:55:00Z,34.15,-97.12,16.9,7.8,140,8,,10.0,30.02067,,,TRUE,TRUE,,,,,,,CLR,,,,,,,,VFR,,,,,,,,,,,,METAR,256.0
K1A9 190155Z AUTO 00000KT 7SM CLR 11/11 A3016 RMK AO2 T01060106,K1A9,2021-10-19T01:55:00Z,32.43,-86.52,10.6,10.6,0,0,,7.0,30.159449,,,TRUE,TRUE,,,,,,,CLR,,,,,,,,VFR,,,,,,,,,,,,METAR,65.0
K1A6 190155Z AUTO 00000KT 10SM CLR 09/09 A3023 RMK AO2 T00870085,K1A6,2021-10-19T01:55:00Z,36.62,-83.73,8.7,8.5,0,0,,10.0,30.230314,,,TRUE,TRUE,,,,,,,CLR,,,,,,,,VFR,,,,,,,,,,,,METAR,348.0
K19S 190155Z AUTO 17014G21KT 10SM CLR 18/06 A2985 RMK AO2 T01750058,K19S,2021-10-19T01:55:00Z,37.48,-100.83,17.5,5.8,170,14,21,10.0,29.84941,,,TRUE,TRUE,,,,,,,CLR,,,,,,,,VFR,,,,,,,,,,,,METAR,886.0
K18H 190155Z AUTO 05008G17KT 10SM FEW033 SCT050 BKN065 26/18 A3001 RMK A01,K18H,2021-10-19T01:55:00Z,26.13,-92.03,26.0,18.0,50,8,17,10.0,30.008858,,,TRUE,TRUE,,,,,,,FEW,3300,SCT,5000,BKN,6500,,,VFR,,,,,,,,,,,,METAR,30.0
K14Y 190155Z AUTO 16004KT 10SM CLR 13/06 A2986 RMK AO2,K14Y,2021-10-19T01:55:00Z,45.9,-94.87,13.0,6.0,160,4,,10.0,29.861221,,,TRUE,TRUE,,,,,,,CLR,,,,,,,,VFR,,,,,,,,,,,,METAR,404.0
K13K 190155Z AUTO 16009KT 10SM CLR 15/07 A2999 RMK AO2 T01460071,K13K,2021-10-19T01:55:00Z,37.85,-96.3,14.6,7.1,160,9,,10.0,29.991142,,,TRUE,TRUE,,,,,,,CLR,,,,,,,,VFR,,,,,,,,,,,,METAR,367.0
K11R 190155Z AUTO 00000KT 10SM CLR 18/13 A3008 RMK AO2 T01840129,K11R,2021-10-19T01:55:00Z,30.22,-96.37,18.4,12.9,0,0,,10.0,30.079725,,,TRUE,TRUE,,,,,,,CLR,,,,,,,,VFR,,,,,,,,,,,,METAR,87.0
K0VG 190155Z AUTO 00000KT 10SM FEW016 BKN022 OVC032 08/07 A3022 RMK AO2,K0VG,2021-10-19T01:55:00Z,36.65,-83.22,8.0,7.0,0,0,,10.0,30.221457,,,TRUE,TRUE,,,,,,,FEW,1600,BKN,2200,OVC,3200,,,MVFR,,,,,,,,,,,,METAR,426.0
K0S9 190155Z AUTO 00000KT 10SM OVC038 08/07 A3000 RMK AO2,K0S9,2021-10-19T01:55:00Z,48.05,-122.82,8.0,7.0,0,0,,10.0,30.0,,,TRUE,TRUE,,,,,,,OVC,3800,,,,,,,VFR,,,,,,,,,,,,METAR,33.0
K0R4 190155Z AUTO 00000KT 10SM CLR 14/11 A3013 RMK AO2 T01390108,K0R4,2021-10-19T01:55:00Z,31.57,-91.5,13.9,10.8,0,0,,10.0,30.129921,,,TRUE,TRUE,,,,,,,CLR,,,,,,,,VFR,,,,,,,,,,,,METAR,16.0
K0R0 190155Z AUTO 00000KT 10SM CLR 11/10 A3017 RMK AO2,K0R0,2021-10-19T01:55:00Z,31.3,-89.82,11.0,10.0,0,0,,10.0,30.171259,,,TRUE,TRUE,,,,,,,CLR,,,,,,,,VFR,,,,,,,,,,,,METAR,76.0
K0J6 190155Z AUTO 05003KT 10SM CLR 13/10 A3017 RMK AO2,K0J6,2021-10-19T01:55:00Z,,,13.0,10.0,50,3,,10.0,30.171259,,,TRUE,TRUE,,,,,,,CLR,,,,,,,,VFR,,,,,,,,,,,,METAR,
K0F2 190155Z AUTO 16010KT 10SM CLR 18/07 A3001 RMK AO2 T01770071,K0F2,2021-10-19T01:55:00Z,33.6,-97.78,17.7,7.1,160,10,,10.0,30.008858,,,TRUE,TRUE,,,,,,,CLR,,,,,,,,VFR,,,,,,,,,,,,SPECI,330.0
K0E0 190155Z AUTO 19009KT 10SM CLR 15/M02 A2999 RMK AO2 T01521025 TSNO,K0E0,2021-10-19T01:55:00Z,34.98,-106.0,15.2,-2.5,190,9,,10.0,29.991142,,,TRUE,TRUE,,,TRUE,,,,CLR,,,,,,,,VFR,,,,,,,,,,,,METAR,1887.0
K0CO 190155Z AUTO 15026G32KT 10SM CLR 00/M09 A3012 RMK AO2,K0CO,2021-10-19T01:55:00Z,39.8,-105.77,0.0,-9.0,150,26,32,10.0,30.121063,,,TRUE,TRUE,,,,,,,CLR,,,,,,,,VFR,,,,,,,,,,,,SPECI,3804.0
K0A9 190155Z AUTO 00000KT 10SM CLR 08/07 A3021 RMK A01,K0A9,2021-10-19T01:55:00Z,36.37,-82.17,8.0,7.0,0,0,,10.0,30.209646,,,TRUE,TRUE,,,,,,,CLR,,,,,,,,VFR,,,,,,,,,,,,METAR,479.0
K0A0 190155Z AUTO 20005KT 10SM CLR 18/M02 A2993 RMK AO2,K0A0,2021-10-19T01:55:00Z,32.98,-106.97,18.0,-2.0,200,5,,10.0,29.929134,,,TRUE,TRUE,,,,,,,CLR,,,,,,,,VFR,,,,,,,,,,,,SPECI,1401.0
K08D 190155Z AUTO 10SM CLR 10/03 A2976 RMK AO2,K08D,2021-10-19T01:55:00Z,48.3,-102.4,10.0,3.0,,,,10.0,29.760826,,,TRUE,TRUE,,,,,,,CLR,,,,,,,,VFR,,,,,,,,,,,,METAR,683.0
K06D 190155Z AUTO 24004KT 10SM CLR 09/06 A2969 RMK AO2,K06D,2021-10-19T01:55:00Z,48.88,-99.62,9.0,6.0,240,4,,10.0,29.68996,,,TRUE,TRUE,,,,,,,CLR,,,,,,,,VFR,,,,,,,,,,,,METAR,554.0
K06C 190155Z AUTO 00000KT 11/08 A3007 RMK AO2 T01140076,K06C,2021-10-19T01:55:00Z,41.98,-88.1,11.4,7.6,0,0,,,30.070866,,,TRUE,TRUE,,,,,,,,,,,,,,,,,,,,,,,,,,,SPECI,243.0
K05U 190155Z AUTO 00000KT 10SM OVC034 02/M00 A2995 RMK A01,K05U,2021-10-19T01:55:00Z,39.6,-116.0,2.0,0.0,0,0,,10.0,29.949802,,,TRUE,TRUE,,,,,,,OVC,3400,,,,,,,VFR,,,,,,,,,,,,SPECI,1813.0
K04W 190155Z AUTO 00000KT 10SM CLR 11/06 A2991 RMK AO2,K04W,2021-10-19T01:55:00Z,46.02,-92.9,11.0,6.0,0,0,,10.0,29.911417,,,TRUE,TRUE,,,,,,,CLR,,,,,,,,VFR,,,,,,,,,,,,SPECI,310.0
K04V 190155Z AUTO 00000KT 10SM CLR 08/M10 A2996 RMK AO2,K04V,2021-10-19T01:55:00Z,38.1,-106.17,8.0,-10.0,0,0,,10.0,29.958662,,,TRUE,TRUE,,,,,,,CLR,,,,,,,,VFR,,,,,,,,,,,,SPECI,2389.0
K00U 190155Z AUTO 33010KT 10SM SCT044 SCT049 10/M01 A2983 RMK A01,K00U,2021-10-19T01:55:00Z,45.75,-107.67,10.0,-1.0,330,10,,10.0,29.828741,,,TRUE,TRUE,,,,,,,SCT,4400,SCT,4900,,,,,VFR,,,,,,,,,,,,METAR,922.0
EHSC 190155Z AUTO 21022KT 9999 ///////// 15/15 Q1015 W16/H10,EHSC,2021-10-19T01:55:00Z,51.93,3.67,15.0,15.0,210,22,,6.21,29.970472,,,TRUE,,,,,,,,,,,,,,,,,,,,,,,,,,,,METAR,19.0
EHSA 190155Z AUTO 19018KT 7000 ///////// 16/15 Q1015 W16/H11,EHSA,2021-10-19T01:55:00Z,52.0,3.28,16.0,15.0,190,18,,4.35,29.970472,,,TRUE,,,,,,,,,,,,,,,,,,,,,,,,,,,,METAR,18.0
EHRD 190155Z AUTO 18009KT 160V220 6000 BKN004 OVC006 15/14 Q1016 REDZ NOSIG,EHRD,2021-10-19T01:55:00Z,51.95,4.45,15.0,14.0,180,9,,3.73,30.0,,,TRUE,,,TRUE,,,,,BKN,400,OVC,600,,,,,LIFR,,,,,,,,,,,,METAR,-4.0
EHQE 190155Z AUTO 20018KT 3100 -DZ FEW000 BKN003 BKN004 15/14 Q1014,EHQE,2021-10-19T01:55:00Z,52.92,4.15,15.0,14.0,200,18,,1.93,29.940945,,,TRUE,,,,,,,-DZ,FEW,0,BKN,300,BKN,400,,,LIFR,,,,,,,,,,,,METAR,41.0
EHPG 190155Z AUTO 21022KT 160V270 7000 BKN002 BKN004 OVC005 16/15 Q1015,EHPG,2021-10-19T01:55:00Z,52.37,3.35,16.0,15.0,210,22,,4.35,29.970472,,,TRUE,,,,,,,,BKN,200,BKN,400,OVC,500,,,LIFR,,,,,,,,,,,,METAR,24.0
EHMG 190155Z AUTO 19020KT 3800 -RA FEW005 SCT006 BKN007 14/13 Q1015,EHMG,2021-10-19T01:55:00Z,53.62,4.97,14.0,13.0,190,20,,2.36,29.970472,,,TRUE,,,,,,,-RA,FEW,500,SCT,600,BKN,700,,,IFR,,,,,,,,,,,,METAR,30.0
EHMA 190155Z AUTO 19018KT 9000 FEW016 SCT020 BKN026 13/12 Q1015,EHMA,2021-10-19T01:55:00Z,53.5,5.95,13.0,12.0,190,18,,5.59,29.970472,,,TRUE,,,,,,,,FEW,1600,SCT,2000,BKN,2600,,,MVFR,,,,,,,,,,,,METAR,27.0
EHLW 190155Z AUTO 18008KT 150V220 9999 FEW019 OVC084 13/12 Q1016 BLU,EHLW,2021-10-19T01:55:00Z,53.22,5.75,13.0,12.0,180,8,,6.21,30.0,,,TRUE,,,,,,,,FEW,1900,OVC,8400,,,,,VFR,,,,,,,,,,,,METAR,1.0
EHLE 190155Z AUTO 18009KT 9999 FEW014 SCT018 BKN022 13/11 Q1016,EHLE,2021-10-19T01:55:00Z,52.45,5.52,13.0,11.0,180,9,,6.21,30.0,,,TRUE,,,,,,,,FEW,1400,SCT,1800,BKN,2200,,,MVFR,,,,,,,,,,,,METAR,-3.0
EHKV 190155Z AUTO 22023KT 8000 FEW002 OVC004 16/15 Q1013,EHKV,2021-10-19T01:55:00Z,53.27,3.63,16.0,15.0,220,23,,4.97,29.911417,,,TRUE,,,,,,,,FEW,200,OVC,400,,,,,LIFR,,,,,,,,,,,,METAR,28.0
EHJR 190155Z AUTO 22022KT //// // ///////// 16/16 Q//// RE// W16/H18,EHJR,2021-10-19T01:55:00Z,53.22,3.22,16.0,16.0,220,22,,,,,,TRUE,,,,,,,,,,,,,,,,,,,,,,,,,,,,METAR,31.0
EHJA 190155Z AUTO 22020KT 9999 SCT002/// OVC003/// 15/15 Q1013,EHJA,2021-10-19T01:55:00Z,53.82,2.95,15.0,15.0,220,20,,6.21,29.911417,,,TRUE,,,,,,,,SCT,200,OVC,300,,,,,LIFR,,,,,,,,,,,,METAR,34.0
EHHW 190155Z AUTO 20017KT 9999 FEW009/// OVC012/// 15/13 Q1015,EHHW,2021-10-19T01:55:00Z,54.03,6.03,15.0,13.0,200,17,,6.21,29.970472,,,TRUE,,,,,,,,FEW,900,OVC,1200,,,,,MVFR,,,,,,,,,,,,METAR,10.0
EHGG 190155Z AUTO 19007KT 160V220 9999 OVC019 13/10 Q1017,EHGG,2021-10-19T01:55:00Z,53.12,6.57,13.0,10.0,190,7,,6.21,30.029528,,,TRUE,,,,,,,,OVC,1900,,,,,,,MVFR,,,,,,,,,,,,METAR,2.0
EHFS 190155Z AUTO 19014KT 3300 -RA FEW003/// BKN004/// BKN006/// 15/15 Q1016,EHFS,2021-10-19T01:55:00Z,51.45,3.6,15.0,15.0,190,14,,2.05,30.0,,,TRUE,,,,,,,-RA,FEW,300,BKN,400,BKN,600,,,LIFR,,,,,,,,,,,,METAR,1.0
EHFD 190155Z AUTO 20020KT 4100 BR SCT003/// BKN004/// BKN007/// 15/14 Q1012,EHFD,2021-10-19T01:55:00Z,54.85,4.7,15.0,14.0,200,20,,2.55,29.88189,,,TRUE,,,,,,,BR,SCT,300,BKN,400,BKN,700,,,LIFR,,,,,,,,,,,,METAR,24.0
EHDV 190155Z AUTO 22016KT 9999 BKN002/// OVC003/// 15/14 Q1012,EHDV,2021-10-19T01:55:00Z,54.32,2.93,15.0,14.0,220,16,,6.21,29.88189,,,TRUE,,,,,,,,BKN,200,OVC,300,,,,,LIFR,,,,,,,,,,,,METAR,36.0
EHDL 190155Z AUTO 19008KT 100V250 9999 FEW030 SCT036 BKN043 14/11 Q1017 BLU,EHDL,2021-10-19T01:55:00Z,52.07,5.88,14.0,11.0,190,8,,6.21,30.029528,,,TRUE,,,,,,,,FEW,3000,SCT,3600,BKN,4300,,,VFR,,,,,,,,,,,,METAR,49.0
EHBK 190155Z AUTO 20012KT 170V230 9999 -SHRA BKN022 OVC025 13/12 Q1019 REDZ,EHBK,2021-10-19T01:55:00Z,50.92,5.77,13.0,12.0,200,12,,6.21,30.088583,,,TRUE,,,,,,,-SHRA,BKN,2200,OVC,2500,,,,,MVFR,,,,,,,,,,,,METAR,112.0
EHAM 190155Z 17009KT 4500 -DZ BR FEW004 BKN006 14/13 Q1016 BECMG BKN005,EHAM,2021-10-19T01:55:00Z,52.32,4.78,14.0,13.0,170,9,,2.8,30.0,,,,,,,,,,-DZ BR,FEW,400,BKN,600,,,,,IFR,,,,,,,,,,,,METAR,-2.0
EHAK 190155Z AUTO 21017KT 7000 BKN001/// OVC002/// 14/14 Q1011 REDZ,EHAK,2021-10-19T01:55:00Z,55.38,3.82,14.0,14.0,210,17,,4.35,29.852362,,,TRUE,,,,,,,,BKN,100,OVC,200,,,,,LIFR,,,,,,,,,,,,METAR,33.0
EBLB 190155Z AUTO 21006KT 3100 -RA SCT003/// BKN024/// BKN063/// 09/09 Q1021 YLO,EBLB,2021-10-19T01:55:00Z,50.47,6.17,9.0,9.0,210,6,,1.93,30.147638,,,TRUE,,,,,,,-RA,SCT,300,BKN,2400,BKN,6300,,,IFR,,,,,,,,,,,,METAR,563.0
EBFS 190155Z AUTO 19013KT 5000 -DZ FEW003/// BKN006/// OVC011/// 13/13 Q1019 YLO,EBFS,2021-10-19T01:55:00Z,50.23,4.65,13.0,13.0,190,13,,3.11,30.088583,,,TRUE,,,,,,,-DZ,FEW,300,BKN,600,OVC,1100,,,IFR,,,,,,,,,,,,METAR,276.0
EBFN 190155Z AUTO 19009KT 7000 OVC004/// 15/15 Q1016 YLO,EBFN,2021-10-19T01:55:00Z,51.08,2.65,15.0,15.0,190,9,,4.35,30.0,,,TRUE,,,,,,,,OVC,400,,,,,,,LIFR,,,,,,,,,,,,METAR,9.0
EBCV 190155Z AUTO 20012KT 4300 OVC007/// 15/14 Q1018 GRN,EBCV,2021-10-19T01:55:00Z,50.57,3.82,15.0,14.0,200,12,,2.67,30.059055,,,TRUE,,,,,,,,OVC,700,,,,,,,IFR,,,,,,,,,,,,METAR,56.0
EBBL 190155Z AUTO 19005KT 3800 -RA OVC024/// 14/13 Q1018 GRN,EBBL,2021-10-19T01:55:00Z,51.17,5.47,14.0,13.0,190,5,,2.36,30.059055,,,TRUE,,,,,,,-RA,OVC,2400,,,,,,,IFR,,,,,,,,,,,,METAR,50.0
EBBE 190155Z AUTO 19012KT 5000 -RA FEW007/// SCT010/// BKN015/// 14/13 Q1018 GRN,EBBE,2021-10-19T01:55:00Z,50.75,4.77,14.0,13.0,190,12,,3.11,30.059055,,,TRUE,,,,,,,-RA,FEW,700,SCT,1000,BKN,1500,,,MVFR,,,,,,,,,,,,METAR,127.0
PHOG 190154Z 05019G24KT 10SM FEW030 SCT060 29/18 A3000 RMK AO2 SLP165 T02890178,PHOG,2021-10-19T01:54:00Z,20.9,-156.43,28.9,17.8,50,19,24,10.0,30.0,1016.5,,,TRUE,,,,,,,FEW,3000,SCT,6000,,,,,VFR,,,,,,,,,,,,METAR,14.0
PHMK 190154Z 05017G27KT 10SM FEW040 27/17 A3003 RMK AO2 PK WND 05027/0110 SLP169 T02720172,PHMK,2021-10-19T01:54:00Z,21.15,-157.1,27.2,17.2,50,17,27,10.0,30.029528,1016.9,,,TRUE,,,,,,,FEW,4000,,,,,,,VFR,,,,,,,,,,,,SPECI,135.0
PGUM 190154Z 12008KT 10SM SCT019 29/25 A2995 RMK AO2 SLP132 T02940250 $,PGUM,2021-10-19T01:54:00Z,13.48,144.8,29.4,25.0,120,8,,10.0,29.949802,1013.2,,,TRUE,TRUE,,,,,,SCT,1900,,,,,,,VFR,,,,,,,,,,,,SPECI,74.0
PGSN 190154Z 06008KT 10SM FEW018 BKN080 31/26 A2990 RMK AO2 SLP145 T03110256,PGSN,2021-10-19T01:54:00Z,15.12,145.72,31.1,25.6,60,8,,10.0,29.899607,1014.5,,,TRUE,,,,,,,FEW,1800,BKN,8000,,,,,VFR,,,,,,,,,,,,SPECI,65.0
PAKN 190154Z 27004KT 10SM CLR 08/M02 A2957 RMK AO2 SLP014 T00831022,PAKN,2021-10-19T01:54:00Z,58.68,-156.65,8.3,-2.2,270,4,,10.0,29.568897,1001.4,,,TRUE,,,,,,,CLR,,,,,,,,VFR,,,,,,,,,,,,METAR,20.0
PAHN 190154Z AUTO 29010KT 10SM BKN095 04/M03 A2980 RMK AO2 SLP093 T00391028 TSNO,PAHN,2021-10-19T01:54:00Z,59.25,-135.52,3.9,-2.8,290,10,,10.0,29.799213,1009.3,,TRUE,TRUE,,,TRUE,,,,BKN,9500,,,,,,,VFR,,,,,,,,,,,,METAR,15.0
KWLD 190154Z AUTO 15006KT 10SM CLR 16/07 A2998 RMK AO2 SLP149 T01610072,KWLD,2021-10-19T01:54:00Z,37.17,-97.03,16.1,7.2,150,6,,10.0,29.97933,1014.9,,TRUE,TRUE,,,,,,,CLR,,,,,,,,VFR,,,,,,,,,,,,METAR,351.0
KWAL 190154Z AUTO 35004KT 10SM CLR 12/07 A3005 RMK AO2 SLP172 T01220072,KWAL,2021-10-19T01:54:00Z,37.93,-75.47,12.2,7.2,350,4,,10.0,30.050198,1017.2,,TRUE,TRUE,,,,,,,CLR,,,,,,,,VFR,,,,,,,,,,,,METAR,10.0
KVTA 190154Z AUTO 00000KT 10SM CLR 09/06 A3014 RMK AO2 SLP206 T00940061 $,KVTA,2021-10-19T01:54:00Z,40.02,-82.47,9.4,6.1,0,0,,10.0,30.138779,1020.6,,TRUE,TRUE,TRUE,,,,,,CLR,,,,,,,,VFR,,,,,,,,,,,,METAR,268.0
KVSF 190154Z AUTO 31004KT 10SM BKN055 08/04 A2986 RMK AO2 SLP116 T00830039,KVSF,2021-10-19T01:54:00Z,43.35,-72.52,8.3,3.9,310,4,,10.0,29.861221,1011.6,,TRUE,TRUE,,,,,,,BKN,5500,,,,,,,VFR,,,,,,,,,,,,METAR,176.0
KVAY 190154Z AUTO 00000KT 10SM CLR 08/03 A3002 RMK AO2 SLP164 T00830033,KVAY,2021-10-19T01:54:00Z,39.93,-74.83,8.3,3.3,0,0,,10.0,30.02067,1016.4,,TRUE,TRUE,,,,,,,CLR,,,,,,,,VFR,,,,,,,,,,,,METAR,15.0
KUZA 190154Z AUTO 23004KT 10SM CLR 11/07 A3016 RMK AO2 SLP210 T01060067,KUZA,2021-10-19T01:54:00Z,34.98,-81.05,10.6,6.7,230,4,,10.0,30.159449,1021.0,,TRUE,TRUE,,,,,,,CLR,,,,,,,,VFR,,,,,,,,,,,,METAR,198.0
KUIN 190154Z AUTO 16004KT 9SM CLR 14/07 A3006 RMK AO2 SLP178 T01440072 $,KUIN,2021-10-19T01:54:00Z,39.95,-91.2,14.4,7.2,160,4,,9.0,30.059055,1017.8,,TRUE,TRUE,TRUE,,,,,,CLR,,,,,,,,VFR,,,,,,,,,,,,METAR,233.0
KTQE 190154Z AUTO 14010KT 10SM CLR 14/05 A2990 RMK AO2 SLP121 T01440050,KTQE,2021-10-19T01:54:00Z,41.77,-96.18,14.4,5.0,140,10,,10.0,29.899607,1012.1,,TRUE,TRUE,,,,,,,CLR,,,,,,,,VFR,,,,,,,,,,,,METAR,312.0
KTAD 190154Z AUTO 21010KT 10SM CLR 14/M08 A2985 RMK AO2 SLP054 T01441078,KTAD,2021-10-19T01:54:00Z,37.27,-104.33,14.4,-7.8,210,10,,10.0,29.84941,1005.4,,TRUE,TRUE,,,,,,,CLR,,,,,,,,VFR,,,,,,,,,,,,METAR,1751.0
KSYR 190154Z 25008KT 10SM FEW040 SCT070 07/06 A2999 RMK AO2 SLP153 T00670061,KSYR,2021-10-19T01:54:00Z,43.12,-76.1,6.7,6.1,250,8,,10.0,29.991142,1015.3,,,TRUE,,,,,,,FEW,4000,SCT,7000,,,,,VFR,,,,,,,,,,,,METAR,125.0
KSUS 190154Z 17005KT 10SM CLR 16/08 A3008 RMK AO2 SLP185 T01610083,KSUS,2021-10-19T01:54:00Z,38.65,-90.65,16.1,8.3,170,5,,10.0,30.079725,1018.5,,,TRUE,,,,,,,CLR,,,,,,,,VFR,,,,,,,,,,,,METAR,140.0
KSLC 190154Z 11008KT 10SM SCT060 BKN100 08/06 A2981 RMK AO2 SLP073 VCSH T00780061 $,KSLC,2021-10-19T01:54:00Z,40.77,-111.97,7.8,6.1,110,8,,10.0,29.811024,1007.3,,,TRUE,TRUE,,,,,,SCT,6000,BKN,10000,,,,,VFR,,,,,,,,,,,,METAR,1286.0
KSJN 190154Z AUTO 24008KT 10SM CLR 14/02 A2993 RMK AO2 SLP088 T01440022,KSJN,2021-10-19T01:54:00Z,34.52,-109.38,14.4,2.2,240,8,,10.0,29.929134,1008.8,,TRUE,TRUE,,,,,,,CLR,,,,,,,,VFR,,,,,,,,,,,,METAR,1747.0
KSET 190154Z AUTO 06003KT 10SM CLR 12/09 A3008 RMK AO2 SLP186 T01220089,KSET,2021-10-19T01:54:00Z,38.93,-90.43,12.2,8.9,60,3,,10.0,30.079725,1018.6,,TRUE,TRUE,,,,,,,CLR,,,,,,,,VFR,,,,,,,,,,,,METAR,133.0
KSBY 190154Z 00000KT 10SM FEW080 10/07 A3004 RMK AO2 SLP174 T01000072,KSBY,2021-10-19T01:54:00Z,38.33,-75.5,10.0,7.2,0,0,,10.0,30.041338,1017.4,,,TRUE,,,,,,,FEW,8000,,,,,,,VFR,,,,,,,,,,,,METAR,14.0
KSBN 190154Z 00000KT 10SM CLR 11/07 A3012 RMK AO2 SLP200 T01060072,KSBN,2021-10-19T01:54:00Z,41.7,-86.32,10.6,7.2,0,0,,10.0,30.121063,1020.0,,,TRUE,,,,,,,CLR,,,,,,,,VFR,,,,,,,,,,,,METAR,236.0
KRST 190154Z 16009KT 10SM CLR 13/04 A2998 RMK AO2 SLP155 T01330044,KRST,2021-10-19T01:54:00Z,43.9,-92.5,13.3,4.4,160,9,,10.0,29.97933,1015.5,,,TRUE,,,,,,,CLR,,,,,,,,VFR,,,,,,,,,,,,METAR,398.0
KRSP 190154Z AUTO VRB06G18KT 10SM CLR 10/02 A3005 RMK AO2 SLP183 T01000022 PNO $,KRSP,2021-10-19T01:54:00Z,39.65,-77.47,10.0,2.2,0,6,18,10.0,30.050198,1018.3,,TRUE,TRUE,TRUE,,,,,,CLR,,,,,,,,VFR,,,,,,,,,,,,SPECI,555.0
KROC 190154Z 27006KT 10SM SCT060 08/04 A3002 RMK AO2 SLP170 T00780044,KROC,2021-10-19T01:54:00Z,43.12,-77.68,7.8,4.4,270,6,,10.0,30.02067,1017.0,,,TRUE,,,,,,,SCT,6000,,,,,,,VFR,,,,,,,,,,,,METAR,166.0
KROA 190154Z 28007KT 10SM CLR 14/04 A3016 RMK AO2 SLP210 T01390039,KROA,2021-10-19T01:54:00Z,37.32,-79.97,13.9,3.9,280,7,,10.0,30.159449,1021.0,,,TRUE,,,,,,,CLR,,,,,,,,VFR,,,,,,,,,,,,METAR,349.0
KRKS 190154Z AUTO 06004KT 10SM FEW120 09/M06 A2980 RMK AO2 SLP054 T00891061,KRKS,2021-10-19T01:54:00Z,41.6,-109.07,8.9,-6.1,60,4,,10.0,29.799213,1005.4,,TRUE,TRUE,,,,,,,FEW,12000,,,,,,,VFR,,,,,,,,,,,,METAR,2062.0
KRIC 190154Z 33005KT 10SM CLR 12/07 A3007 RMK AO2 SLP186 T01170067,KRIC,2021-10-19T01:54:00Z,37.52,-77.32,11.7,6.7,330,5,,10.0,30.070866,1018.6,,,TRUE,,,,,,,CLR,,,,,,,,VFR,,,,,,,,,,,,METAR,51.0
KRFD 190154Z 00000KT 10SM CLR 10/06 A3007 RMK AO2 SLP185 T01000061,KRFD,2021-10-19T01:54:00Z,42.2,-89.1,10.0,6.1,0,0,,10.0,30.070866,1018.5,,,TRUE,,,,,,,CLR,,,,,,,,VFR,,,,,,,,,,,,METAR,222.0
KRDG 190154Z 32006KT 10SM BKN070 10/03 A3002 RMK AO2 SLP171 T01000033 $,KRDG,2021-10-19T01:54:00Z,40.37,-75.97,10.0,3.3,320,6,,10.0,30.02067,1017.1,,,TRUE,TRUE,,,,,,BKN,7000,,,,,,,VFR,,,,,,,,,,,,METAR,101.0
KRBL 190154Z AUTO 00000KT 10SM CLR 14/06 A3003 RMK AO2 SLP168 T01390056,KRBL,2021-10-19T01:54:00Z,40.15,-122.25,13.9,5.6,0,0,,10.0,30.029528,1016.8,,TRUE,TRUE,,,,,,,CLR,,,,,,,,VFR,,,,,,,,,,,,METAR,107.0
KPTW 190154Z AUTO 00000KT 7SM BKN075 07/03 A3004 RMK AO2 SLP169 T00670028,KPTW,2021-10-19T01:54:00Z,40.23,-75.55,6.7,2.8,0,0,,7.0,30.041338,1016.9,,TRUE,TRUE,,,,,,,BKN,7500,,,,,,,VFR,,,,,,,,,,,,METAR,88.0
KPSF 190154Z AUTO 28010KT 10SM CLR 04/02 A2989 RMK AO2 SLP119 T00440022,KPSF,2021-10-19T01:54:00Z,42.43,-73.28,4.4,2.2,280,10,,10.0,29.890747,1011.9,,TRUE,TRUE,,,,,,,CLR,,,,,,,,VFR,,,,,,,,,,,,METAR,352.0
KPNE 190154Z 00000KT 10SM FEW075 08/03 A3003 RMK AO2 SLP170 T00830033 $,KPNE,2021-10-19T01:54:00Z,40.08,-75.02,8.3,3.3,0,0,,10.0,30.029528,1017.0,,,TRUE,TRUE,,,,,,FEW,7500,,,,,,,VFR,,,,,,,,,,,,METAR,32.0
KPLN 190154Z AUTO 00000KT 10SM CLR 03/02 A3006 RMK AO2 SLP185 T00330022,KPLN,2021-10-19T01:54:00Z,45.57,-84.8,3.3,2.2,0,0,,10.0,30.059055,1018.5,,TRUE,TRUE,,,,,,,CLR,,,,,,,,VFR,,,,,,,,,,,,METAR,215.0
KPIA 190154Z 00000KT 10SM CLR 14/09 A3007 RMK AO2 SLP183 T01390094,KPIA,2021-10-19T01:54:00Z,40.67,-89.68,13.9,9.4,0,0,,10.0,30.070866,1018.3,,,TRUE,,,,,,,CLR,,,,,,,,VFR,,,,,,,,,,,,METAR,200.0
KPHL 190154Z 31005KT 10SM BKN080 12/02 A3003 RMK AO2 SLP169 T01220022,KPHL,2021-10-19T01:54:00Z,39.87,-75.23,12.2,2.2,310,5,,10.0,30.029528,1016.9,,,TRUE,,,,,,,BKN,8000,,,,,,,VFR,,,,,,,,,,,,METAR,2.0
KPHF 190154Z 26005KT 10SM CLR 14/07 A3005 RMK AO2 SLP176 T01390067,KPHF,2021-10-19T01:54:00Z,37.13,-76.5,13.9,6.7,260,5,,10.0,30.050198,1017.6,,,TRUE,,,,,,,CLR,,,,,,,,VFR,,,,,,,,,,,,METAR,12.0
KORH 190154Z 29011KT 10SM CLR 07/02 A2984 RMK AO2 SLP108 T00720017,KORH,2021-10-19T01:54:00Z,42.27,-71.87,7.2,1.7,290,11,,10.0,29.840551,1010.8,,,TRUE,,,,,,,CLR,,,,,,,,VFR,,,,,,,,,,,,METAR,306.0
KOLS 190154Z AUTO 20008KT 10SM CLR 19/08 A2997 RMK AO2 SLP104 T01940078,KOLS,2021-10-19T01:54:00Z,31.42,-110.85,19.4,7.8,200,8,,10.0,29.970472,1010.4,,TRUE,TRUE,,,,,,,CLR,,,,,,,,VFR,,,,,,,,,,,,METAR,1194.0
KOLM 190154Z 00000KT 10SM OVC039 11/08 A3000 RMK AO2 SLP160 T01060083,KOLM,2021-10-19T01:54:00Z,46.97,-122.9,10.6,8.3,0,0,,10.0,30.0,1016.0,,,TRUE,,,,,,,OVC,3900,,,,,,,VFR,,,,,,,,,,,,METAR,58.0
KOFP 190154Z AUTO 00000KT 10SM CLR 11/07 A3008 RMK AO2 SLP186 T01060072,KOFP,2021-10-19T01:54:00Z,37.7,-77.43,10.6,7.2,0,0,,10.0,30.079725,1018.6,,TRUE,TRUE,,,,,,,CLR,,,,,,,,VFR,,,,,,,,,,,,METAR,63.0
KNAK 190154Z AUTO 28004KT 10SM FEW080 13/06 A3005 RMK AO2 SLP177 T01330061,KNAK,2021-10-19T01:54:00Z,38.98,-76.48,13.3,6.1,280,4,,10.0,30.050198,1017.7,,TRUE,TRUE,,,,,,,FEW,8000,,,,,,,VFR,,,,,,,,,,,,SPECI,2.0
KMVL 190154Z AUTO 31011G17KT 10SM FEW044 OVC080 08/04 A2985 RMK AO2 SLP111 T00780039,KMVL,2021-10-19T01:54:00Z,44.53,-72.62,7.8,3.9,310,11,17,10.0,29.84941,1011.1,,TRUE,TRUE,,,,,,,FEW,4400,OVC,8000,,,,,VFR,,,,,,,,,,,,METAR,226.0
KMTP 190154Z AUTO 31011G19KT 12/04 A2989 RMK AO1 SLP122 T01170044,KMTP,2021-10-19T01:54:00Z,41.07,-71.92,11.7,4.4,310,11,19,,29.890747,1012.2,,TRUE,TRUE,,,,,,,,,,,,,,,,,,,,,,,,,,,METAR,2.0
KMTN 190154Z 31004KT 10SM SCT070 10/08 A3006,KMTN,2021-10-19T01:54:00Z,39.32,-76.42,10.0,8.0,310,4,,10.0,30.059055,,,,,,,,,,,SCT,7000,,,,,,,VFR,,,,,,,,,,,,METAR,2.0
KMRY 190154Z 27004KT 10SM CLR 14/08 A3004 RMK AO2 SLP183 T01390083,KMRY,2021-10-19T01:54:00Z,36.58,-121.85,13.9,8.3,270,4,,10.0,30.041338,1018.3,,,TRUE,,,,,,,CLR,,,,,,,,VFR,,,,,,,,,,,,METAR,51.0
KMOT 190154Z 29007KT 10SM CLR 12/06 A2970 RMK AO2 SLP065 T01220061,KMOT,2021-10-19T01:54:00Z,48.25,-101.27,12.2,6.1,290,7,,10.0,29.698818,1006.5,,,TRUE,,,,,,,CLR,,,,,,,,VFR,,,,,,,,,,,,METAR,507.0
KMKC 190154Z 14007KT 10SM CLR 18/07 A3000 RMK AO2 SLP156 T01780067,KMKC,2021-10-19T01:54:00Z,39.12,-94.6,17.8,6.7,140,7,,10.0,30.0,1015.6,,,TRUE,,,,,,,CLR,,,,,,,,VFR,,,,,,,,,,,,METAR,228.0
KMIV 190154Z AUTO 30003KT 10SM OVC080 10/04 A3003 RMK AO2 SLP169 T01000044 $,KMIV,2021-10-19T01:54:00Z,39.37,-75.08,10.0,4.4,300,3,,10.0,30.029528,1016.9,,TRUE,TRUE,TRUE,,,,,,OVC,8000,,,,,,,VFR,,,,,,,,,,,,METAR,18.0
KMGJ 190154Z AUTO 29007KT 10SM OVC065 07/03 A2996 RMK AO2 SLP147 T00720028 $,KMGJ,2021-10-19T01:54:00Z,41.52,-74.27,7.2,2.8,290,7,,10.0,29.958662,1014.7,,TRUE,TRUE,TRUE,,,,,,OVC,6500,,,,,,,VFR,,,,,,,,,,,,METAR,106.0
KMFI 190154Z AUTO 19004KT 10SM CLR 12/04 A3001 RMK AO2 SLP169 T01220044,KMFI,2021-10-19T01:54:00Z,44.63,-90.18,12.2,4.4,190,4,,10.0,30.008858,1016.9,,TRUE,TRUE,,,,,,,CLR,,,,,,,,VFR,,,,,,,,,,,,METAR,383.0
KMEM 190154Z 00000KT 10SM CLR 13/08 A3014 RMK AO2 SLP205 T01330083,KMEM,2021-10-19T01:54:00Z,35.07,-89.98,13.3,8.3,0,0,,10.0,30.138779,1020.5,,,TRUE,,,,,,,CLR,,,,,,,,VFR,,,,,,,,,,,,METAR,78.0
KLYH 190154Z 21006KT 10SM CLR 12/03 A3012 RMK AO2 SLP198 T01170028,KLYH,2021-10-19T01:54:00Z,37.32,-79.2,11.7,2.8,210,6,,10.0,30.121063,1019.8,,,TRUE,,,,,,,CLR,,,,,,,,VFR,,,,,,,,,,,,METAR,282.0
KLWT 190154Z AUTO 30010KT 10SM CLR 09/00 A2998 RMK AO2 SLP155 T00890000,KLWT,2021-10-19T01:54:00Z,47.05,-109.47,8.9,0.0,300,10,,10.0,29.97933,1015.5,,TRUE,TRUE,,,,,,,CLR,,,,,,,,VFR,,,,,,,,,,,,METAR,1254.0
KLWM 190154Z 30009KT 10SM CLR 09/03 A2983 RMK AO2 SLP102 T00940033,KLWM,2021-10-19T01:54:00Z,42.72,-71.13,9.4,3.3,300,9,,10.0,29.828741,1010.2,,,TRUE,,,,,,,CLR,,,,,,,,VFR,,,,,,,,,,,,METAR,42.0
KLNK 190154Z 16010KT 10SM CLR 16/04 A2991 RMK AO2 SLP127 T01560044,KLNK,2021-10-19T01:54:00Z,40.85,-96.77,15.6,4.4,160,10,,10.0,29.911417,1012.7,,,TRUE,,,,,,,CLR,,,,,,,,VFR,,,,,,,,,,,,METAR,357.0
KLEX 190154Z 18003KT 10SM CLR 11/07 A3018 RMK AO2 SLP219 T01060067 $,KLEX,2021-10-19T01:54:00Z,38.03,-84.6,10.6,6.7,180,3,,10.0,30.180119,1021.9,,,TRUE,TRUE,,,,,,CLR,,,,,,,,VFR,,,,,,,,,,,,METAR,294.0
KLAF 190154Z AUTO 00000KT 10SM CLR 11/08 A3011 RMK AO2 SLP199 T01110083,KLAF,2021-10-19T01:54:00Z,40.42,-86.93,11.1,8.3,0,0,,10.0,30.109253,1019.9,,TRUE,TRUE,,,,,,,CLR,,,,,,,,VFR,,,,,,,,,,,,METAR,182.0
KJST 190154Z AUTO 31017G23KT 10SM CLR 09/01 A3009 RMK AO2 SLP197 T00890011,KJST,2021-10-19T01:54:00Z,40.32,-78.83,8.9,1.1,310,17,23,10.0,30.088583,1019.7,,TRUE,TRUE,,,,,,,CLR,,,,,,,,VFR,,,,,,,,,,,,METAR,695.0
KJAN 190154Z 00000KT 10SM CLR 12/07 A3015 RMK AO2 SLP208 T01170072,KJAN,2021-10-19T01:54:00Z,32.32,-90.08,11.7,7.2,0,0,,10.0,30.15059,1020.8,,,TRUE,,,,,,,CLR,,,,,,,,VFR,,,,,,,,,,,,METAR,92.0
KIZG 190154Z AUTO 26004KT 10SM FEW047 BKN060 08/03 A2977 RMK AO2 SLP084 T00780028,KIZG,2021-10-19T01:54:00Z,43.98,-70.95,7.8,2.8,260,4,,10.0,29.769686,1008.4,,TRUE,TRUE,,,,,,,FEW,4700,BKN,6000,,,,,VFR,,,,,,,,,,,,METAR,138.0
KISW 190154Z AUTO 20003KT 10SM CLR 12/06 A3003 RMK AO2 SLP173 T01220056,KISW,2021-10-19T01:54:00Z,44.37,-89.83,12.2,5.6,200,3,,10.0,30.029528,1017.3,,TRUE,TRUE,,,,,,,CLR,,,,,,,,VFR,,,,,,,,,,,,METAR,311.0
KIPT 190154Z 25004KT 10SM CLR 08/03 A3002 RMK AO2 SLP168 T00780033 $,KIPT,2021-10-19T01:54:00Z,41.25,-76.92,7.8,3.3,250,4,,10.0,30.02067,1016.8,,,TRUE,TRUE,,,,,,CLR,,,,,,,,VFR,,,,,,,,,,,,METAR,160.0
KINT 190154Z AUTO 30005KT 10SM CLR 17/04 A3016 RMK AO2 SLP207 T01670039,KINT,2021-10-19T01:54:00Z,36.13,-80.22,16.7,3.9,300,5,,10.0,30.159449,1020.7,,TRUE,TRUE,,,,,,,CLR,,,,,,,,VFR,,,,,,,,,,,,METAR,292.0
KINL 190154Z AUTO 16004KT 10SM CLR 16/05 A2980 RMK AO2 SLP099 T01610050,KINL,2021-10-19T01:54:00Z,48.57,-93.4,16.1,5.0,160,4,,10.0,29.799213,1009.9,,TRUE,TRUE,,,,,,,CLR,,,,,,,,VFR,,,,,,,,,,,,METAR,353.0
KIND 190154Z 20004KT 10SM CLR 12/07 A3014 RMK AO2 SLP208 T01220067,KIND,2021-10-19T01:54:00Z,39.72,-86.27,12.2,6.7,200,4,,10.0,30.138779,1020.8,,,TRUE,,,,,,,CLR,,,,,,,,VFR,,,,,,,,,,,,METAR,242.0
KIMT 190154Z AUTO 13004KT 10SM CLR 11/02 A2999 RMK AO2 SLP165 T01060022,KIMT,2021-10-19T01:54:00Z,45.82,-88.12,10.6,2.2,130,4,,10.0,29.991142,1016.5,,TRUE,TRUE,,,,,,,CLR,,,,,,,,VFR,,,,,,,,,,,,METAR,343.0
KILN 190154Z AUTO 00000KT 10SM CLR 09/05 A3016 RMK AO2 SLP221 T00940050,KILN,2021-10-19T01:54:00Z,39.43,-83.8,9.4,5.0,0,0,,10.0,30.159449,1022.1,,TRUE,TRUE,,,,,,,CLR,,,,,,,,VFR,,,,,,,,,,,,METAR,325.0
KHWD 190154Z 31004KT 10SM CLR 13/08 A3002 RMK AO2 SLP176 T01280083,KHWD,2021-10-19T01:54:00Z,37.67,-122.12,12.8,8.3,310,4,,10.0,30.02067,1017.6,,,TRUE,,,,,,,CLR,,,,,,,,VFR,,,,,,,,,,,,METAR,9.0
KGSO 190154Z 30007KT 10SM CLR 13/04 A3014 RMK AO2 SLP202 T01330044,KGSO,2021-10-19T01:54:00Z,36.1,-79.95,13.3,4.4,300,7,,10.0,30.138779,1020.2,,,TRUE,,,,,,,CLR,,,,,,,,VFR,,,,,,,,,,,,METAR,275.0
KGED 190154Z AUTO 00000KT 10SM BKN080 10/07 A3004 RMK AO2 SLP172 T01000072 $,KGED,2021-10-19T01:54:00Z,38.68,-75.37,10.0,7.2,0,0,,10.0,30.041338,1017.2,,TRUE,TRUE,TRUE,,,,,,BKN,8000,,,,,,,VFR,,,,,,,,,,,,METAR,15.0
KGCN 190154Z 23015G26KT 10SM BKN047 OVC055 08/M02 A2990 RMK AO2 PK WND 24029/0059 SLP089 T00831017,KGCN,2021-10-19T01:54:00Z,35.95,-112.15,8.3,-1.7,230,15,26,10.0,29.899607,1008.9,,,TRUE,,,,,,,BKN,4700,OVC,5500,,,,,VFR,,,,,,,,,,,,METAR,1993.0
KGCK 190154Z 16014KT 10SM CLR 17/06 A2981 RMK AO2 PK WND 17029/0130 SLP082 T01670056,KGCK,2021-10-19T01:54:00Z,37.92,-100.72,16.7,5.6,160,14,,10.0,29.811024,1008.2,,,TRUE,,,,,,,CLR,,,,,,,,VFR,,,,,,,,,,,,METAR,877.0
KFZY 190154Z AUTO 00000KT 10SM FEW047 BKN060 06/03 A2998 RMK AO2 SLP153 T00560033,KFZY,2021-10-19T01:54:00Z,43.35,-76.38,5.6,3.3,0,0,,10.0,29.97933,1015.3,,TRUE,TRUE,,,,,,,FEW,4700,BKN,6000,,,,,VFR,,,,,,,,,,,,METAR,143.0
KFWA 190154Z 00000KT 10SM CLR 10/07 A3013 RMK AO2 SLP206 T01000067,KFWA,2021-10-19T01:54:00Z,40.98,-85.2,10.0,6.7,0,0,,10.0,30.129921,1020.6,,,TRUE,,,,,,,CLR,,,,,,,,VFR,,,,,,,,,,,,METAR,243.0
KFIG 190154Z AUTO 23005KT 10SM CLR 08/04 A3008 RMK AO2 SLP190 T00830039,KFIG,2021-10-19T01:54:00Z,41.05,-78.42,8.3,3.9,230,5,,10.0,30.079725,1019.0,,TRUE,TRUE,,,,,,,CLR,,,,,,,,VFR,,,,,,,,,,,,METAR,461.0
KFFZ 190154Z 25004KT 10SM CLR 24/07 A2980 RMK AO2 SLP071 T02440072 $,KFFZ,2021-10-19T01:54:00Z,33.47,-111.72,24.4,7.2,250,4,,10.0,29.799213,1007.1,,,TRUE,TRUE,,,,,,CLR,,,,,,,,VFR,,,,,,,,,,,,METAR,420.0
KEWN 190154Z AUTO 21003KT 10SM CLR 12/07 A3012 RMK AO2 SLP199 T01170067,KEWN,2021-10-19T01:54:00Z,35.07,-77.05,11.7,6.7,210,3,,10.0,30.121063,1019.9,,TRUE,TRUE,,,,,,,CLR,,,,,,,,VFR,,,,,,,,,,,,METAR,3.0
KEVV 190154Z 00000KT 10SM CLR 12/09 A3016 RMK AO2 SLP213 T01170089,KEVV,2021-10-19T01:54:00Z,38.05,-87.52,11.7,8.9,0,0,,10.0,30.159449,1021.3,,,TRUE,,,,,,,CLR,,,,,,,,VFR,,,,,,,,,,,,METAR,123.0
KEUG 190154Z 12008KT 10SM FEW029 SCT040 BKN050 12/08 A3000 RMK AO2 SLP158 T01170083,KEUG,2021-10-19T01:54:00Z,44.13,-123.22,11.7,8.3,120,8,,10.0,30.0,1015.8,,,TRUE,,,,,,,FEW,2900,SCT,4000,BKN,5000,,,VFR,,,,,,,,,,,,METAR,109.0
KECG 190154Z 22006KT 10SM CLR 12/05 A3007 RMK AO2 SLP182 T01170050,KECG,2021-10-19T01:54:00Z,36.27,-76.18,11.7,5.0,220,6,,10.0,30.070866,1018.2,,,TRUE,,,,,,,CLR,,,,,,,,VFR,,,,,,,,,,,,METAR,2.0
KDYL 190154Z AUTO 00000KT 10SM CLR 09/02 A3001 RMK AO2 SLP163 T00890017 $,KDYL,2021-10-19T01:54:00Z,40.33,-75.12,8.9,1.7,0,0,,10.0,30.008858,1016.3,,TRUE,TRUE,TRUE,,,,,,CLR,,,,,,,,VFR,,,,,,,,,,,,METAR,121.0
KDSV 190154Z AUTO 15005KT 10SM CLR 06/03 A3003 RMK AO2 SLP182 T00560033,KDSV,2021-10-19T01:54:00Z,42.57,-77.72,5.6,3.3,150,5,,10.0,30.029528,1018.2,,TRUE,TRUE,,,,,,,CLR,,,,,,,,VFR,,,,,,,,,,,,METAR,195.0
KDSM 190154Z 17006KT 10SM FEW250 15/06 A2998 RMK AO2 SLP151 T01500061,KDSM,2021-10-19T01:54:00Z,41.53,-93.67,15.0,6.1,170,6,,10.0,29.97933,1015.1,,,TRUE,,,,,,,FEW,25000,,,,,,,VFR,,,,,,,,,,,,METAR,286.0
KDEC 190154Z 19007KT 10SM CLR 15/09 A3011 RMK AO2 SLP196 T01500089,KDEC,2021-10-19T01:54:00Z,39.83,-88.87,15.0,8.9,190,7,,10.0,30.109253,1019.6,,,TRUE,,,,,,,CLR,,,,,,,,VFR,,,,,,,,,,,,METAR,205.0
KDDH 190154Z AUTO 25007KT 210V300 10SM OVC038 07/02 A2990 RMK AO2 SLP128 T00670022,KDDH,2021-10-19T01:54:00Z,42.9,-73.25,6.7,2.2,250,7,,10.0,29.899607,1012.8,,TRUE,TRUE,,,,,,,OVC,3800,,,,,,,VFR,,,,,,,,,,,,METAR,241.0
KCRW 190154Z 00000KT 10SM CLR 10/07 A3017 RMK AO2 SLP217 T01000072,KCRW,2021-10-19T01:54:00Z,38.38,-81.58,10.0,7.2,0,0,,10.0,30.171259,1021.7,,,TRUE,,,,,,,CLR,,,,,,,,VFR,,,,,,,,,,,,METAR,278.0
KCPW 190154Z AUTO 21022G30KT 10SM OVC100 01/M09 A3015 RMK AO2,KCPW,2021-10-19T01:54:00Z,37.45,-106.8,1.0,-9.0,210,22,30,10.0,30.15059,,,TRUE,TRUE,,,,,,,OVC,10000,,,,,,,VFR,,,,,,,,,,,,METAR,3570.0
KCOU 190154Z AUTO 16006KT 10SM CLR 16/08 A3006 RMK AO2 SLP179 T01560078,KCOU,2021-10-19T01:54:00Z,38.82,-92.22,15.6,7.8,160,6,,10.0,30.059055,1017.9,,TRUE,TRUE,,,,,,,CLR,,,,,,,,VFR,,,,,,,,,,,,METAR,272.0
KCOS 190154Z 20009KT 10SM FEW110 FEW200 15/M04 A2984 RMK AO2 SLP048 T01501044,KCOS,2021-10-19T01:54:00Z,38.82,-104.68,15.0,-4.4,200,9,,10.0,29.840551,1004.8,,,TRUE,,,,,,,FEW,11000,FEW,20000,,,,,VFR,,,,,,,,,,,,METAR,1886.0
KCEU 190154Z AUTO 22003KT 10SM CLR 13/11 A3017 RMK AO2 SLP212 T01330106,KCEU,2021-10-19T01:54:00Z,34.67,-82.88,13.3,10.6,220,3,,10.0,30.171259,1021.2,,TRUE,TRUE,,,,,,,CLR,,,,,,,,VFR,,,,,,,,,,,,METAR,270.0
KCAR 190154Z AUTO 26005KT 10SM SCT025 BKN100 06/02 A2957 RMK AO2 SLP021 T00610022,KCAR,2021-10-19T01:54:00Z,46.87,-68.02,6.1,2.2,260,5,,10.0,29.568897,1002.1,,TRUE,TRUE,,,,,,,SCT,2500,BKN,10000,,,,,VFR,,,,,,,,,,,,METAR,189.0
KBWI 190154Z 26004KT 10SM FEW075 09/06 A3005 RMK AO2 SLP174 T00940061,KBWI,2021-10-19T01:54:00Z,39.17,-76.68,9.4,6.1,260,4,,10.0,30.050198,1017.4,,,TRUE,,,,,,,FEW,7500,,,,,,,VFR,,,,,,,,,,,,METAR,42.0
KBUY 190154Z AUTO 23003KT 10SM CLR 11/07 A3013 RMK AO2 SLP202 T01060072,KBUY,2021-10-19T01:54:00Z,36.05,-79.47,10.6,7.2,230,3,,10.0,30.129921,1020.2,,TRUE,TRUE,,,,,,,CLR,,,,,,,,VFR,,,,,,,,,,,,METAR,185.0
KBUF 190154Z 28009KT 10SM FEW060 10/02 A3005 RMK AO2 SLP177 T01000017 $,KBUF,2021-10-19T01:54:00Z,42.93,-78.73,10.0,1.7,280,9,,10.0,30.050198,1017.7,,,TRUE,TRUE,,,,,,FEW,6000,,,,,,,VFR,,,,,,,,,,,,METAR,217.0
KBTV 190154Z 31011KT 10SM OVC085 09/04 A2987 RMK AO2 SLP115 T00940039,KBTV,2021-10-19T01:54:00Z,44.47,-73.15,9.4,3.9,310,11,,10.0,29.870079,1011.5,,,TRUE,,,,,,,OVC,8500,,,,,,,VFR,,,,,,,,,,,,METAR,101.0
KBOS 190154Z 30010G19KT 10SM FEW085 FEW250 10/03 A2982 RMK AO2 SLP097 T01000028,KBOS,2021-10-19T01:54:00Z,42.37,-71.02,10.0,2.8,300,10,19,10.0,29.819881,1009.7,,,TRUE,,,,,,,FEW,8500,FEW,25000,,,,,VFR,,,,,,,,,,,,SPECI,4.0
KBKB 190154Z AUTO 00000KT 10SM CLR 13/08 A3009 RMK AO2 SLP218 T01280083,KBKB,2021-10-19T01:54:00Z,31.02,-92.92,12.8,8.3,0,0,,10.0,30.088583,1021.8,,TRUE,TRUE,,,,,,,CLR,,,,,,,,VFR,,,,,,,,,,,,METAR,74.0
KBFL 190154Z 01003KT 9SM CLR 15/03 A2999 RMK AO2 SLP154 T01500028,KBFL,2021-10-19T01:54:00Z,35.43,-119.05,15.0,2.8,10,3,,9.0,29.991142,1015.4,,,TRUE,,,,,,,CLR,,,,,,,,VFR,,,,,,,,,,,,METAR,146.0
KAVP 190154Z 23004KT 10SM BKN045 OVC050 08/04 A3001 RMK AO2 SLP161 T00830044,KAVP,2021-10-19T01:54:00Z,41.33,-75.72,8.3,4.4,230,4,,10.0,30.008858,1016.1,,,TRUE,,,,,,,BKN,4500,OVC,5000,,,,,VFR,,,,,,,,,,,,METAR,290.0
KAVL 190154Z 32005KT 10SM CLR 10/05 A3021 RMK AO2 SLP224 T01000050,KAVL,2021-10-19T01:54:00Z,35.43,-82.53,10.0,5.0,320,5,,10.0,30.209646,1022.4,,,TRUE,,,,,,,CLR,,,,,,,,VFR,,,,,,,,,,,,METAR,646.0
KAUW 190154Z AUTO 14004KT 10SM CLR 12/06 A3000 RMK AO2 SLP167 T01170056,KAUW,2021-10-19T01:54:00Z,44.93,-89.62,11.7,5.6,140,4,,10.0,30.0,1016.7,,TRUE,TRUE,,,,,,,CLR,,,,,,,,VFR,,,,,,,,,,,,METAR,367.0
KAPN 190154Z AUTO 00000KT 10SM CLR 06/04 A3006 RMK AO2 SLP184 T00610039,KAPN,2021-10-19T01:54:00Z,45.07,-83.57,6.1,3.9,0,0,,10.0,30.059055,1018.4,,TRUE,TRUE,,,,,,,CLR,,,,,,,,VFR,,,,,,,,,,,,METAR,208.0
KAPC 190154Z 21008KT 10SM CLR 13/08 A3001 RMK AO2 SLP153 T01330083,KAPC,2021-10-19T01:54:00Z,38.2,-122.28,13.3,8.3,210,8,,10.0,30.008858,1015.3,,,TRUE,,,,,,,CLR,,,,,,,,VFR,,,,,,,,,,,,METAR,5.0
KALO 190154Z AUTO 15006KT 10SM CLR 16/07 A2998 RMK AO2 SLP153 T01560067,KALO,2021-10-19T01:54:00Z,42.55,-92.4,15.6,6.7,150,6,,10.0,29.97933,1015.3,,TRUE,TRUE,,,,,,,CLR,,,,,,,,VFR,,,,,,,,,,,,METAR,264.0
KAKR 190154Z AUTO 00000KT 10SM CLR 08/04 A3011 RMK AO2 SLP198 T00830039,KAKR,2021-10-19T01:54:00Z,41.03,-81.47,8.3,3.9,0,0,,10.0,30.109253,1019.8,,TRUE,TRUE,,,,,,,CLR,,,,,,,,VFR,,,,,,,,,,,,METAR,319.0
KAKQ 190154Z AUTO 00000KT 10SM CLR 12/07 A3006 RMK AO2 SLP180 T01170067,KAKQ,2021-10-19T01:54:00Z,36.98,-77.0,11.7,6.7,0,0,,10.0,30.059055,1018.0,,TRUE,TRUE,,,,,,,CLR,,,,,,,,VFR,,,,,,,,,,,,METAR,34.0
KAKH 190154Z AUTO 00000KT 10SM CLR 09/08 A3015 RMK AO2 SLP211 T00940078,KAKH,2021-10-19T01:54:00Z,35.2,-81.15,9.4,7.8,0,0,,10.0,30.15059,1021.1,,TRUE,TRUE,,,,,,,CLR,,,,,,,,VFR,,,,,,,,,,,,METAR,242.0
KACY 190154Z 26004KT 10SM SCT080 10/03 A3002 RMK AO2 SLP165 T01000028,KACY,2021-10-19T01:54:00Z,39.45,-74.57,10.0,2.8,260,4,,10.0,30.02067,1016.5,,,TRUE,,,,,,,SCT,8000,,,,,,,VFR,,,,,,,,,,,,METAR,18.0
KAAO 190154Z AUTO 16011KT 10SM CLR 18/06 A2994 RMK AO2 SLP138 T01780056,KAAO,2021-10-19T01:54:00Z,37.75,-97.22,17.8,5.6,160,11,,10.0,29.940945,1013.8,,TRUE,TRUE,,,,,,,CLR,,,,,,,,VFR,,,,,,,,,,,,METAR,429.0
K2V6 190154Z AUTO 06003KT 10SM CLR 08/00 A2977 RMK AO2,K2V6,2021-10-19T01:54:00Z,40.1,-102.72,8.0,0.0,60,3,,10.0,29.769686,,,TRUE,TRUE,,,,,,,CLR,,,,,,,,VFR,,,,,,,,,,,,METAR,1257.0
K1V4 190154Z AUTO 07/04 A2980 RMK AO1 SLP095 T00720039,K1V4,2021-10-19T01:54:00Z,44.42,-72.02,7.2,3.9,,,,,29.799213,1009.5,,TRUE,TRUE,,,,,,,,,,,,,,,,,,,,,,,,,,,METAR,213.0
K12N 190154Z AUTO 00000KT 08/03 A2999 RMK AO1 SLP156 T00830033,K12N,2021-10-19T01:54:00Z,41.02,-74.73,8.3,3.3,0,0,,,29.991142,1015.6,,TRUE,TRUE,,,,,,,,,,,,,,,,,,,,,,,,,,,SPECI,178.0
EKKA 190154Z AUTO 15005KT 4800 BR OVC071/// 10/09 Q1015,EKKA,2021-10-19T01:54:00Z,56.3,9.12,10.0,9.0,150,5,,2.98,29.970472,,,TRUE,,,,,,,BR,OVC,7100,,,,,,,IFR,,,,,,,,,,,,SPECI,50.0
TJNR 190153Z AUTO 00000KT 10SM CLR 26/25 A2996 RMK AO2 SLP144 T02560250,TJNR,2021-10-19T01:53:00Z,18.25,-65.63,25.6,25.0,0,0,,10.0,29.958662,1014.4,,TRUE,TRUE,,,,,,,CLR,,,,,,,,VFR,,,,,,,,,,,,SPECI,7.0
TISX 190153Z AUTO 00000KT 10SM FEW020 SCT030 26/25 A2995 RMK AO2 SLP140 T02560250,TISX,2021-10-19T01:53:00Z,17.7,-64.8,25.6,25.0,0,0,,10.0,29.949802,1014.0,,TRUE,TRUE,,,,,,,FEW,2000,SCT,3000,,,,,VFR,,,,,,,,,,,,SPECI,16.0
TIST 190153Z 01003KT 10SM CLR 27/24 A2994 RMK AO2 SLP137 T02670239,TIST,2021-10-19T01:53:00Z,18.33,-64.98,26.7,23.9,10,3,,10.0,29.940945,1013.7,,,TRUE,,,,,,,CLR,,,,,,,,VFR,,,,,,,,,,,,SPECI,5.0
PHTO 190153Z VRB04KT 10SM OVC060 26/19 A3004 RMK AO2 SLP170 T02610194,PHTO,2021-10-19T01:53:00Z,19.72,-155.05,26.1,19.4,0,4,,10.0,30.041338,1017.0,,,TRUE,,,,,,,OVC,6000,,,,,,,VFR,,,,,,,,,,,,METAR,9.0
PHNL 190153Z 05014KT 10SM FEW025 FEW050 FEW200 29/17 A3002 RMK AO2 SLP165 T02890172,PHNL,2021-10-19T01:53:00Z,21.33,-157.93,28.9,17.2,50,14,,10.0,30.02067,1016.5,,,TRUE,,,,,,,FEW,2500,FEW,5000,FEW,20000,,,VFR,,,,,,,,,,,,METAR,2.0
PHLI 190153Z 05012KT 10SM SCT024 SCT060 26/20 A3007 RMK AO2 SLP179 T02560200,PHLI,2021-10-19T01:53:00Z,21.97,-159.33,25.6,20.0,50,12,,10.0,30.070866,1017.9,,,TRUE,,,,,,,SCT,2400,SCT,6000,,,,,VFR,,,,,,,,,,,,METAR,32.0
PHKO 190153Z 23009KT 10SM SCT040 28/21 A2998 RMK AO2 SLP150 T02830206,PHKO,2021-10-19T01:53:00Z,19.73,-156.05,28.3,20.6,230,9,,10.0,29.97933,1015.0,,,TRUE,,,,,,,SCT,4000,,,,,,,VFR,,,,,,,,,,,,METAR,11.0
PHJR 190153Z 05008KT 10SM FEW046 30/18 A3003 RMK AO2 SLP175 T03000178,PHJR,2021-10-19T01:53:00Z,21.32,-158.07,30.0,17.8,50,8,,10.0,30.029528,1017.5,,,TRUE,,,,,,,FEW,4600,,,,,,,VFR,,,,,,,,,,,,SPECI,9.0
PAYA 190153Z AUTO 06006KT 10SM BKN070 OVC080 08/M05 A2963 RMK AO2 SLP035 T00781050 TSNO $,PAYA,2021-10-19T01:53:00Z,59.52,-139.67,7.8,-5.0,60,6,,10.0,29.630905,1003.5,,TRUE,TRUE,TRUE,,TRUE,,,,BKN,7000,OVC,8000,,,,,VFR,,,,,,,,,,,,METAR,9.0
PAWD 190153Z AUTO 35010KT 10SM BKN060 BKN080 BKN100 09/M01 A2957 RMK AO2 SLP012 T00891006 TSNO,PAWD,2021-10-19T01:53:00Z,60.12,-149.42,8.9,-0.6,350,10,,10.0,29.568897,1001.2,,TRUE,TRUE,,,TRUE,,,,BKN,6000,BKN,8000,BKN,10000,,,VFR,,,,,,,,,,,,METAR,3.0
PAVL 190153Z AUTO 08010KT 10SM CLR M07/M13 A2968 RMK AO2 SLP050 T10721128 TSNO,PAVL,2021-10-19T01:53:00Z,67.73,-164.55,-7.2,-12.8,80,10,,10.0,29.681103,1005.0,,TRUE,TRUE,,,TRUE,,,,CLR,,,,,,,,VFR,,,,,,,,,,,,METAR,6.0
PATK 190153Z AUTO 36003KT 10SM CLR 07/M06 A2962 RMK AO2 SLP036 T00721061 TSNO,PATK,2021-10-19T01:53:00Z,62.32,-150.1,7.2,-6.1,360,3,,10.0,29.619095,1003.6,,TRUE,TRUE,,,TRUE,,,,CLR,,,,,,,,VFR,,,,,,,,,,,,METAR,107.0
PASO 190153Z AUTO 00000KT 10SM BKN065 07/05 A2956 RMK AO2 SLP010 T00670050 TSNO,PASO,2021-10-19T01:53:00Z,59.45,-151.7,6.7,5.0,0,0,,10.0,29.56004,1001.0,,TRUE,TRUE,,,TRUE,,,,BKN,6500,,,,,,,VFR,,,,,,,,,,,,METAR,20.0
PASI 190153Z 10014G29KT 10SM FEW050 OVC090 11/M03 A2960 RMK AO2 PK WND 10029/0150 SLP024 T01061028 $,PASI,2021-10-19T01:53:00Z,57.03,-135.35,10.6,-2.8,100,14,29,10.0,29.601377,1002.4,,,TRUE,TRUE,,,,,,FEW,5000,OVC,9000,,,,,VFR,,,,,,,,,,,,METAR,2.0
PASC 190153Z 24012KT 6SM -SN BR OVC110 M10/M12 A2983 RMK AO2 SLP104 P0000 T11001122 $,PASC,2021-10-19T01:53:00Z,70.2,-148.47,-10.0,-12.2,240,12,,6.0,29.828741,1010.4,,,TRUE,TRUE,,,,,-SN BR,OVC,11000,,,,,,,VFR,,,,,,0.005,,,,,,METAR,17.0
PAOT 190153Z 09012KT 10SM CLR M06/M12 A2966 RMK AO2 SLP043 T10611122,PAOT,2021-10-19T01:53:00Z,66.88,-162.6,-6.1,-12.2,90,12,,10.0,29.660433,1004.3,,,TRUE,,,,,,,CLR,,,,,,,,VFR,,,,,,,,,,,,METAR,3.0
PAOR 190153Z 00000KT 10SM BKN140 OVC160 M07/M09 A2973 RMK AO2 SLP117 T10721094,PAOR,2021-10-19T01:53:00Z,62.97,-141.93,-7.2,-9.4,0,0,,10.0,29.731298,1011.7,,,TRUE,,,,,,,BKN,14000,OVC,16000,,,,,VFR,,,,,,,,,,,,METAR,524.0
PAOM 190153Z 08012KT 10SM BKN026 M03/M08 A2952 RMK AO2 SLP996 T10281083,PAOM,2021-10-19T01:53:00Z,64.5,-165.43,-2.8,-8.3,80,12,,10.0,29.518702,999.6,,,TRUE,,,,,,,BKN,2600,,,,,,,MVFR,,,,,,,,,,,,METAR,6.0
PANN 190153Z AUTO 00000KT 10SM CLR 00/M08 A2962 RMK AO2 SLP042 T00001078 TSNO,PANN,2021-10-19T01:53:00Z,64.55,-149.08,0.0,-7.8,0,0,,10.0,29.619095,1004.2,,TRUE,TRUE,,,TRUE,,,,CLR,,,,,,,,VFR,,,,,,,,,,,,METAR,110.0
PANC 190153Z 05005KT 10SM FEW070 BKN085 05/M02 A2962 RMK AO2 SLP032 T00501022,PANC,2021-10-19T01:53:00Z,61.17,-150.02,5.0,-2.2,50,5,,10.0,29.619095,1003.2,,,TRUE,,,,,,,FEW,7000,BKN,8500,,,,,VFR,,,,,,,,,,,,METAR,39.0
PAMR 190153Z 02004KT 10SM OVC085 04/M03 A2962 RMK AO2 SLP033 T00441033,PAMR,2021-10-19T01:53:00Z,61.22,-149.85,4.4,-3.3,20,4,,10.0,29.619095,1003.3,,,TRUE,,,,,,,OVC,8500,,,,,,,VFR,,,,,,,,,,,,METAR,43.0
PAMC 190153Z AUTO 00000KT 10SM CLR M01/M06 A2963 RMK AO2 SLP041 T10111061 TSNO,PAMC,2021-10-19T01:53:00Z,62.97,-155.62,-1.1,-6.1,0,0,,10.0,29.630905,1004.1,,TRUE,TRUE,,,TRUE,,,,CLR,,,,,,,,VFR,,,,,,,,,,,,METAR,101.0
PALH 190153Z 05005KT 10SM OVC085 05/M03 A2963 RMK AO2 SLP035 T00501028,PALH,2021-10-19T01:53:00Z,61.18,-149.97,5.0,-2.8,50,5,,10.0,29.630905,1003.5,,,TRUE,,,,,,,OVC,8500,,,,,,,VFR,,,,,,,,,,,,METAR,26.0
PAKV 190153Z AUTO VRB03KT 10SM FEW028 M02/M08 A2966 RMK AO2 SLP048 T10171083 TSNO,PAKV,2021-10-19T01:53:00Z,64.33,-158.72,-1.7,-8.3,0,3,,10.0,29.660433,1004.8,,TRUE,TRUE,,,TRUE,,,,FEW,2800,,,,,,,VFR,,,,,,,,,,,,METAR,53.0
PAKT 190153Z 18006KT 10SM SCT120 08/M01 A2977 RMK HARBOR WND 14013KT,PAKT,2021-10-19T01:53:00Z,55.35,-131.72,8.0,-1.0,180,6,,10.0,29.769686,,,,,,,,,,,SCT,12000,,,,,,,VFR,,,,,,,,,,,,METAR,27.0
PAJN 190153Z 00000KT 10SM BKN110 BKN160 OVC250 04/01 A2979 RMK AO2 SLP087 T00390011 $,PAJN,2021-10-19T01:53:00Z,58.35,-134.55,3.9,1.1,0,0,,10.0,29.790354,1008.7,,,TRUE,TRUE,,,,,,BKN,11000,BKN,16000,OVC,25000,,,VFR,,,,,,,,,,,,METAR,6.0
PAHO 190153Z 00000KT 10SM SCT065 09/01 A2956 RMK AO2 SLP010 T00890006 $,PAHO,2021-10-19T01:53:00Z,59.63,-151.48,8.9,0.6,0,0,,10.0,29.56004,1001.0,,,TRUE,TRUE,,,,,,SCT,6500,,,,,,,VFR,,,,,,,,,,,,METAR,6.0
PAGY 190153Z AUTO 00000KT 10SM BKN090 06/M03 A2983 RMK AO2 SLP102 T00561033 TSNO,PAGY,2021-10-19T01:53:00Z,59.47,-135.32,5.6,-3.3,0,0,,10.0,29.828741,1010.2,,TRUE,TRUE,,,TRUE,,,,BKN,9000,,,,,,,VFR,,,,,,,,,,,,METAR,7.0
PAGK 190153Z AUTO 00000KT 10SM BKN090 OVC100 M04/M07 A2969 RMK AO2 SLP091 T10391067 TSNO,PAGK,2021-10-19T01:53:00Z,62.15,-145.45,-3.9,-6.7,0,0,,10.0,29.68996,1009.1,,TRUE,TRUE,,,TRUE,,,,BKN,9000,OVC,10000,,,,,VFR,,,,,,,,,,,,METAR,481.0
PAFA 190153Z 00000KT 10SM FEW080 FEW120 SCT200 01/M07 A2965 RMK AO2 SLP050 T00111072,PAFA,2021-10-19T01:53:00Z,64.8,-147.87,1.1,-7.2,0,0,,10.0,29.648623,1005.0,,,TRUE,,,,,,,FEW,8000,FEW,12000,SCT,20000,,,VFR,,,,,,,,,,,,METAR,130.0
PAEN 190153Z 04011KT 10SM OVC090 07/M02 A2960 RMK AO2 SLP027 T00721022,PAEN,2021-10-19T01:53:00Z,60.57,-151.25,7.2,-2.2,40,11,,10.0,29.601377,1002.7,,,TRUE,,,,,,,OVC,9000,,,,,,,VFR,,,,,,,,,,,,METAR,30.0
PADQ 190153Z 01015G22KT 10SM OVC025 09/03 A2949 RMK PK WND 02035/0058,PADQ,2021-10-19T01:53:00Z,57.75,-152.5,9.0,3.0,10,15,22,10.0,29.489174,,,,,,,,,,,OVC,2500,,,,,,,MVFR,,,,,,,,,,,,SPECI,5.0
PACV 190153Z VRB03KT 10SM -RA OVC050 08/M02 A2961 RMK AO2 RAB31 SLP026 P0000 T00831022,PACV,2021-10-19T01:53:00Z,60.5,-145.47,8.3,-2.2,0,3,,10.0,29.610237,1002.6,,,TRUE,,,,,,-RA,OVC,5000,,,,,,,VFR,,,,,,0.005,,,,,,METAR,15.0
PACD 190153Z AUTO 28006KT 10SM OVC018 07/03 A2969 RMK AO2 SLP055 T00670028 TSNO,PACD,2021-10-19T01:53:00Z,55.22,-162.72,6.7,2.8,280,6,,10.0,29.68996,1005.5,,TRUE,TRUE,,,TRUE,,,,OVC,1800,,,,,,,MVFR,,,,,,,,,,,,METAR,23.0
PABT 190153Z 34007KT 10SM FEW060 BKN080 BKN120 BKN200 M07/M12 A2970 RMK AO2 SLP076 T10721117,PABT,2021-10-19T01:53:00Z,66.92,-151.52,-7.2,-11.7,340,7,,10.0,29.698818,1007.6,,,TRUE,,,,,,,FEW,6000,BKN,8000,BKN,12000,BKN,20000,VFR,,,,,,,,,,,,METAR,195.0
PABR 190153Z 25004KT 10SM FEW017 M08/M12 A2987 RMK AO2 SLP115 T10831117,PABR,2021-10-19T01:53:00Z,71.28,-156.78,-8.3,-11.7,250,4,,10.0,29.870079,1011.5,,,TRUE,,,,,,,FEW,1700,,,,,,,VFR,,,,,,,,,,,,METAR,6.0
PABI 190153Z 11017KT 10SM SCT200 M03/M09 A2966 RMK AO2 SLP073 T10281089,PABI,2021-10-19T01:53:00Z,64.0,-145.72,-2.8,-8.9,110,17,,10.0,29.660433,1007.3,,,TRUE,,,,,,,SCT,20000,,,,,,,VFR,,,,,,,,,,,,METAR,388.0
PABE 190153Z 17006KT 10SM CLR M01/M04 A2957 RMK AO2 SLP016 T10111044,PABE,2021-10-19T01:53:00Z,60.78,-161.83,-1.1,-4.4,170,6,,10.0,29.568897,1001.6,,,TRUE,,,,,,,CLR,,,,,,,,VFR,,,,,,,,,,,,METAR,28.0
PAAQ 190153Z AUTO 00000KT 10SM BKN085 04/M03 A2962 RMK AO2 SLP032 T00391028 TSNO,PAAQ,2021-10-19T01:53:00Z,61.6,-149.08,3.9,-2.8,0,0,,10.0,29.619095,1003.2,,TRUE,TRUE,,,TRUE,,,,BKN,8500,,,,,,,VFR,,,,,,,,,,,,METAR,68.0
MMTO 190153Z 15008KT 6SM FEW020 SCT070 BKN250 13/11 A3036 RMK 8/532 HZY PRESRR,MMTO,2021-10-19T01:53:00Z,19.35,-99.57,13.0,11.0,150,8,,6.0,30.360237,,,,,,,,,,,FEW,2000,SCT,7000,BKN,25000,,,VFR,,,,,,,,,,,,METAR,2582.0
MMSD 190153Z 07004KT 12SM FEW040 SCT200 27/21 A2991 RMK 8/408,MMSD,2021-10-19T01:53:00Z,23.15,-109.72,27.0,21.0,70,4,,12.0,29.911417,,,,,,,,,,,FEW,4000,SCT,20000,,,,,VFR,,,,,,,,,,,,METAR,107.0
MMGM 190153Z 00000KT 5SM SKC 25/20 A2983,MMGM,2021-10-19T01:53:00Z,27.95,-110.92,25.0,20.0,0,0,,5.0,29.828741,,,,,,,,,,,SKC,,,,,,,,MVFR,,,,,,,,,,,,METAR,13.0
KZZV 190153Z AUTO 00000KT 10SM CLR 09/06 A3014 RMK AO2 SLP205 T00940061,KZZV,2021-10-19T01:53:00Z,39.95,-81.9,9.4,6.1,0,0,,10.0,30.138779,1020.5,,TRUE,TRUE,,,,,,,CLR,,,,,,,,VFR,,,,,,,,,,,,METAR,268.0
KYKM 190153Z 29003KT 10SM CLR 13/06 A2985 RMK AO2 SLP114 T01280056,KYKM,2021-10-19T01:53:00Z,46.57,-120.53,12.8,5.6,290,3,,10.0,29.84941,1011.4,,,TRUE,,,,,,,CLR,,,,,,,,VFR,,,,,,,,,,,,METAR,319.0
KYIP 190153Z 00000KT 10SM CLR 11/07 A3010 RMK AO2 SLP192 T01060067,KYIP,2021-10-19T01:53:00Z,42.23,-83.53,10.6,6.7,0,0,,10.0,30.100393,1019.2,,,TRUE,,,,,,,CLR,,,,,,,,VFR,,,,,,,,,,,,METAR,215.0
KXNA 190153Z 15006KT 10SM CLR 13/08 A3008 RMK AO2 SLP182 T01330078,KXNA,2021-10-19T01:53:00Z,36.28,-94.3,13.3,7.8,150,6,,10.0,30.079725,1018.2,,,TRUE,,,,,,,CLR,,,,,,,,VFR,,,,,,,,,,,,METAR,390.0
KWVI 190153Z AUTO 00000KT 10SM CLR 13/09 A3002 RMK AO2 SLP166 T01330089,KWVI,2021-10-19T01:53:00Z,36.93,-121.78,13.3,8.9,0,0,,10.0,30.02067,1016.6,,TRUE,TRUE,,,,,,,CLR,,,,,,,,VFR,,,,,,,,,,,,METAR,47.0
KWST 190153Z AUTO VRB04KT 10SM CLR 09/04 A2987 RMK AO2 SLP113 T00890039,KWST,2021-10-19T01:53:00Z,41.35,-71.8,8.9,3.9,0,4,,10.0,29.870079,1011.3,,TRUE,TRUE,,,,,,,CLR,,,,,,,,VFR,,,,,,,,,,,,METAR,20.0
KWRL 190153Z AUTO 00000KT 10SM BKN110 12/02 A2977 RMK AO2 SLP086 T01170022,KWRL,2021-10-19T01:53:00Z,43.97,-107.95,11.7,2.2,0,0,,10.0,29.769686,1008.6,,TRUE,TRUE,,,,,,,BKN,11000,,,,,,,VFR,,,,,,,,,,,,METAR,1281.0
KVUO 190153Z AUTO 00000KT 10SM CLR 10/06 A3001 RMK AO2 SLP161 T01000056,KVUO,2021-10-19T01:53:00Z,45.62,-122.65,10.0,5.6,0,0,,10.0,30.008858,1016.1,,TRUE,TRUE,,,,,,,CLR,,,,,,,,VFR,,,,,,,,,,,,METAR,7.0
KVRB 190153Z AUTO 07007KT 10SM SCT050 24/15 A3010 RMK AO2 SLP191 T02390150,KVRB,2021-10-19T01:53:00Z,27.65,-80.42,23.9,15.0,70,7,,10.0,30.100393,1019.1,,TRUE,TRUE,,,,,,,SCT,5000,,,,,,,VFR,,,,,,,,,,,,METAR,7.0
KVLD 190153Z 04003KT 10SM CLR 14/12 A3017 RMK AO2 SLP225 T01440117,KVLD,2021-10-19T01:53:00Z,30.78,-83.27,14.4,11.7,40,3,,10.0,30.171259,1022.5,,,TRUE,,,,,,,CLR,,,,,,,,VFR,,,,,,,,,,,,METAR,59.0
KVIH 190153Z AUTO 15007KT 10SM CLR 15/07 A3009 RMK AO2 SLP186 T01500072,KVIH,2021-10-19T01:53:00Z,38.13,-91.77,15.0,7.2,150,7,,10.0,30.088583,1018.6,,TRUE,TRUE,,,,,,,CLR,,,,,,,,VFR,,,,,,,,,,,,METAR,342.0
KVGT 190153Z AUTO 32006KT 10SM CLR 16/M04 A2983 RMK AO2 SLP109 T01611039,KVGT,2021-10-19T01:53:00Z,36.22,-115.2,16.1,-3.9,320,6,,10.0,29.828741,1010.9,,TRUE,TRUE,,,,,,,CLR,,,,,,,,VFR,,,,,,,,,,,,METAR,664.0
KVEL 190153Z AUTO 23003KT 10SM FEW070 BKN080 OVC095 11/00 A2974 RMK AO2 SLP053 T01110000,KVEL,2021-10-19T01:53:00Z,40.45,-109.52,11.1,0.0,230,3,,10.0,29.740158,1005.3,,TRUE,TRUE,,,,,,,FEW,7000,BKN,8000,OVC,9500,,,VFR,,,,,,,,,,,,METAR,1604.0
KVCB 190153Z AUTO 00000KT 10SM CLR 13/03 A3001 RMK AO2 SLP162 T01280033,KVCB,2021-10-19T01:53:00Z,38.38,-121.95,12.8,3.3,0,0,,10.0,30.008858,1016.2,,TRUE,TRUE,,,,,,,CLR,,,,,,,,VFR,,,,,,,,,,,,METAR,30.0
KUUU 190153Z AUTO 31012G21KT 10SM CLR 09/04 A2984 RMK AO2 SLP103 T00940044,KUUU,2021-10-19T01:53:00Z,41.53,-71.28,9.4,4.4,310,12,21,10.0,29.840551,1010.3,,TRUE,TRUE,,,,,,,CLR,,,,,,,,VFR,,,,,,,,,,,,METAR,45.0
KUTS 190153Z AUTO 11003KT 10SM CLR 16/11 A3008 RMK AO2 SLP183 T01560106,KUTS,2021-10-19T01:53:00Z,30.75,-95.58,15.6,10.6,110,3,,10.0,30.079725,1018.3,,TRUE,TRUE,,,,,,,CLR,,,,,,,,VFR,,,,,,,,,,,,METAR,103.0
KUNV 190153Z 31010KT 10SM FEW075 10/02 A3006,KUNV,2021-10-19T01:53:00Z,40.85,-77.83,10.0,2.0,310,10,,10.0,30.059055,,,,,,,,,,,FEW,7500,,,,,,,VFR,,,,,,,,,,,,METAR,365.0
KUNO 190153Z AUTO 16003KT 10SM CLR 14/06 A3012 RMK AO2 SLP195 T01390061,KUNO,2021-10-19T01:53:00Z,36.88,-91.9,13.9,6.1,160,3,,10.0,30.121063,1019.5,,TRUE,TRUE,,,,,,,CLR,,,,,,,,VFR,,,,,,,,,,,,METAR,376.0
KUIL 190153Z AUTO 00000KT 10SM CLR 07/06 A2997 RMK AO2 SLP151 T00670056,KUIL,2021-10-19T01:53:00Z,47.93,-124.55,6.7,5.6,0,0,,10.0,29.970472,1015.1,,TRUE,TRUE,,,,,,,CLR,,,,,,,,VFR,,,,,,,,,,,,METAR,58.0
KUAO 190153Z 12004KT 10SM OVC055 13/07 A3001 RMK AO2 SLP161 T01280072,KUAO,2021-10-19T01:53:00Z,45.25,-122.77,12.8,7.2,120,4,,10.0,30.008858,1016.1,,,TRUE,,,,,,,OVC,5500,,,,,,,VFR,,,,,,,,,,,,METAR,60.0
KTYS 190153Z 00000KT 10SM FEW001 12/09 A3018 RMK AO2 SLP219 T01220089,KTYS,2021-10-19T01:53:00Z,35.82,-83.98,12.2,8.9,0,0,,10.0,30.180119,1021.9,,,TRUE,,,,,,,FEW,100,,,,,,,VFR,,,,,,,,,,,,METAR,300.0
KTYR 190153Z 15006KT 10SM CLR 15/08 A3006 RMK AO2 SLP178 T01500083,KTYR,2021-10-19T01:53:00Z,32.37,-95.4,15.0,8.3,150,6,,10.0,30.059055,1017.8,,,TRUE,,,,,,,CLR,,,,,,,,VFR,,,,,,,,,,,,METAR,161.0
KTXK 190153Z 12005KT 10SM CLR 18/07 A3009 RMK AO2 SLP188 T01780072,KTXK,2021-10-19T01:53:00Z,33.45,-93.98,17.8,7.2,120,5,,10.0,30.088583,1018.8,,,TRUE,,,,,,,CLR,,,,,,,,VFR,,,,,,,,,,,,METAR,118.0
KTWF 190153Z 25009KT 10SM CLR 08/01 A2980 RMK AO2 SLP065 T00830011,KTWF,2021-10-19T01:53:00Z,42.48,-114.48,8.3,1.1,250,9,,10.0,29.799213,1006.5,,,TRUE,,,,,,,CLR,,,,,,,,VFR,,,,,,,,,,,,METAR,1269.0
KTVL 190153Z AUTO 00000KT 10SM CLR 01/M02 A2999 RMK AO2 SLP158 T00061017,KTVL,2021-10-19T01:53:00Z,38.9,-120.0,0.6,-1.7,0,0,,10.0,29.991142,1015.8,,TRUE,TRUE,,,,,,,CLR,,,,,,,,VFR,,,,,,,,,,,,METAR,1907.0
KTVC 190153Z 00000KT 9SM CLR 07/05 A3005 RMK AO2 SLP180 LAST T00670050,KTVC,2021-10-19T01:53:00Z,44.73,-85.58,6.7,5.0,0,0,,9.0,30.050198,1018.0,,,TRUE,,,,,,,CLR,,,,,,,,VFR,,,,,,,,,,,,METAR,188.0
KTUS 190153Z AUTO 26006KT 10SM CLR 24/09 A2989 RMK AO2 SLP089 T02390089,KTUS,2021-10-19T01:53:00Z,32.13,-110.95,23.9,8.9,260,6,,10.0,29.890747,1008.9,,TRUE,TRUE,,,,,,,CLR,,,,,,,,VFR,,,,,,,,,,,,METAR,776.0
KTUP 190153Z 00000KT 10SM CLR 13/09 A3015 RMK AO2 SLP209 T01330094 $,KTUP,2021-10-19T01:53:00Z,34.27,-88.77,13.3,9.4,0,0,,10.0,30.15059,1020.9,,,TRUE,TRUE,,,,,,CLR,,,,,,,,VFR,,,,,,,,,,,,METAR,107.0
KTUL 190153Z 16012KT 10SM FEW250 19/07 A3001 RMK AO2 SLP158 T01890072,KTUL,2021-10-19T01:53:00Z,36.2,-95.88,18.9,7.2,160,12,,10.0,30.008858,1015.8,,,TRUE,,,,,,,FEW,25000,,,,,,,VFR,,,,,,,,,,,,METAR,196.0
KTTN 190153Z 28003KT 10SM BKN070 09/03 A3001 RMK AO2 SLP155 T00890033 PNO $,KTTN,2021-10-19T01:53:00Z,40.28,-74.82,8.9,3.3,280,3,,10.0,30.008858,1015.5,,,TRUE,TRUE,,,,,,BKN,7000,,,,,,,VFR,,,,,,,,,,,,METAR,58.0
KTTD 190153Z 09003KT 10SM CLR 09/06 A3001 RMK AO2 SLP160 T00940061 $,KTTD,2021-10-19T01:53:00Z,45.55,-122.42,9.4,6.1,90,3,,10.0,30.008858,1016.0,,,TRUE,TRUE,,,,,,CLR,,,,,,,,VFR,,,,,,,,,,,,METAR,8.0
KTRL 190153Z AUTO 00000KT 10SM CLR 16/08 A3006 RMK AO2 SLP175 T01560078,KTRL,2021-10-19T01:53:00Z,32.72,-96.27,15.6,7.8,0,0,,10.0,30.059055,1017.5,,TRUE,TRUE,,,,,,,CLR,,,,,,,,VFR,,,,,,,,,,,,METAR,144.0
KTRI 190153Z 00000KT 10SM CLR 09/06 A3021 RMK AO2 SLP220 T00940061,KTRI,2021-10-19T01:53:00Z,36.48,-82.4,9.4,6.1,0,0,,10.0,30.209646,1022.0,,,TRUE,,,,,,,CLR,,,,,,,,VFR,,,,,,,,,,,,METAR,456.0
KTPA 190153Z VRB04KT 10SM SCT140 BKN250 24/14 A3011 RMK AO2 SLP195 T02440144,KTPA,2021-10-19T01:53:00Z,27.97,-82.53,24.4,14.4,0,4,,10.0,30.109253,1019.5,,,TRUE,,,,,,,SCT,14000,BKN,25000,,,,,VFR,,,,,,,,,,,,METAR,2.0
KTOR 190153Z AUTO 08012KT 10SM CLR 12/01 A2976 RMK AO2 SLP069 T01220006,KTOR,2021-10-19T01:53:00Z,42.07,-104.15,12.2,0.6,80,12,,10.0,29.760826,1006.9,,TRUE,TRUE,,,,,,,CLR,,,,,,,,VFR,,,,,,,,,,,,METAR,1285.0
KTOP 190153Z AUTO 16008KT 10SM CLR 17/07 A2997 RMK AO2 SLP147 T01670072,KTOP,2021-10-19T01:53:00Z,39.07,-95.63,16.7,7.2,160,8,,10.0,29.970472,1014.7,,TRUE,TRUE,,,,,,,CLR,,,,,,,,VFR,,,,,,,,,,,,METAR,268.0
KTOI 190153Z AUTO 00000KT 10SM CLR 12/09 A3017 RMK AO2 SLP216 T01220089,KTOI,2021-10-19T01:53:00Z,31.85,-86.02,12.2,8.9,0,0,,10.0,30.171259,1021.6,,TRUE,TRUE,,,,,,,CLR,,,,,,,,VFR,,,,,,,,,,,,METAR,120.0
KTMB 190153Z 05004KT 10SM CLR 24/17 A3006 RMK AO2 SLP178 T02440172,KTMB,2021-10-19T01:53:00Z,25.65,-80.43,24.4,17.2,50,4,,10.0,30.059055,1017.8,,,TRUE,,,,,,,CLR,,,,,,,,VFR,,,,,,,,,,,,METAR,2.0
KTLH 190153Z 34004KT 10SM SCT250 16/13 A3016 RMK AO2 SLP210 T01560133,KTLH,2021-10-19T01:53:00Z,30.4,-84.35,15.6,13.3,340,4,,10.0,30.159449,1021.0,,,TRUE,,,,,,,SCT,25000,,,,,,,VFR,,,,,,,,,,,,METAR,17.0
KTKI 190153Z 15004KT 10SM CLR 17/08 A3005 RMK AO2 SLP179 T01670078,KTKI,2021-10-19T01:53:00Z,33.18,-96.58,16.7,7.8,150,4,,10.0,30.050198,1017.9,,,TRUE,,,,,,,CLR,,,,,,,,VFR,,,,,,,,,,,,METAR,173.0
KTIW 190153Z 00000KT 10SM SCT021 BKN040 10/08 A3001 RMK AO2 SLP163 T01000078,KTIW,2021-10-19T01:53:00Z,47.27,-122.58,10.0,7.8,0,0,,10.0,30.008858,1016.3,,,TRUE,,,,,,,SCT,2100,BKN,4000,,,,,VFR,,,,,,,,,,,,METAR,89.0
KTDZ 190153Z AUTO 23005KT 10SM CLR 12/06 A3012 RMK AO2 SLP198 T01220056 $,KTDZ,2021-10-19T01:53:00Z,41.57,-83.48,12.2,5.6,230,5,,10.0,30.121063,1019.8,,TRUE,TRUE,TRUE,,,,,,CLR,,,,,,,,VFR,,,,,,,,,,,,METAR,189.0
KTCS 190153Z AUTO 22010KT 10SM CLR 22/M02 A2993 RMK AO2 SLP073 T02171022 $,KTCS,2021-10-19T01:53:00Z,33.23,-107.27,21.7,-2.2,220,10,,10.0,29.929134,1007.3,,TRUE,TRUE,TRUE,,,,,,CLR,,,,,,,,VFR,,,,,,,,,,,,METAR,1471.0
KTCL 190153Z AUTO 03003KT 10SM CLR 13/12 A3016 RMK AO2 SLP213 T01280122,KTCL,2021-10-19T01:53:00Z,33.22,-87.62,12.8,12.2,30,3,,10.0,30.159449,1021.3,,TRUE,TRUE,,,,,,,CLR,,,,,,,,VFR,,,,,,,,,,,,METAR,48.0
KTCC 190153Z AUTO 21009KT 10SM CLR 19/05 A2985 RMK AO2 SLP069 T01940050,KTCC,2021-10-19T01:53:00Z,35.18,-103.6,19.4,5.0,210,9,,10.0,29.84941,1006.9,,TRUE,TRUE,,,,,,,CLR,,,,,,,,VFR,,,,,,,,,,,,METAR,1233.0
KSWO 190153Z 15010KT 10SM CLR 18/07 A2998 RMK AO2 SLP148 T01780072,KSWO,2021-10-19T01:53:00Z,36.17,-97.08,17.8,7.2,150,10,,10.0,29.97933,1014.8,,,TRUE,,,,,,,CLR,,,,,,,,VFR,,,,,,,,,,,,METAR,293.0
KSTS 190153Z 19003KT 10SM SCT047 13/08 A3001 RMK AO2 SLP157 T01280078,KSTS,2021-10-19T01:53:00Z,38.5,-122.82,12.8,7.8,190,3,,10.0,30.008858,1015.7,,,TRUE,,,,,,,SCT,4700,,,,,,,VFR,,,,,,,,,,,,METAR,35.0
KSTP 190153Z 16009KT 10SM CLR 17/06 A2992 RMK AO2 SLP131 T01720061,KSTP,2021-10-19T01:53:00Z,44.93,-93.05,17.2,6.1,160,9,,10.0,29.920275,1013.1,,,TRUE,,,,,,,CLR,,,,,,,,VFR,,,,,,,,,,,,METAR,213.0
KSTJ 190153Z AUTO 15009KT 10SM CLR 16/07 A2998 RMK AO2 SLP153 T01560067,KSTJ,2021-10-19T01:53:00Z,39.77,-94.92,15.6,6.7,150,9,,10.0,29.97933,1015.3,,TRUE,TRUE,,,,,,,CLR,,,,,,,,VFR,,,,,,,,,,,,METAR,247.0
KSTC 190153Z 14007KT 10SM CLR 15/05 A2987 RMK AO2 SLP126 T01500050,KSTC,2021-10-19T01:53:00Z,45.55,-94.05,15.0,5.0,140,7,,10.0,29.870079,1012.6,,,TRUE,,,,,,,CLR,,,,,,,,VFR,,,,,,,,,,,,METAR,302.0
KSSI 190153Z AUTO 00000KT 10SM CLR 15/10 A3017 RMK AO2 SLP218 T01500100,KSSI,2021-10-19T01:53:00Z,31.15,-81.38,15.0,10.0,0,0,,10.0,30.171259,1021.8,,TRUE,TRUE,,,,,,,CLR,,,,,,,,VFR,,,,,,,,,,,,METAR,6.0
KSSF 190153Z 12006KT 10SM CLR 21/14 A3002 RMK AO2 SLP159 T02110139,KSSF,2021-10-19T01:53:00Z,29.33,-98.47,21.1,13.9,120,6,,10.0,30.02067,1015.9,,,TRUE,,,,,,,CLR,,,,,,,,VFR,,,,,,,,,,,,METAR,175.0
KSRQ 190153Z 08009KT 10SM CLR 23/15 A3007 RMK AO2 SLP182 T02330150,KSRQ,2021-10-19T01:53:00Z,27.4,-82.57,23.3,15.0,80,9,,10.0,30.070866,1018.2,,,TRUE,,,,,,,CLR,,,,,,,,VFR,,,,,,,,,,,,METAR,5.0
KSPW 190153Z AUTO 15006KT 10SM CLR 12/04 A2991 RMK AO2 SLP134 T01170039,KSPW,2021-10-19T01:53:00Z,43.17,-95.22,11.7,3.9,150,6,,10.0,29.911417,1013.4,,TRUE,TRUE,,,,,,,CLR,,,,,,,,VFR,,,,,,,,,,,,METAR,407.0
KSPG 190153Z AUTO 10016KT 10SM CLR 26/17 A3009 RMK AO2 SLP187 T02560167,KSPG,2021-10-19T01:53:00Z,27.77,-82.63,25.6,16.7,100,16,,10.0,30.088583,1018.7,,TRUE,TRUE,,,,,,,CLR,,,,,,,,VFR,,,,,,,,,,,,METAR,1.0
KSPB 190153Z AUTO 31003KT 10SM BKN048 11/08 A3000 RMK AO2 SLP158 T01060078,KSPB,2021-10-19T01:53:00Z,45.77,-122.87,10.6,7.8,310,3,,10.0,30.0,1015.8,,TRUE,TRUE,,,,,,,BKN,4800,,,,,,,VFR,,,,,,,,,,,,METAR,15.0
KSNY 190153Z AUTO 11006KT 10SM CLR 08/02 A2978 RMK AO2 SLP085 T00780017 $,KSNY,2021-10-19T01:53:00Z,41.1,-102.98,7.8,1.7,110,6,,10.0,29.778543,1008.5,,TRUE,TRUE,TRUE,,,,,,CLR,,,,,,,,VFR,,,,,,,,,,,,METAR,1307.0
KSNS 190153Z 30005KT 10SM CLR 14/08 A3003 RMK AO2 SLP177 T01390083,KSNS,2021-10-19T01:53:00Z,36.67,-121.6,13.9,8.3,300,5,,10.0,30.029528,1017.7,,,TRUE,,,,,,,CLR,,,,,,,,VFR,,,,,,,,,,,,METAR,20.0
KSNA 190153Z 18006KT 10SM FEW023 SCT050 17/09 A2996 RMK AO2 SLP144 T01670089,KSNA,2021-10-19T01:53:00Z,33.67,-117.87,16.7,8.9,180,6,,10.0,29.958662,1014.4,,,TRUE,,,,,,,FEW,2300,SCT,5000,,,,,VFR,,,,,,,,,,,,METAR,14.0
KSMQ 190153Z AUTO 29004KT 10SM BKN075 10/03 A2998 RMK AO2 SLP152 T01000028,KSMQ,2021-10-19T01:53:00Z,40.62,-74.67,10.0,2.8,290,4,,10.0,29.97933,1015.2,,TRUE,TRUE,,,,,,,BKN,7500,,,,,,,VFR,,,,,,,,,,,,METAR,30.0
KSMF 190153Z 35004KT 10SM CLR 13/03 A3001 RMK AO2 SLP160 T01330033,KSMF,2021-10-19T01:53:00Z,38.7,-121.6,13.3,3.3,350,4,,10.0,30.008858,1016.0,,,TRUE,,,,,,,CLR,,,,,,,,VFR,,,,,,,,,,,,METAR,7.0
KSLN 190153Z 14012KT 10SM CLR 16/06 A2989 RMK AO2 SLP120 T01610056,KSLN,2021-10-19T01:53:00Z,38.8,-97.65,16.1,5.6,140,12,,10.0,29.890747,1012.0,,,TRUE,,,,,,,CLR,,,,,,,,VFR,,,,,,,,,,,,METAR,377.0
KSJC 190153Z 34010KT 10SM FEW024 FEW030 FEW080 14/08 A3002 RMK AO2 SLP163 T01390083,KSJC,2021-10-19T01:53:00Z,37.37,-121.92,13.9,8.3,340,10,,10.0,30.02067,1016.3,,,TRUE,,,,,,,FEW,2400,FEW,3000,FEW,8000,,,VFR,,,,,,,,,,,,METAR,13.0
KSIY 190153Z AUTO 00000KT 10SM CLR 11/03 A2998 RMK AO2 SLP164 T01060033,KSIY,2021-10-19T01:53:00Z,41.77,-122.47,10.6,3.3,0,0,,10.0,29.97933,1016.4,,TRUE,TRUE,,,,,,,CLR,,,,,,,,VFR,,,,,,,,,,,,METAR,807.0
KSHR 190153Z AUTO 30008KT 10SM CLR 13/01 A2985 RMK AO2 SLP105 T01280011,KSHR,2021-10-19T01:53:00Z,44.77,-106.97,12.8,1.1,300,8,,10.0,29.84941,1010.5,,TRUE,TRUE,,,,,,,CLR,,,,,,,,VFR,,,,,,,,,,,,METAR,1212.0
KSHN 190153Z AUTO 12003KT 10SM FEW047 09/08 A2997 RMK AO2 SLP152 T00890078,KSHN,2021-10-19T01:53:00Z,47.23,-123.13,8.9,7.8,120,3,,10.0,29.970472,1015.2,,TRUE,TRUE,,,,,,,FEW,4700,,,,,,,VFR,,,,,,,,,,,,METAR,84.0
KSGR 190153Z 13005KT 10SM CLR 20/13 A3008 RMK AO2 SLP188 T02000128,KSGR,2021-10-19T01:53:00Z,29.62,-95.65,20.0,12.8,130,5,,10.0,30.079725,1018.8,,,TRUE,,,,,,,CLR,,,,,,,,VFR,,,,,,,,,,,,METAR,22.0
KSFF 190153Z 04004KT 10SM CLR 10/05 A2985 RMK AO2 SLP113 T01000050,KSFF,2021-10-19T01:53:00Z,47.68,-117.32,10.0,5.0,40,4,,10.0,29.84941,1011.3,,,TRUE,,,,,,,CLR,,,,,,,,VFR,,,,,,,,,,,,METAR,593.0
KSFB 190153Z 01004KT 10SM FEW050 21/16 A3012 RMK AO2 SLP199 T02110156,KSFB,2021-10-19T01:53:00Z,28.77,-81.23,21.1,15.6,10,4,,10.0,30.121063,1019.9,,,TRUE,,,,,,,FEW,5000,,,,,,,VFR,,,,,,,,,,,,METAR,16.0
KSEG 190153Z AUTO 32003KT 10SM CLR 10/02 A3005 RMK AO2 SLP175 T01000022,KSEG,2021-10-19T01:53:00Z,40.82,-76.87,10.0,2.2,320,3,,10.0,30.050198,1017.5,,TRUE,TRUE,,,,,,,CLR,,,,,,,,VFR,,,,,,,,,,,,METAR,136.0
KSEA 190153Z 00000KT 10SM FEW034 OVC047 11/07 A3000 RMK AO2 SLP166 T01110067,KSEA,2021-10-19T01:53:00Z,47.45,-122.32,11.1,6.7,0,0,,10.0,30.0,1016.6,,,TRUE,,,,,,,FEW,3400,OVC,4700,,,,,VFR,,,,,,,,,,,,METAR,115.0
KSDM 190153Z 28005KT 10SM SCT020 BKN028 16/11 A2998 RMK AO2 SLP149 T01560106,KSDM,2021-10-19T01:53:00Z,32.58,-117.0,15.6,10.6,280,5,,10.0,29.97933,1014.9,,,TRUE,,,,,,,SCT,2000,BKN,2800,,,,,MVFR,,,,,,,,,,,,METAR,161.0
KSDL 190153Z 24010G19KT 10SM CLR 24/06 A2981 RMK AO2 SLP077 T02440061,KSDL,2021-10-19T01:53:00Z,33.62,-111.92,24.4,6.1,240,10,19,10.0,29.811024,1007.7,,,TRUE,,,,,,,CLR,,,,,,,,VFR,,,,,,,,,,,,METAR,438.0
KSDB 190153Z AUTO VRB04KT 10SM CLR 06/M02 A2998 RMK AO2 SLP137 T00561022,KSDB,2021-10-19T01:53:00Z,34.75,-118.72,5.6,-2.2,0,4,,10.0,29.97933,1013.7,,TRUE,TRUE,,,,,,,CLR,,,,,,,,VFR,,,,,,,,,,,,SPECI,1377.0
KSBM 190153Z AUTO 00000KT 10SM CLR 09/08 A3005 RMK AO2 SLP179 T00940083,KSBM,2021-10-19T01:53:00Z,43.78,-87.85,9.4,8.3,0,0,,10.0,30.050198,1017.9,,TRUE,TRUE,,,,,,,CLR,,,,,,,,VFR,,,,,,,,,,,,METAR,225.0
KSBA 190153Z 33005KT 10SM CLR 17/03 A2990 RMK AO2 SLP125 T01670028,KSBA,2021-10-19T01:53:00Z,34.43,-119.85,16.7,2.8,330,5,,10.0,29.899607,1012.5,,,TRUE,,,,,,,CLR,,,,,,,,VFR,,,,,,,,,,,,METAR,2.0
KSAV 190153Z 00000KT 10SM FEW120 13/10 A3018 RMK AO2 SLP219 T01330100,KSAV,2021-10-19T01:53:00Z,32.12,-81.2,13.3,10.0,0,0,,10.0,30.180119,1021.9,,,TRUE,,,,,,,FEW,12000,,,,,,,VFR,,,,,,,,,,,,METAR,10.0
KSAF 190153Z AUTO 15006KT 10SM CLR 14/M04 A2994 RMK AO2 SLP083 T01391044,KSAF,2021-10-19T01:53:00Z,35.62,-106.1,13.9,-4.4,150,6,,10.0,29.940945,1008.3,,TRUE,TRUE,,,,,,,CLR,,,,,,,,VFR,,,,,,,,,,,,METAR,1918.0
KSAC 190153Z 00000KT 10SM CLR 12/06 A3001 RMK AO2 SLP161 T01220056,KSAC,2021-10-19T01:53:00Z,38.5,-121.5,12.2,5.6,0,0,,10.0,30.008858,1016.1,,,TRUE,,,,,,,CLR,,,,,,,,VFR,,,,,,,,,,,,METAR,5.0
KRXE 190153Z AUTO 23007KT 10SM BKN075 OVC110 11/04 A2981 RMK AO2 RAE10 SLP090 P0001 T01060044,KRXE,2021-10-19T01:53:00Z,43.83,-111.8,10.6,4.4,230,7,,10.0,29.811024,1009.0,,TRUE,TRUE,,,,,,,BKN,7500,OVC,11000,,,,,VFR,,,,,,0.01,,,,,,METAR,1483.0
KRWL 190153Z AUTO 01009KT 10SM CLR 09/M04 A2982 RMK AO2 SLP056 T00941039,KRWL,2021-10-19T01:53:00Z,41.8,-107.2,9.4,-3.9,10,9,,10.0,29.819881,1005.6,,TRUE,TRUE,,,,,,,CLR,,,,,,,,VFR,,,,,,,,,,,,METAR,2066.0
KRWI 190153Z AUTO 21004KT 10SM CLR 11/06 A3011 RMK AO2 SLP194 T01110056,KRWI,2021-10-19T01:53:00Z,35.85,-77.9,11.1,5.6,210,4,,10.0,30.109253,1019.4,,TRUE,TRUE,,,,,,,CLR,,,,,,,,VFR,,,,,,,,,,,,METAR,46.0
KRWF 190153Z AUTO 17009KT 10SM CLR 15/04 A2986 RMK AO2 SLP115 T01500039,KRWF,2021-10-19T01:53:00Z,44.55,-95.08,15.0,3.9,170,9,,10.0,29.861221,1011.5,,TRUE,TRUE,,,,,,,CLR,,,,,,,,VFR,,,,,,,,,,,,METAR,312.0
KRVS 190153Z 19006KT 10SM CLR 18/07 A3002 RMK AO2 SLP173 T01780072,KRVS,2021-10-19T01:53:00Z,36.05,-95.98,17.8,7.2,190,6,,10.0,30.02067,1017.3,,,TRUE,,,,,,,CLR,,,,,,,,VFR,,,,,,,,,,,,METAR,191.0
KRUE 190153Z AUTO 00000KT 10SM CLR 13/07 A3010 RMK AO2 SLP188 T01330072,KRUE,2021-10-19T01:53:00Z,35.25,-93.1,13.3,7.2,0,0,,10.0,30.100393,1018.8,,TRUE,TRUE,,,,,,,CLR,,,,,,,,VFR,,,,,,,,,,,,METAR,119.0
KRTN 190153Z AUTO 23009KT 10SM CLR 13/M08 A2991 RMK AO2 SLP091 T01331078 $,KRTN,2021-10-19T01:53:00Z,36.73,-104.5,13.3,-7.8,230,9,,10.0,29.911417,1009.1,,TRUE,TRUE,TRUE,,,,,,CLR,,,,,,,,VFR,,,,,,,,,,,,METAR,1939.0
KRSW 190153Z 07009KT 10SM CLR 22/16 A3007 RMK AO2 SLP181 T02170161,KRSW,2021-10-19T01:53:00Z,26.53,-81.75,21.7,16.1,70,9,,10.0,30.070866,1018.1,,,TRUE,,,,,,,CLR,,,,,,,,VFR,,,,,,,,,,,,METAR,8.0
KRSL 190153Z AUTO 16016G24KT 10SM CLR 17/06 A2983 RMK AO2 SLP097 T01670061,KRSL,2021-10-19T01:53:00Z,38.87,-98.82,16.7,6.1,160,16,24,10.0,29.828741,1009.7,,TRUE,TRUE,,,,,,,CLR,,,,,,,,VFR,,,,,,,,,,,,METAR,569.0
KRQE 190153Z AUTO 21014G23KT 10SM CLR 13/00 A2993 RMK AO2 SLP071 T01330000,KRQE,2021-10-19T01:53:00Z,35.65,-109.07,13.3,0.0,210,14,23,10.0,29.929134,1007.1,,TRUE,TRUE,,,,,,,CLR,,,,,,,,VFR,,,,,,,,,,,,METAR,2056.0
KRNT 190153Z 00000KT 10SM BKN040 OVC049 12/07 A3000 RMK AO2 SLP163 T01220072,KRNT,2021-10-19T01:53:00Z,47.5,-122.22,12.2,7.2,0,0,,10.0,30.0,1016.3,,,TRUE,,,,,,,BKN,4000,OVC,4900,,,,,VFR,,,,,,,,,,,,METAR,7.0
KRNM 190153Z 26006KT 10SM OVC025 12/08 A2998 RMK AO2 SLP146 T01170083,KRNM,2021-10-19T01:53:00Z,33.03,-116.92,11.7,8.3,260,6,,10.0,29.97933,1014.6,,,TRUE,,,,,,,OVC,2500,,,,,,,MVFR,,,,,,,,,,,,METAR,423.0
KRMG 190153Z AUTO 00000KT 10SM CLR 11/09 A3018 RMK AO2 SLP214 T01110094,KRMG,2021-10-19T01:53:00Z,34.35,-85.17,11.1,9.4,0,0,,10.0,30.180119,1021.4,,TRUE,TRUE,,,,,,,CLR,,,,,,,,VFR,,,,,,,,,,,,METAR,196.0
KRME 190153Z AUTO 00000KT 10SM FEW070 05/04 A2998 RMK AO2 SLP153 T00500044,KRME,2021-10-19T01:53:00Z,43.22,-75.4,5.0,4.4,0,0,,10.0,29.97933,1015.3,,TRUE,TRUE,,,,,,,FEW,7000,,,,,,,VFR,,,,,,,,,,,,METAR,146.0
KRKP 190153Z AUTO 11005KT 10SM CLR 22/16 A3005 RMK AO2 SLP177 T02220161,KRKP,2021-10-19T01:53:00Z,28.08,-97.05,22.2,16.1,110,5,,10.0,30.050198,1017.7,,TRUE,TRUE,,,,,,,CLR,,,,,,,,VFR,,,,,,,,,,,,METAR,8.0
KRIW 190153Z AUTO 01006KT 10SM CLR 11/M01 A2980 RMK AO2 SLP078 T01061011 $,KRIW,2021-10-19T01:53:00Z,43.07,-108.43,10.6,-1.1,10,6,,10.0,29.799213,1007.8,,TRUE,TRUE,TRUE,,,,,,CLR,,,,,,,,VFR,,,,,,,,,,,,METAR,1662.0
KRIL 190153Z AUTO 21007KT 10SM CLR 18/M07 A2972 RMK AO2 SLP026 T01831067,KRIL,2021-10-19T01:53:00Z,39.53,-107.73,18.3,-6.7,210,7,,10.0,29.719488,1002.6,,TRUE,TRUE,,,,,,,CLR,,,,,,,,VFR,,,,,,,,,,,,METAR,1683.0
KRHI 190153Z AUTO 21003KT 10SM CLR 13/04 A3001 RMK AO2 SLP170 T01280039,KRHI,2021-10-19T01:53:00Z,45.63,-89.48,12.8,3.9,210,3,,10.0,30.008858,1017.0,,TRUE,TRUE,,,,,,,CLR,,,,,,,,VFR,,,,,,,,,,,,METAR,493.0
KRDD 190153Z 00000KT 10SM CLR 11/07 A3002 RMK AO2 SLP165 T01110067,KRDD,2021-10-19T01:53:00Z,40.52,-122.3,11.1,6.7,0,0,,10.0,30.02067,1016.5,,,TRUE,,,,,,,CLR,,,,,,,,VFR,,,,,,,,,,,,METAR,152.0
KRBG 190153Z AUTO 04005KT 10SM OVC050 12/08 A2998 RMK AO2 SLP153 T01220078,KRBG,2021-10-19T01:53:00Z,43.23,-123.35,12.2,7.8,40,5,,10.0,29.97933,1015.3,,TRUE,TRUE,,,,,,,OVC,5000,,,,,,,VFR,,,,,,,,,,,,METAR,152.0
KRBD 190153Z AUTO 16008KT 10SM CLR 18/07 A3004 RMK AO2 SLP170 T01780067,KRBD,2021-10-19T01:53:00Z,32.68,-96.87,17.8,6.7,160,8,,10.0,30.041338,1017.0,,TRUE,TRUE,,,,,,,CLR,,,,,,,,VFR,,,,,,,,,,,,METAR,200.0
KRAL 190153Z 29006KT 10SM BKN075 16/07 A2994 RMK AO2 SLP127 T01560072,KRAL,2021-10-19T01:53:00Z,33.95,-117.45,15.6,7.2,290,6,,10.0,29.940945,1012.7,,,TRUE,,,,,,,BKN,7500,,,,,,,VFR,,,,,,,,,,,,METAR,254.0
KPWA 190153Z 16011KT 10SM CLR 18/06 A2998 RMK AO2 SLP147 T01780061,KPWA,2021-10-19T01:53:00Z,35.53,-97.65,17.8,6.1,160,11,,10.0,29.97933,1014.7,,,TRUE,,,,,,,CLR,,,,,,,,VFR,,,,,,,,,,,,METAR,390.0
KPUW 190153Z AUTO 27006KT 10SM CLR 10/02 A2989 RMK AO2 SLP129 T01000022,KPUW,2021-10-19T01:53:00Z,46.75,-117.12,10.0,2.2,270,6,,10.0,29.890747,1012.9,,TRUE,TRUE,,,,,,,CLR,,,,,,,,VFR,,,,,,,,,,,,METAR,774.0
KPUC 190153Z AUTO 21005KT 9SM RA BKN029 OVC034 06/04 A2978 RMK AO2 SLP092 P0005 T00610044,KPUC,2021-10-19T01:53:00Z,39.62,-110.75,6.1,4.4,210,5,,9.0,29.778543,1009.2,,TRUE,TRUE,,,,,,RA,BKN,2900,OVC,3400,,,,,MVFR,,,,,,0.05,,,,,,METAR,1777.0
KPUB 190153Z 14004KT 10SM CLR 18/M03 A2974 RMK AO2 SLP035 T01831033,KPUB,2021-10-19T01:53:00Z,38.28,-104.5,18.3,-3.3,140,4,,10.0,29.740158,1003.5,,,TRUE,,,,,,,CLR,,,,,,,,VFR,,,,,,,,,,,,METAR,1441.0
KPTK 190153Z 00000KT 10SM CLR 09/06 A3009 RMK AO2 SLP191 T00940061,KPTK,2021-10-19T01:53:00Z,42.67,-83.42,9.4,6.1,0,0,,10.0,30.088583,1019.1,,,TRUE,,,,,,,CLR,,,,,,,,VFR,,,,,,,,,,,,METAR,295.0
KPSX 190153Z AUTO 07005KT 10SM CLR 19/14 A3007 RMK AO2 SLP180 T01890144,KPSX,2021-10-19T01:53:00Z,28.72,-96.25,18.9,14.4,70,5,,10.0,30.070866,1018.0,,TRUE,TRUE,,,,,,,CLR,,,,,,,,VFR,,,,,,,,,,,,METAR,4.0
KPSP 190153Z 29015G25KT 10SM CLR 21/06 A2986 RMK AO2 SLP110 T02060056,KPSP,2021-10-19T01:53:00Z,33.82,-116.5,20.6,5.6,290,15,25,10.0,29.861221,1011.0,,,TRUE,,,,,,,CLR,,,,,,,,VFR,,,,,,,,,,,,METAR,123.0
KPSC 190153Z 17004KT 10SM CLR 17/06 A2986 RMK AO2 SLP112 T01670056,KPSC,2021-10-19T01:53:00Z,46.27,-119.12,16.7,5.6,170,4,,10.0,29.861221,1011.2,,,TRUE,,,,,,,CLR,,,,,,,,VFR,,,,,,,,,,,,METAR,121.0
KPRC 190153Z 20014G22KT 10SM CLR 12/01 A2991 RMK AO2 PK WND 22030/0137 SLP084 T01220011,KPRC,2021-10-19T01:53:00Z,34.65,-112.42,12.2,1.1,200,14,22,10.0,29.911417,1008.4,,,TRUE,,,,,,,CLR,,,,,,,,VFR,,,,,,,,,,,,METAR,1528.0
KPRB 190153Z AUTO 33007KT 10SM CLR 16/02 A2998 RMK AO2 SLP150 T01560017,KPRB,2021-10-19T01:53:00Z,35.67,-120.63,15.6,1.7,330,7,,10.0,29.97933,1015.0,,TRUE,TRUE,,,,,,,CLR,,,,,,,,VFR,,,,,,,,,,,,METAR,249.0
KPQL 190153Z AUTO 00000KT 10SM CLR 12/11 A3014 RMK AO2 SLP209 T01220111 TSNO,KPQL,2021-10-19T01:53:00Z,30.47,-88.53,12.2,11.1,0,0,,10.0,30.138779,1020.9,,TRUE,TRUE,,,TRUE,,,,CLR,,,,,,,,VFR,,,,,,,,,,,,METAR,4.0
KPOU 190153Z AUTO 26006KT 10SM FEW075 08/02 A2994 RMK AO2 SLP135 T00780022,KPOU,2021-10-19T01:53:00Z,41.63,-73.88,7.8,2.2,260,6,,10.0,29.940945,1013.5,,TRUE,TRUE,,,,,,,FEW,7500,,,,,,,VFR,,,,,,,,,,,,METAR,45.0
KPOF 190153Z AUTO 00000KT 10SM CLR 09/08 A3013 RMK AO2 SLP203 T00890078,KPOF,2021-10-19T01:53:00Z,36.77,-90.32,8.9,7.8,0,0,,10.0,30.129921,1020.3,,TRUE,TRUE,,,,,,,CLR,,,,,,,,VFR,,,,,,,,,,,,METAR,99.0
KPNS 190153Z 00000KT 10SM CLR 17/13 A3014 RMK AO2 SLP207 T01670133,KPNS,2021-10-19T01:53:00Z,30.48,-87.18,16.7,13.3,0,0,,10.0,30.138779,1020.7,,,TRUE,,,,,,,CLR,,,,,,,,VFR,,,,,,,,,,,,METAR,34.0
KPNC 190153Z AUTO 16013KT 10SM CLR 18/07 A2997 RMK AO2 SLP142 T01780067,KPNC,2021-10-19T01:53:00Z,36.73,-97.1,17.8,6.7,160,13,,10.0,29.970472,1014.2,,TRUE,TRUE,,,,,,,CLR,,,,,,,,VFR,,,,,,,,,,,,METAR,304.0
KPMP 190153Z AUTO 06010KT 10SM SCT049 26/16 A3007 RMK AO2 SLP182 T02560156,KPMP,2021-10-19T01:53:00Z,26.25,-80.12,25.6,15.6,60,10,,10.0,30.070866,1018.2,,TRUE,TRUE,,,,,,,SCT,4900,,,,,,,VFR,,,,,,,,,,,,METAR,4.0
KPMD 190153Z 30020G27KT 10SM CLR 11/M04 A2993 RMK AO2 PK WND 29031/0123 SLP130 T01061039,KPMD,2021-10-19T01:53:00Z,34.63,-118.08,10.6,-3.9,300,20,27,10.0,29.929134,1013.0,,,TRUE,,,,,,,CLR,,,,,,,,VFR,,,,,,,,,,,,METAR,764.0
KPKD 190153Z AUTO 16008KT 10SM CLR 13/06 A2982 RMK AO2 SLP104 T01330056,KPKD,2021-10-19T01:53:00Z,46.9,-95.07,13.3,5.6,160,8,,10.0,29.819881,1010.4,,TRUE,TRUE,,,,,,,CLR,,,,,,,,VFR,,,,,,,,,,,,METAR,439.0
KPKB 190153Z 00000KT 10SM CLR 09/06 A3015 RMK AO2 SLP210 T00940061,KPKB,2021-10-19T01:53:00Z,39.35,-81.43,9.4,6.1,0,0,,10.0,30.15059,1021.0,,,TRUE,,,,,,,CLR,,,,,,,,VFR,,,,,,,,,,,,METAR,245.0
KPIR 190153Z AUTO 15008KT 10SM CLR 16/06 A2971 RMK AO2 SLP058 T01610056,KPIR,2021-10-19T01:53:00Z,44.38,-100.28,16.1,5.6,150,8,,10.0,29.71063,1005.8,,TRUE,TRUE,,,,,,,CLR,,,,,,,,VFR,,,,,,,,,,,,METAR,524.0
KPIL 190153Z AUTO 10006KT 10SM CLR 22/17 A3003 RMK AO2 SLP167 T02220167,KPIL,2021-10-19T01:53:00Z,26.17,-97.33,22.2,16.7,100,6,,10.0,30.029528,1016.7,,TRUE,TRUE,,,,,,,CLR,,,,,,,,VFR,,,,,,,,,,,,METAR,5.0
KPIH 190153Z 06006KT 10SM -RA OVC060 09/05 A2982 RMK AO2 RAE00B50 SLP084 P0000 T00940050,KPIH,2021-10-19T01:53:00Z,42.92,-112.57,9.4,5.0,60,6,,10.0,29.819881,1008.4,,,TRUE,,,,,,-RA,OVC,6000,,,,,,,VFR,,,,,,0.005,,,,,,METAR,1357.0
KPIE 190153Z 10010KT 10SM CLR 24/15 A3010 RMK AO2 SLP191 T02440150,KPIE,2021-10-19T01:53:00Z,27.92,-82.68,24.4,15.0,100,10,,10.0,30.100393,1019.1,,,TRUE,,,,,,,CLR,,,,,,,,VFR,,,,,,,,,,,,METAR,1.0
KPHD 190153Z AUTO 00000KT 10SM CLR 07/05 A3014 RMK AO2 SLP209 T00670050,KPHD,2021-10-19T01:53:00Z,40.47,-81.42,6.7,5.0,0,0,,10.0,30.138779,1020.9,,TRUE,TRUE,,,,,,,CLR,,,,,,,,VFR,,,,,,,,,,,,METAR,272.0
KPGD 190153Z AUTO 07009KT 10SM CLR 22/16 A3010 RMK AO2 SLP190 T02170161,KPGD,2021-10-19T01:53:00Z,26.92,-82.0,21.7,16.1,70,9,,10.0,30.100393,1019.0,,TRUE,TRUE,,,,,,,CLR,,,,,,,,VFR,,,,,,,,,,,,METAR,7.0
KPGA 190153Z AUTO 28017G28KT 10SM OVC085 12/00 A2981 RMK AO2 PK WND 27036/0054 RAE21 SLP063 P0000 T01170000,KPGA,2021-10-19T01:53:00Z,36.92,-111.45,11.7,0.0,280,17,28,10.0,29.811024,1006.3,,TRUE,TRUE,,,,,,,OVC,8500,,,,,,,VFR,,,,,,0.005,,,,,,METAR,1310.0
KPEO 190153Z AUTO 24005KT 10SM OVC060 09/04 A3001 RMK AO2 SLP165 T00890039,KPEO,2021-10-19T01:53:00Z,42.65,-77.05,8.9,3.9,240,5,,10.0,30.008858,1016.5,,TRUE,TRUE,,,,,,,OVC,6000,,,,,,,VFR,,,,,,,,,,,,METAR,268.0
KPDX 190153Z 09004KT 10SM FEW250 12/06 A3001 RMK AO2 SLP160 T01220056,KPDX,2021-10-19T01:53:00Z,45.6,-122.62,12.2,5.6,90,4,,10.0,30.008858,1016.0,,,TRUE,,,,,,,FEW,25000,,,,,,,VFR,,,,,,,,,,,,METAR,7.0
KPDT 190153Z 28004KT 10SM CLR 12/02 A2988 RMK AO2 SLP116 T01220022,KPDT,2021-10-19T01:53:00Z,45.7,-118.83,12.2,2.2,280,4,,10.0,29.878937,1011.6,,,TRUE,,,,,,,CLR,,,,,,,,VFR,,,,,,,,,,,,METAR,453.0
KPDK 190153Z 00000KT 10SM CLR 11/09 A3018 RMK AO2 SLP220 T01110089,KPDK,2021-10-19T01:53:00Z,33.88,-84.3,11.1,8.9,0,0,,10.0,30.180119,1022.0,,,TRUE,,,,,,,CLR,,,,,,,,VFR,,,,,,,,,,,,METAR,299.0
KPBI 190153Z 06010KT 10SM SCT042 SCT055 26/15 A3008 RMK AO2 SLP185 T02560150,KPBI,2021-10-19T01:53:00Z,26.68,-80.1,25.6,15.0,60,10,,10.0,30.079725,1018.5,,,TRUE,,,,,,,SCT,4200,SCT,5500,,,,,VFR,,,,,,,,,,,,METAR,4.0
KPBG 190153Z AUTO 28004KT 10SM OVC085 08/03 A2987 RMK AO2 SLP116 T00830033,KPBG,2021-10-19T01:53:00Z,44.65,-73.47,8.3,3.3,280,4,,10.0,29.870079,1011.6,,TRUE,TRUE,,,,,,,OVC,8500,,,,,,,VFR,,,,,,,,,,,,METAR,61.0
KPBF 190153Z AUTO 00000KT 10SM CLR 14/09 A3013 RMK AO2 SLP201 T01390089,KPBF,2021-10-19T01:53:00Z,34.18,-91.93,13.9,8.9,0,0,,10.0,30.129921,1020.1,,TRUE,TRUE,,,,,,,CLR,,,,,,,,VFR,,,,,,,,,,,,METAR,63.0
KPAH 190153Z 00000KT 10SM CLR 10/08 A3014 RMK AO2 SLP206 T01000078,KPAH,2021-10-19T01:53:00Z,37.07,-88.77,10.0,7.8,0,0,,10.0,30.138779,1020.6,,,TRUE,,,,,,,CLR,,,,,,,,VFR,,,,,,,,,,,,METAR,125.0
KPAE 190153Z 00000KT 10SM BKN030 10/07 A3001 RMK AO2 SLP162 T01000067,KPAE,2021-10-19T01:53:00Z,47.92,-122.28,10.0,6.7,0,0,,10.0,30.008858,1016.2,,,TRUE,,,,,,,BKN,3000,,,,,,,MVFR,,,,,,,,,,,,METAR,166.0
KP68 190153Z AUTO 00000KT 02/M01 A2992 RMK AO1 SLP109 T00171006,KP68,2021-10-19T01:53:00Z,39.6,-116.0,1.7,-0.6,0,0,,,29.920275,1010.9,,TRUE,TRUE,,,,,,,,,,,,,,,,,,,,,,,,,,,METAR,1813.0
KOXB 190153Z AUTO 00000KT 10SM CLR 08/07 A3004 RMK AO2 SLP172 T00780067,KOXB,2021-10-19T01:53:00Z,38.32,-75.12,7.8,6.7,0,0,,10.0,30.041338,1017.2,,TRUE,TRUE,,,,,,,CLR,,,,,,,,VFR,,,,,,,,,,,,METAR,2.0
KOWD 190153Z 29008KT 10SM CLR 10/03 A2983 RMK AO2 SLP099 T01000028,KOWD,2021-10-19T01:53:00Z,42.18,-71.17,10.0,2.8,290,8,,10.0,29.828741,1009.9,,,TRUE,,,,,,,CLR,,,,,,,,VFR,,,,,,,,,,,,METAR,14.0
KOWA 190153Z AUTO 14007KT 10SM CLR 17/06 A2994 RMK AO2,KOWA,2021-10-19T01:53:00Z,44.12,-93.25,17.0,6.0,140,7,,10.0,29.940945,,,TRUE,TRUE,,,,,,,CLR,,,,,,,,VFR,,,,,,,,,,,,METAR,345.0
KOVS 190153Z AUTO 00000KT 9SM CLR 09/07 A3003 RMK AO2 SLP172 T00940067 $,KOVS,2021-10-19T01:53:00Z,43.15,-90.68,9.4,6.7,0,0,,9.0,30.029528,1017.2,,TRUE,TRUE,TRUE,,,,,,CLR,,,,,,,,VFR,,,,,,,,,,,,METAR,205.0
KOVE 190153Z AUTO 34003KT 10SM CLR 14/06 A3003 RMK AO2 SLP172 T01390061,KOVE,2021-10-19T01:53:00Z,39.5,-121.62,13.9,6.1,340,3,,10.0,30.029528,1017.2,,TRUE,TRUE,,,,,,,CLR,,,,,,,,VFR,,,,,,,,,,,,METAR,56.0
KOTM 190153Z AUTO 18007KT 10SM CLR 13/07 A3001 RMK AO2 SLP163 T01280072,KOTM,2021-10-19T01:53:00Z,41.1,-92.45,12.8,7.2,180,7,,10.0,30.008858,1016.3,,TRUE,TRUE,,,,,,,CLR,,,,,,,,VFR,,,,,,,,,,,,METAR,254.0
KOSU 190153Z 25003KT 10SM CLR 12/06 A3014 RMK AO2 SLP208 T01220056,KOSU,2021-10-19T01:53:00Z,40.08,-83.08,12.2,5.6,250,3,,10.0,30.138779,1020.8,,,TRUE,,,,,,,CLR,,,,,,,,VFR,,,,,,,,,,,,METAR,276.0
KOSH 190153Z 17004KT 10SM CLR 10/07 A3003 RMK AO2 SLP171 T01000067,KOSH,2021-10-19T01:53:00Z,43.98,-88.55,10.0,6.7,170,4,,10.0,30.029528,1017.1,,,TRUE,,,,,,,CLR,,,,,,,,VFR,,,,,,,,,,,,METAR,239.0
KORL 190153Z 04004KT 10SM CLR 21/15 A3012 RMK AO2 SLP203 T02110150,KORL,2021-10-19T01:53:00Z,28.55,-81.33,21.1,15.0,40,4,,10.0,30.121063,1020.3,,,TRUE,,,,,,,CLR,,,,,,,,VFR,,,,,,,,,,,,METAR,32.0
KORB 190153Z AUTO 17006KT 10SM 16/06 A2984 RMK AO2,KORB,2021-10-19T01:53:00Z,48.02,-92.87,16.0,6.0,170,6,,10.0,29.840551,,,TRUE,TRUE,,,,,,,,,,,,,,,,,,,,,,,,,,,METAR,407.0
KOQT 190153Z AUTO 00000KT 10SM CLR 11/09 A3021 RMK AO2 SLP233 T01110094,KOQT,2021-10-19T01:53:00Z,36.02,-84.23,11.1,9.4,0,0,,10.0,30.209646,1023.3,,TRUE,TRUE,,,,,,,CLR,,,,,,,,VFR,,,,,,,,,,,,METAR,276.0
KOPF 190153Z 04005KT 10SM CLR 25/16 A3007 RMK AO2 SLP183 T02500161,KOPF,2021-10-19T01:53:00Z,25.92,-80.28,25.0,16.1,40,5,,10.0,30.070866,1018.3,,,TRUE,,,,,,,CLR,,,,,,,,VFR,,,,,,,,,,,,METAR,1.0
KONT 190153Z 26009KT 10SM BKN060 17/05 A2994 RMK AO2 SLP134 T01670050,KONT,2021-10-19T01:53:00Z,34.05,-117.58,16.7,5.0,260,9,,10.0,29.940945,1013.4,,,TRUE,,,,,,,BKN,6000,,,,,,,VFR,,,,,,,,,,,,METAR,279.0
KONO 190153Z AUTO 33013KT 10SM SCT120 17/01 A2979 RMK AO2 SLP081 T01670006,KONO,2021-10-19T01:53:00Z,44.02,-117.02,16.7,0.6,330,13,,10.0,29.790354,1008.1,,TRUE,TRUE,,,,,,,SCT,12000,,,,,,,VFR,,,,,,,,,,,,METAR,668.0
KOMK 190153Z AUTO 32007KT 10SM CLR 14/03 A2985 RMK AO2 SLP109 T01440028,KOMK,2021-10-19T01:53:00Z,48.47,-119.52,14.4,2.8,320,7,,10.0,29.84941,1010.9,,TRUE,TRUE,,,,,,,CLR,,,,,,,,VFR,,,,,,,,,,,,METAR,395.0
KOLF 190153Z AUTO 01010G16KT 10SM CLR 11/02 A2987 RMK AO2 SLP130 T01110022,KOLF,2021-10-19T01:53:00Z,48.1,-105.58,11.1,2.2,10,10,16,10.0,29.870079,1013.0,,TRUE,TRUE,,,,,,,CLR,,,,,,,,VFR,,,,,,,,,,,,METAR,605.0
KOJC 190153Z 16007KT 10SM CLR 14/07 A3000 RMK AO2 SLP158 T01440067,KOJC,2021-10-19T01:53:00Z,38.85,-94.73,14.4,6.7,160,7,,10.0,30.0,1015.8,,,TRUE,,,,,,,CLR,,,,,,,,VFR,,,,,,,,,,,,METAR,328.0
KOGD 190153Z 25005KT 10SM -RA BKN055 OVC070 06/04 A2981 RMK AO2 RAE0058B44 SLP071 P0000 T00610039,KOGD,2021-10-19T01:53:00Z,41.2,-112.02,6.1,3.9,250,5,,10.0,29.811024,1007.1,,,TRUE,,,,,,-RA,BKN,5500,OVC,7000,,,,,VFR,,,,,,0.005,,,,,,METAR,1356.0
KOGB 190153Z AUTO 00000KT 10SM CLR 11/09 A3017 RMK AO2 SLP216 T01110094,KOGB,2021-10-19T01:53:00Z,33.47,-80.85,11.1,9.4,0,0,,10.0,30.171259,1021.6,,TRUE,TRUE,,,,,,,CLR,,,,,,,,VFR,,,,,,,,,,,,METAR,59.0
KODX 190153Z AUTO 15010KT 10SM CLR 16/04 A2980 RMK AO2 SLP096 T01560044,KODX,2021-10-19T01:53:00Z,41.62,-98.95,15.6,4.4,150,10,,10.0,29.799213,1009.6,,TRUE,TRUE,,,,,,,CLR,,,,,,,,VFR,,,,,,,,,,,,METAR,628.0
KODO 190153Z AUTO 17015KT 10SM CLR 20/07 A2997 RMK AO2 SLP118 T02000072,KODO,2021-10-19T01:53:00Z,31.92,-102.4,20.0,7.2,170,15,,10.0,29.970472,1011.8,,TRUE,TRUE,,,,,,,CLR,,,,,,,,VFR,,,,,,,,,,,,METAR,912.0
KOAK 190153Z 29008KT 10SM FEW017 FEW050 14/08 A3003 RMK AO2 SLP170 T01390078,KOAK,2021-10-19T01:53:00Z,37.72,-122.23,13.9,7.8,290,8,,10.0,30.029528,1017.0,,,TRUE,,,,,,,FEW,1700,FEW,5000,,,,,VFR,,,,,,,,,,,,METAR,3.0
KNUI 190153Z AUTO 00000KT 10SM CLR 13/07 A3005 RMK AO2 SLP174 T01280067,KNUI,2021-10-19T01:53:00Z,38.15,-76.43,12.8,6.7,0,0,,10.0,30.050198,1017.4,,TRUE,TRUE,,,,,,,CLR,,,,,,,,VFR,,,,,,,,,,,,METAR,4.0
KNSI 190153Z AUTO 30017G23KT CLR 12/08 A2996 RMK AO2 PK WND 30028/0057 SLP141 T01220078 $,KNSI,2021-10-19T01:53:00Z,33.23,-119.45,12.2,7.8,300,17,23,,29.958662,1014.1,,TRUE,TRUE,TRUE,,,,,,CLR,,,,,,,,,,,,,,,,,,,,METAR,161.0
KNQX 190153Z 07011KT 10SM FEW035 28/19 A3004 RMK AO2 SLP172 T02830189 $,KNQX,2021-10-19T01:53:00Z,24.57,-81.67,28.3,18.9,70,11,,10.0,30.041338,1017.2,,,TRUE,TRUE,,,,,,FEW,3500,,,,,,,VFR,,,,,,,,,,,,METAR,2.0
KNIP 190153Z 03006KT 10SM BKN250 20/16 A3017 RMK AO2 SLP210 T02000156,KNIP,2021-10-19T01:53:00Z,30.23,-81.67,20.0,15.6,30,6,,10.0,30.171259,1021.0,,,TRUE,,,,,,,BKN,25000,,,,,,,VFR,,,,,,,,,,,,METAR,3.0
KNEW 190153Z 10007KT 10SM CLR 21/16 A3013 RMK AO2 SLP195 T02060156,KNEW,2021-10-19T01:53:00Z,30.05,-90.03,20.6,15.6,100,7,,10.0,30.129921,1019.5,,,TRUE,,,,,,,CLR,,,,,,,,VFR,,,,,,,,,,,,METAR,1.0
KMYV 190153Z AUTO 03006KT 10SM CLR 14/05 A3002 RMK AO2 SLP169 T01440050,KMYV,2021-10-19T01:53:00Z,39.1,-121.57,14.4,5.0,30,6,,10.0,30.02067,1016.9,,TRUE,TRUE,,,,,,,CLR,,,,,,,,VFR,,,,,,,,,,,,METAR,18.0
KMYF 190153Z 28006KT 10SM BKN029 16/09 A2998 RMK AO2 SLP150 T01560089,KMYF,2021-10-19T01:53:00Z,32.82,-117.13,15.6,8.9,280,6,,10.0,29.97933,1015.0,,,TRUE,,,,,,,BKN,2900,,,,,,,MVFR,,,,,,,,,,,,METAR,128.0
KMWT 190153Z AUTO 00000KT 10SM CLR 14/07 A3009 RMK AO2 SLP190 T01390067,KMWT,2021-10-19T01:53:00Z,34.55,-93.58,13.9,6.7,0,0,,10.0,30.088583,1019.0,,TRUE,TRUE,,,,,,,CLR,,,,,,,,VFR,,,,,,,,,,,,METAR,220.0
KMWL 190153Z AUTO 15008KT 10SM CLR 17/08 A3000 RMK AO2 SLP154 T01670078,KMWL,2021-10-19T01:53:00Z,32.78,-98.07,16.7,7.8,150,8,,10.0,30.0,1015.4,,TRUE,TRUE,,,,,,,CLR,,,,,,,,VFR,,,,,,,,,,,,METAR,288.0
KMVY 190153Z 31010KT 10SM CLR 12/04 A2982 RMK AO2 SLP097 T01170039,KMVY,2021-10-19T01:53:00Z,41.4,-70.62,11.7,3.9,310,10,,10.0,29.819881,1009.7,,,TRUE,,,,,,,CLR,,,,,,,,VFR,,,,,,,,,,,,METAR,18.0
KMTO 190153Z AUTO 17005KT 10SM CLR 14/08 A3012 RMK AO2 SLP198 T01440078,KMTO,2021-10-19T01:53:00Z,39.47,-88.27,14.4,7.8,170,5,,10.0,30.121063,1019.8,,TRUE,TRUE,,,,,,,CLR,,,,,,,,VFR,,,,,,,,,,,,METAR,216.0
KMTJ 190153Z AUTO 13007KT 10SM CLR 14/M06 A2975 RMK AO2 SLP029 T01391056,KMTJ,2021-10-19T01:53:00Z,38.5,-107.9,13.9,-5.6,130,7,,10.0,29.749016,1002.9,,TRUE,TRUE,,,,,,,CLR,,,,,,,,VFR,,,,,,,,,,,,METAR,1755.0
KMTH 190153Z AUTO 08009G17KT 10SM CLR 26/18 A3004 RMK AO2 SLP170 T02610183,KMTH,2021-10-19T01:53:00Z,24.73,-81.05,26.1,18.3,80,9,17,10.0,30.041338,1017.0,,TRUE,TRUE,,,,,,,CLR,,,,,,,,VFR,,,,,,,,,,,,METAR,1.0
KMSY 190153Z 09006KT 10SM FEW016 19/15 A3012 RMK AO2 SLP202 T01890150,KMSY,2021-10-19T01:53:00Z,30.0,-90.25,18.9,15.0,90,6,,10.0,30.121063,1020.2,,,TRUE,,,,,,,FEW,1600,,,,,,,VFR,,,,,,,,,,,,METAR,0.0
KMSS 190153Z AUTO 27008KT 10SM OVC075 08/03 A2993 RMK AO2 SLP137 T00830033,KMSS,2021-10-19T01:53:00Z,44.93,-74.85,8.3,3.3,270,8,,10.0,29.929134,1013.7,,TRUE,TRUE,,,,,,,OVC,7500,,,,,,,VFR,,,,,,,,,,,,METAR,60.0
KMSP 190153Z 16010KT 10SM FEW250 18/04 A2991 RMK AO2 SLP131 T01830039,KMSP,2021-10-19T01:53:00Z,44.88,-93.23,18.3,3.9,160,10,,10.0,29.911417,1013.1,,,TRUE,,,,,,,FEW,25000,,,,,,,VFR,,,,,,,,,,,,METAR,255.0
KMSO 190153Z 00000KT 10SM CLR 12/M03 A2985 RMK AO2 SLP119 T01171028,KMSO,2021-10-19T01:53:00Z,46.92,-114.1,11.7,-2.8,0,0,,10.0,29.84941,1011.9,,,TRUE,,,,,,,CLR,,,,,,,,VFR,,,,,,,,,,,,METAR,974.0
KMSN 190153Z 00000KT 10SM CLR 11/07 A3004 RMK AO2 SLP175 T01110067,KMSN,2021-10-19T01:53:00Z,43.13,-89.35,11.1,6.7,0,0,,10.0,30.041338,1017.5,,,TRUE,,,,,,,CLR,,,,,,,,VFR,,,,,,,,,,,,METAR,262.0
KMSL 190153Z AUTO 00000KT 10SM CLR 12/09 A3016 RMK AO2 SLP212 T01220089,KMSL,2021-10-19T01:53:00Z,34.75,-87.6,12.2,8.9,0,0,,10.0,30.159449,1021.2,,TRUE,TRUE,,,,,,,CLR,,,,,,,,VFR,,,,,,,,,,,,METAR,170.0
KMRB 190153Z 33006KT 10SM CLR 13/01 A3007 RMK AO2 SLP183 T01330006,KMRB,2021-10-19T01:53:00Z,39.4,-77.98,13.3,0.6,330,6,,10.0,30.070866,1018.3,,,TRUE,,,,,,,CLR,,,,,,,,VFR,,,,,,,,,,,,METAR,165.0
KMPO 190153Z AUTO 28008KT 10SM FEW030 BKN037 OVC049 06/02 A2997 RMK AO2 SLP156 T00560022,KMPO,2021-10-19T01:53:00Z,41.13,-75.38,5.6,2.2,280,8,,10.0,29.970472,1015.6,,TRUE,TRUE,,,,,,,FEW,3000,BKN,3700,OVC,4900,,,VFR,,,,,,,,,,,,METAR,576.0
KMOD 190153Z 34004KT 10SM CLR 14/03 A2999 RMK AO2 SLP156 T01390033,KMOD,2021-10-19T01:53:00Z,37.62,-120.95,13.9,3.3,340,4,,10.0,29.991142,1015.6,,,TRUE,,,,,,,CLR,,,,,,,,VFR,,,,,,,,,,,,METAR,25.0
KMNN 190153Z AUTO 25004KT 10SM CLR 11/05 A3014 RMK AO2 SLP210 T01060050,KMNN,2021-10-19T01:53:00Z,40.62,-83.07,10.6,5.0,250,4,,10.0,30.138779,1021.0,,TRUE,TRUE,,,,,,,CLR,,,,,,,,VFR,,,,,,,,,,,,METAR,301.0
KMMV 190153Z AUTO 16004KT 10SM BKN050 11/08 A2999 RMK AO2 SLP154 T01110078,KMMV,2021-10-19T01:53:00Z,45.2,-123.13,11.1,7.8,160,4,,10.0,29.991142,1015.4,,TRUE,TRUE,,,,,,,BKN,5000,,,,,,,VFR,,,,,,,,,,,,METAR,48.0
KMMK 190153Z AUTO 31009KT 10SM CLR 09/02 A2991 RMK AO2 SLP128 T00890017,KMMK,2021-10-19T01:53:00Z,41.52,-72.83,8.9,1.7,310,9,,10.0,29.911417,1012.8,,TRUE,TRUE,,,,,,,CLR,,,,,,,,VFR,,,,,,,,,,,,METAR,30.0
KMLU 190153Z 06003KT 10SM CLR 12/09 A3013 RMK AO2 SLP203 T01170094,KMLU,2021-10-19T01:53:00Z,32.52,-92.03,11.7,9.4,60,3,,10.0,30.129921,1020.3,,,TRUE,,,,,,,CLR,,,,,,,,VFR,,,,,,,,,,,,METAR,22.0
KMLT 190153Z AUTO 28012G20KT 250V310 10SM BKN120 09/03 A2966 RMK AO2 SLP050 T00890033 TSNO,KMLT,2021-10-19T01:53:00Z,45.65,-68.7,8.9,3.3,280,12,20,10.0,29.660433,1005.0,,TRUE,TRUE,,,TRUE,,,,BKN,12000,,,,,,,VFR,,,,,,,,,,,,METAR,121.0
KMLS 190153Z AUTO 32007KT 10SM CLR 12/03 A2980 RMK AO2 SLP099 T01220028,KMLS,2021-10-19T01:53:00Z,46.43,-105.88,12.2,2.8,320,7,,10.0,29.799213,1009.9,,TRUE,TRUE,,,,,,,CLR,,,,,,,,VFR,,,,,,,,,,,,METAR,800.0
KMLP 190153Z AUTO 36006KT 10SM CLR 09/M04 A2993 RMK AO2 SLP071 T00891039 $,KMLP,2021-10-19T01:53:00Z,47.45,-115.67,8.9,-3.9,360,6,,10.0,29.929134,1007.1,,TRUE,TRUE,TRUE,,,,,,CLR,,,,,,,,VFR,,,,,,,,,,,,METAR,1837.0
KMLC 190153Z AUTO 13004KT 10SM CLR 14/08 A3005 RMK AO2 SLP172 T01390078,KMLC,2021-10-19T01:53:00Z,34.88,-95.78,13.9,7.8,130,4,,10.0,30.050198,1017.2,,TRUE,TRUE,,,,,,,CLR,,,,,,,,VFR,,,,,,,,,,,,METAR,231.0
KMLB 190153Z 07006KT 10SM CLR 23/13 A3009 RMK AO2 SLP190 T02330133,KMLB,2021-10-19T01:53:00Z,28.1,-80.65,23.3,13.3,70,6,,10.0,30.088583,1019.0,,,TRUE,,,,,,,CLR,,,,,,,,VFR,,,,,,,,,,,,METAR,7.0
KMKL 190153Z AUTO 00000KT 10SM CLR 10/09 A3016 RMK AO2 SLP213 T01000089,KMKL,2021-10-19T01:53:00Z,35.6,-88.92,10.0,8.9,0,0,,10.0,30.159449,1021.3,,TRUE,TRUE,,,,,,,CLR,,,,,,,,VFR,,,,,,,,,,,,METAR,130.0
KMIW 190153Z AUTO 16007KT 10SM CLR 14/06 A2998 RMK AO2 SLP153 T01440056,KMIW,2021-10-19T01:53:00Z,42.12,-92.92,14.4,5.6,160,7,,10.0,29.97933,1015.3,,TRUE,TRUE,,,,,,,CLR,,,,,,,,VFR,,,,,,,,,,,,METAR,296.0
KMIE 190153Z 00000KT 10SM CLR 10/07 A3014 RMK AO2 SLP205 T01000067,KMIE,2021-10-19T01:53:00Z,40.23,-85.4,10.0,6.7,0,0,,10.0,30.138779,1020.5,,,TRUE,,,,,,,CLR,,,,,,,,VFR,,,,,,,,,,,,METAR,286.0
KMIC 190153Z 15009KT 10SM CLR 18/04 A2989 RMK AO2 SLP122 T01780044,KMIC,2021-10-19T01:53:00Z,45.07,-93.35,17.8,4.4,150,9,,10.0,29.890747,1012.2,,,TRUE,,,,,,,CLR,,,,,,,,VFR,,,,,,,,,,,,METAR,263.0
KMIA 190153Z 04006KT 10SM FEW047 FEW250 26/17 A3006 RMK AO2 SLP180 T02610172 $,KMIA,2021-10-19T01:53:00Z,25.8,-80.32,26.1,17.2,40,6,,10.0,30.059055,1018.0,,,TRUE,TRUE,,,,,,FEW,4700,FEW,25000,,,,,VFR,,,,,,,,,,,,METAR,1.0
KMHT 190153Z 31006KT 10SM FEW100 09/03 A2981 RMK AO2 SLP108 T00940028,KMHT,2021-10-19T01:53:00Z,42.93,-71.43,9.4,2.8,310,6,,10.0,29.811024,1010.8,,,TRUE,,,,,,,FEW,10000,,,,,,,VFR,,,,,,,,,,,,METAR,68.0
KMHE 190153Z AUTO 15010KT 10SM CLR 17/03 A2979 RMK AO2 SLP088 T01720033,KMHE,2021-10-19T01:53:00Z,43.77,-98.03,17.2,3.3,150,10,,10.0,29.790354,1008.8,,TRUE,TRUE,,,,,,,CLR,,,,,,,,VFR,,,,,,,,,,,,METAR,397.0
KMGY 190153Z AUTO 00000KT 10SM CLR 12/04 A3015 RMK AO2 SLP209 T01220044 $,KMGY,2021-10-19T01:53:00Z,39.6,-84.23,12.2,4.4,0,0,,10.0,30.15059,1020.9,,TRUE,TRUE,TRUE,,,,,,CLR,,,,,,,,VFR,,,,,,,,,,,,METAR,290.0
KMGW 190153Z 21003KT 10SM CLR 08/05 A3015 RMK AO2 SLP213 T00830050,KMGW,2021-10-19T01:53:00Z,39.65,-79.92,8.3,5.0,210,3,,10.0,30.15059,1021.3,,,TRUE,,,,,,,CLR,,,,,,,,VFR,,,,,,,,,,,,METAR,375.0
KMGM 190153Z 00000KT 10SM CLR 12/09 A3017 RMK AO2 SLP215 T01170089,KMGM,2021-10-19T01:53:00Z,32.3,-86.4,11.7,8.9,0,0,,10.0,30.171259,1021.5,,,TRUE,,,,,,,CLR,,,,,,,,VFR,,,,,,,,,,,,METAR,64.0
KMFR 190153Z 04004KT 10SM FEW095 11/04 A2997 RMK AO2 SLP150 T01110039,KMFR,2021-10-19T01:53:00Z,42.38,-122.87,11.1,3.9,40,4,,10.0,29.970472,1015.0,,,TRUE,,,,,,,FEW,9500,,,,,,,VFR,,,,,,,,,,,,METAR,397.0
KMFE 190153Z 11008KT 10SM CLR 23/16 A3003 RMK AO2 SLP167 T02330156 $,KMFE,2021-10-19T01:53:00Z,26.18,-98.25,23.3,15.6,110,8,,10.0,30.029528,1016.7,,,TRUE,TRUE,,,,,,CLR,,,,,,,,VFR,,,,,,,,,,,,METAR,29.0
KMDW 190153Z 15006KT 10SM CLR 18/04 A3008 RMK AO2 SLP183 T01780044,KMDW,2021-10-19T01:53:00Z,41.78,-87.75,17.8,4.4,150,6,,10.0,30.079725,1018.3,,,TRUE,,,,,,,CLR,,,,,,,,VFR,,,,,,,,,,,,METAR,186.0
KMCW 190153Z AUTO 17006KT 8SM CLR 09/04 A2997 RMK AO2 SLP149 T00940039,KMCW,2021-10-19T01:53:00Z,43.15,-93.33,9.4,3.9,170,6,,8.0,29.970472,1014.9,,TRUE,TRUE,,,,,,,CLR,,,,,,,,VFR,,,,,,,,,,,,METAR,363.0
KMCO 190153Z 04007KT 10SM FEW060 SCT250 BKN300 22/14 A3012 RMK AO2 SLP197 T02220144,KMCO,2021-10-19T01:53:00Z,28.42,-81.33,22.2,14.4,40,7,,10.0,30.121063,1019.7,,,TRUE,,,,,,,FEW,6000,SCT,25000,BKN,30000,,,VFR,,,,,,,,,,,,METAR,27.0
KMCN 190153Z AUTO 00000KT 10SM CLR 11/09 A3019 RMK AO2 SLP220 T01110094,KMCN,2021-10-19T01:53:00Z,32.68,-83.65,11.1,9.4,0,0,,10.0,30.188976,1022.0,,TRUE,TRUE,,,,,,,CLR,,,,,,,,VFR,,,,,,,,,,,,METAR,104.0
KMCK 190153Z AUTO 09008KT 10SM CLR 15/06 A2976 RMK AO2 SLP076 T01500056,KMCK,2021-10-19T01:53:00Z,40.2,-100.58,15.0,5.6,90,8,,10.0,29.760826,1007.6,,TRUE,TRUE,,,,,,,CLR,,,,,,,,VFR,,,,,,,,,,,,METAR,780.0
KMCI 190153Z 16008KT 10SM FEW160 SCT220 13/07 A3000 RMK AO2 SLP156 T01330067,KMCI,2021-10-19T01:53:00Z,39.3,-94.73,13.3,6.7,160,8,,10.0,30.0,1015.6,,,TRUE,,,,,,,FEW,16000,SCT,22000,,,,,VFR,,,,,,,,,,,,METAR,308.0
KMCE 190153Z AUTO 36005KT 10SM CLR 14/04 A3000 RMK AO2 SLP157 T01440039,KMCE,2021-10-19T01:53:00Z,37.28,-120.5,14.4,3.9,360,5,,10.0,30.0,1015.7,,TRUE,TRUE,,,,,,,CLR,,,,,,,,VFR,,,,,,,,,,,,METAR,49.0
KMCB 190153Z AUTO 06003KT 10SM CLR 14/11 A3013 RMK AO2 SLP201 T01440111,KMCB,2021-10-19T01:53:00Z,31.18,-90.47,14.4,11.1,60,3,,10.0,30.129921,1020.1,,TRUE,TRUE,,,,,,,CLR,,,,,,,,VFR,,,,,,,,,,,,METAR,124.0
KMBS 190153Z 24006KT 10SM CLR 10/06 A3008 RMK AO2 SLP189 T01000056,KMBS,2021-10-19T01:53:00Z,43.53,-84.08,10.0,5.6,240,6,,10.0,30.079725,1018.9,,,TRUE,,,,,,,CLR,,,,,,,,VFR,,,,,,,,,,,,METAR,201.0
KMAI 190153Z AUTO 06004KT 10SM CLR 13/11 A3015 RMK AO2 SLP208 T01330111,KMAI,2021-10-19T01:53:00Z,30.83,-85.18,13.3,11.1,60,4,,10.0,30.15059,1020.8,,TRUE,TRUE,,,,,,,CLR,,,,,,,,VFR,,,,,,,,,,,,METAR,33.0
KMAF 190153Z 16011KT 10SM CLR 18/08 A2996 RMK AO2 SLP115 T01830083,KMAF,2021-10-19T01:53:00Z,31.95,-102.2,18.3,8.3,160,11,,10.0,29.958662,1011.5,,,TRUE,,,,,,,CLR,,,,,,,,VFR,,,,,,,,,,,,METAR,874.0
KMAE 190153Z AUTO 31006KT 10SM CLR 13/04 A3001 RMK AO2 SLP160 T01330039,KMAE,2021-10-19T01:53:00Z,36.98,-120.12,13.3,3.9,310,6,,10.0,30.008858,1016.0,,TRUE,TRUE,,,,,,,CLR,,,,,,,,VFR,,,,,,,,,,,,METAR,77.0
KLXV 190153Z AUTO 15007KT 10SM CLR 06/M11 A2998 RMK AO2 SLP061 T00611106,KLXV,2021-10-19T01:53:00Z,39.23,-106.32,6.1,-10.6,150,7,,10.0,29.97933,1006.1,,TRUE,TRUE,,,,,,,CLR,,,,,,,,VFR,,,,,,,,,,,,METAR,3027.0
KLXT 190153Z AUTO 16008KT 10SM CLR 16/07 A3002 RMK AO2 SLP163 T01560072 $,KLXT,2021-10-19T01:53:00Z,38.97,-94.37,15.6,7.2,160,8,,10.0,30.02067,1016.3,,TRUE,TRUE,TRUE,,,,,,CLR,,,,,,,,VFR,,,,,,,,,,,,METAR,306.0
KLWV 190153Z AUTO 00000KT 10SM CLR 11/08 A3015 RMK AO2 SLP209 T01110078,KLWV,2021-10-19T01:53:00Z,38.77,-87.6,11.1,7.8,0,0,,10.0,30.15059,1020.9,,TRUE,TRUE,,,,,,,CLR,,,,,,,,VFR,,,,,,,,,,,,METAR,128.0
KLWD 190153Z AUTO 16005KT 10SM CLR 15/06 A3000 RMK AO2 SLP158 T01500056,KLWD,2021-10-19T01:53:00Z,40.63,-93.9,15.0,5.6,160,5,,10.0,30.0,1015.8,,TRUE,TRUE,,,,,,,CLR,,,,,,,,VFR,,,,,,,,,,,,METAR,345.0
KLVS 190153Z AUTO 19009KT 10SM CLR 12/M06 A3000 RMK AO2 SLP091 T01171056,KLVS,2021-10-19T01:53:00Z,35.65,-105.13,11.7,-5.6,190,9,,10.0,30.0,1009.1,,TRUE,TRUE,,,,,,,CLR,,,,,,,,VFR,,,,,,,,,,,,METAR,2095.0
KLVM 190153Z AUTO 10013G22KT 10SM CLR 13/M02 A2990 RMK AO2 SLP114 T01331022,KLVM,2021-10-19T01:53:00Z,45.7,-110.43,13.3,-2.2,100,13,22,10.0,29.899607,1011.4,,TRUE,TRUE,,,,,,,CLR,,,,,,,,VFR,,,,,,,,,,,,METAR,1418.0
KLVK 190153Z 27007KT 10SM FEW050 13/08 A3001 RMK AO2 SLP160 T01330078,KLVK,2021-10-19T01:53:00Z,37.7,-121.82,13.3,7.8,270,7,,10.0,30.008858,1016.0,,,TRUE,,,,,,,FEW,5000,,,,,,,VFR,,,,,,,,,,,,METAR,120.0
KLVJ 190153Z AUTO 00000KT 10SM CLR 17/13 A3010 RMK AO2 SLP192 T01720133,KLVJ,2021-10-19T01:53:00Z,29.52,-95.25,17.2,13.3,0,0,,10.0,30.100393,1019.2,,TRUE,TRUE,,,,,,,CLR,,,,,,,,VFR,,,,,,,,,,,,METAR,11.0
KLUK 190153Z 00000KT 10SM CLR 09/09 A3017 RMK AO2 SLP217 T00940089,KLUK,2021-10-19T01:53:00Z,39.1,-84.42,9.4,8.9,0,0,,10.0,30.171259,1021.7,,,TRUE,,,,,,,CLR,,,,,,,,VFR,,,,,,,,,,,,METAR,144.0
KLSE 190153Z 14004KT 10SM CLR 14/07 A2999 RMK AO2 SLP157 T01440072,KLSE,2021-10-19T01:53:00Z,43.88,-91.25,14.4,7.2,140,4,,10.0,29.991142,1015.7,,,TRUE,,,,,,,CLR,,,,,,,,VFR,,,,,,,,,,,,METAR,198.0
KLPR 190153Z AUTO 00000KT 10SM CLR 08/06 A3012 RMK AO2 SLP201 T00830061,KLPR,2021-10-19T01:53:00Z,41.35,-82.18,8.3,6.1,0,0,,10.0,30.121063,1020.1,,TRUE,TRUE,,,,,,,CLR,,,,,,,,VFR,,,,,,,,,,,,METAR,241.0
KLOZ 190153Z AUTO 00000KT 10SM CLR 10/08 A3020 RMK AO2 SLP226 T01000083,KLOZ,2021-10-19T01:53:00Z,37.08,-84.07,10.0,8.3,0,0,,10.0,30.200787,1022.6,,TRUE,TRUE,,,,,,,CLR,,,,,,,,VFR,,,,,,,,,,,,METAR,361.0
KLOU 190153Z 00000KT 10SM CLR 12/09 A3017 RMK AO2 SLP215 T01220089,KLOU,2021-10-19T01:53:00Z,38.22,-85.67,12.2,8.9,0,0,,10.0,30.171259,1021.5,,,TRUE,,,,,,,CLR,,,,,,,,VFR,,,,,,,,,,,,METAR,165.0
KLOL 190153Z AUTO 02006KT 10SM BKN038 OVC048 07/03 A2996 RMK AO2 SLP150 T00670033,KLOL,2021-10-19T01:53:00Z,40.07,-118.57,6.7,3.3,20,6,,10.0,29.958662,1015.0,,TRUE,TRUE,,,,,,,BKN,3800,OVC,4800,,,,,VFR,,,,,,,,,,,,METAR,1191.0
KLNS 190153Z 32003KT 10SM BKN070 11/04 A3003 RMK AO2 SLP170 T01060039,KLNS,2021-10-19T01:53:00Z,40.12,-76.3,10.6,3.9,320,3,,10.0,30.029528,1017.0,,,TRUE,,,,,,,BKN,7000,,,,,,,VFR,,,,,,,,,,,,METAR,122.0
KLND 190153Z AUTO 26011KT 10SM FEW090 SCT110 11/M03 A2980 RMK AO2 SLP069 T01111033,KLND,2021-10-19T01:53:00Z,42.82,-108.73,11.1,-3.3,260,11,,10.0,29.799213,1006.9,,TRUE,TRUE,,,,,,,FEW,9000,SCT,11000,,,,,VFR,,,,,,,,,,,,METAR,1700.0
KLMT 190153Z 28009KT 10SM CLR 06/01 A2998 RMK AO2 SLP152 T00560011,KLMT,2021-10-19T01:53:00Z,42.15,-121.72,5.6,1.1,280,9,,10.0,29.97933,1015.2,,,TRUE,,,,,,,CLR,,,,,,,,VFR,,,,,,,,,,,,METAR,1246.0
KLLQ 190153Z AUTO 00000KT 10SM CLR 12/09 A3012 RMK AO2 SLP200 T01170089 $,KLLQ,2021-10-19T01:53:00Z,33.63,-91.75,11.7,8.9,0,0,,10.0,30.121063,1020.0,,TRUE,TRUE,TRUE,,,,,,CLR,,,,,,,,VFR,,,,,,,,,,,,METAR,86.0
KLKV 190153Z AUTO 15008KT 10SM BKN034 OVC065 05/03 A2997 RMK AO2 SLP167 T00500033,KLKV,2021-10-19T01:53:00Z,42.17,-120.4,5.0,3.3,150,8,,10.0,29.970472,1016.7,,TRUE,TRUE,,,,,,,BKN,3400,OVC,6500,,,,,VFR,,,,,,,,,,,,METAR,1440.0
KLIT 190153Z 17004KT 10SM CLR 13/08 A3012 RMK AO2 SLP203 T01280078,KLIT,2021-10-19T01:53:00Z,34.73,-92.23,12.8,7.8,170,4,,10.0,30.121063,1020.3,,,TRUE,,,,,,,CLR,,,,,,,,VFR,,,,,,,,,,,,METAR,77.0
KLHX 190153Z AUTO 09008KT 10SM CLR 19/M01 A2973 RMK AO2 SLP035 T01891006,KLHX,2021-10-19T01:53:00Z,38.05,-103.52,18.9,-0.6,90,8,,10.0,29.731298,1003.5,,TRUE,TRUE,,,,,,,CLR,,,,,,,,VFR,,,,,,,,,,,,METAR,1289.0
KLHQ 190153Z AUTO 00000KT 10SM CLR 08/06 A3015 RMK AO2 SLP211 T00780061,KLHQ,2021-10-19T01:53:00Z,39.75,-82.67,7.8,6.1,0,0,,10.0,30.15059,1021.1,,TRUE,TRUE,,,,,,,CLR,,,,,,,,VFR,,,,,,,,,,,,METAR,259.0
KLGB 190153Z 31005KT 10SM CLR 17/07 A2994 RMK AO2 SLP139 T01670072,KLGB,2021-10-19T01:53:00Z,33.82,-118.15,16.7,7.2,310,5,,10.0,29.940945,1013.9,,,TRUE,,,,,,,CLR,,,,,,,,VFR,,,,,,,,,,,,METAR,10.0
KLFT 190153Z 00000KT 10SM CLR 17/13 A3011 RMK AO2 SLP197 T01670133,KLFT,2021-10-19T01:53:00Z,30.2,-91.97,16.7,13.3,0,0,,10.0,30.109253,1019.7,,,TRUE,,,,,,,CLR,,,,,,,,VFR,,,,,,,,,,,,METAR,9.0
KLFK 190153Z AUTO 09003KT 10SM CLR 14/08 A3009 RMK AO2 SLP187 T01440078,KLFK,2021-10-19T01:53:00Z,31.23,-94.75,14.4,7.8,90,3,,10.0,30.088583,1018.7,,TRUE,TRUE,,,,,,,CLR,,,,,,,,VFR,,,,,,,,,,,,METAR,87.0
KLEE 190153Z AUTO 06004KT 10SM CLR 22/16 A3013 RMK AO2 SLP203 T02170156,KLEE,2021-10-19T01:53:00Z,28.82,-81.82,21.7,15.6,60,4,,10.0,30.129921,1020.3,,TRUE,TRUE,,,,,,,CLR,,,,,,,,VFR,,,,,,,,,,,,METAR,21.0
KLEB 190153Z 00000KT 10SM OVC055 06/03 A2984 RMK AO2 SLP106 T00610033,KLEB,2021-10-19T01:53:00Z,43.63,-72.3,6.1,3.3,0,0,,10.0,29.840551,1010.6,,,TRUE,,,,,,,OVC,5500,,,,,,,VFR,,,,,,,,,,,,METAR,169.0
KLCH 190153Z 07005KT 10SM CLR 16/09 A3010 RMK AO2 SLP199 T01560094,KLCH,2021-10-19T01:53:00Z,30.13,-93.22,15.6,9.4,70,5,,10.0,30.100393,1019.9,,,TRUE,,,,,,,CLR,,,,,,,,VFR,,,,,,,,,,,,METAR,2.0
KLBX 190153Z AUTO 00000KT 10SM FEW040 16/14 A3008 RMK AO2 SLP186 T01610139,KLBX,2021-10-19T01:53:00Z,29.12,-95.47,16.1,13.9,0,0,,10.0,30.079725,1018.6,,TRUE,TRUE,,,,,,,FEW,4000,,,,,,,VFR,,,,,,,,,,,,METAR,4.0
KLBF 190153Z AUTO 11007KT 10SM CLR 11/04 A2977 RMK AO2 SLP084 T01060044,KLBF,2021-10-19T01:53:00Z,41.12,-100.67,10.6,4.4,110,7,,10.0,29.769686,1008.4,,TRUE,TRUE,,,,,,,CLR,,,,,,,,VFR,,,,,,,,,,,,METAR,843.0
KLBB 190153Z 17014KT 10SM FEW220 19/07 A2995 RMK AO2 SLP110 T01940067,KLBB,2021-10-19T01:53:00Z,33.67,-101.82,19.4,6.7,170,14,,10.0,29.949802,1011.0,,,TRUE,,,,,,,FEW,22000,,,,,,,VFR,,,,,,,,,,,,METAR,996.0
KLAX 190153Z 24006KT 10SM FEW060 16/09 A2994 RMK AO2 SLP138 T01610094 $,KLAX,2021-10-19T01:53:00Z,33.93,-118.38,16.1,9.4,240,6,,10.0,29.940945,1013.8,,,TRUE,TRUE,,,,,,FEW,6000,,,,,,,VFR,,,,,,,,,,,,METAR,30.0
KLAW 190153Z AUTO 15009KT 10SM CLR 19/06 A2998 RMK AO2 SLP150 T01890061,KLAW,2021-10-19T01:53:00Z,34.55,-98.42,18.9,6.1,150,9,,10.0,29.97933,1015.0,,TRUE,TRUE,,,,,,,CLR,,,,,,,,VFR,,,,,,,,,,,,METAR,328.0
KLAR 190153Z AUTO 11006KT 10SM BKN100 09/M03 A2985 RMK AO2 SLP054 T00891028,KLAR,2021-10-19T01:53:00Z,41.32,-105.67,8.9,-2.8,110,6,,10.0,29.84941,1005.4,,TRUE,TRUE,,,,,,,BKN,10000,,,,,,,VFR,,,,,,,,,,,,METAR,2217.0
KLAN 190153Z 26003KT 10SM CLR 11/06 A3011 RMK AO2 SLP198 T01110056,KLAN,2021-10-19T01:53:00Z,42.78,-84.58,11.1,5.6,260,3,,10.0,30.109253,1019.8,,,TRUE,,,,,,,CLR,,,,,,,,VFR,,,,,,,,,,,,METAR,261.0
KLAA 190153Z AUTO A2969 RMK AO2 SLPNO PWINO FZRANO $,KLAA,2021-10-19T01:53:00Z,38.07,-102.68,,,,,,,29.68996,,,TRUE,TRUE,TRUE,,,TRUE,TRUE,,,,,,,,,,,,,,,,,,,,,,METAR,1129.0
KJLN 190153Z 16006KT 10SM CLR 14/08 A3005 RMK AO2 SLP173 T01440083 $,KJLN,2021-10-19T01:53:00Z,37.15,-94.5,14.4,8.3,160,6,,10.0,30.050198,1017.3,,,TRUE,TRUE,,,,,,CLR,,,,,,,,VFR,,,,,,,,,,,,METAR,297.0
KJKL 190153Z AUTO 00000KT 10SM CLR 14/06 A3019 RMK AO2 SLP222 T01390056,KJKL,2021-10-19T01:53:00Z,37.6,-83.32,13.9,5.6,0,0,,10.0,30.188976,1022.2,,TRUE,TRUE,,,,,,,CLR,,,,,,,,VFR,,,,,,,,,,,,METAR,414.0
KJER 190153Z AUTO 29003KT 10SM CLR 11/01 A2979 RMK AO2 SLP075 T01060011,KJER,2021-10-19T01:53:00Z,42.72,-114.45,10.6,1.1,290,3,,10.0,29.790354,1007.5,,TRUE,TRUE,,,,,,,CLR,,,,,,,,VFR,,,,,,,,,,,,METAR,1226.0
KJEF 190153Z 12003KT 10SM CLR 14/08 A3006 RMK AO2 SLP170 T01390083,KJEF,2021-10-19T01:53:00Z,38.6,-92.15,13.9,8.3,120,3,,10.0,30.059055,1017.0,,,TRUE,,,,,,,CLR,,,,,,,,VFR,,,,,,,,,,,,METAR,167.0
KJBR 190153Z AUTO 00000KT 10SM CLR 12/07 A3014 RMK AO2 SLP204 T01170072 $,KJBR,2021-10-19T01:53:00Z,35.83,-90.65,11.7,7.2,0,0,,10.0,30.138779,1020.4,,TRUE,TRUE,TRUE,,,,,,CLR,,,,,,,,VFR,,,,,,,,,,,,METAR,79.0
KIXD 190153Z 16006KT 10SM CLR 16/06 A3001 RMK AO2 SLP158 T01560061,KIXD,2021-10-19T01:53:00Z,38.82,-94.88,15.6,6.1,160,6,,10.0,30.008858,1015.8,,,TRUE,,,,,,,CLR,,,,,,,,VFR,,,,,,,,,,,,METAR,322.0
KIWI 190153Z AUTO VRB03KT 10SM CLR 08/03 A2975 RMK AO2 SLP074 T00830033,KIWI,2021-10-19T01:53:00Z,43.97,-69.72,8.3,3.3,0,3,,10.0,29.749016,1007.4,,TRUE,TRUE,,,,,,,CLR,,,,,,,,VFR,,,,,,,,,,,,METAR,16.0
KITR 190153Z AUTO 16010KT 10SM CLR 12/M02 A2977 RMK AO2 SLP064 T01221017,KITR,2021-10-19T01:53:00Z,39.23,-102.28,12.2,-1.7,160,10,,10.0,29.769686,1006.4,,TRUE,TRUE,,,,,,,CLR,,,,,,,,VFR,,,,,,,,,,,,METAR,1285.0
KIPL 190153Z AUTO 28014G21KT 10SM CLR 20/07 A2983 RMK AO2 SLP101 T02000067,KIPL,2021-10-19T01:53:00Z,32.83,-115.58,20.0,6.7,280,14,21,10.0,29.828741,1010.1,,TRUE,TRUE,,,,,,,CLR,,,,,,,,VFR,,,,,,,,,,,,METAR,-16.0
KINK 190153Z AUTO 13015KT 10SM CLR 21/08 A2991 RMK AO2 SLP098 T02110083,KINK,2021-10-19T01:53:00Z,31.78,-103.2,21.1,8.3,130,15,,10.0,29.911417,1009.8,,TRUE,TRUE,,,,,,,CLR,,,,,,,,VFR,,,,,,,,,,,,METAR,857.0
KIML 190153Z AUTO 06005KT 10SM CLR 09/02 A2976 RMK AO2 SLP084 T00940022,KIML,2021-10-19T01:53:00Z,40.52,-101.62,9.4,2.2,60,5,,10.0,29.760826,1008.4,,TRUE,TRUE,,,,,,,CLR,,,,,,,,VFR,,,,,,,,,,,,METAR,997.0
KILM 190153Z 00000KT 10SM CLR 12/09 A3013 RMK AO2 SLP203 T01220089,KILM,2021-10-19T01:53:00Z,34.27,-77.9,12.2,8.9,0,0,,10.0,30.129921,1020.3,,,TRUE,,,,,,,CLR,,,,,,,,VFR,,,,,,,,,,,,METAR,9.0
KIKK 190153Z AUTO 00000KT 10SM CLR 12/08 A3010 RMK AO2,KIKK,2021-10-19T01:53:00Z,41.07,-87.85,12.0,8.0,0,0,,10.0,30.100393,,,TRUE,TRUE,,,,,,,CLR,,,,,,,,VFR,,,,,,,,,,,,METAR,188.0
KICT 190153Z 16012KT 10SM FEW150 SCT180 SCT210 16/07 A2993 RMK AO2 SLP133 T01610067,KICT,2021-10-19T01:53:00Z,37.65,-97.43,16.1,6.7,160,12,,10.0,29.929134,1013.3,,,TRUE,,,,,,,FEW,15000,SCT,18000,SCT,21000,,,VFR,,,,,,,,,,,,METAR,428.0
KICR 190153Z AUTO 18011KT 10SM CLR 18/04 A2975 RMK AO2 SLP071 T01780039,KICR,2021-10-19T01:53:00Z,43.38,-99.85,17.8,3.9,180,11,,10.0,29.749016,1007.1,,TRUE,TRUE,,,,,,,CLR,,,,,,,,VFR,,,,,,,,,,,,METAR,618.0
KIAH 190153Z 15006KT 10SM CLR 18/12 A3008 RMK AO2 SLP186 T01830122,KIAH,2021-10-19T01:53:00Z,30.0,-95.37,18.3,12.2,150,6,,10.0,30.079725,1018.6,,,TRUE,,,,,,,CLR,,,,,,,,VFR,,,,,,,,,,,,METAR,27.0
KIAG 190153Z 28007KT 10SM CLR 08/02 A3005 RMK AO2 SLP182 T00830022 $,KIAG,2021-10-19T01:53:00Z,43.12,-78.93,8.3,2.2,280,7,,10.0,30.050198,1018.2,,,TRUE,TRUE,,,,,,CLR,,,,,,,,VFR,,,,,,,,,,,,METAR,179.0
KHZY 190153Z AUTO 00000KT 10SM CLR 07/06 A3011 RMK AO2 SLP199 T00720056,KHZY,2021-10-19T01:53:00Z,41.78,-80.7,7.2,5.6,0,0,,10.0,30.109253,1019.9,,TRUE,TRUE,,,,,,,CLR,,,,,,,,VFR,,,,,,,,,,,,METAR,279.0
KHYR 190153Z AUTO 21003KT 10SM CLR 11/05 A2995 RMK AO2 SLP149 T01060050,KHYR,2021-10-19T01:53:00Z,46.02,-91.45,10.6,5.0,210,3,,10.0,29.949802,1014.9,,TRUE,TRUE,,,,,,,CLR,,,,,,,,VFR,,,,,,,,,,,,METAR,369.0
KHWO 190153Z AUTO 04005KT 10SM CLR 24/16 A3008 RMK AO2 SLP185 T02440156,KHWO,2021-10-19T01:53:00Z,26.0,-80.23,24.4,15.6,40,5,,10.0,30.079725,1018.5,,TRUE,TRUE,,,,,,,CLR,,,,,,,,VFR,,,,,,,,,,,,METAR,2.0
KHVR 190153Z AUTO 03005KT 10SM CLR 09/01 A3001 RMK AO2 SLP177 T00890006,KHVR,2021-10-19T01:53:00Z,48.55,-109.77,8.9,0.6,30,5,,10.0,30.008858,1017.7,,TRUE,TRUE,,,,,,,CLR,,,,,,,,VFR,,,,,,,,,,,,METAR,789.0
KHVN 190153Z 31006KT 10SM CLR 11/05 A2992 RMK AO2 SLP133 T01060050,KHVN,2021-10-19T01:53:00Z,41.27,-72.88,10.6,5.0,310,6,,10.0,29.920275,1013.3,,,TRUE,,,,,,,CLR,,,,,,,,VFR,,,,,,,,,,,,METAR,4.0
KHUL 190153Z AUTO 27004KT 10SM CLR 07/03 A2960 RMK AO2 SLP027 T00720033,KHUL,2021-10-19T01:53:00Z,46.12,-67.8,7.2,3.3,270,4,,10.0,29.601377,1002.7,,TRUE,TRUE,,,,,,,CLR,,,,,,,,VFR,,,,,,,,,,,,METAR,148.0
KHUF 190153Z 00000KT 10SM CLR 10/08 A3014 RMK AO2 SLP207 T01000078,KHUF,2021-10-19T01:53:00Z,39.45,-87.32,10.0,7.8,0,0,,10.0,30.138779,1020.7,,,TRUE,,,,,,,CLR,,,,,,,,VFR,,,,,,,,,,,,METAR,174.0
KHTL 190153Z AUTO 00000KT 10SM CLR 05/03 A3008 RMK AO2 SLP193 T00500028,KHTL,2021-10-19T01:53:00Z,44.35,-84.67,5.0,2.8,0,0,,10.0,30.079725,1019.3,,TRUE,TRUE,,,,,,,CLR,,,,,,,,VFR,,,,,,,,,,,,METAR,350.0
KHSV 190153Z 10003KT 10SM CLR 11/08 A3017 RMK AO2 SLP216 T01110083,KHSV,2021-10-19T01:53:00Z,34.65,-86.78,11.1,8.3,100,3,,10.0,30.171259,1021.6,,,TRUE,,,,,,,CLR,,,,,,,,VFR,,,,,,,,,,,,METAR,190.0
KHSI 190153Z AUTO 17009G18KT 10SM CLR 17/05 A2985 RMK AO2 SLP106 T01670050,KHSI,2021-10-19T01:53:00Z,40.6,-98.43,16.7,5.0,170,9,18,10.0,29.84941,1010.6,,TRUE,TRUE,,,,,,,CLR,,,,,,,,VFR,,,,,,,,,,,,METAR,592.0
KHRO 190153Z AUTO 20004KT 10SM CLR 13/07 A3011 RMK AO2 SLP193 T01280072,KHRO,2021-10-19T01:53:00Z,36.27,-93.15,12.8,7.2,200,4,,10.0,30.109253,1019.3,,TRUE,TRUE,,,,,,,CLR,,,,,,,,VFR,,,,,,,,,,,,METAR,417.0
KHRI 190153Z AUTO 24006KT 3SM HZ CLR 16/03 A2987 RMK AO2 SLP113 T01560033,KHRI,2021-10-19T01:53:00Z,45.83,-119.27,15.6,3.3,240,6,,3.0,29.870079,1011.3,,TRUE,TRUE,,,,,,HZ,CLR,,,,,,,,MVFR,,,,,,,,,,,,METAR,194.0
KHQM 190153Z AUTO 00000KT 10SM CLR 11/05 A2999 RMK AO2 SLP159 T01060050,KHQM,2021-10-19T01:53:00Z,46.97,-123.93,10.6,5.0,0,0,,10.0,29.991142,1015.9,,TRUE,TRUE,,,,,,,CLR,,,,,,,,VFR,,,,,,,,,,,,METAR,4.0
KHOU 190153Z 14005KT 10SM CLR 20/13 A3008 RMK AO2 SLP191 T02000128,KHOU,2021-10-19T01:53:00Z,29.63,-95.28,20.0,12.8,140,5,,10.0,30.079725,1019.1,,,TRUE,,,,,,,CLR,,,,,,,,VFR,,,,,,,,,,,,METAR,13.0
KHOT 190153Z AUTO 07004KT 10SM CLR 13/07 A3012 RMK AO2 SLP198 T01280072,KHOT,2021-10-19T01:53:00Z,34.48,-93.1,12.8,7.2,70,4,,10.0,30.121063,1019.8,,TRUE,TRUE,,,,,,,CLR,,,,,,,,VFR,,,,,,,,,,,,METAR,153.0
KHLN 190153Z 33011KT 10SM CLR 11/M01 A2997 RMK AO2 SLP165 T01111006,KHLN,2021-10-19T01:53:00Z,46.6,-111.98,11.1,-0.6,330,11,,10.0,29.970472,1016.5,,,TRUE,,,,,,,CLR,,,,,,,,VFR,,,,,,,,,,,,METAR,1178.0
KHLG 190153Z 00000KT 10SM CLR 12/02 A3013 RMK AO2 SLP208 T01220022,KHLG,2021-10-19T01:53:00Z,40.17,-80.65,12.2,2.2,0,0,,10.0,30.129921,1020.8,,,TRUE,,,,,,,CLR,,,,,,,,VFR,,,,,,,,,,,,METAR,365.0
KHLC 190153Z AUTO 11008KT 10SM CLR 16/06 A2981 RMK AO2 SLP088 T01610061,KHLC,2021-10-19T01:53:00Z,39.37,-99.83,16.1,6.1,110,8,,10.0,29.811024,1008.8,,TRUE,TRUE,,,,,,,CLR,,,,,,,,VFR,,,,,,,,,,,,METAR,667.0
KHKY 190153Z 02004KT 10SM CLR 12/06 A3016 RMK AO2 SLP201 T01220056,KHKY,2021-10-19T01:53:00Z,35.75,-81.38,12.2,5.6,20,4,,10.0,30.159449,1020.1,,,TRUE,,,,,,,CLR,,,,,,,,VFR,,,,,,,,,,,,METAR,357.0
KHKS 190153Z AUTO 00000KT 10SM CLR 13/09 A3014 RMK AO2 SLP201 T01330089,KHKS,2021-10-19T01:53:00Z,32.33,-90.22,13.3,8.9,0,0,,10.0,30.138779,1020.1,,TRUE,TRUE,,,,,,,CLR,,,,,,,,VFR,,,,,,,,,,,,METAR,103.0
KHKA 190153Z AUTO 17003KT 10SM CLR 14/07 A3014 RMK AO2 SLP204 T01440072 $,KHKA,2021-10-19T01:53:00Z,35.93,-89.83,14.4,7.2,170,3,,10.0,30.138779,1020.4,,TRUE,TRUE,TRUE,,,,,,CLR,,,,,,,,VFR,,,,,,,,,,,,METAR,78.0
KHJO 190153Z AUTO 36003KT 10SM CLR 13/05 A3000 RMK AO2 SLP162 T01330050,KHJO,2021-10-19T01:53:00Z,36.32,-119.62,13.3,5.0,360,3,,10.0,30.0,1016.2,,TRUE,TRUE,,,,,,,CLR,,,,,,,,VFR,,,,,,,,,,,,METAR,73.0
KHIO 190153Z 06006KT 10SM BKN045 11/07 A2998 RMK AO2 SLP154 T01060067,KHIO,2021-10-19T01:53:00Z,45.55,-122.95,10.6,6.7,60,6,,10.0,29.97933,1015.4,,,TRUE,,,,,,,BKN,4500,,,,,,,VFR,,,,,,,,,,,,METAR,62.0
KHIB 190153Z AUTO 13006KT 10SM CLR 09/04 A2988 RMK AO2 SLP132 T00890039,KHIB,2021-10-19T01:53:00Z,47.38,-92.83,8.9,3.9,130,6,,10.0,29.878937,1013.2,,TRUE,TRUE,,,,,,,CLR,,,,,,,,VFR,,,,,,,,,,,,METAR,409.0
KHHR 190153Z 24004KT 10SM CLR 17/09 A2995 RMK AO2 SLP140 T01670094 $,KHHR,2021-10-19T01:53:00Z,33.92,-118.33,16.7,9.4,240,4,,10.0,29.949802,1014.0,,,TRUE,TRUE,,,,,,CLR,,,,,,,,VFR,,,,,,,,,,,,METAR,21.0
KHGR 190153Z 32008KT 10SM CLR 12/03 A3007 RMK AO2 SLP191 T01220033,KHGR,2021-10-19T01:53:00Z,39.7,-77.73,12.2,3.3,320,8,,10.0,30.070866,1019.1,,,TRUE,,,,,,,CLR,,,,,,,,VFR,,,,,,,,,,,,METAR,206.0
KHFD 190153Z 31006KT 10SM CLR 09/02 A2991 RMK AO2 SLP126 T00890022,KHFD,2021-10-19T01:53:00Z,41.73,-72.65,8.9,2.2,310,6,,10.0,29.911417,1012.6,,,TRUE,,,,,,,CLR,,,,,,,,VFR,,,,,,,,,,,,METAR,3.0
KHEI 190153Z AUTO 35012KT 10SM CLR 14/05 A2973 RMK AO2 SLP070 T01390050,KHEI,2021-10-19T01:53:00Z,46.02,-102.65,13.9,5.0,350,12,,10.0,29.731298,1007.0,,TRUE,TRUE,,,,,,,CLR,,,,,,,,VFR,,,,,,,,,,,,METAR,824.0
KHBR 190153Z AUTO 16013KT 10SM CLR 19/07 A2996 RMK AO2 SLP138 T01890067,KHBR,2021-10-19T01:53:00Z,34.98,-99.05,18.9,6.7,160,13,,10.0,29.958662,1013.8,,TRUE,TRUE,,,,,,,CLR,,,,,,,,VFR,,,,,,,,,,,,METAR,475.0
KHBG 190153Z AUTO 00000KT 10SM CLR 13/10 A3016 RMK AO2 SLP211 T01280100,KHBG,2021-10-19T01:53:00Z,31.27,-89.25,12.8,10.0,0,0,,10.0,30.159449,1021.1,,TRUE,TRUE,,,,,,,CLR,,,,,,,,VFR,,,,,,,,,,,,METAR,45.0
KHAO 190153Z AUTO 00000KT 10SM CLR 08/07 A3017 RMK AO2 SLP218 T00830067,KHAO,2021-10-19T01:53:00Z,39.37,-84.52,8.3,6.7,0,0,,10.0,30.171259,1021.8,,TRUE,TRUE,,,,,,,CLR,,,,,,,,VFR,,,,,,,,,,,,METAR,185.0
KGZH 190153Z AUTO 00000KT 6SM BR CLR 12/10 A3016 RMK AO2 SLP211 T01220100,KGZH,2021-10-19T01:53:00Z,31.42,-87.05,12.2,10.0,0,0,,6.0,30.159449,1021.1,,TRUE,TRUE,,,,,,BR,CLR,,,,,,,,VFR,,,,,,,,,,,,METAR,77.0
KGWO 190153Z AUTO 00000KT 10SM CLR 13/10 A3015 RMK AO2 SLP208 T01280100,KGWO,2021-10-19T01:53:00Z,33.5,-90.08,12.8,10.0,0,0,,10.0,30.15059,1020.8,,TRUE,TRUE,,,,,,,CLR,,,,,,,,VFR,,,,,,,,,,,,METAR,42.0
KGVL 190153Z AUTO 24003KT 10SM CLR 13/08 A3019 RMK AO2 SLP218 T01330078,KGVL,2021-10-19T01:53:00Z,34.27,-83.83,13.3,7.8,240,3,,10.0,30.188976,1021.8,,TRUE,TRUE,,,,,,,CLR,,,,,,,,VFR,,,,,,,,,,,,METAR,387.0
KGUY 190153Z AUTO 18017G28KT 10SM CLR 18/06 A2983 RMK AO2 PK WND 18028/0153 SLP077 T01830056,KGUY,2021-10-19T01:53:00Z,36.68,-101.5,18.3,5.6,180,17,28,10.0,29.828741,1007.7,,TRUE,TRUE,,,,,,,CLR,,,,,,,,VFR,,,,,,,,,,,,METAR,950.0
KGUP 190153Z AUTO 21013G20KT 10SM CLR 13/M01 A2993 RMK AO2 PK WND 22026/0055 SLP069 T01331006,KGUP,2021-10-19T01:53:00Z,35.52,-108.8,13.3,-0.6,210,13,20,10.0,29.929134,1006.9,,TRUE,TRUE,,,,,,,CLR,,,,,,,,VFR,,,,,,,,,,,,METAR,1972.0
KGSP 190153Z 27004KT 10SM CLR 11/07 A3017 RMK AO2 SLP213 T01110072,KGSP,2021-10-19T01:53:00Z,34.9,-82.22,11.1,7.2,270,4,,10.0,30.171259,1021.3,,,TRUE,,,,,,,CLR,,,,,,,,VFR,,,,,,,,,,,,METAR,285.0
KGSH 190153Z AUTO 00000KT 10SM CLR A3012 RMK AO2 SLPNO $,KGSH,2021-10-19T01:53:00Z,41.53,-85.78,,,0,0,,10.0,30.121063,,,TRUE,TRUE,TRUE,,,,,,CLR,,,,,,,,VFR,,,,,,,,,,,,METAR,252.0
KGRR 190153Z 16004KT 10SM CLR 09/07 A3010 RMK AO2 SLP195 T00890072,KGRR,2021-10-19T01:53:00Z,42.88,-85.52,8.9,7.2,160,4,,10.0,30.100393,1019.5,,,TRUE,,,,,,,CLR,,,,,,,,VFR,,,,,,,,,,,,METAR,239.0
KGRI 190153Z AUTO 15011KT 10SM CLR 17/04 A2985 RMK AO2 SLP111 T01670039,KGRI,2021-10-19T01:53:00Z,40.97,-98.32,16.7,3.9,150,11,,10.0,29.84941,1011.1,,TRUE,TRUE,,,,,,,CLR,,,,,,,,VFR,,,,,,,,,,,,METAR,562.0
KGRB 190153Z 18005KT 10SM CLR 11/07 A3003 RMK AO2 SLP172 T01110067,KGRB,2021-10-19T01:53:00Z,44.48,-88.13,11.1,6.7,180,5,,10.0,30.029528,1017.2,,,TRUE,,,,,,,CLR,,,,,,,,VFR,,,,,,,,,,,,METAR,209.0
KGPT 190153Z 06004KT 10SM CLR 18/12 A3013 RMK AO2 SLP201 T01830117,KGPT,2021-10-19T01:53:00Z,30.42,-89.08,18.3,11.7,60,4,,10.0,30.129921,1020.1,,,TRUE,,,,,,,CLR,,,,,,,,VFR,,,,,,,,,,,,METAR,5.0
KGOK 190153Z AUTO 16007KT 10SM CLR 16/06 A2998 RMK AO2 SLP151 T01610061,KGOK,2021-10-19T01:53:00Z,35.85,-97.4,16.1,6.1,160,7,,10.0,29.97933,1015.1,,TRUE,TRUE,,,,,,,CLR,,,,,,,,VFR,,,,,,,,,,,,METAR,326.0
KGNV 190153Z 04004KT 10SM CLR 18/14 A3017 RMK AO2 SLP214 T01780144,KGNV,2021-10-19T01:53:00Z,29.7,-82.28,17.8,14.4,40,4,,10.0,30.171259,1021.4,,,TRUE,,,,,,,CLR,,,,,,,,VFR,,,,,,,,,,,,METAR,41.0
KGMU 190153Z AUTO 00000KT 10SM CLR 16/07 A3018 RMK AO2 SLP216 T01610072,KGMU,2021-10-19T01:53:00Z,34.85,-82.35,16.1,7.2,0,0,,10.0,30.180119,1021.6,,TRUE,TRUE,,,,,,,CLR,,,,,,,,VFR,,,,,,,,,,,,METAR,309.0
KGLR 190153Z AUTO 00000KT 10SM CLR 06/02 A3006 RMK AO2 SLP190 T00560022,KGLR,2021-10-19T01:53:00Z,45.02,-84.68,5.6,2.2,0,0,,10.0,30.059055,1019.0,,TRUE,TRUE,,,,,,,CLR,,,,,,,,VFR,,,,,,,,,,,,METAR,403.0
KGLH 190153Z AUTO 13004KT 10SM CLR 14/04 A3013 RMK AO2 SLP209 T01390039,KGLH,2021-10-19T01:53:00Z,33.47,-90.98,13.9,3.9,130,4,,10.0,30.129921,1020.9,,TRUE,TRUE,,,,,,,CLR,,,,,,,,VFR,,,,,,,,,,,,METAR,40.0
KGLD 190153Z AUTO 15012KT 10SM CLR 17/05 A2975 RMK AO2 SLP059 T01720050,KGLD,2021-10-19T01:53:00Z,39.37,-101.7,17.2,5.0,150,12,,10.0,29.749016,1005.9,,TRUE,TRUE,,,,,,,CLR,,,,,,,,VFR,,,,,,,,,,,,METAR,1111.0
KGKY 190153Z AUTO 13006KT 10SM CLR 19/08 A3004 RMK AO2 SLP166 T01890083 $,KGKY,2021-10-19T01:53:00Z,32.67,-97.1,18.9,8.3,130,6,,10.0,30.041338,1016.6,,TRUE,TRUE,TRUE,,,,,,CLR,,,,,,,,VFR,,,,,,,,,,,,METAR,189.0
KGKJ 190153Z AUTO 25004KT 10SM CLR 08/04 A3010 RMK AO2 SLP196 T00830044,KGKJ,2021-10-19T01:53:00Z,41.63,-80.22,8.3,4.4,250,4,,10.0,30.100393,1019.6,,TRUE,TRUE,,,,,,,CLR,,,,,,,,VFR,,,,,,,,,,,,METAR,428.0
KGJT 190153Z 20024G42KT 10SM SCT110 19/M03 A2968 RMK AO2 PK WND 19042/0150 SLP004 T01891033,KGJT,2021-10-19T01:53:00Z,39.13,-108.53,18.9,-3.3,200,24,42,10.0,29.681103,1000.4,,,TRUE,,,,,,,SCT,11000,,,,,,,VFR,,,,,,,,,,,,METAR,1475.0
KGGW 190153Z AUTO 33010KT 10SM CLR 11/03 A2988 RMK AO2 SLP133 T01060028,KGGW,2021-10-19T01:53:00Z,48.22,-106.62,10.6,2.8,330,10,,10.0,29.878937,1013.3,,TRUE,TRUE,,,,,,,CLR,,,,,,,,VFR,,,,,,,,,,,,METAR,698.0
KGGG 190153Z 14005KT 10SM CLR 16/06 A3008 RMK AO2 SLP184 T01560061,KGGG,2021-10-19T01:53:00Z,32.38,-94.72,15.6,6.1,140,5,,10.0,30.079725,1018.4,,,TRUE,,,,,,,CLR,,,,,,,,VFR,,,,,,,,,,,,METAR,107.0
KGFL 190153Z AUTO 00000KT 10SM CLR 03/02 A2990 RMK AO2 SLP129 T00330017,KGFL,2021-10-19T01:53:00Z,43.33,-73.62,3.3,1.7,0,0,,10.0,29.899607,1012.9,,TRUE,TRUE,,,,,,,CLR,,,,,,,,VFR,,,,,,,,,,,,METAR,99.0
KGFK 190153Z 16007KT 10SM BKN250 15/06 A2968 RMK AO2 SLP054 T01500061,KGFK,2021-10-19T01:53:00Z,47.95,-97.18,15.0,6.1,160,7,,10.0,29.681103,1005.4,,,TRUE,,,,,,,BKN,25000,,,,,,,VFR,,,,,,,,,,,,METAR,256.0
KGEZ 190153Z AUTO 19004KT 10SM CLR 12/07 A3014 RMK AO2 SLP208 T01220072,KGEZ,2021-10-19T01:53:00Z,39.58,-85.8,12.2,7.2,190,4,,10.0,30.138779,1020.8,,TRUE,TRUE,,,,,,,CLR,,,,,,,,VFR,,,,,,,,,,,,METAR,245.0
KGEY 190153Z AUTO 29005KT 10SM CLR 16/01 A2977 RMK AO2 SLP077 T01560006,KGEY,2021-10-19T01:53:00Z,44.52,-108.08,15.6,0.6,290,5,,10.0,29.769686,1007.7,,TRUE,TRUE,,,,,,,CLR,,,,,,,,VFR,,,,,,,,,,,,METAR,1191.0
KGEG 190153Z 18005KT 10SM CLR 13/02 A2985 RMK AO2 SLP113 T01280022,KGEG,2021-10-19T01:53:00Z,47.62,-117.53,12.8,2.2,180,5,,10.0,29.84941,1011.3,,,TRUE,,,,,,,CLR,,,,,,,,VFR,,,,,,,,,,,,METAR,718.0
KGCC 190153Z AUTO 00000KT 10SM CLR 06/02 A2982 RMK AO2 SLP090 T00560022,KGCC,2021-10-19T01:53:00Z,44.33,-105.55,5.6,2.2,0,0,,10.0,29.819881,1009.0,,TRUE,TRUE,,,,,,,CLR,,,,,,,,VFR,,,,,,,,,,,,METAR,1328.0
KGAG 190153Z AUTO 16016KT 10SM CLR 18/05 A2989 RMK AO2 PK WND 17027/0054 SLP107 T01830050,KGAG,2021-10-19T01:53:00Z,36.3,-99.77,18.3,5.0,160,16,,10.0,29.890747,1010.7,,TRUE,TRUE,,,,,,,CLR,,,,,,,,VFR,,,,,,,,,,,,METAR,670.0
KFYV 190153Z 00000KT 10SM CLR 11/08 A3008 RMK AO2 SLP185 T01060083,KFYV,2021-10-19T01:53:00Z,36.02,-94.17,10.6,8.3,0,0,,10.0,30.079725,1018.5,,,TRUE,,,,,,,CLR,,,,,,,,VFR,,,,,,,,,,,,METAR,377.0
KFXE 190153Z 04004KT 10SM FEW045 25/16 A3006 RMK AO2 SLP183 T02500156,KFXE,2021-10-19T01:53:00Z,26.2,-80.18,25.0,15.6,40,4,,10.0,30.059055,1018.3,,,TRUE,,,,,,,FEW,4500,,,,,,,VFR,,,,,,,,,,,,METAR,3.0
KFWN 190153Z AUTO 00000KT 10SM FEW070 07/02 A2999 RMK AO2 RAE02 SLP156 P0000 T00670022,KFWN,2021-10-19T01:53:00Z,41.2,-74.63,6.7,2.2,0,0,,10.0,29.991142,1015.6,,TRUE,TRUE,,,,,,,FEW,7000,,,,,,,VFR,,,,,,0.005,,,,,,METAR,129.0
KFVE 190153Z AUTO 29011KT 10SM FEW021 OVC027 06/02 A2956 RMK AO2 SLP013 T00610022,KFVE,2021-10-19T01:53:00Z,47.28,-68.3,6.1,2.2,290,11,,10.0,29.56004,1001.3,,TRUE,TRUE,,,,,,,FEW,2100,OVC,2700,,,,,MVFR,,,,,,,,,,,,METAR,299.0
KFUL 190153Z 18006KT 10SM SCT033 16/10 A2994 RMK AO2 SLP138 T01610100,KFUL,2021-10-19T01:53:00Z,33.87,-117.98,16.1,10.0,180,6,,10.0,29.940945,1013.8,,,TRUE,,,,,,,SCT,3300,,,,,,,VFR,,,,,,,,,,,,METAR,23.0
KFTY 190153Z 00000KT 10SM CLR 11/09 A3018 RMK AO2 SLP219 T01060094,KFTY,2021-10-19T01:53:00Z,33.78,-84.52,10.6,9.4,0,0,,10.0,30.180119,1021.9,,,TRUE,,,,,,,CLR,,,,,,,,VFR,,,,,,,,,,,,METAR,245.0
KFTW 190153Z 14008KT 10SM CLR 18/08 A3002 RMK AO2 SLP162 T01780078,KFTW,2021-10-19T01:53:00Z,32.83,-97.37,17.8,7.8,140,8,,10.0,30.02067,1016.2,,,TRUE,,,,,,,CLR,,,,,,,,VFR,,,,,,,,,,,,METAR,213.0
KFST 190153Z AUTO 16019G24KT 10SM CLR 21/08 A2995 RMK AO2 PK WND 15026/0116 SLP106 T02110083,KFST,2021-10-19T01:53:00Z,30.92,-102.92,21.1,8.3,160,19,24,10.0,29.949802,1010.6,,TRUE,TRUE,,,,,,,CLR,,,,,,,,VFR,,,,,,,,,,,,METAR,917.0
KFSM 190153Z 15004KT 10SM CLR 17/07 A3007 RMK AO2 SLP181 T01670067,KFSM,2021-10-19T01:53:00Z,35.33,-94.37,16.7,6.7,150,4,,10.0,30.070866,1018.1,,,TRUE,,,,,,,CLR,,,,,,,,VFR,,,,,,,,,,,,METAR,136.0
KFRG 190153Z AUTO 31008KT 10SM CLR 10/02 A2995 RMK AO2 SLP142 T01000017,KFRG,2021-10-19T01:53:00Z,40.73,-73.42,10.0,1.7,310,8,,10.0,29.949802,1014.2,,TRUE,TRUE,,,,,,,CLR,,,,,,,,VFR,,,,,,,,,,,,METAR,23.0
KFPR 190153Z AUTO 05003KT 10SM CLR 23/13 A3009 RMK AO2 SLP188 T02280133,KFPR,2021-10-19T01:53:00Z,27.5,-80.38,22.8,13.3,50,3,,10.0,30.088583,1018.8,,TRUE,TRUE,,,,,,,CLR,,,,,,,,VFR,,,,,,,,,,,,METAR,7.0
KFOZ 190153Z AUTO 16005KT 10SM CLR 16/06 A2989 RMK AO2,KFOZ,2021-10-19T01:53:00Z,47.77,-93.65,16.0,6.0,160,5,,10.0,29.890747,,,TRUE,TRUE,,,,,,,CLR,,,,,,,,VFR,,,,,,,,,,,,METAR,412.0
KFOK 190153Z 32009KT 10SM SCT039 10/03 A2993 RMK AO2 SLP134 T01000033,KFOK,2021-10-19T01:53:00Z,40.85,-72.62,10.0,3.3,320,9,,10.0,29.929134,1013.4,,,TRUE,,,,,,,SCT,3900,,,,,,,VFR,,,,,,,,,,,,METAR,13.0
KFOE 190153Z 25008KT 10SM CLR 14/08 A2997 RMK AO2 SLP141 T01390078 $,KFOE,2021-10-19T01:53:00Z,38.93,-95.65,13.9,7.8,250,8,,10.0,29.970472,1014.1,,,TRUE,TRUE,,,,,,CLR,,,,,,,,VFR,,,,,,,,,,,,METAR,315.0
KFNT 190153Z 25003KT 10SM CLR 08/06 A3009 RMK AO2 SLP193 T00830061,KFNT,2021-10-19T01:53:00Z,42.97,-83.75,8.3,6.1,250,3,,10.0,30.088583,1019.3,,,TRUE,,,,,,,CLR,,,,,,,,VFR,,,,,,,,,,,,METAR,235.0
KFNB 190153Z AUTO 15008KT 10SM CLR 14/07 A2995 RMK AO2 SLP141 T01440067,KFNB,2021-10-19T01:53:00Z,40.07,-95.58,14.4,6.7,150,8,,10.0,29.949802,1014.1,,TRUE,TRUE,,,,,,,CLR,,,,,,,,VFR,,,,,,,,,,,,METAR,301.0
KFMY 190153Z AUTO 08008KT 10SM CLR 23/16 A3007 RMK AO2 SLP184 T02330156,KFMY,2021-10-19T01:53:00Z,26.58,-81.87,23.3,15.6,80,8,,10.0,30.070866,1018.4,,TRUE,TRUE,,,,,,,CLR,,,,,,,,VFR,,,,,,,,,,,,METAR,4.0
KFMN 190153Z 19017G26KT 10SM CLR 18/M02 A2984 RMK AO2 PK WND 19026/0145 SLP072 T01781022,KFMN,2021-10-19T01:53:00Z,36.75,-108.23,17.8,-2.2,190,17,26,10.0,29.840551,1007.2,,,TRUE,,,,,,,CLR,,,,,,,,VFR,,,,,,,,,,,,METAR,1677.0
KFLO 190153Z AUTO 00000KT 10SM CLR 14/06 A3015 RMK AO2 SLP207 LAST T01390056,KFLO,2021-10-19T01:53:00Z,34.18,-79.73,13.9,5.6,0,0,,10.0,30.15059,1020.7,,TRUE,TRUE,,,,,,,CLR,,,,,,,,VFR,,,,,,,,,,,,METAR,43.0
KFLL 190153Z AUTO 06008KT 10SM FEW048 25/18 A3006 RMK AO2 SLP178 T02500178,KFLL,2021-10-19T01:53:00Z,26.07,-80.15,25.0,17.8,60,8,,10.0,30.059055,1017.8,,TRUE,TRUE,,,,,,,FEW,4800,,,,,,,VFR,,,,,,,,,,,,METAR,1.0
KFLD 190153Z AUTO 18003KT 10SM CLR 12/06 A3004 RMK AO2 SLP176 T01220061,KFLD,2021-10-19T01:53:00Z,43.77,-88.48,12.2,6.1,180,3,,10.0,30.041338,1017.6,,TRUE,TRUE,,,,,,,CLR,,,,,,,,VFR,,,,,,,,,,,,METAR,242.0
KFHR 190153Z AUTO 28003KT 10SM CLR 07/06 A3001 RMK AO2 SLP163 T00670056 TSNO,KFHR,2021-10-19T01:53:00Z,48.52,-123.03,6.7,5.6,280,3,,10.0,30.008858,1016.3,,TRUE,TRUE,,,TRUE,,,,CLR,,,,,,,,VFR,,,,,,,,,,,,METAR,34.0
KFFT 190153Z AUTO 00000KT 10SM CLR 11/08 A3017 RMK AO2 SLP218 T01060083,KFFT,2021-10-19T01:53:00Z,38.18,-84.9,10.6,8.3,0,0,,10.0,30.171259,1021.8,,TRUE,TRUE,,,,,,,CLR,,,,,,,,VFR,,,,,,,,,,,,METAR,235.0
KFFC 190153Z AUTO 00000KT 10SM CLR 11/09 A3019 RMK AO2 SLP225 T01060094,KFFC,2021-10-19T01:53:00Z,33.35,-84.57,10.6,9.4,0,0,,10.0,30.188976,1022.5,,TRUE,TRUE,,,,,,,CLR,,,,,,,,VFR,,,,,,,,,,,,METAR,242.0
KFDY 190153Z AUTO 20004KT 10SM CLR 10/05 A3012 RMK AO2 SLP198 T01000050,KFDY,2021-10-19T01:53:00Z,41.02,-83.67,10.0,5.0,200,4,,10.0,30.121063,1019.8,,TRUE,TRUE,,,,,,,CLR,,,,,,,,VFR,,,,,,,,,,,,METAR,247.0
KFDR 190153Z AUTO 14010KT 10SM CLR 18/07 A2994 RMK AO2 SLP131 T01830072,KFDR,2021-10-19T01:53:00Z,34.35,-98.98,18.3,7.2,140,10,,10.0,29.940945,1013.1,,TRUE,TRUE,,,,,,,CLR,,,,,,,,VFR,,,,,,,,,,,,METAR,378.0
KFCM 190153Z 15006KT 10SM CLR 17/04 A2990 RMK AO2 SLP124 T01670044,KFCM,2021-10-19T01:53:00Z,44.83,-93.47,16.7,4.4,150,6,,10.0,29.899607,1012.4,,,TRUE,,,,,,,CLR,,,,,,,,VFR,,,,,,,,,,,,METAR,276.0
KFAY 190153Z 24005KT 10SM CLR 12/07 A3012 RMK AO2 SLP194 T01220072,KFAY,2021-10-19T01:53:00Z,34.98,-78.88,12.2,7.2,240,5,,10.0,30.121063,1019.4,,,TRUE,,,,,,,CLR,,,,,,,,VFR,,,,,,,,,,,,METAR,57.0
KFAT 190153Z 30007KT 10SM FEW050 16/02 A3000 RMK AO2 SLP157 T01610022,KFAT,2021-10-19T01:53:00Z,36.78,-119.72,16.1,2.2,300,7,,10.0,30.0,1015.7,,,TRUE,,,,,,,FEW,5000,,,,,,,VFR,,,,,,,,,,,,METAR,102.0
KFAR 190153Z 16011KT 10SM CLR 18/04 A2974 RMK AO2 SLP072 T01780044,KFAR,2021-10-19T01:53:00Z,46.9,-96.82,17.8,4.4,160,11,,10.0,29.740158,1007.2,,,TRUE,,,,,,,CLR,,,,,,,,VFR,,,,,,,,,,,,METAR,276.0
KEYW 190153Z AUTO 08010KT 10SM CLR 26/19 A3005 RMK AO2 SLP174 T02610194,KEYW,2021-10-19T01:53:00Z,24.55,-81.75,26.1,19.4,80,10,,10.0,30.050198,1017.4,,TRUE,TRUE,,,,,,,CLR,,,,,,,,VFR,,,,,,,,,,,,METAR,1.0
KEYE 190153Z AUTO 00000KT 10SM CLR 12/ A3014 RMK AO2 SLP205 T0117 $,KEYE,2021-10-19T01:53:00Z,39.83,-86.3,11.7,,0,0,,10.0,30.138779,1020.5,,TRUE,TRUE,TRUE,,,,,,CLR,,,,,,,,VFR,,,,,,,,,,,,METAR,248.0
KEWB 190153Z 30007KT 10SM CLR 10/04 A2982 RMK AO2 SLP098 T01000039 $,KEWB,2021-10-19T01:53:00Z,41.68,-70.95,10.0,3.9,300,7,,10.0,29.819881,1009.8,,,TRUE,TRUE,,,,,,CLR,,,,,,,,VFR,,,,,,,,,,,,METAR,22.0
KEVW 190153Z AUTO 24014KT 1/2SM SN FG VV006 00/M01 A2985 RMK AO2 PK WND 23033/0055 RAB0055E02SNB02 SLP088 P0001 T00001006,KEVW,2021-10-19T01:53:00Z,41.27,-111.03,0.0,-0.6,240,14,,0.5,29.84941,1008.8,,TRUE,TRUE,,,,,,SN FG,OVX,0,,,,,,,LIFR,,,,,,0.01,,,,,600,METAR,2178.0
KETH 190153Z AUTO 13007KT 10SM CLR 14/04 A2980 RMK AO2,KETH,2021-10-19T01:53:00Z,45.78,-96.55,14.0,4.0,130,7,,10.0,29.799213,,,TRUE,TRUE,,,,,,,CLR,,,,,,,,VFR,,,,,,,,,,,,METAR,309.0
KESF 190153Z AUTO 00000KT 10SM CLR 12/10 A3012 RMK AO2 SLP197 T01170100,KESF,2021-10-19T01:53:00Z,31.4,-92.28,11.7,10.0,0,0,,10.0,30.121063,1019.7,,TRUE,TRUE,,,,,,,CLR,,,,,,,,VFR,,,,,,,,,,,,METAR,27.0
KEQY 190153Z AUTO 23005KT 10SM CLR 12/06 A3015 RMK AO2 SLP218 T01220056,KEQY,2021-10-19T01:53:00Z,35.02,-80.62,12.2,5.6,230,5,,10.0,30.15059,1021.8,,TRUE,TRUE,,,,,,,CLR,,,,,,,,VFR,,,,,,,,,,,,METAR,205.0
KEPH 190153Z AUTO 23006KT 10SM CLR 11/02 A2984 RMK AO2 SLP108 T01060022,KEPH,2021-10-19T01:53:00Z,47.3,-119.52,10.6,2.2,230,6,,10.0,29.840551,1010.8,,TRUE,TRUE,,,,,,,CLR,,,,,,,,VFR,,,,,,,,,,,,METAR,382.0
KENW 190153Z 00000KT 10SM CLR 11/09 A3007 RMK AO2 SLP183 T01110089,KENW,2021-10-19T01:53:00Z,42.6,-87.93,11.1,8.9,0,0,,10.0,30.070866,1018.3,,,TRUE,,,,,,,CLR,,,,,,,,VFR,,,,,,,,,,,,METAR,222.0
KEMP 190153Z AUTO 16010KT 10SM CLR 16/08 A2997 RMK AO2 SLP148 T01560078,KEMP,2021-10-19T01:53:00Z,38.33,-96.2,15.6,7.8,160,10,,10.0,29.970472,1014.8,,TRUE,TRUE,,,,,,,CLR,,,,,,,,VFR,,,,,,,,,,,,METAR,366.0
KELY 190153Z AUTO 31009KT 10SM OVC038 02/M02 A2987 RMK AO2 SLP086 T00221017,KELY,2021-10-19T01:53:00Z,39.3,-114.85,2.2,-1.7,310,9,,10.0,29.870079,1008.6,,TRUE,TRUE,,,,,,,OVC,3800,,,,,,,VFR,,,,,,,,,,,,METAR,1906.0
KELN 190153Z AUTO 31014KT 10SM CLR 11/03 A2988 RMK AO2 SLP119 T01110033,KELN,2021-10-19T01:53:00Z,47.03,-120.53,11.1,3.3,310,14,,10.0,29.878937,1011.9,,TRUE,TRUE,,,,,,,CLR,,,,,,,,VFR,,,,,,,,,,,,METAR,532.0
KELM 190153Z 00000KT 10SM BKN060 07/04 A3001 RMK AO2 SLP166 T00670044,KELM,2021-10-19T01:53:00Z,42.15,-76.9,6.7,4.4,0,0,,10.0,30.008858,1016.6,,,TRUE,,,,,,,BKN,6000,,,,,,,VFR,,,,,,,,,,,,METAR,287.0
KELD 190153Z AUTO A3012 RMK AO2 SLPNO PWINO FZRANO $,KELD,2021-10-19T01:53:00Z,33.22,-92.82,,,,,,,30.121063,,,TRUE,TRUE,TRUE,,,TRUE,TRUE,,,,,,,,,,,,,,,,,,,,,,METAR,76.0
KEET 190153Z AUTO 00000KT 10SM CLR 13/10 A3017 RMK AO2 SLP216 T01280100,KEET,2021-10-19T01:53:00Z,33.18,-86.78,12.8,10.0,0,0,,10.0,30.171259,1021.6,,TRUE,TRUE,,,,,,,CLR,,,,,,,,VFR,,,,,,,,,,,,METAR,172.0
KEEO 190153Z AUTO VRB05KT 10SM FEW070 SCT090 OVC110 14/M06 A2976 RMK AO2 PK WND 15030/0055 SLP038 T01441056,KEEO,2021-10-19T01:53:00Z,40.05,-107.88,14.4,-5.6,0,5,,10.0,29.760826,1003.8,,TRUE,TRUE,,,,,,,FEW,7000,SCT,9000,OVC,11000,,,VFR,,,,,,,,,,,,METAR,1957.0
KECP 190153Z 03004KT 10SM CLR 14/11 A3014 RMK AO2 SLP217 T01440111,KECP,2021-10-19T01:53:00Z,30.35,-85.8,14.4,11.1,30,4,,10.0,30.138779,1021.7,,,TRUE,,,,,,,CLR,,,,,,,,VFR,,,,,,,,,,,,METAR,17.0
KDXR 190153Z 26003KT 10SM SCT070 07/03 A2994 RMK AO2 RAE11 SLP139 P0000 T00720028,KDXR,2021-10-19T01:53:00Z,41.37,-73.48,7.2,2.8,260,3,,10.0,29.940945,1013.9,,,TRUE,,,,,,,SCT,7000,,,,,,,VFR,,,,,,0.005,,,,,,METAR,138.0
KDWH 190153Z 13003KT 10SM CLR 16/12 A3008 RMK AO2 SLP185 T01610117,KDWH,2021-10-19T01:53:00Z,30.07,-95.55,16.1,11.7,130,3,,10.0,30.079725,1018.5,,,TRUE,,,,,,,CLR,,,,,,,,VFR,,,,,,,,,,,,METAR,46.0
KDVT 190153Z 25012KT 10SM CLR 23/08 A2981 RMK AO2 SLP077 T02330078,KDVT,2021-10-19T01:53:00Z,33.68,-112.07,23.3,7.8,250,12,,10.0,29.811024,1007.7,,,TRUE,,,,,,,CLR,,,,,,,,VFR,,,,,,,,,,,,METAR,454.0
KDVP 190153Z AUTO 15007KT 10SM CLR 12/04 A2989 RMK AO2 T01220035,KDVP,2021-10-19T01:53:00Z,43.98,-95.78,12.2,3.5,150,7,,10.0,29.890747,,,TRUE,TRUE,,,,,,,CLR,,,,,,,,VFR,,,,,,,,,,,,METAR,493.0
KDUJ 190153Z AUTO 25005KT 10SM CLR 07/03 A3007 RMK AO2 SLP189 T00720033,KDUJ,2021-10-19T01:53:00Z,41.17,-78.9,7.2,3.3,250,5,,10.0,30.070866,1018.9,,TRUE,TRUE,,,,,,,CLR,,,,,,,,VFR,,,,,,,,,,,,METAR,552.0
KDTW 190153Z 19003KT 10SM CLR 12/06 A3010 RMK AO2 SLP194 T01220061,KDTW,2021-10-19T01:53:00Z,42.23,-83.33,12.2,6.1,190,3,,10.0,30.100393,1019.4,,,TRUE,,,,,,,CLR,,,,,,,,VFR,,,,,,,,,,,,METAR,192.0
KDTS 190153Z 09003KT 10SM CLR 17/11 A3014 RMK AO2 SLP204 T01720106,KDTS,2021-10-19T01:53:00Z,30.4,-86.47,17.2,10.6,90,3,,10.0,30.138779,1020.4,,,TRUE,,,,,,,CLR,,,,,,,,VFR,,,,,,,,,,,,METAR,5.0
KDTO 190153Z 14005KT 10SM CLR 18/07 A3003 RMK AO2 SLP165 T01780072,KDTO,2021-10-19T01:53:00Z,33.2,-97.2,17.8,7.2,140,5,,10.0,30.029528,1016.5,,,TRUE,,,,,,,CLR,,,,,,,,VFR,,,,,,,,,,,,METAR,199.0
KDTN 190153Z 12005KT 10SM CLR 17/06 A3010 RMK AO2 SLP190 T01720061,KDTN,2021-10-19T01:53:00Z,32.55,-93.75,17.2,6.1,120,5,,10.0,30.100393,1019.0,,,TRUE,,,,,,,CLR,,,,,,,,VFR,,,,,,,,,,,,METAR,53.0
KDRT 190153Z AUTO 10010KT 10SM CLR 25/13 A2996 RMK AO2 SLP141 T02500128,KDRT,2021-10-19T01:53:00Z,29.37,-100.92,25.0,12.8,100,10,,10.0,29.958662,1014.1,,TRUE,TRUE,,,,,,,CLR,,,,,,,,VFR,,,,,,,,,,,,METAR,303.0
KDRO 190153Z AUTO 21015G27KT 10SM CLR 15/M05 A2991 RMK AO2 PK WND 23027/0152 SLP087 T01501050,KDRO,2021-10-19T01:53:00Z,37.15,-107.77,15.0,-5.0,210,15,27,10.0,29.911417,1008.7,,TRUE,TRUE,,,,,,,CLR,,,,,,,,VFR,,,,,,,,,,,,METAR,2021.0
KDRA 190153Z AUTO 03007KT 10SM CLR 12/M03 A2988 RMK AO2 SLP095 T01221028,KDRA,2021-10-19T01:53:00Z,36.62,-116.03,12.2,-2.8,30,7,,10.0,29.878937,1009.5,,TRUE,TRUE,,,,,,,CLR,,,,,,,,VFR,,,,,,,,,,,,METAR,988.0
KDNL 190153Z AUTO 00000KT 10SM CLR 17/07 A3018 RMK AO2 SLP216 T01670067,KDNL,2021-10-19T01:53:00Z,33.47,-82.03,16.7,6.7,0,0,,10.0,30.180119,1021.6,,TRUE,TRUE,,,,,,,CLR,,,,,,,,VFR,,,,,,,,,,,,METAR,126.0
KDMO 190153Z AUTO 16006KT 10SM CLR 14/08 A3005 RMK AO2 SLP174 T01390078,KDMO,2021-10-19T01:53:00Z,38.72,-93.17,13.9,7.8,160,6,,10.0,30.050198,1017.4,,TRUE,TRUE,,,,,,,CLR,,,,,,,,VFR,,,,,,,,,,,,METAR,271.0
KDMN 190153Z AUTO 23007KT 10SM CLR 21/01 A2995 RMK AO2 SLP087 T02110011,KDMN,2021-10-19T01:53:00Z,32.27,-107.72,21.1,1.1,230,7,,10.0,29.949802,1008.7,,TRUE,TRUE,,,,,,,CLR,,,,,,,,VFR,,,,,,,,,,,,METAR,1310.0
KDLS 190153Z AUTO 29014G20KT 10SM CLR 13/03 A2993 RMK AO2 SLP136 T01330033,KDLS,2021-10-19T01:53:00Z,45.62,-121.17,13.3,3.3,290,14,20,10.0,29.929134,1013.6,,TRUE,TRUE,,,,,,,CLR,,,,,,,,VFR,,,,,,,,,,,,METAR,71.0
KDLN 190153Z AUTO 04015KT 10SM BKN100 09/M01 A2983 RMK AO2 SLP087 T00941011,KDLN,2021-10-19T01:53:00Z,45.25,-112.55,9.4,-1.1,40,15,,10.0,29.828741,1008.7,,TRUE,TRUE,,,,,,,BKN,10000,,,,,,,VFR,,,,,,,,,,,,METAR,1586.0
KDKK 190153Z AUTO 30008KT 10SM CLR 13/03 A3007 RMK AO2 SLP185 T01280033 $,KDKK,2021-10-19T01:53:00Z,42.5,-79.28,12.8,3.3,300,8,,10.0,30.070866,1018.5,,TRUE,TRUE,TRUE,,,,,,CLR,,,,,,,,VFR,,,,,,,,,,,,METAR,205.0
KDHT 190153Z AUTO 17016KT 10SM CLR 18/06 A2987 RMK AO2 PK WND 17029/0122 SLP081 T01830056,KDHT,2021-10-19T01:53:00Z,36.02,-102.55,18.3,5.6,170,16,,10.0,29.870079,1008.1,,TRUE,TRUE,,,,,,,CLR,,,,,,,,VFR,,,,,,,,,,,,METAR,1217.0
KDHN 190153Z AUTO 08003KT 10SM CLR 13/09 A3019 RMK AO2 SLP223 T01280094,KDHN,2021-10-19T01:53:00Z,31.32,-85.45,12.8,9.4,80,3,,10.0,30.188976,1022.3,,TRUE,TRUE,,,,,,,CLR,,,,,,,,VFR,,,,,,,,,,,,METAR,113.0
KDGW 190153Z AUTO 13005KT 10SM CLR 09/02 A2982 RMK AO2 SLP083 T00940017,KDGW,2021-10-19T01:53:00Z,42.8,-105.38,9.4,1.7,130,5,,10.0,29.819881,1008.3,,TRUE,TRUE,,,,,,,CLR,,,,,,,,VFR,,,,,,,,,,,,METAR,1503.0
KDFW 190153Z 14006KT 10SM SCT250 18/07 A3002 RMK AO2 SLP162 T01780072,KDFW,2021-10-19T01:53:00Z,32.9,-97.02,17.8,7.2,140,6,,10.0,30.02067,1016.2,,,TRUE,,,,,,,SCT,25000,,,,,,,VFR,,,,,,,,,,,,METAR,168.0
KDFI 190153Z AUTO 00000KT 10SM CLR 10/07 A3012 RMK AO2 SLP203 T01000067 $,KDFI,2021-10-19T01:53:00Z,41.33,-84.43,10.0,6.7,0,0,,10.0,30.121063,1020.3,,TRUE,TRUE,TRUE,,,,,,CLR,,,,,,,,VFR,,,,,,,,,,,,METAR,215.0
KDEW 190153Z AUTO 00000KT 10SM CLR 09/03 A2985 RMK AO2 SLP120 T00940033,KDEW,2021-10-19T01:53:00Z,47.97,-117.43,9.4,3.3,0,0,,10.0,29.84941,1012.0,,TRUE,TRUE,,,,,,,CLR,,,,,,,,VFR,,,,,,,,,,,,METAR,672.0
KDET 190153Z 00000KT 10SM CLR 11/06 A3009 RMK AO2 SLP192 T01110061,KDET,2021-10-19T01:53:00Z,42.4,-83.02,11.1,6.1,0,0,,10.0,30.088583,1019.2,,,TRUE,,,,,,,CLR,,,,,,,,VFR,,,,,,,,,,,,METAR,190.0
KDEQ 190153Z AUTO 00000KT 10SM CLR 11/09 A3007 RMK AO2 SLP181 T01110094,KDEQ,2021-10-19T01:53:00Z,34.05,-94.4,11.1,9.4,0,0,,10.0,30.070866,1018.1,,TRUE,TRUE,,,,,,,CLR,,,,,,,,VFR,,,,,,,,,,,,METAR,107.0
KDEN 190153Z 10011KT 10SM FEW130 16/M05 A2976 RMK AO2 SLP028 T01611050,KDEN,2021-10-19T01:53:00Z,39.85,-104.65,16.1,-5.0,100,11,,10.0,29.760826,1002.8,,,TRUE,,,,,,,FEW,13000,,,,,,,VFR,,,,,,,,,,,,METAR,1656.0
KDCU 190153Z AUTO 00000KT 10SM CLR 10/08 A3018 RMK AO2 SLP218 T01000083 $,KDCU,2021-10-19T01:53:00Z,34.65,-86.95,10.0,8.3,0,0,,10.0,30.180119,1021.8,,TRUE,TRUE,TRUE,,,,,,CLR,,,,,,,,VFR,,,,,,,,,,,,METAR,180.0
KDBQ 190153Z 17005KT 10SM CLR 12/06 A3003 RMK AO2 SLP172 T01220061,KDBQ,2021-10-19T01:53:00Z,42.4,-90.7,12.2,6.1,170,5,,10.0,30.029528,1017.2,,,TRUE,,,,,,,CLR,,,,,,,,VFR,,,,,,,,,,,,METAR,317.0
KDAN 190153Z AUTO 26004KT 10SM CLR 13/03 A3013 RMK AO2 SLP196 T01330028,KDAN,2021-10-19T01:53:00Z,36.57,-79.33,13.3,2.8,260,4,,10.0,30.129921,1019.6,,TRUE,TRUE,,,,,,,CLR,,,,,,,,VFR,,,,,,,,,,,,METAR,170.0
KDAL 190153Z 17008KT 10SM FEW250 19/07 A3004 RMK AO2 SLP169 T01940067 $,KDAL,2021-10-19T01:53:00Z,32.85,-96.85,19.4,6.7,170,8,,10.0,30.041338,1016.9,,,TRUE,TRUE,,,,,,FEW,25000,,,,,,,VFR,,,,,,,,,,,,METAR,148.0
KDAB 190153Z 08004KT 10SM FEW050 OVC200 22/14 A3013 RMK AO2 SLP201 T02220144,KDAB,2021-10-19T01:53:00Z,29.18,-81.07,22.2,14.4,80,4,,10.0,30.129921,1020.1,,,TRUE,,,,,,,FEW,5000,OVC,20000,,,,,VFR,,,,,,,,,,,,METAR,8.0
KCYS 190153Z 11010KT 10SM CLR 13/M04 A2983 RMK AO2 SLP054 T01281044,KCYS,2021-10-19T01:53:00Z,41.15,-104.8,12.8,-4.4,110,10,,10.0,29.828741,1005.4,,,TRUE,,,,,,,CLR,,,,,,,,VFR,,,,,,,,,,,,METAR,1868.0
KCXO 190153Z AUTO 00000KT 10SM CLR 13/12 A3009 RMK AO2 SLP187 T01280122,KCXO,2021-10-19T01:53:00Z,30.35,-95.42,12.8,12.2,0,0,,10.0,30.088583,1018.7,,TRUE,TRUE,,,,,,,CLR,,,,,,,,VFR,,,,,,,,,,,,METAR,69.0
KCWF 190153Z 06004KT 10SM SKC 17/09 A3010,KCWF,2021-10-19T01:53:00Z,30.22,-93.15,17.0,9.0,60,4,,10.0,30.100393,,,,,,,,,,,SKC,,,,,,,,VFR,,,,,,,,,,,,METAR,4.0
KCUT 190153Z AUTO 31003KT 10SM CLR 10/M01 A2986 RMK AO2 SLP074 T01001006,KCUT,2021-10-19T01:53:00Z,43.73,-103.62,10.0,-0.6,310,3,,10.0,29.861221,1007.4,,TRUE,TRUE,,,,,,,CLR,,,,,,,,VFR,,,,,,,,,,,,METAR,1700.0
KCUB 190153Z AUTO 00000KT 10SM CLR 13/08 A3017 RMK AO2 SLP215 T01330083,KCUB,2021-10-19T01:53:00Z,33.97,-81.0,13.3,8.3,0,0,,10.0,30.171259,1021.5,,TRUE,TRUE,,,,,,,CLR,,,,,,,,VFR,,,,,,,,,,,,METAR,55.0
KCSV 190153Z AUTO 00000KT 10SM CLR 09/08 A3021 RMK AO2 SLP228 T00890078,KCSV,2021-10-19T01:53:00Z,35.95,-85.08,8.9,7.8,0,0,,10.0,30.209646,1022.8,,TRUE,TRUE,,,,,,,CLR,,,,,,,,VFR,,,,,,,,,,,,METAR,569.0
KCSM 190153Z 16017KT 10SM CLR 18/06 A2995 RMK AO2 SLP131 T01780061,KCSM,2021-10-19T01:53:00Z,35.35,-99.2,17.8,6.1,160,17,,10.0,29.949802,1013.1,,,TRUE,,,,,,,CLR,,,,,,,,VFR,,,,,,,,,,,,METAR,586.0
KCRS 190153Z AUTO 15006KT 10SM CLR 17/09 A3007 RMK AO2 SLP180 T01720094,KCRS,2021-10-19T01:53:00Z,32.03,-96.4,17.2,9.4,150,6,,10.0,30.070866,1018.0,,TRUE,TRUE,,,,,,,CLR,,,,,,,,VFR,,,,,,,,,,,,METAR,136.0
KCRQ 190153Z 27004KT 10SM FEW025 15/09 A2997 RMK AO2 SLP145 T01500089,KCRQ,2021-10-19T01:53:00Z,33.13,-117.28,15.0,8.9,270,4,,10.0,29.970472,1014.5,,,TRUE,,,,,,,FEW,2500,,,,,,,VFR,,,,,,,,,,,,METAR,96.0
KCRG 190153Z 00000KT 10SM CLR 17/14 A3016 RMK AO2 SLP213 T01720139,KCRG,2021-10-19T01:53:00Z,30.33,-81.52,17.2,13.9,0,0,,10.0,30.159449,1021.3,,,TRUE,,,,,,,CLR,,,,,,,,VFR,,,,,,,,,,,,METAR,12.0
KCRE 190153Z AUTO 00000KT 10SM CLR 12/10 A3014 RMK AO1 SLP206 T01170100,KCRE,2021-10-19T01:53:00Z,33.82,-78.72,11.7,10.0,0,0,,10.0,30.138779,1020.6,,TRUE,TRUE,,,,,,,CLR,,,,,,,,VFR,,,,,,,,,,,,METAR,9.0
KCQC 190153Z AUTO 19009KT 10SM CLR 11/M03 A3004 RMK AO2 SLP115 T01111033 $,KCQC,2021-10-19T01:53:00Z,35.0,-105.67,11.1,-3.3,190,9,,10.0,30.041338,1011.5,,TRUE,TRUE,TRUE,,,,,,CLR,,,,,,,,VFR,,,,,,,,,,,,METAR,2163.0
KCPS 190153Z 16006KT 10SM CLR 14/08 A3010 RMK AO2 SLP194 T01440083,KCPS,2021-10-19T01:53:00Z,38.53,-90.15,14.4,8.3,160,6,,10.0,30.100393,1019.4,,,TRUE,,,,,,,CLR,,,,,,,,VFR,,,,,,,,,,,,METAR,125.0
KCPR 190153Z 12003KT 10SM CLR 11/M02 A2980 RMK AO2 SLP063 T01061017,KCPR,2021-10-19T01:53:00Z,42.9,-106.47,10.6,-1.7,120,3,,10.0,29.799213,1006.3,,,TRUE,,,,,,,CLR,,,,,,,,VFR,,,,,,,,,,,,METAR,1623.0
KCOT 190153Z AUTO 13011KT 10SM CLR 24/13 A3001 RMK AO2 SLP156 T02390128,KCOT,2021-10-19T01:53:00Z,28.45,-99.22,23.9,12.8,130,11,,10.0,30.008858,1015.6,,TRUE,TRUE,,,,,,,CLR,,,,,,,,VFR,,,,,,,,,,,,METAR,144.0
KCNY 190153Z AUTO 27019KT 10SM -RA OVC065 12/06 A2971 RMK AO2 PK WND 27037/0055 RAB0056 PRESRR SLP041 P0000 T01220056,KCNY,2021-10-19T01:53:00Z,38.77,-109.75,12.2,5.6,270,19,,10.0,29.71063,1004.1,,TRUE,TRUE,,,,,,-RA,OVC,6500,,,,,,,VFR,,,,,,0.005,,,,,,METAR,1392.0
KCNO 190153Z 29011KT 10SM BKN050 16/07 A2996 RMK AO2 SLP141 T01610067,KCNO,2021-10-19T01:53:00Z,33.98,-117.62,16.1,6.7,290,11,,10.0,29.958662,1014.1,,,TRUE,,,,,,,BKN,5000,,,,,,,VFR,,,,,,,,,,,,METAR,191.0
KCNM 190153Z AUTO 16009KT 10SM CLR 22/07 A2990 RMK AO2 SLP087 T02220067,KCNM,2021-10-19T01:53:00Z,32.33,-104.25,22.2,6.7,160,9,,10.0,29.899607,1008.7,,TRUE,TRUE,,,,,,,CLR,,,,,,,,VFR,,,,,,,,,,,,METAR,993.0
KCMX 190153Z AUTO 07005KT 10SM CLR 12/08 A2994 RMK AO2 SLP141 T01170078,KCMX,2021-10-19T01:53:00Z,47.17,-88.48,11.7,7.8,70,5,,10.0,29.940945,1014.1,,TRUE,TRUE,,,,,,,CLR,,,,,,,,VFR,,,,,,,,,,,,METAR,326.0
KCMI 190153Z 18007KT 10SM CLR 14/08 A3011 RMK AO2 SLP197 T01390078,KCMI,2021-10-19T01:53:00Z,40.03,-88.27,13.9,7.8,180,7,,10.0,30.109253,1019.7,,,TRUE,,,,,,,CLR,,,,,,,,VFR,,,,,,,,,,,,METAR,227.0
KCLM 190153Z AUTO 00000KT 10SM CLR 07/04 A3000 RMK AO2 SLP159 T00670039,KCLM,2021-10-19T01:53:00Z,48.12,-123.5,6.7,3.9,0,0,,10.0,30.0,1015.9,,TRUE,TRUE,,,,,,,CLR,,,,,,,,VFR,,,,,,,,,,,,METAR,81.0
KCLL 190153Z 13006KT 10SM CLR 19/11 A3006 RMK AO2 SLP178 T01890106,KCLL,2021-10-19T01:53:00Z,30.58,-96.37,18.9,10.6,130,6,,10.0,30.059055,1017.8,,,TRUE,,,,,,,CLR,,,,,,,,VFR,,,,,,,,,,,,METAR,96.0
KCKB 190153Z 00000KT 10SM CLR 10/04 A3014 RMK AO2 SLP203 T01000044,KCKB,2021-10-19T01:53:00Z,39.3,-80.22,10.0,4.4,0,0,,10.0,30.138779,1020.3,,,TRUE,,,,,,,CLR,,,,,,,,VFR,,,,,,,,,,,,METAR,368.0
KCHO 190153Z 29005KT 10SM CLR 16/02 A3008 RMK AO2 SLP183 T01610022,KCHO,2021-10-19T01:53:00Z,38.13,-78.45,16.1,2.2,290,5,,10.0,30.079725,1018.3,,,TRUE,,,,,,,CLR,,,,,,,,VFR,,,,,,,,,,,,METAR,193.0
KCHA 190153Z 00000KT 10SM CLR 13/10 A3019 RMK AO2 SLP221 T01330100 $,KCHA,2021-10-19T01:53:00Z,35.03,-85.2,13.3,10.0,0,0,,10.0,30.188976,1022.1,,,TRUE,TRUE,,,,,,CLR,,,,,,,,VFR,,,,,,,,,,,,METAR,203.0
KCGI 190153Z AUTO 00000KT 10SM CLR 11/06 A3014 RMK AO2 SLP205 T01060061,KCGI,2021-10-19T01:53:00Z,37.23,-89.58,10.6,6.1,0,0,,10.0,30.138779,1020.5,,TRUE,TRUE,,,,,,,CLR,,,,,,,,VFR,,,,,,,,,,,,METAR,103.0
KCEZ 190153Z AUTO 20017KT 10SM CLR 15/M03 A2982 RMK AO2 PK WND 19026/0116 SLP063 T01501028,KCEZ,2021-10-19T01:53:00Z,37.3,-108.63,15.0,-2.8,200,17,,10.0,29.819881,1006.3,,TRUE,TRUE,,,,,,,CLR,,,,,,,,VFR,,,,,,,,,,,,METAR,1801.0
KCEW 190153Z AUTO 00000KT 10SM CLR 13/11 A3016 RMK AO2 SLP210 T01280111 TSNO,KCEW,2021-10-19T01:53:00Z,30.78,-86.52,12.8,11.1,0,0,,10.0,30.159449,1021.0,,TRUE,TRUE,,,TRUE,,,,CLR,,,,,,,,VFR,,,,,,,,,,,,METAR,47.0
KCDW 190153Z 00000KT 10SM CLR 09/02 A2998 RMK AO2 SLP159 T00890022,KCDW,2021-10-19T01:53:00Z,40.88,-74.28,8.9,2.2,0,0,,10.0,29.97933,1015.9,,,TRUE,,,,,,,CLR,,,,,,,,VFR,,,,,,,,,,,,METAR,52.0
KCDS 190153Z AUTO 16014G23KT 10SM CLR 21/07 A2992 RMK AO2 SLP118 T02060067,KCDS,2021-10-19T01:53:00Z,34.43,-100.28,20.6,6.7,160,14,23,10.0,29.920275,1011.8,,TRUE,TRUE,,,,,,,CLR,,,,,,,,VFR,,,,,,,,,,,,METAR,595.0
KCDR 190153Z AUTO 00000KT 10SM CLR 12/03 A2974 RMK AO2 SLP083 T01170028,KCDR,2021-10-19T01:53:00Z,42.83,-103.1,11.7,2.8,0,0,,10.0,29.740158,1008.3,,TRUE,TRUE,,,,,,,CLR,,,,,,,,VFR,,,,,,,,,,,,METAR,1002.0
KCDC 190153Z AUTO 20009KT 10SM FEW120 03/M04 A2987 RMK AO2 SLP088 T00331044,KCDC,2021-10-19T01:53:00Z,37.7,-113.1,3.3,-4.4,200,9,,10.0,29.870079,1008.8,,TRUE,TRUE,,,,,,,FEW,12000,,,,,,,VFR,,,,,,,,,,,,METAR,1703.0
KCCR 190153Z 20005KT 10SM CLR 15/07 A3001 RMK AO2 SLP147 T01500072,KCCR,2021-10-19T01:53:00Z,38.0,-122.05,15.0,7.2,200,5,,10.0,30.008858,1014.7,,,TRUE,,,,,,,CLR,,,,,,,,VFR,,,,,,,,,,,,METAR,6.0
KCAG 190153Z AUTO 03005KT 10SM CLR 11/01 A2976 RMK AO2 SLP066 T01060006,KCAG,2021-10-19T01:53:00Z,40.5,-107.52,10.6,0.6,30,5,,10.0,29.760826,1006.6,,TRUE,TRUE,,,,,,,CLR,,,,,,,,VFR,,,,,,,,,,,,METAR,1888.0
KBYI 190153Z AUTO 24004KT 10SM OVC100 11/02 A2979 RMK AO2 SLP072 T01060017,KBYI,2021-10-19T01:53:00Z,42.55,-113.77,10.6,1.7,240,4,,10.0,29.790354,1007.2,,TRUE,TRUE,,,,,,,OVC,10000,,,,,,,VFR,,,,,,,,,,,,METAR,1263.0
KBYG 190153Z AUTO 29009KT 8SM SCT110 11/02 A2987 RMK AO2 SLP097 T01060017,KBYG,2021-10-19T01:53:00Z,44.38,-106.72,10.6,1.7,290,9,,8.0,29.870079,1009.7,,TRUE,TRUE,,,,,,,SCT,11000,,,,,,,VFR,,,,,,,,,,,,METAR,1503.0
KBWG 190153Z AUTO 00000KT 10SM CLR 13/09 A3018 RMK AO2 SLP219 T01280089,KBWG,2021-10-19T01:53:00Z,36.97,-86.42,12.8,8.9,0,0,,10.0,30.180119,1021.9,,TRUE,TRUE,,,,,,,CLR,,,,,,,,VFR,,,,,,,,,,,,METAR,159.0
KBVY 190153Z AUTO 29010KT 10SM CLR 09/03 A2980 RMK AO2 SLP086 T00940033,KBVY,2021-10-19T01:53:00Z,42.58,-70.92,9.4,3.3,290,10,,10.0,29.799213,1008.6,,TRUE,TRUE,,,,,,,CLR,,,,,,,,VFR,,,,,,,,,,,,METAR,28.0
KBVO 190153Z AUTO 18005KT 10SM CLR 16/07 A3002 RMK AO2 SLP160 T01610067,KBVO,2021-10-19T01:53:00Z,36.77,-96.02,16.1,6.7,180,5,,10.0,30.02067,1016.0,,TRUE,TRUE,,,,,,,CLR,,,,,,,,VFR,,,,,,,,,,,,METAR,210.0
KBTR 190153Z 00000KT 10SM CLR 14/11 A3012 RMK AO2 SLP199 T01390111 $,KBTR,2021-10-19T01:53:00Z,30.53,-91.15,13.9,11.1,0,0,,10.0,30.121063,1019.9,,,TRUE,TRUE,,,,,,CLR,,,,,,,,VFR,,,,,,,,,,,,METAR,20.0
KBTM 190153Z AUTO 34006KT 10SM OVC090 12/M03 A2992 RMK AO2 SLP125 T01221033,KBTM,2021-10-19T01:53:00Z,45.97,-112.5,12.2,-3.3,340,6,,10.0,29.920275,1012.5,,TRUE,TRUE,,,,,,,OVC,9000,,,,,,,VFR,,,,,,,,,,,,METAR,1680.0
KBTL 190153Z 00000KT 10SM CLR 09/07 A3011 RMK AO2 SLP200 T00940067,KBTL,2021-10-19T01:53:00Z,42.32,-85.25,9.4,6.7,0,0,,10.0,30.109253,1020.0,,,TRUE,,,,,,,CLR,,,,,,,,VFR,,,,,,,,,,,,METAR,282.0
KBRO 190153Z 10003KT 10SM CLR 22/17 A3002 RMK AO2 SLP165 T02170172 $,KBRO,2021-10-19T01:53:00Z,25.92,-97.42,21.7,17.2,100,3,,10.0,30.02067,1016.5,,,TRUE,TRUE,,,,,,CLR,,,,,,,,VFR,,,,,,,,,,,,METAR,6.0
KBRL 190153Z AUTO 20004KT 10SM CLR 14/08 A3004 RMK AO2 SLP173 T01390083,KBRL,2021-10-19T01:53:00Z,40.77,-91.13,13.9,8.3,200,4,,10.0,30.041338,1017.3,,TRUE,TRUE,,,,,,,CLR,,,,,,,,VFR,,,,,,,,,,,,METAR,208.0
KBRD 190153Z AUTO 17008KT 10SM CLR 17/05 A2986 RMK AO2 SLP113 T01720050 TSNO,KBRD,2021-10-19T01:53:00Z,46.4,-94.13,17.2,5.0,170,8,,10.0,29.861221,1011.3,,TRUE,TRUE,,,TRUE,,,,CLR,,,,,,,,VFR,,,,,,,,,,,,METAR,372.0
KBPT 190153Z 00000KT 10SM CLR 13/12 A3010 RMK AO2 SLP191 T01330122,KBPT,2021-10-19T01:53:00Z,29.95,-94.03,13.3,12.2,0,0,,10.0,30.100393,1019.1,,,TRUE,,,,,,,CLR,,,,,,,,VFR,,,,,,,,,,,,METAR,6.0
KBPK 190153Z AUTO 20003KT 10SM CLR 14/06 A3011 RMK AO2 SLP192 T01390061,KBPK,2021-10-19T01:53:00Z,36.37,-92.47,13.9,6.1,200,3,,10.0,30.109253,1019.2,,TRUE,TRUE,,,,,,,CLR,,,,,,,,VFR,,,,,,,,,,,,METAR,279.0
KBPI 190153Z AUTO 07006KT 10SM BKN110 07/M04 A2984 RMK AO2 SLP082 T00721044,KBPI,2021-10-19T01:53:00Z,42.58,-110.1,7.2,-4.4,70,6,,10.0,29.840551,1008.2,,TRUE,TRUE,,,,,,,BKN,11000,,,,,,,VFR,,,,,,,,,,,,METAR,2120.0
KBOI 190153Z 28006KT 10SM BKN110 15/00 A2978 RMK AO2 SLP075 T01500000,KBOI,2021-10-19T01:53:00Z,43.57,-116.23,15.0,0.0,280,6,,10.0,29.778543,1007.5,,,TRUE,,,,,,,BKN,11000,,,,,,,VFR,,,,,,,,,,,,METAR,860.0
KBNO 190153Z AUTO 32010KT 10SM CLR 11/00 A2987 RMK AO2 SLP103 T01110000,KBNO,2021-10-19T01:53:00Z,43.6,-118.95,11.1,0.0,320,10,,10.0,29.870079,1010.3,,TRUE,TRUE,,,,,,,CLR,,,,,,,,VFR,,,,,,,,,,,,METAR,1263.0
KBNA 190153Z 19003KT 10SM CLR 13/08 A3019 RMK AO2 SLP220 T01330078,KBNA,2021-10-19T01:53:00Z,36.12,-86.68,13.3,7.8,190,3,,10.0,30.188976,1022.0,,,TRUE,,,,,,,CLR,,,,,,,,VFR,,,,,,,,,,,,METAR,168.0
KBMQ 190153Z AUTO 15003KT 10SM CLR 19/11 A3006 RMK AO2 SLP169 T01890106,KBMQ,2021-10-19T01:53:00Z,30.73,-98.23,18.9,10.6,150,3,,10.0,30.059055,1016.9,,TRUE,TRUE,,,,,,,CLR,,,,,,,,VFR,,,,,,,,,,,,METAR,387.0
KBMG 190153Z AUTO 00000KT 10SM CLR 10/08 A3015 RMK AO2 SLP211 T01000078,KBMG,2021-10-19T01:53:00Z,39.15,-86.62,10.0,7.8,0,0,,10.0,30.15059,1021.1,,TRUE,TRUE,,,,,,,CLR,,,,,,,,VFR,,,,,,,,,,,,METAR,254.0
KBLI 190153Z 00000KT 10SM CLR 07/07 A3000 RMK AO2 SLP167 T00720072,KBLI,2021-10-19T01:53:00Z,48.8,-122.53,7.2,7.2,0,0,,10.0,30.0,1016.7,,,TRUE,,,,,,,CLR,,,,,,,,VFR,,,,,,,,,,,,METAR,46.0
KBKV 190153Z AUTO 08006KT 10SM CLR 21/15 A3012 RMK AO2 SLP199 T02060150,KBKV,2021-10-19T01:53:00Z,28.47,-82.45,20.6,15.0,80,6,,10.0,30.121063,1019.9,,TRUE,TRUE,,,,,,,CLR,,,,,,,,VFR,,,,,,,,,,,,METAR,21.0
KBKL 190153Z 15005KT 10SM CLR 12/07 A3010 RMK AO2 SLP192 T01170067,KBKL,2021-10-19T01:53:00Z,41.53,-81.67,11.7,6.7,150,5,,10.0,30.100393,1019.2,,,TRUE,,,,,,,CLR,,,,,,,,VFR,,,,,,,,,,,,METAR,177.0
KBKE 190153Z AUTO 33006KT 10SM CLR 08/01 A2987 RMK AO2 SLP115 T00830011,KBKE,2021-10-19T01:53:00Z,44.85,-117.82,8.3,1.1,330,6,,10.0,29.870079,1011.5,,TRUE,TRUE,,,,,,,CLR,,,,,,,,VFR,,,,,,,,,,,,METAR,1025.0
KBIV 190153Z AUTO 00000KT 10SM CLR 09/08 A3009 RMK AO2 SLP173 T00940078,KBIV,2021-10-19T01:53:00Z,42.75,-86.1,9.4,7.8,0,0,,10.0,30.088583,1017.3,,TRUE,TRUE,,,,,,,CLR,,,,,,,,VFR,,,,,,,,,,,,METAR,207.0
KBIL 190153Z 02010KT 10SM FEW180 13/M04 A2988 RMK AO2 SLP113 T01331044,KBIL,2021-10-19T01:53:00Z,45.8,-108.55,13.3,-4.4,20,10,,10.0,29.878937,1011.3,,,TRUE,,,,,,,FEW,18000,,,,,,,VFR,,,,,,,,,,,,METAR,1089.0
KBHM 190153Z 00000KT 10SM FEW250 15/10 A3018 RMK AO2 SLP207 T01500100 $,KBHM,2021-10-19T01:53:00Z,33.57,-86.75,15.0,10.0,0,0,,10.0,30.180119,1020.7,,,TRUE,TRUE,,,,,,FEW,25000,,,,,,,VFR,,,,,,,,,,,,METAR,191.0
KBGR 190153Z 28005KT 10SM FEW070 BKN120 08/04 A2969 RMK AO2 SLP052 T00780039,KBGR,2021-10-19T01:53:00Z,44.8,-68.82,7.8,3.9,280,5,,10.0,29.68996,1005.2,,,TRUE,,,,,,,FEW,7000,BKN,12000,,,,,VFR,,,,,,,,,,,,METAR,45.0
KBGM 190153Z 33004KT 10SM SCT017 BKN024 OVC034 06/04 A2998 RMK AO2 RAB0058E41 SLP161 P0001 T00560044,KBGM,2021-10-19T01:53:00Z,42.22,-75.98,5.6,4.4,330,4,,10.0,29.97933,1016.1,,,TRUE,,,,,,,SCT,1700,BKN,2400,OVC,3400,,,MVFR,,,,,,0.01,,,,,,METAR,485.0
KBFM 190153Z 00000KT 10SM CLR 14/11 A3016 RMK AO2 SLP213 T01390111,KBFM,2021-10-19T01:53:00Z,30.62,-88.07,13.9,11.1,0,0,,10.0,30.159449,1021.3,,,TRUE,,,,,,,CLR,,,,,,,,VFR,,,,,,,,,,,,METAR,7.0
KBFI 190153Z VRB03KT 10SM OVC049 12/07 A3000 RMK AO2 SLP159 T01220067,KBFI,2021-10-19T01:53:00Z,47.55,-122.32,12.2,6.7,0,3,,10.0,30.0,1015.9,,,TRUE,,,,,,,OVC,4900,,,,,,,VFR,,,,,,,,,,,,METAR,7.0
KBFF 190153Z AUTO 10010KT 10SM CLR 13/03 A2977 RMK AO2 SLP073 T01330028,KBFF,2021-10-19T01:53:00Z,41.87,-103.6,13.3,2.8,100,10,,10.0,29.769686,1007.3,,TRUE,TRUE,,,,,,,CLR,,,,,,,,VFR,,,,,,,,,,,,METAR,1204.0
KBFD 190153Z AUTO 27005KT 10SM CLR 06/01 A3005 RMK AO2 SLP182 T00610011,KBFD,2021-10-19T01:53:00Z,41.8,-78.63,6.1,1.1,270,5,,10.0,30.050198,1018.2,,TRUE,TRUE,,,,,,,CLR,,,,,,,,VFR,,,,,,,,,,,,METAR,642.0
KBEH 190153Z AUTO 00000KT 10SM CLR 09/07 A3009 RMK AO2 SLP191 T00890072,KBEH,2021-10-19T01:53:00Z,42.13,-86.42,8.9,7.2,0,0,,10.0,30.088583,1019.1,,TRUE,TRUE,,,,,,,CLR,,,,,,,,VFR,,,,,,,,,,,,METAR,196.0
KBDE 190153Z AUTO 16011KT 10SM CLR 17/06 A2977 RMK AO2 SLP087 T01670061,KBDE,2021-10-19T01:53:00Z,48.73,-94.62,16.7,6.1,160,11,,10.0,29.769686,1008.7,,TRUE,TRUE,,,,,,,CLR,,,,,,,,VFR,,,,,,,,,,,,METAR,330.0
KBCT 190153Z 06010KT 10SM SCT045 25/15 A3007,KBCT,2021-10-19T01:53:00Z,26.38,-80.1,25.0,15.0,60,10,,10.0,30.070866,,,,,,,,,,,SCT,4500,,,,,,,VFR,,,,,,,,,,,,METAR,3.0
KBBW 190153Z AUTO 13006KT 10SM CLR 13/06 A2980 RMK AO2 SLP092 T01330056,KBBW,2021-10-19T01:53:00Z,41.43,-99.63,13.3,5.6,130,6,,10.0,29.799213,1009.2,,TRUE,TRUE,,,,,,,CLR,,,,,,,,VFR,,,,,,,,,,,,METAR,771.0
KBAF 190153Z 04003KT 10SM CLR 07/04 A2989 RMK AO2 SLP123 T00670039,KBAF,2021-10-19T01:53:00Z,42.17,-72.72,6.7,3.9,40,3,,10.0,29.890747,1012.3,,,TRUE,,,,,,,CLR,,,,,,,,VFR,,,,,,,,,,,,METAR,80.0
KAZO 190153Z 00000KT 10SM CLR 09/06 A3012 RMK AO2 SLP201 T00890061,KAZO,2021-10-19T01:53:00Z,42.23,-85.55,8.9,6.1,0,0,,10.0,30.121063,1020.1,,,TRUE,,,,,,,CLR,,,,,,,,VFR,,,,,,,,,,,,METAR,264.0
KAXN 190153Z AUTO 16006KT 10SM CLR 14/04 A2985 RMK AO2 SLP114 T01390039,KAXN,2021-10-19T01:53:00Z,45.87,-95.4,13.9,3.9,160,6,,10.0,29.84941,1011.4,,TRUE,TRUE,,,,,,,CLR,,,,,,,,VFR,,,,,,,,,,,,METAR,433.0
KAWM 190153Z AUTO 00000KT 10SM CLR 12/07 A3013 RMK AO2 SLP202 T01170072,KAWM,2021-10-19T01:53:00Z,35.13,-90.23,11.7,7.2,0,0,,10.0,30.129921,1020.2,,TRUE,TRUE,,,,,,,CLR,,,,,,,,VFR,,,,,,,,,,,,METAR,64.0
KAUS 190153Z 15005KT 10SM FEW200 BKN250 18/11 A3004 RMK AO2 SLP169 T01830111,KAUS,2021-10-19T01:53:00Z,30.18,-97.68,18.3,11.1,150,5,,10.0,30.041338,1016.9,,,TRUE,,,,,,,FEW,20000,BKN,25000,,,,,VFR,,,,,,,,,,,,METAR,148.0
KAUG 190153Z AUTO 28005KT 10SM CLR 08/03 A2973 RMK AO2 SLP068 T00780033,KAUG,2021-10-19T01:53:00Z,44.32,-69.8,7.8,3.3,280,5,,10.0,29.731298,1006.8,,TRUE,TRUE,,,,,,,CLR,,,,,,,,VFR,,,,,,,,,,,,METAR,107.0
KATY 190153Z AUTO 16013KT 10SM CLR 16/04 A2981 RMK AO2 SLP096 T01560044,KATY,2021-10-19T01:53:00Z,44.9,-97.15,15.6,4.4,160,13,,10.0,29.811024,1009.6,,TRUE,TRUE,,,,,,,CLR,,,,,,,,VFR,,,,,,,,,,,,METAR,531.0
KASX 190153Z AUTO 00000KT 10SM CLR 08/07 A2993 RMK AO2 SLP142 T00780067,KASX,2021-10-19T01:53:00Z,46.55,-90.92,7.8,6.7,0,0,,10.0,29.929134,1014.2,,TRUE,TRUE,,,,,,,CLR,,,,,,,,VFR,,,,,,,,,,,,METAR,249.0
KASE 190153Z AUTO 20005KT 10SM CLR 09/M08 A2985 RMK AO2 SLP045 T00941078,KASE,2021-10-19T01:53:00Z,39.23,-106.87,9.4,-7.8,200,5,,10.0,29.84941,1004.5,,TRUE,TRUE,,,,,,,CLR,,,,,,,,VFR,,,,,,,,,,,,METAR,2384.0
KASD 190153Z AUTO 00000KT 10SM CLR 16/13 A3012 RMK AO2 SLP200 T01610133 TSNO,KASD,2021-10-19T01:53:00Z,30.35,-89.82,16.1,13.3,0,0,,10.0,30.121063,1020.0,,TRUE,TRUE,,,TRUE,,,,CLR,,,,,,,,VFR,,,,,,,,,,,,METAR,8.0
KARB 190153Z AUTO 27003KT 10SM CLR 08/06 A3010 RMK AO2 SLP194 T00780056,KARB,2021-10-19T01:53:00Z,42.22,-83.73,7.8,5.6,270,3,,10.0,30.100393,1019.4,,TRUE,TRUE,,,,,,,CLR,,,,,,,,VFR,,,,,,,,,,,,METAR,251.0
KARA 190153Z AUTO 00000KT 10SM CLR 15/14 A3012 RMK AO2 SLP197 T01500139,KARA,2021-10-19T01:53:00Z,30.03,-91.88,15.0,13.9,0,0,,10.0,30.121063,1019.7,,TRUE,TRUE,,,,,,,CLR,,,,,,,,VFR,,,,,,,,,,,,METAR,5.0
KAQP 190153Z AUTO 17009KT 10SM CLR 18/01 A2982 RMK AO2,KAQP,2021-10-19T01:53:00Z,45.22,-96.0,18.0,1.0,170,9,,10.0,29.819881,,,TRUE,TRUE,,,,,,,CLR,,,,,,,,VFR,,,,,,,,,,,,METAR,312.0
KAPF 190153Z AUTO 06008KT 10SM CLR 23/17 A3006 RMK AO2 SLP178 T02330172,KAPF,2021-10-19T01:53:00Z,26.15,-81.77,23.3,17.2,60,8,,10.0,30.059055,1017.8,,TRUE,TRUE,,,,,,,CLR,,,,,,,,VFR,,,,,,,,,,,,METAR,2.0
KAPA 190153Z 18011KT 10SM FEW120 16/M04 A2978 RMK AO2 SLP043 T01611044,KAPA,2021-10-19T01:53:00Z,39.57,-104.85,16.1,-4.4,180,11,,10.0,29.778543,1004.3,,,TRUE,,,,,,,FEW,12000,,,,,,,VFR,,,,,,,,,,,,METAR,1791.0
KAOO 190153Z AUTO 31010KT 10SM CLR 11/02 A3008 RMK AO2 SLP188 T01060022,KAOO,2021-10-19T01:53:00Z,40.3,-78.32,10.6,2.2,310,10,,10.0,30.079725,1018.8,,TRUE,TRUE,,,,,,,CLR,,,,,,,,VFR,,,,,,,,,,,,METAR,450.0
KAOH 190153Z AUTO 00000KT 10SM CLR 09/05 A3014 RMK AO2 SLP208 T00940050,KAOH,2021-10-19T01:53:00Z,40.7,-84.02,9.4,5.0,0,0,,10.0,30.138779,1020.8,,TRUE,TRUE,,,,,,,CLR,,,,,,,,VFR,,,,,,,,,,,,METAR,294.0
KANB 190153Z AUTO 00000KT 10SM CLR 11/09 A3018 RMK AO2 SLP223 T01110094,KANB,2021-10-19T01:53:00Z,33.58,-85.85,11.1,9.4,0,0,,10.0,30.180119,1022.3,,TRUE,TRUE,,,,,,,CLR,,,,,,,,VFR,,,,,,,,,,,,METAR,187.0
KAMW 190153Z AUTO 17006KT 10SM CLR 14/06 A2997 RMK AO2 SLP147 T01390056,KAMW,2021-10-19T01:53:00Z,41.98,-93.62,13.9,5.6,170,6,,10.0,29.970472,1014.7,,TRUE,TRUE,,,,,,,CLR,,,,,,,,VFR,,,,,,,,,,,,METAR,282.0
KAMG 190153Z AUTO 00000KT 10SM CLR 10/09 A3018 RMK AO2 SLP217 T01000094,KAMG,2021-10-19T01:53:00Z,31.53,-82.5,10.0,9.4,0,0,,10.0,30.180119,1021.7,,TRUE,TRUE,,,,,,,CLR,,,,,,,,VFR,,,,,,,,,,,,METAR,61.0
KAMA 190153Z AUTO 15012KT 10SM CLR 17/05 A2991 RMK AO2 SLP103 T01670050,KAMA,2021-10-19T01:53:00Z,35.22,-101.72,16.7,5.0,150,12,,10.0,29.911417,1010.3,,TRUE,TRUE,,,,,,,CLR,,,,,,,,VFR,,,,,,,,,,,,METAR,1102.0
KALW 190153Z AUTO 10003KT 10SM CLR 11/03 A2987 RMK AO2 SLP119 T01110033,KALW,2021-10-19T01:53:00Z,46.1,-118.28,11.1,3.3,100,3,,10.0,29.870079,1011.9,,TRUE,TRUE,,,,,,,CLR,,,,,,,,VFR,,,,,,,,,,,,METAR,355.0
KALI 190153Z AUTO 10005KT 10SM CLR 19/16 A3003 RMK AO2 SLP168 T01940156,KALI,2021-10-19T01:53:00Z,27.73,-98.02,19.4,15.6,100,5,,10.0,30.029528,1016.8,,TRUE,TRUE,,,,,,,CLR,,,,,,,,VFR,,,,,,,,,,,,METAR,52.0
KAKO 190153Z AUTO 09008KT 10SM CLR 11/M01 A2978 RMK AO2 SLP070 T01061006,KAKO,2021-10-19T01:53:00Z,40.17,-103.22,10.6,-0.6,90,8,,10.0,29.778543,1007.0,,TRUE,TRUE,,,,,,,CLR,,,,,,,,VFR,,,,,,,,,,,,METAR,1431.0
KAIA 190153Z AUTO 13005KT 10SM CLR 08/03 A2979 RMK AO2 SLP091 T00780028,KAIA,2021-10-19T01:53:00Z,42.05,-102.8,7.8,2.8,130,5,,10.0,29.790354,1009.1,,TRUE,TRUE,,,,,,,CLR,,,,,,,,VFR,,,,,,,,,,,,METAR,1198.0
KAGS 190153Z 00000KT 10SM CLR 11/09 A3017 RMK AO2 SLP216 T01060089,KAGS,2021-10-19T01:53:00Z,33.37,-81.97,10.6,8.9,0,0,,10.0,30.171259,1021.6,,,TRUE,,,,,,,CLR,,,,,,,,VFR,,,,,,,,,,,,METAR,40.0
KAGC 190153Z 33003KT 10SM CLR 11/03 A3012 RMK AO2 SLP205 T01110033,KAGC,2021-10-19T01:53:00Z,40.35,-79.92,11.1,3.3,330,3,,10.0,30.121063,1020.5,,,TRUE,,,,,,,CLR,,,,,,,,VFR,,,,,,,,,,,,METAR,380.0
KAFW 190153Z 15008KT 10SM FEW070 BKN280 19/07 A3002 RMK AO2 SLP161 T01940072,KAFW,2021-10-19T01:53:00Z,32.97,-97.32,19.4,7.2,150,8,,10.0,30.02067,1016.1,,,TRUE,,,,,,,FEW,7000,BKN,28000,,,,,VFR,,,,,,,,,,,,METAR,208.0
KAEX 190153Z 00000KT 10SM CLR 14/08 A3010 RMK AO2 SLP197 T01390083,KAEX,2021-10-19T01:53:00Z,31.33,-92.57,13.9,8.3,0,0,,10.0,30.100393,1019.7,,,TRUE,,,,,,,CLR,,,,,,,,VFR,,,,,,,,,,,,METAR,25.0
KADG 190153Z AUTO 00000KT 10SM CLR 10/06 A3012 RMK AO2 SLP205 T01000061,KADG,2021-10-19T01:53:00Z,41.87,-84.08,10.0,6.1,0,0,,10.0,30.121063,1020.5,,TRUE,TRUE,,,,,,,CLR,,,,,,,,VFR,,,,,,,,,,,,METAR,244.0
KACK 190153Z AUTO 32018G24KT 10SM CLR 13/03 A2979 RMK AO2 SLP089 T01330033,KACK,2021-10-19T01:53:00Z,41.25,-70.07,13.3,3.3,320,18,24,10.0,29.790354,1008.9,,TRUE,TRUE,,,,,,,CLR,,,,,,,,VFR,,,,,,,,,,,,METAR,12.0
KABY 190153Z AUTO 00000KT 10SM CLR 13/09 A3020 RMK AO2 SLP225 T01330094,KABY,2021-10-19T01:53:00Z,31.53,-84.2,13.3,9.4,0,0,,10.0,30.200787,1022.5,,TRUE,TRUE,,,,,,,CLR,,,,,,,,VFR,,,,,,,,,,,,METAR,60.0
KABR 190153Z AUTO 16011KT 10SM CLR 15/04 A2974 RMK AO2 SLP071 T01500044,KABR,2021-10-19T01:53:00Z,45.45,-98.42,15.0,4.4,160,11,,10.0,29.740158,1007.1,,TRUE,TRUE,,,,,,,CLR,,,,,,,,VFR,,,,,,,,,,,,METAR,397.0
KAAF 190153Z AUTO 04003KT 10SM CLR 15/15 A3014 RMK AO2 SLP205 T01500150,KAAF,2021-10-19T01:53:00Z,29.73,-85.03,15.0,15.0,40,3,,10.0,30.138779,1020.5,,TRUE,TRUE,,,,,,,CLR,,,,,,,,VFR,,,,,,,,,,,,METAR,5.0
PTTP 190152Z 01005KT 15SM SCT018 SCT130 OVC300 32/25 A2988 RMK SLP117 T03190248,PTTP,2021-10-19T01:52:00Z,6.97,158.22,31.9,24.8,10,5,,15.0,29.878937,1011.7,,,,,,,,,,SCT,1800,SCT,13000,OVC,30000,,,VFR,,,,,,,,,,,,SPECI,36.0
PATA 190152Z 07005KT 10SM FEW100 SCT130 M01/M08 A2966 RMK AO2 SLP048 T10111078,PATA,2021-10-19T01:52:00Z,65.17,-152.1,-1.1,-7.8,70,5,,10.0,29.660433,1004.8,,,TRUE,,,,,,,FEW,10000,SCT,13000,,,,,VFR,,,,,,,,,,,,METAR,62.0
PABA 190152Z AUTO 27019KT 2SM -SN BR BKN007 OVC033 M07/M08 A2982 RMK AO2 SLP106 P0000 T10671078 FZRANO,PABA,2021-10-19T01:52:00Z,70.13,-143.58,-6.7,-7.8,270,19,,2.0,29.819881,1010.6,,TRUE,TRUE,,,,TRUE,,-SN BR,BKN,700,OVC,3300,,,,,IFR,,,,,,0.005,,,,,,METAR,1.0
MMSL 190152Z 28010KT 6SM SCT020 SCT260 25/20 A2993 RMK 8/408 LWR SC,MMSL,2021-10-19T01:52:00Z,22.95,-109.93,25.0,20.0,280,10,,6.0,29.929134,,,,,,,,,,,SCT,2000,SCT,26000,,,,,VFR,,,,,,,,,,,,METAR,205.0
KVTN 190152Z AUTO 20008KT 10SM CLR 13/04 A2978 RMK AO2 SLP087 T01330039,KVTN,2021-10-19T01:52:00Z,42.87,-100.55,13.3,3.9,200,8,,10.0,29.778543,1008.7,,TRUE,TRUE,,,,,,,CLR,,,,,,,,VFR,,,,,,,,,,,,METAR,790.0
KTRM 190152Z AUTO 29010KT 10SM CLR 21/04 A2983 RMK AO2 SLP103 T02060039,KTRM,2021-10-19T01:52:00Z,33.63,-116.17,20.6,3.9,290,10,,10.0,29.828741,1010.3,,TRUE,TRUE,,,,,,,CLR,,,,,,,,VFR,,,,,,,,,,,,METAR,-39.0
KTOL 190152Z 00000KT 10SM CLR 11/07 A3011 RMK AO2 SLP198 T01060067,KTOL,2021-10-19T01:52:00Z,41.58,-83.8,10.6,6.7,0,0,,10.0,30.109253,1019.8,,,TRUE,,,,,,,CLR,,,,,,,,VFR,,,,,,,,,,,,METAR,206.0
KTAN 190152Z AUTO 30006KT 10SM CLR 09/03 A2983 RMK AO2 SLP101 T00940028,KTAN,2021-10-19T01:52:00Z,41.88,-71.02,9.4,2.8,300,6,,10.0,29.828741,1010.1,,TRUE,TRUE,,,,,,,CLR,,,,,,,,VFR,,,,,,,,,,,,METAR,8.0
KSUX 190152Z 14008KT 10SM CLR 14/04 A2988 RMK AO2 SLP119 T01390039,KSUX,2021-10-19T01:52:00Z,42.38,-96.38,13.9,3.9,140,8,,10.0,29.878937,1011.9,,,TRUE,,,,,,,CLR,,,,,,,,VFR,,,,,,,,,,,,METAR,332.0
KSPS 190152Z 14010KT 10SM CLR 17/08 A2998 RMK AO2 SLP148 T01670078,KSPS,2021-10-19T01:52:00Z,33.98,-98.5,16.7,7.8,140,10,,10.0,29.97933,1014.8,,,TRUE,,,,,,,CLR,,,,,,,,VFR,,,,,,,,,,,,METAR,310.0
KSPI 190152Z 18008KT 10SM CLR 16/08 A3009 RMK AO2 SLP189 T01560078,KSPI,2021-10-19T01:52:00Z,39.85,-89.68,15.6,7.8,180,8,,10.0,30.088583,1018.9,,,TRUE,,,,,,,CLR,,,,,,,,VFR,,,,,,,,,,,,METAR,179.0
KSGF 190152Z 15008KT 10SM CLR 14/08 A3006 RMK AO2 SLP177 T01390083,KSGF,2021-10-19T01:52:00Z,37.23,-93.38,13.9,8.3,150,8,,10.0,30.059055,1017.7,,,TRUE,,,,,,,CLR,,,,,,,,VFR,,,,,,,,,,,,METAR,387.0
KREO 190152Z AUTO 16016G24KT 06/02 A2984 RMK AO1 SLP102 T00610017 $,KREO,2021-10-19T01:52:00Z,42.58,-117.87,6.1,1.7,160,16,24,,29.840551,1010.2,,TRUE,TRUE,TRUE,,,,,,,,,,,,,,,,,,,,,,,,,,METAR,1237.0
KRAP 190152Z 35013KT 10SM CLR 13/03 A2976 RMK AO2 SLP076 T01330028,KRAP,2021-10-19T01:52:00Z,44.05,-103.05,13.3,2.8,350,13,,10.0,29.760826,1007.6,,,TRUE,,,,,,,CLR,,,,,,,,VFR,,,,,,,,,,,,METAR,965.0
KPYM 190152Z AUTO 29007KT 10SM CLR 09/03 A2981 RMK AO2 SLP096 T00890028,KPYM,2021-10-19T01:52:00Z,41.92,-70.73,8.9,2.8,290,7,,10.0,29.811024,1009.6,,TRUE,TRUE,,,,,,,CLR,,,,,,,,VFR,,,,,,,,,,,,METAR,42.0
KPWK 190152Z 00000KT 10SM CLR 13/08 A3008 RMK AO2 SLP189 T01280078 $,KPWK,2021-10-19T01:52:00Z,42.12,-87.9,12.8,7.8,0,0,,10.0,30.079725,1018.9,,,TRUE,TRUE,,,,,,CLR,,,,,,,,VFR,,,,,,,,,,,,METAR,194.0
KPPF 190152Z AUTO 16006KT 10SM CLR 17/07 A3002 RMK AO2 SLP162 T01720067,KPPF,2021-10-19T01:52:00Z,37.33,-95.5,17.2,6.7,160,6,,10.0,30.02067,1016.2,,TRUE,TRUE,,,,,,,CLR,,,,,,,,VFR,,,,,,,,,,,,METAR,265.0
KP69 190152Z AUTO 00000KT 10/08 A2987 RMK AO1 SLP122 T01000083,KP69,2021-10-19T01:52:00Z,46.15,-115.6,10.0,8.3,0,0,,,29.870079,1012.2,,TRUE,TRUE,,,,,,,,,,,,,,,,,,,,,,,,,,,METAR,447.0
KORE 190152Z AUTO 00000KT 10SM CLR 07/02 A2987 RMK AO2 SLP117 T00720022 $,KORE,2021-10-19T01:52:00Z,42.57,-72.28,7.2,2.2,0,0,,10.0,29.870079,1011.7,,TRUE,TRUE,TRUE,,,,,,CLR,,,,,,,,VFR,,,,,,,,,,,,METAR,165.0
KOMA 190152Z 17009KT 10SM FEW250 18/06 A2992 RMK AO2 SLP128 T01830056,KOMA,2021-10-19T01:52:00Z,41.32,-95.9,18.3,5.6,170,9,,10.0,29.920275,1012.8,,,TRUE,,,,,,,FEW,25000,,,,,,,VFR,,,,,,,,,,,,METAR,299.0
KOKC 190152Z 16007KT 10SM FEW200 BKN250 15/07 A2999 RMK AO2 SLP151 T01500067,KOKC,2021-10-19T01:52:00Z,35.38,-97.6,15.0,6.7,160,7,,10.0,29.991142,1015.1,,,TRUE,,,,,,,FEW,20000,BKN,25000,,,,,VFR,,,,,,,,,,,,METAR,391.0
KOKB 190152Z AUTO 28003KT 10SM FEW027 14/09 A2997 RMK AO2 SLP147 T01440089,KOKB,2021-10-19T01:52:00Z,33.22,-117.35,14.4,8.9,280,3,,10.0,29.970472,1014.7,,TRUE,TRUE,,,,,,,FEW,2700,,,,,,,VFR,,,,,,,,,,,,METAR,7.0
KNZY 190152Z 29005KT 10SM SCT029 18/09 A2997 RMK AO2 SLP149 T01780094,KNZY,2021-10-19T01:52:00Z,32.7,-117.22,17.8,9.4,290,5,,10.0,29.970472,1014.9,,,TRUE,,,,,,,SCT,2900,,,,,,,VFR,,,,,,,,,,,,METAR,4.0
KNTD 190152Z 27009KT 10SM FEW050 15/09 A2993 RMK AO2 SLP137 T01500089 VISNO N $,KNTD,2021-10-19T01:52:00Z,34.12,-119.12,15.0,8.9,270,9,,10.0,29.929134,1013.7,,,TRUE,TRUE,,,,,,FEW,5000,,,,,,,VFR,,,,,,,,,,,,METAR,1.0
KNRB 190152Z 04008KT 10SM BKN250 21/13 A3016 RMK AO2 SLP212 T02110133,KNRB,2021-10-19T01:52:00Z,30.38,-81.42,21.1,13.3,40,8,,10.0,30.159449,1021.2,,,TRUE,,,,,,,BKN,25000,,,,,,,VFR,,,,,,,,,,,,METAR,4.0
KNHK 190152Z 27004KT 10SM CLR 12/07 A3005 RMK AO2 SLP176 T01220067,KNHK,2021-10-19T01:52:00Z,38.28,-76.4,12.2,6.7,270,4,,10.0,30.050198,1017.6,,,TRUE,,,,,,,CLR,,,,,,,,VFR,,,,,,,,,,,,METAR,5.0
KNFW 190152Z 13007KT 10SM CLR 20/07 A3003 RMK AO2 SLP151 T02000072 $,KNFW,2021-10-19T01:52:00Z,32.78,-97.43,20.0,7.2,130,7,,10.0,30.029528,1015.1,,,TRUE,TRUE,,,,,,CLR,,,,,,,,VFR,,,,,,,,,,,,METAR,188.0
KN60 190152Z AUTO 29005KT 10/06 A2972 RMK AO1 SLP074 T01000056,KN60,2021-10-19T01:52:00Z,47.65,-101.43,10.0,5.6,290,5,,,29.719488,1007.4,,TRUE,TRUE,,,,,,,,,,,,,,,,,,,,,,,,,,,METAR,582.0
KMWH 190152Z 20004KT 10SM CLR 16/03 A2985 RMK AO2 SLP110 T01610033,KMWH,2021-10-19T01:52:00Z,47.2,-119.32,16.1,3.3,200,4,,10.0,29.84941,1011.0,,,TRUE,,,,,,,CLR,,,,,,,,VFR,,,,,,,,,,,,METAR,355.0
KMLI 190152Z 09003KT 10SM CLR 11/08 A3003 RMK AO2 SLP171 T01110083 $,KMLI,2021-10-19T01:52:00Z,41.45,-90.52,11.1,8.3,90,3,,10.0,30.029528,1017.1,,,TRUE,TRUE,,,,,,CLR,,,,,,,,VFR,,,,,,,,,,,,METAR,174.0
KMLF 190152Z AUTO 20011KT 10SM OVC060 03/M01 A2985 RMK AO2 SLP090 T00281006,KMLF,2021-10-19T01:52:00Z,38.42,-113.02,2.8,-0.6,200,11,,10.0,29.84941,1009.0,,TRUE,TRUE,,,,,,,OVC,6000,,,,,,,VFR,,,,,,,,,,,,METAR,1537.0
KMKE 190152Z 00000KT 10SM CLR 12/08 A3006 RMK AO2 SLP180 T01220083,KMKE,2021-10-19T01:52:00Z,42.95,-87.9,12.2,8.3,0,0,,10.0,30.059055,1018.0,,,TRUE,,,,,,,CLR,,,,,,,,VFR,,,,,,,,,,,,METAR,203.0
KMHK 190152Z 17003KT 10SM CLR 14/06 A2994 RMK AO2 SLP137 T01440056,KMHK,2021-10-19T01:52:00Z,39.13,-96.68,14.4,5.6,170,3,,10.0,29.940945,1013.7,,,TRUE,,,,,,,CLR,,,,,,,,VFR,,,,,,,,,,,,METAR,320.0
KMFD 190152Z 20005KT 10SM CLR 09/05 A3013 RMK AO2 SLP206 T00890050,KMFD,2021-10-19T01:52:00Z,40.82,-82.52,8.9,5.0,200,5,,10.0,30.129921,1020.6,,,TRUE,,,,,,,CLR,,,,,,,,VFR,,,,,,,,,,,,METAR,394.0
KMEB 190152Z AUTO 00000KT 10SM CLR 11/08 A3014 RMK AO2 SLP205 T01110083 TSNO,KMEB,2021-10-19T01:52:00Z,34.78,-79.37,11.1,8.3,0,0,,10.0,30.138779,1020.5,,TRUE,TRUE,,,TRUE,,,,CLR,,,,,,,,VFR,,,,,,,,,,,,METAR,65.0
KMDH 190152Z 11003KT 10SM CLR 09/08 A3014 RMK AO2 SLP206 T00890078,KMDH,2021-10-19T01:52:00Z,37.78,-89.25,8.9,7.8,110,3,,10.0,30.138779,1020.6,,,TRUE,,,,,,,CLR,,,,,,,,VFR,,,,,,,,,,,,METAR,122.0
KMBG 190152Z AUTO 13004KT 10SM CLR 17/08 A2968 RMK AO2 SLP050 T01670078,KMBG,2021-10-19T01:52:00Z,45.55,-100.42,16.7,7.8,130,4,,10.0,29.681103,1005.0,,TRUE,TRUE,,,,,,,CLR,,,,,,,,VFR,,,,,,,,,,,,METAR,515.0
KLWC 190152Z AUTO 14008KT 10SM CLR 14/08 A2998 RMK AO1 SLP152 T01390083,KLWC,2021-10-19T01:52:00Z,39.02,-95.22,13.9,8.3,140,8,,10.0,29.97933,1015.2,,TRUE,TRUE,,,,,,,CLR,,,,,,,,VFR,,,,,,,,,,,,METAR,252.0
KIOW 190152Z AUTO 00000KT 10SM CLR 12/08 A3003 RMK AO2 SLP172 T01170078,KIOW,2021-10-19T01:52:00Z,41.63,-91.55,11.7,7.8,0,0,,10.0,30.029528,1017.2,,TRUE,TRUE,,,,,,,CLR,,,,,,,,VFR,,,,,,,,,,,,METAR,199.0
KIJD 190152Z AUTO 28007KT 10SM CLR 08/04 A2988 RMK AO2 SLP118 T00780039,KIJD,2021-10-19T01:52:00Z,41.75,-72.18,7.8,3.9,280,7,,10.0,29.878937,1011.8,,TRUE,TRUE,,,,,,,CLR,,,,,,,,VFR,,,,,,,,,,,,METAR,73.0
KIEN 190152Z AUTO VRB03KT 10SM CLR 10/04 A2975 RMK AO2 SLP076 T01000039,KIEN,2021-10-19T01:52:00Z,43.03,-102.52,10.0,3.9,0,3,,10.0,29.749016,1007.6,,TRUE,TRUE,,,,,,,CLR,,,,,,,,VFR,,,,,,,,,,,,METAR,1002.0
KIAD 190152Z 32007KT 10SM CLR 13/03 A3006 RMK AO2 SLP180 T01280033,KIAD,2021-10-19T01:52:00Z,38.93,-77.45,12.8,3.3,320,7,,10.0,30.059055,1018.0,,,TRUE,,,,,,,CLR,,,,,,,,VFR,,,,,,,,,,,,METAR,90.0
KHUT 190152Z 16015KT 10SM CLR 18/05 A2990 RMK AO2 SLP115 T01780050,KHUT,2021-10-19T01:52:00Z,38.07,-97.87,17.8,5.0,160,15,,10.0,29.899607,1011.5,,,TRUE,,,,,,,CLR,,,,,,,,VFR,,,,,,,,,,,,METAR,464.0
KHRL 190152Z 09004KT 10SM CLR 20/17 A3002 RMK AO2 SLP165 T02000167,KHRL,2021-10-19T01:52:00Z,26.23,-97.65,20.0,16.7,90,4,,10.0,30.02067,1016.5,,,TRUE,,,,,,,CLR,,,,,,,,VFR,,,,,,,,,,,,METAR,9.0
KHIE 190152Z AUTO 27004KT 7SM -RA SCT018 BKN027 OVC032 06/04 A2981 RMK AO2 RAB37 SLP101 P0000 T00560039,KHIE,2021-10-19T01:52:00Z,44.37,-71.55,5.6,3.9,270,4,,7.0,29.811024,1010.1,,TRUE,TRUE,,,,,,-RA,SCT,1800,BKN,2700,OVC,3200,,,MVFR,,,,,,0.005,,,,,,METAR,321.0
KGLS 190152Z AUTO 10007KT 10SM BKN036 23/14 A3009 RMK AO2 SLP191 T02280139,KGLS,2021-10-19T01:52:00Z,29.27,-94.87,22.8,13.9,100,7,,10.0,30.088583,1019.1,,TRUE,TRUE,,,,,,,BKN,3600,,,,,,,VFR,,,,,,,,,,,,METAR,2.0
KFIT 190152Z AUTO 30006KT 10SM CLR 08/03 A2985 RMK AO2 SLP109 T00780028,KFIT,2021-10-19T01:52:00Z,42.55,-71.75,7.8,2.8,300,6,,10.0,29.84941,1010.9,,TRUE,TRUE,,,,,,,CLR,,,,,,,,VFR,,,,,,,,,,,,METAR,102.0
KEST 190152Z AUTO 19008KT 10SM CLR 13/04 A2991 RMK AO2 SLP133 T01330044,KEST,2021-10-19T01:52:00Z,43.4,-94.75,13.3,4.4,190,8,,10.0,29.911417,1013.3,,TRUE,TRUE,,,,,,,CLR,,,,,,,,VFR,,,,,,,,,,,,METAR,401.0
KDVN 190152Z AUTO 16004KT 10SM CLR 12/07 A3005 RMK AO2 SLP174 T01170072,KDVN,2021-10-19T01:52:00Z,41.62,-90.58,11.7,7.2,160,4,,10.0,30.050198,1017.4,,TRUE,TRUE,,,,,,,CLR,,,,,,,,VFR,,,,,,,,,,,,METAR,227.0
KDPA 190152Z 00000KT 10SM CLR 12/07 A3007 RMK AO2 SLP182 T01170072,KDPA,2021-10-19T01:52:00Z,41.88,-88.25,11.7,7.2,0,0,,10.0,30.070866,1018.2,,,TRUE,,,,,,,CLR,,,,,,,,VFR,,,,,,,,,,,,METAR,228.0
KDDC 190152Z AUTO 17016G25KT 10SM CLR 16/06 A2985 RMK AO2 PK WND 17026/0100 SLP099 T01610056 PWINO $,KDDC,2021-10-19T01:52:00Z,37.77,-99.97,16.1,5.6,170,16,25,10.0,29.84941,1009.9,,TRUE,TRUE,TRUE,,,,TRUE,,CLR,,,,,,,,VFR,,,,,,,,,,,,METAR,786.0
KDCA 190152Z 32005KT 10SM FEW095 15/03 A3007 RMK AO2 SLP181 T01500028,KDCA,2021-10-19T01:52:00Z,38.85,-77.03,15.0,2.8,320,5,,10.0,30.070866,1018.1,,,TRUE,,,,,,,FEW,9500,,,,,,,VFR,,,,,,,,,,,,METAR,4.0
KCVG 190152Z 00000KT 10SM CLR 11/07 A3016 RMK AO2 SLP212 T01060067,KCVG,2021-10-19T01:52:00Z,39.05,-84.67,10.6,6.7,0,0,,10.0,30.159449,1021.2,,,TRUE,,,,,,,CLR,,,,,,,,VFR,,,,,,,,,,,,METAR,264.0
KCVB 190152Z AUTO 13004KT CLR 22/12 A3005 RMK AO2 PWINO,KCVB,2021-10-19T01:52:00Z,29.35,-98.85,22.0,12.0,130,4,,,30.050198,,,TRUE,TRUE,,,,,TRUE,,CLR,,,,,,,,,,,,,,,,,,,,METAR,234.0
KCUL 190152Z AUTO 10SM CLR 11/07 A3015 RMK AO2,KCUL,2021-10-19T01:52:00Z,38.08,-88.12,11.0,7.0,,,,10.0,30.15059,,,TRUE,TRUE,,,,,,,CLR,,,,,,,,VFR,,,,,,,,,,,,METAR,116.0
KCQX 190152Z AUTO 32007KT 280V340 10SM CLR 12/03 A2979 RMK AO2 SLP088 T01170033,KCQX,2021-10-19T01:52:00Z,41.68,-70.0,11.7,3.3,320,7,,10.0,29.790354,1008.8,,TRUE,TRUE,,,,,,,CLR,,,,,,,,VFR,,,,,,,,,,,,METAR,17.0
KCQT 190152Z AUTO 26003KT 10SM CLR 16/09 A2994 RMK AO2 SLP138 T01610089,KCQT,2021-10-19T01:52:00Z,34.02,-118.28,16.1,8.9,260,3,,10.0,29.940945,1013.8,,TRUE,TRUE,,,,,,,CLR,,,,,,,,VFR,,,,,,,,,,,,METAR,51.0
KCNU 190152Z AUTO 16009KT 10SM CLR 16/07 A3000 RMK AO2 SLP155 T01610072,KCNU,2021-10-19T01:52:00Z,37.67,-95.48,16.1,7.2,160,9,,10.0,30.0,1015.5,,TRUE,TRUE,,,,,,,CLR,,,,,,,,VFR,,,,,,,,,,,,METAR,301.0
KCLT 190152Z 29004KT 10SM CLR 15/06 A3015 RMK AO2 SLP207 T01500061,KCLT,2021-10-19T01:52:00Z,35.22,-80.95,15.0,6.1,290,4,,10.0,30.15059,1020.7,,,TRUE,,,,,,,CLR,,,,,,,,VFR,,,,,,,,,,,,METAR,223.0
KCKV 190152Z AUTO 00000KT 10SM CLR 12/08 A3017 RMK AO2 SLP215 T01220083,KCKV,2021-10-19T01:52:00Z,36.62,-87.42,12.2,8.3,0,0,,10.0,30.171259,1021.5,,TRUE,TRUE,,,,,,,CLR,,,,,,,,VFR,,,,,,,,,,,,METAR,166.0
KCID 190152Z 15005KT 10SM CLR 13/08 A3001 RMK AO2 SLP163 T01280083,KCID,2021-10-19T01:52:00Z,41.88,-91.72,12.8,8.3,150,5,,10.0,30.008858,1016.3,,,TRUE,,,,,,,CLR,,,,,,,,VFR,,,,,,,,,,,,METAR,257.0
KCFV 190152Z AUTO 16006KT 10SM CLR 15/07 A3000 RMK AO2 SLP160 T01500072,KCFV,2021-10-19T01:52:00Z,37.08,-95.57,15.0,7.2,160,6,,10.0,30.0,1016.0,,TRUE,TRUE,,,,,,,CLR,,,,,,,,VFR,,,,,,,,,,,,METAR,228.0
KCDJ 190152Z AUTO 18004KT 17/07 A3002 RMK AO1 SLP166 T01670072,KCDJ,2021-10-19T01:52:00Z,39.77,-93.48,16.7,7.2,180,4,,,30.02067,1016.6,,TRUE,TRUE,,,,,,,,,,,,,,,,,,,,,,,,,,,METAR,236.0
KBML 190152Z AUTO 28005KT 10SM FEW028 BKN033 OVC045 07/03 A2977 RMK AO2 SLP088 T00720033,KBML,2021-10-19T01:52:00Z,44.58,-71.18,7.2,3.3,280,5,,10.0,29.769686,1008.8,,TRUE,TRUE,,,,,,,FEW,2800,BKN,3300,OVC,4500,,,VFR,,,,,,,,,,,,METAR,344.0
KBLU 190152Z AUTO 30003KT 1/4SM FG VV002 02/02 A3002 RMK AO2 SLP175 T00170017,KBLU,2021-10-19T01:52:00Z,39.28,-120.7,1.7,1.7,300,3,,0.25,30.02067,1017.5,,TRUE,TRUE,,,,,,FG,OVX,0,,,,,,,LIFR,,,,,,,,,,,200,METAR,1605.0
KBLF 190152Z AUTO 25004KT 10SM CLR 08/03 A3022 RMK AO2 SLP230 T00780028,KBLF,2021-10-19T01:52:00Z,37.3,-81.2,7.8,2.8,250,4,,10.0,30.221457,1023.0,,TRUE,TRUE,,,,,,,CLR,,,,,,,,VFR,,,,,,,,,,,,METAR,871.0
KBIS 190152Z 00000KT 10SM CLR 12/09 A2971 RMK AO2 SLP066 T01170089,KBIS,2021-10-19T01:52:00Z,46.77,-100.75,11.7,8.9,0,0,,10.0,29.71063,1006.6,,,TRUE,,,,,,,CLR,,,,,,,,VFR,,,,,,,,,,,,METAR,506.0
KBDR 190152Z 29005KT 10SM CLR 08/04 A2994 RMK AO2 SLP138 T00780039,KBDR,2021-10-19T01:52:00Z,41.17,-73.13,7.8,3.9,290,5,,10.0,29.940945,1013.8,,,TRUE,,,,,,,CLR,,,,,,,,VFR,,,,,,,,,,,,METAR,5.0
KBAN 190152Z AUTO 00000KT 10SM CLR 01/M05 A2997 RMK AO2 SLP154 T00061050 FZRANO $,KBAN,2021-10-19T01:52:00Z,38.35,-119.52,0.6,-5.0,0,0,,10.0,29.970472,1015.4,,TRUE,TRUE,TRUE,,,TRUE,,,CLR,,,,,,,,VFR,,,,,,,,,,,,METAR,2067.0
KATL 190152Z 31004KT 10SM FEW200 17/07 A3018 RMK AO2 SLP218 T01670072,KATL,2021-10-19T01:52:00Z,33.63,-84.45,16.7,7.2,310,4,,10.0,30.180119,1021.8,,,TRUE,,,,,,,FEW,20000,,,,,,,VFR,,,,,,,,,,,,METAR,309.0
KAQW 190152Z AUTO 29004KT 10SM SCT042 06/02 A2990 RMK AO2 SLP128 T00610022 $,KAQW,2021-10-19T01:52:00Z,42.7,-73.17,6.1,2.2,290,4,,10.0,29.899607,1012.8,,TRUE,TRUE,TRUE,,,,,,SCT,4200,,,,,,,VFR,,,,,,,,,,,,METAR,196.0
KALS 190152Z AUTO 19009KT 10SM CLR 09/M08 A2995 RMK AO2 SLP119 T00891083,KALS,2021-10-19T01:52:00Z,37.43,-105.87,8.9,-8.3,190,9,,10.0,29.949802,1011.9,,TRUE,TRUE,,,,,,,CLR,,,,,,,,VFR,,,,,,,,,,,,METAR,2299.0
KAFN 190152Z AUTO 00000KT 10SM CLR 07/03 A2984 RMK AO2 SLP114 T00720028,KAFN,2021-10-19T01:52:00Z,42.8,-72.0,7.2,2.8,0,0,,10.0,29.840551,1011.4,,TRUE,TRUE,,,,,,,CLR,,,,,,,,VFR,,,,,,,,,,,,METAR,308.0
KABQ 190152Z 19013KT 10SM FEW150 19/M02 A2991 RMK AO2 SLP073 T01941022,KABQ,2021-10-19T01:52:00Z,35.05,-106.62,19.4,-2.2,190,13,,10.0,29.911417,1007.3,,,TRUE,,,,,,,FEW,15000,,,,,,,VFR,,,,,,,,,,,,METAR,1620.0
KABI 190152Z 15013KT 10SM CLR 20/09 A2998 RMK AO2 SLP138 T02000089,KABI,2021-10-19T01:52:00Z,32.42,-99.68,20.0,8.9,150,13,,10.0,29.97933,1013.8,,,TRUE,,,,,,,CLR,,,,,,,,VFR,,,,,,,,,,,,METAR,543.0
PTYA 190151Z VRB03KT 12SM SCT016TCU SCT130 BKN300 31/26 A2990 RMK TCU ALQDS SLP127 T03050264,PTYA,2021-10-19T01:51:00Z,9.48,138.08,30.5,26.4,0,3,,12.0,29.899607,1012.7,,,,,,,,,,SCT,1600,SCT,13000,BKN,30000,,,VFR,,,,,,,,,,,,METAR,4.0
PTSA 190151Z 22004KT 10SM BKN020 BKN130 BKN300 31/25 A2983 RMK LAST,PTSA,2021-10-19T01:51:00Z,5.35,162.95,31.0,25.0,220,4,,10.0,29.828741,,,,,,,,,,,BKN,2000,BKN,13000,BKN,30000,,,MVFR,,,,,,,,,,,,SPECI,3.0
PKMR 190151Z VRB03KT 20SM FEW016 SCT300 30/23 A2981 RMK SLP095 T03020232,PKMR,2021-10-19T01:51:00Z,7.08,171.38,30.2,23.2,0,3,,20.0,29.811024,1009.5,,,,,,,,,,FEW,1600,SCT,30000,,,,,VFR,,,,,,,,,,,,SPECI,7.0
PHBK 190151Z AUTO 26007KT 10SM CLR 28/19 A3002 RMK AO2 SLP169 T02830189,PHBK,2021-10-19T01:51:00Z,22.03,-159.78,28.3,18.9,260,7,,10.0,30.02067,1016.9,,TRUE,TRUE,,,,,,,CLR,,,,,,,,VFR,,,,,,,,,,,,SPECI,5.0
PASD 190151Z 33012KT 10SM BKN070 BKN120 09/03 A2966 RMK AO2 $,PASD,2021-10-19T01:51:00Z,55.33,-160.52,9.0,3.0,330,12,,10.0,29.660433,,,,TRUE,TRUE,,,,,,BKN,7000,BKN,12000,,,,,VFR,,,,,,,,,,,,METAR,6.0
PAMD 190151Z AUTO 08034G45KT 3SM -RA BR BKN012 OVC016 06/04 A2948 RMK AO2 PK WND 07047/0115 SLP971 P0008 T00610044,PAMD,2021-10-19T01:51:00Z,59.43,-146.3,6.1,4.4,80,34,45,3.0,29.480314,997.1,,TRUE,TRUE,,,,,,-RA BR,BKN,1200,OVC,1600,,,,,MVFR,,,,,,0.08,,,,,,METAR,20.0
MUGM 190151Z 33009KT 10SM FEW025 BKN050 BKN280 26/24 A2996 RMK AO2 SLP144 T02610244 $,MUGM,2021-10-19T01:51:00Z,19.9,-75.2,26.1,24.4,330,9,,10.0,29.958662,1014.4,,,TRUE,TRUE,,,,,,FEW,2500,BKN,5000,BKN,28000,,,VFR,,,,,,,,,,,,SPECI,21.0
MUCM 190151Z 02005KT 9000 SKC 23/22 Q1016,MUCM,2021-10-19T01:51:00Z,21.42,-77.85,23.0,22.0,20,5,,5.59,30.0,,,,,,,,,,,SKC,,,,,,,,VFR,,,,,,,,,,,,METAR,125.0
MMVR 190151Z 34004KT 7SM FEW015 SCT050 25/22 A3000 RMK 8/800,MMVR,2021-10-19T01:51:00Z,19.15,-96.18,25.0,22.0,340,4,,7.0,30.0,,,,,,,,,,,FEW,1500,SCT,5000,,,,,VFR,,,,,,,,,,,,METAR,26.0
KYNG 190151Z 25003KT 10SM FEW044 08/05 A3011 RMK AO2 SLP200 T00830050,KYNG,2021-10-19T01:51:00Z,41.25,-80.67,8.3,5.0,250,3,,10.0,30.109253,1020.0,,,TRUE,,,,,,,FEW,4400,,,,,,,VFR,,,,,,,,,,,,METAR,356.0
KXWA 190151Z AUTO 35018KT 10SM CLR 10/02 A2981 RMK AO2 PK WND 36027/0100 SLP113 T01000022,KXWA,2021-10-19T01:51:00Z,48.27,-103.75,10.0,2.2,350,18,,10.0,29.811024,1011.3,,TRUE,TRUE,,,,,,,CLR,,,,,,,,VFR,,,,,,,,,,,,METAR,717.0
KVNY 190151Z 10005KT 10SM FEW050 OVC060 16/08 A2993 RMK AO2 SLP129 T01610078,KVNY,2021-10-19T01:51:00Z,34.22,-118.48,16.1,7.8,100,5,,10.0,29.929134,1012.9,,,TRUE,,,,,,,FEW,5000,OVC,6000,,,,,VFR,,,,,,,,,,,,METAR,241.0
KVCT 190151Z 13006KT 10SM CLR 18/15 A3006 RMK AO2 SLP178 T01780150,KVCT,2021-10-19T01:51:00Z,28.87,-96.93,17.8,15.0,130,6,,10.0,30.059055,1017.8,,,TRUE,,,,,,,CLR,,,,,,,,VFR,,,,,,,,,,,,METAR,33.0
KTPL 190151Z AUTO 14007KT 10SM CLR 18/08 A3005 RMK AO2 SLP169 T01780078,KTPL,2021-10-19T01:51:00Z,31.15,-97.4,17.8,7.8,140,7,,10.0,30.050198,1016.9,,TRUE,TRUE,,,,,,,CLR,,,,,,,,VFR,,,,,,,,,,,,METAR,206.0
KTEB 190151Z 26003KT 10SM CLR 08/02 A2997 RMK AO2 SLP148 T00830017,KTEB,2021-10-19T01:51:00Z,40.87,-74.05,8.3,1.7,260,3,,10.0,29.970472,1014.8,,,TRUE,,,,,,,CLR,,,,,,,,VFR,,,,,,,,,,,,METAR,3.0
KSTL 190151Z 16007KT 10SM CLR 19/07 A3010 RMK AO2 SLP188 T01890072,KSTL,2021-10-19T01:51:00Z,38.75,-90.37,18.9,7.2,160,7,,10.0,30.100393,1018.8,,,TRUE,,,,,,,CLR,,,,,,,,VFR,,,,,,,,,,,,METAR,163.0
KSNT 190151Z AUTO 00000KT 06/M01 A2988 RMK AO1 SLP092 T00561006,KSNT,2021-10-19T01:51:00Z,44.17,-114.93,5.6,-0.6,0,0,,,29.878937,1009.2,,TRUE,TRUE,,,,,,,,,,,,,,,,,,,,,,,,,,,METAR,1980.0
KSMX 190151Z 29010KT 10SM CLR 12/08 A2999 RMK AO2 SLP157 T01220083,KSMX,2021-10-19T01:51:00Z,34.9,-120.45,12.2,8.3,290,10,,10.0,29.991142,1015.7,,,TRUE,,,,,,,CLR,,,,,,,,VFR,,,,,,,,,,,,METAR,73.0
KSMO 190151Z 22005KT 10SM CLR 16/11 A2994 RMK AO2 SLP138 T01560111,KSMO,2021-10-19T01:51:00Z,34.02,-118.45,15.6,11.1,220,5,,10.0,29.940945,1013.8,,,TRUE,,,,,,,CLR,,,,,,,,VFR,,,,,,,,,,,,METAR,56.0
KSLK 190151Z AUTO 00000KT 10SM FEW017 BKN037 OVC065 05/03 A2988 RMK AO2 SLP128 T00500028,KSLK,2021-10-19T01:51:00Z,44.4,-74.2,5.0,2.8,0,0,,10.0,29.878937,1012.8,,TRUE,TRUE,,,,,,,FEW,1700,BKN,3700,OVC,6500,,,VFR,,,,,,,,,,,,METAR,502.0
KSJT 190151Z 17008KT 10SM CLR 21/10 A2999 RMK AO2 SLP145 T02110100,KSJT,2021-10-19T01:51:00Z,31.37,-100.5,21.1,10.0,170,8,,10.0,29.991142,1014.5,,,TRUE,,,,,,,CLR,,,,,,,,VFR,,,,,,,,,,,,METAR,582.0
KSAT 190151Z 12006KT 10SM BKN230 19/13 A3005 RMK AO2 SLP161 T01890128,KSAT,2021-10-19T01:51:00Z,29.53,-98.48,18.9,12.8,120,6,,10.0,30.050198,1016.1,,,TRUE,,,,,,,BKN,23000,,,,,,,VFR,,,,,,,,,,,,METAR,246.0
KSAN 190151Z 31004KT 10SM BKN031 17/09 A2999 RMK AO2 SLP156 T01720089,KSAN,2021-10-19T01:51:00Z,32.73,-117.18,17.2,8.9,310,4,,10.0,29.991142,1015.6,,,TRUE,,,,,,,BKN,3100,,,,,,,VFR,,,,,,,,,,,,METAR,3.0
KSAD 190151Z AUTO 29008KT 10SM CLR 22/04 A2985 RMK AO2 SLP076 T02170044,KSAD,2021-10-19T01:51:00Z,32.85,-109.63,21.7,4.4,290,8,,10.0,29.84941,1007.6,,TRUE,TRUE,,,,,,,CLR,,,,,,,,VFR,,,,,,,,,,,,METAR,937.0
KROW 190151Z 18012KT 10SM CLR 22/06 A2988 RMK AO2 SLP072 T02220056,KROW,2021-10-19T01:51:00Z,33.3,-104.5,22.2,5.6,180,12,,10.0,29.878937,1007.2,,,TRUE,,,,,,,CLR,,,,,,,,VFR,,,,,,,,,,,,METAR,1105.0
KRDU 190151Z 00000KT 10SM CLR 11/07 A3012 RMK AO2 SLP199 T01060072,KRDU,2021-10-19T01:51:00Z,35.9,-78.78,10.6,7.2,0,0,,10.0,30.121063,1019.9,,,TRUE,,,,,,,CLR,,,,,,,,VFR,,,,,,,,,,,,METAR,121.0
KPWM 190151Z 28005KT 10SM CLR 08/04 A2976 RMK AO2 SLP079 T00780044,KPWM,2021-10-19T01:51:00Z,43.65,-70.3,7.8,4.4,280,5,,10.0,29.760826,1007.9,,,TRUE,,,,,,,CLR,,,,,,,,VFR,,,,,,,,,,,,METAR,15.0
KPVD 190151Z 28007KT 10SM CLR 09/04 A2986 RMK AO2 SLP110 T00890039,KPVD,2021-10-19T01:51:00Z,41.72,-71.43,8.9,3.9,280,7,,10.0,29.861221,1011.0,,,TRUE,,,,,,,CLR,,,,,,,,VFR,,,,,,,,,,,,METAR,15.0
KPIT 190151Z 00000KT 10SM CLR 08/04 A3012 RMK AO2 SLP210 T00780039,KPIT,2021-10-19T01:51:00Z,40.47,-80.2,7.8,3.9,0,0,,10.0,30.121063,1021.0,,,TRUE,,,,,,,CLR,,,,,,,,VFR,,,,,,,,,,,,METAR,339.0
KPHX 190151Z 26012G21KT 10SM FEW070 FEW250 25/06 A2977 RMK AO2 SLP068 T02500061,KPHX,2021-10-19T01:51:00Z,33.43,-112.02,25.0,6.1,260,12,21,10.0,29.769686,1006.8,,,TRUE,,,,,,,FEW,7000,FEW,25000,,,,,VFR,,,,,,,,,,,,METAR,338.0
KP59 190151Z AUTO 24006KT 13/09 A2993 RMK AO1 SLP138 T01330094,KP59,2021-10-19T01:51:00Z,47.47,-87.88,13.3,9.4,240,6,,,29.929134,1013.8,,TRUE,TRUE,,,,,,,,,,,,,,,,,,,,,,,,,,,METAR,185.0
KOXR 190151Z 26006KT 10SM CLR 16/10 A2992 RMK AO2 SLP130 T01610100,KOXR,2021-10-19T01:51:00Z,34.2,-119.2,16.1,10.0,260,6,,10.0,29.920275,1013.0,,,TRUE,,,,,,,CLR,,,,,,,,VFR,,,,,,,,,,,,METAR,12.0
KOXC 190151Z AUTO 31004KT 10SM CLR 06/02 A2993 RMK AO2 SLP149 T00610022,KOXC,2021-10-19T01:51:00Z,41.47,-73.13,6.1,2.2,310,4,,10.0,29.929134,1014.9,,TRUE,TRUE,,,,,,,CLR,,,,,,,,VFR,,,,,,,,,,,,METAR,211.0
KORF 190151Z 24006KT 10SM CLR 15/05 A3004 RMK AO2 SLP172 T01500050,KORF,2021-10-19T01:51:00Z,36.9,-76.2,15.0,5.0,240,6,,10.0,30.041338,1017.2,,,TRUE,,,,,,,CLR,,,,,,,,VFR,,,,,,,,,,,,METAR,5.0
KORD 190151Z 18004KT 10SM CLR 16/07 A3007 RMK AO2 SLP182 T01560067,KORD,2021-10-19T01:51:00Z,41.95,-87.93,15.6,6.7,180,4,,10.0,30.070866,1018.2,,,TRUE,,,,,,,CLR,,,,,,,,VFR,,,,,,,,,,,,METAR,202.0
KOCF 190151Z AUTO 06006KT 10SM CLR 21/15 A3014 RMK AO2 SLP205 T02060150,KOCF,2021-10-19T01:51:00Z,29.17,-82.22,20.6,15.0,60,6,,10.0,30.138779,1020.5,,TRUE,TRUE,,,,,,,CLR,,,,,,,,VFR,,,,,,,,,,,,METAR,24.0
KNYC 190151Z AUTO VRB04KT 10SM CLR 10/02 A3000 RMK AO2 SLP149 T01000022,KNYC,2021-10-19T01:51:00Z,40.78,-73.97,10.0,2.2,0,4,,10.0,30.0,1014.9,,TRUE,TRUE,,,,,,,CLR,,,,,,,,VFR,,,,,,,,,,,,METAR,33.0
KMYL 190151Z AUTO 34006KT 10SM SCT080 OVC090 11/00 A2984 RMK AO2 SLP096 T01060000,KMYL,2021-10-19T01:51:00Z,44.9,-116.1,10.6,0.0,340,6,,10.0,29.840551,1009.6,,TRUE,TRUE,,,,,,,SCT,8000,OVC,9000,,,,,VFR,,,,,,,,,,,,METAR,1532.0
KMPV 190151Z AUTO 29008KT 10SM -RA SCT025 BKN033 OVC041 07/04 A2987 RMK AO2 RAB12 SLP122 P0000 T00670039,KMPV,2021-10-19T01:51:00Z,44.2,-72.57,6.7,3.9,290,8,,10.0,29.870079,1012.2,,TRUE,TRUE,,,,,,-RA,SCT,2500,BKN,3300,OVC,4100,,,VFR,,,,,,0.005,,,,,,METAR,336.0
KLGU 190151Z AUTO 17014KT 10SM OVC055 07/02 A2981 RMK AO2 SLP091 T00720017,KLGU,2021-10-19T01:51:00Z,41.78,-111.85,7.2,1.7,170,14,,10.0,29.811024,1009.1,,TRUE,TRUE,,,,,,,OVC,5500,,,,,,,VFR,,,,,,,,,,,,METAR,1359.0
KLGA 190151Z 31012G19KT 10SM FEW080 12/03 A2996 RMK AO2 SLP146 T01170028,KLGA,2021-10-19T01:51:00Z,40.78,-73.88,11.7,2.8,310,12,19,10.0,29.958662,1014.6,,,TRUE,,,,,,,FEW,8000,,,,,,,VFR,,,,,,,,,,,,METAR,9.0
KJFK 190151Z 31012KT 10SM FEW050 SCT250 11/02 A2998 RMK AO2 SLP151 T01060017,KJFK,2021-10-19T01:51:00Z,40.63,-73.77,10.6,1.7,310,12,,10.0,29.97933,1015.1,,,TRUE,,,,,,,FEW,5000,SCT,25000,,,,,VFR,,,,,,,,,,,,METAR,3.0
KJCT 190151Z AUTO 14007KT 10SM CLR 21/11 A3003 RMK AO2 SLP142 T02110106 $,KJCT,2021-10-19T01:51:00Z,30.5,-99.77,21.1,10.6,140,7,,10.0,30.029528,1014.2,,TRUE,TRUE,TRUE,,,,,,CLR,,,,,,,,VFR,,,,,,,,,,,,METAR,522.0
KILG 190151Z 00000KT 10SM OVC080 11/06 A3004 RMK AO2 SLP173 T01060056 $,KILG,2021-10-19T01:51:00Z,39.67,-75.6,10.6,5.6,0,0,,10.0,30.041338,1017.3,,,TRUE,TRUE,,,,,,OVC,8000,,,,,,,VFR,,,,,,,,,,,,METAR,22.0
KIGM 190151Z AUTO 28006KT 10SM BKN070 14/M01 A2990 RMK AO2 SLP078 T01391011,KIGM,2021-10-19T01:51:00Z,35.25,-113.93,13.9,-1.1,280,6,,10.0,29.899607,1007.8,,TRUE,TRUE,,,,,,,BKN,7000,,,,,,,VFR,,,,,,,,,,,,METAR,1045.0
KHTS 190151Z 00000KT 10SM CLR 12/07 A3017 RMK AO2 SLP217 T01170067,KHTS,2021-10-19T01:51:00Z,38.37,-82.55,11.7,6.7,0,0,,10.0,30.171259,1021.7,,,TRUE,,,,,,,CLR,,,,,,,,VFR,,,,,,,,,,,,METAR,252.0
KHSE 190151Z AUTO 31007KT 10SM CLR 19/08 A3009 RMK AO2 SLP188 T01890078,KHSE,2021-10-19T01:51:00Z,35.23,-75.62,18.9,7.8,310,7,,10.0,30.088583,1018.8,,TRUE,TRUE,,,,,,,CLR,,,,,,,,VFR,,,,,,,,,,,,METAR,4.0
KHDO 190151Z AUTO 13008KT 10SM CLR 21/12 A3003 RMK AO2 SLP160 T02110122,KHDO,2021-10-19T01:51:00Z,29.37,-99.17,21.1,12.2,130,8,,10.0,30.029528,1016.0,,TRUE,TRUE,,,,,,,CLR,,,,,,,,VFR,,,,,,,,,,,,METAR,280.0
KGDP 190151Z AUTO 26013KT 10SM CLR 21/03 A3004 RMK AO2 SLP109 T02110028,KGDP,2021-10-19T01:51:00Z,31.83,-104.82,21.1,2.8,260,13,,10.0,30.041338,1010.9,,TRUE,TRUE,,,,,,,CLR,,,,,,,,VFR,,,,,,,,,,,,METAR,1664.0
KEWR 190151Z 29008KT 10SM SCT070 11/01 A2998 RMK AO2 SLP152 T01110011,KEWR,2021-10-19T01:51:00Z,40.68,-74.17,11.1,1.1,290,8,,10.0,29.97933,1015.2,,,TRUE,,,,,,,SCT,7000,,,,,,,VFR,,,,,,,,,,,,METAR,2.0
KERI 190151Z 32007KT 10SM CLR 14/05 A3010 RMK AO2 SLP191 T01390050,KERI,2021-10-19T01:51:00Z,42.08,-80.18,13.9,5.0,320,7,,10.0,30.100393,1019.1,,,TRUE,,,,,,,CLR,,,,,,,,VFR,,,,,,,,,,,,METAR,222.0
KELP 190151Z 25014KT 10SM FEW100 FEW250 26/M01 A2992 RMK AO2 SLP069 T02561006,KELP,2021-10-19T01:51:00Z,31.82,-106.35,25.6,-0.6,250,14,,10.0,29.920275,1006.9,,,TRUE,,,,,,,FEW,10000,FEW,25000,,,,,VFR,,,,,,,,,,,,METAR,1205.0
KEKN 190151Z AUTO 00000KT 10SM CLR 10/02 A3016 RMK AO2 SLP221 T01000017,KEKN,2021-10-19T01:51:00Z,38.88,-79.85,10.0,1.7,0,0,,10.0,30.159449,1022.1,,TRUE,TRUE,,,,,,,CLR,,,,,,,,VFR,,,,,,,,,,,,METAR,596.0
KDAW 190151Z AUTO VRB05KT 10SM CLR 08/03 A2979 RMK AO2 SLP085 T00780033,KDAW,2021-10-19T01:51:00Z,43.28,-70.92,7.8,3.3,0,5,,10.0,29.790354,1008.5,,TRUE,TRUE,,,,,,,CLR,,,,,,,,VFR,,,,,,,,,,,,METAR,100.0
KCSG 190151Z AUTO 00000KT 10SM CLR 14/11 A3018 RMK AO2 SLP217 T01440106,KCSG,2021-10-19T01:51:00Z,32.52,-84.95,14.4,10.6,0,0,,10.0,30.180119,1021.7,,TRUE,TRUE,,,,,,,CLR,,,,,,,,VFR,,,,,,,,,,,,METAR,120.0
KCRP 190151Z 10005KT 10SM FEW035 FEW042 21/17 A3004 RMK AO2 SLP171 T02060167,KCRP,2021-10-19T01:51:00Z,27.77,-97.5,20.6,16.7,100,5,,10.0,30.041338,1017.1,,,TRUE,,,,,,,FEW,3500,FEW,4200,,,,,VFR,,,,,,,,,,,,METAR,11.0
KCON 190151Z AUTO 29004KT 10SM CLR 07/03 A2982 RMK AO2 SLP100 T00720028,KCON,2021-10-19T01:51:00Z,43.2,-71.5,7.2,2.8,290,4,,10.0,29.819881,1010.0,,TRUE,TRUE,,,,,,,CLR,,,,,,,,VFR,,,,,,,,,,,,METAR,102.0
KCMH 190151Z 00000KT 10SM CLR 11/07 A3014 RMK AO2 SLP207 T01110067,KCMH,2021-10-19T01:51:00Z,40.0,-82.88,11.1,6.7,0,0,,10.0,30.138779,1020.7,,,TRUE,,,,,,,CLR,,,,,,,,VFR,,,,,,,,,,,,METAR,257.0
KCLE 190151Z 00000KT 10SM CLR 09/06 A3009 RMK AO2 SLP207 T00940056,KCLE,2021-10-19T01:51:00Z,41.42,-81.85,9.4,5.6,0,0,,10.0,30.088583,1020.7,,,TRUE,,,,,,,CLR,,,,,,,,VFR,,,,,,,,,,,,METAR,237.0
KCAK 190151Z 00000KT 10SM CLR 10/03 A3012 RMK AO2 SLP202 T01000028,KCAK,2021-10-19T01:51:00Z,40.92,-81.45,10.0,2.8,0,0,,10.0,30.121063,1020.2,,,TRUE,,,,,,,CLR,,,,,,,,VFR,,,,,,,,,,,,METAR,369.0
KBKW 190151Z AUTO 24003KT 10SM CLR 09/04 A3021 RMK AO2 SLP231 T00890039 TSNO,KBKW,2021-10-19T01:51:00Z,37.8,-81.12,8.9,3.9,240,3,,10.0,30.209646,1023.1,,TRUE,TRUE,,,TRUE,,,,CLR,,,,,,,,VFR,,,,,,,,,,,,METAR,762.0
KBHK 190151Z AUTO 00000KT 10SM CLR 11/03 A2979 RMK AO2 SLP097 T01060033,KBHK,2021-10-19T01:51:00Z,46.35,-104.25,10.6,3.3,0,0,,10.0,29.790354,1009.7,,TRUE,TRUE,,,,,,,CLR,,,,,,,,VFR,,,,,,,,,,,,METAR,904.0
KBGD 190151Z AUTO 16015G24KT 10SM CLR 19/05 A2989 RMK AO2 SLP096 T01940050,KBGD,2021-10-19T01:51:00Z,35.7,-101.4,19.4,5.0,160,15,24,10.0,29.890747,1009.6,,TRUE,TRUE,,,,,,,CLR,,,,,,,,VFR,,,,,,,,,,,,METAR,928.0
KBED 190151Z 30009KT 10SM CLR 08/03 A2982 RMK AO2 SLP110 T00830033,KBED,2021-10-19T01:51:00Z,42.47,-71.3,8.3,3.3,300,9,,10.0,29.819881,1011.0,,,TRUE,,,,,,,CLR,,,,,,,,VFR,,,,,,,,,,,,METAR,39.0
KBDL 190151Z 00000KT 10SM FEW180 SCT200 07/04 A2989 RMK AO2 SLP124 T00720039,KBDL,2021-10-19T01:51:00Z,41.93,-72.68,7.2,3.9,0,0,,10.0,29.890747,1012.4,,,TRUE,,,,,,,FEW,18000,SCT,20000,,,,,VFR,,,,,,,,,,,,METAR,52.0
KBAZ 190151Z AUTO 13007KT 10SM CLR 19/13 A3003 RMK AO2 SLP165 T01890128,KBAZ,2021-10-19T01:51:00Z,29.72,-98.05,18.9,12.8,130,7,,10.0,30.029528,1016.5,,TRUE,TRUE,,,,,,,CLR,,,,,,,,VFR,,,,,,,,,,,,METAR,199.0
KATT 190151Z AUTO VRB05KT 10SM CLR 21/10 A3005 RMK AO2 SLP171 T02060100,KATT,2021-10-19T01:51:00Z,30.32,-97.77,20.6,10.0,0,5,,10.0,30.050198,1017.1,,TRUE,TRUE,,,,,,,CLR,,,,,,,,VFR,,,,,,,,,,,,METAR,203.0
KALB 190151Z 25007KT 10SM FEW038 FEW080 06/03 A2993 RMK AO2 SLP137 T00610033,KALB,2021-10-19T01:51:00Z,42.75,-73.8,6.1,3.3,250,7,,10.0,29.929134,1013.7,,,TRUE,,,,,,,FEW,3800,FEW,8000,,,,,VFR,,,,,,,,,,,,METAR,82.0
KAHN 190151Z AUTO 00000KT 10SM CLR 12/08 A3017 RMK AO2 SLP216 T01170083,KAHN,2021-10-19T01:51:00Z,33.95,-83.33,11.7,8.3,0,0,,10.0,30.171259,1021.6,,TRUE,TRUE,,,,,,,CLR,,,,,,,,VFR,,,,,,,,,,,,METAR,241.0
KACT 190151Z 15009KT 10SM CLR 19/09 A3004 RMK AO2 SLP169 T01890089,KACT,2021-10-19T01:51:00Z,31.62,-97.23,18.9,8.9,150,9,,10.0,30.041338,1016.9,,,TRUE,,,,,,,CLR,,,,,,,,VFR,,,,,,,,,,,,METAR,150.0
KABE 190151Z 28006KT 10SM SCT070 09/02 A3001 RMK AO2 SLP161 T00890022 $,KABE,2021-10-19T01:51:00Z,40.65,-75.45,8.9,2.2,280,6,,10.0,30.008858,1016.1,,,TRUE,TRUE,,,,,,SCT,7000,,,,,,,VFR,,,,,,,,,,,,METAR,117.0
K6R6 190151Z AUTO 09010KT 22/10 A2998 RMK AO1 SLP128 T02170100,K6R6,2021-10-19T01:51:00Z,30.05,-102.22,21.7,10.0,90,10,,,29.97933,1012.8,,TRUE,TRUE,,,,,,,,,,,,,,,,,,,,,,,,,,,METAR,702.0
VNKT 190150Z 00000KT 6000 FEW008 SCT030 BKN100 20/20 Q1015 NOSIG,VNKT,2021-10-19T01:50:00Z,27.68,85.37,20.0,20.0,0,0,,3.73,29.970472,,,,,,TRUE,,,,,FEW,800,SCT,3000,BKN,10000,,,MVFR,,,,,,,,,,,,METAR,1334.0
PTPN 190150Z 36004KT 15SM SCT018 BKN130 OVC300 31/25 A2984 ,PTPN,2021-10-19T01:50:00Z,6.98,158.22,31.0,25.0,360,4,,15.0,29.840551,,,,,,,,,,,SCT,1800,BKN,13000,OVC,30000,,,VFR,,,,,,,,,,,,METAR,3.0
PTKK 190150Z 16007KT 15SM FEW012CB SCT120 OVC280 32/28 A2987 RMK CB NE MOV NW SLP116 T03190279,PTKK,2021-10-19T01:50:00Z,7.47,151.85,31.9,27.9,160,7,,15.0,29.870079,1011.6,,,,,,,,,,FEW,1200,SCT,12000,OVC,28000,,,VFR,,,,,,,,,,,,SPECI,3.0
PGRO 190150Z 09012KT 7SM SCT014 BKN100 30/24 A2990,PGRO,2021-10-19T01:50:00Z,14.18,145.25,30.0,24.0,90,12,,7.0,29.899607,,,,,,,,,,,SCT,1400,BKN,10000,,,,,VFR,,,,,,,,,,,,METAR,181.0
OOSA 190150Z 36003KT CAVOK 23/19 Q1011 NOSIG,OOSA,2021-10-19T01:50:00Z,17.03,54.1,23.0,19.0,360,3,,6.21,29.852362,,,,,,TRUE,,,,,CAVOK,,,,,,,,VFR,,,,,,,,,,,,METAR,20.0
OOMS 190150Z 19004KT CAVOK 25/15 Q1008 NOSIG,OOMS,2021-10-19T01:50:00Z,23.58,58.28,25.0,15.0,190,4,,6.21,29.763779,,,,,,TRUE,,,,,CAVOK,,,,,,,,VFR,,,,,,,,,,,,METAR,8.0
OODQ 190150Z AUTO 23012KT CAVOK ////// 22/22 Q1010 NOSIG,OODQ,2021-10-19T01:50:00Z,19.52,57.65,22.0,22.0,230,12,,6.21,29.822834,,,TRUE,,,TRUE,,,,,CAVOK,,,,,,,,VFR,,,,,,,,,,,,METAR,116.0
MUVR 190150Z 08005KT 8000 SCT030 24/24 Q1017,MUVR,2021-10-19T01:50:00Z,23.03,-81.43,24.0,24.0,80,5,,4.97,30.029528,,,,,,,,,,,SCT,3000,,,,,,,MVFR,,,,,,,,,,,,METAR,65.0
MUSC 190150Z 06003KT 9000 FEW020 24/23 Q1017,MUSC,2021-10-19T01:50:00Z,22.5,-79.92,24.0,23.0,60,3,,5.59,30.029528,,,,,,,,,,,FEW,2000,,,,,,,VFR,,,,,,,,,,,,METAR,97.0
MUHG 190150Z 03005KT 9000 FEW030 25/22 Q1015,MUHG,2021-10-19T01:50:00Z,20.78,-76.32,25.0,22.0,30,5,,5.59,29.970472,,,,,,,,,,,FEW,3000,,,,,,,VFR,,,,,,,,,,,,METAR,100.0
MUCU 190150Z 01006KT 340V040 9000 SCT020 27/23 Q1014,MUCU,2021-10-19T01:50:00Z,19.97,-75.83,27.0,23.0,10,6,,5.59,29.940945,,,,,,,,,,,SCT,2000,,,,,,,VFR,,,,,,,,,,,,METAR,70.0
MUCC 190150Z 02007KT 9000 FEW020 27/24 Q1015,MUCC,2021-10-19T01:50:00Z,22.47,-78.33,27.0,24.0,20,7,,5.59,29.970472,,,,,,,,,,,FEW,2000,,,,,,,VFR,,,,,,,,,,,,METAR,7.0
MSLP 190150Z 01003KT 330V040 9999 FEW020 FEW040CB 26/23 Q1011 A2987 NOSIG RMK CB W,MSLP,2021-10-19T01:50:00Z,13.43,-89.05,26.0,23.0,10,3,,6.21,29.852362,,,,,,TRUE,,,,,FEW,2000,FEW,4000,,,,,VFR,,,,,,,,,,,,SPECI,25.0
MMMX 190150Z 02012KT 12SM FEW020 SCT220 19/07 A3030 NOSIG RMK 8/502,MMMX,2021-10-19T01:50:00Z,19.43,-99.08,19.0,7.0,20,12,,12.0,30.301182,,,,,,TRUE,,,,,FEW,2000,SCT,22000,,,,,VFR,,,,,,,,,,,,METAR,2224.0
LXGB 190150Z AUTO 06016KT 9999 SCT015/// 20/18 Q1023,LXGB,2021-10-19T01:50:00Z,36.15,-5.33,20.0,18.0,60,16,,6.21,30.206694,,,TRUE,,,,,,,,SCT,1500,,,,,,,VFR,,,,,,,,,,,,METAR,5.0
LTFM 190150Z 04007KT 9999 SCT025 BKN090 14/10 Q1025 NOSIG RMK RWY17L 03006KT RWY34L 03007KT RWY16R 03007KT RWY36 04007KT RWY18 04007KT,LTFM,2021-10-19T01:50:00Z,41.27,28.75,14.0,10.0,40,7,,6.21,30.265747,,,,,,TRUE,,,,,SCT,2500,BKN,9000,,,,,VFR,,,,,,,,,,,,METAR,99.0
LTFJ 190150Z 06005KT 9999 FEW035 SCT080 11/11 Q1024 NOSIG RMK RWY24 06002KT,LTFJ,2021-10-19T01:50:00Z,40.9,29.3,11.0,11.0,60,5,,6.21,30.236221,,,,,,TRUE,,,,,FEW,3500,SCT,8000,,,,,VFR,,,,,,,,,,,,SPECI,83.0
LTFH 190150Z 31011KT 9999 SCT030 BKN100 16/12 Q1023 NOSIG,LTFH,2021-10-19T01:50:00Z,41.27,36.57,16.0,12.0,310,11,,6.21,30.206694,,,,,,TRUE,,,,,SCT,3000,BKN,10000,,,,,VFR,,,,,,,,,,,,METAR,7.0
LTFG 190150Z 10006KT CAVOK 16/12 Q1017,LTFG,2021-10-19T01:50:00Z,36.3,32.3,16.0,12.0,100,6,,6.21,30.029528,,,,,,,,,,,CAVOK,,,,,,,,VFR,,,,,,,,,,,,METAR,26.0
LTFE 190150Z 05002KT CAVOK 13/12 Q1019 NOSIG RMK RWY10 03003KT 310V050,LTFE,2021-10-19T01:50:00Z,37.25,27.67,13.0,12.0,50,2,,6.21,30.088583,,,,,,TRUE,,,,,CAVOK,,,,,,,,VFR,,,,,,,,,,,,METAR,6.0
LTFD 190150Z 07010KT 9999 FEW035 15/11 Q1023,LTFD,2021-10-19T01:50:00Z,39.55,27.02,15.0,11.0,70,10,,6.21,30.206694,,,,,,,,,,,FEW,3500,,,,,,,VFR,,,,,,,,,,,,METAR,15.0
LTFC 190150Z 33001KT CAVOK 08/06 Q1021 RMK RWY23 02004KT 340V050,LTFC,2021-10-19T01:50:00Z,37.87,30.38,8.0,6.0,330,1,,6.21,30.147638,,,,,,,,,,,CAVOK,,,,,,,,VFR,,,,,,,,,,,,SPECI,862.0
LTDA 190150Z /////KT 9999 SCT040 16/13 Q1016 NOSIG,LTDA,2021-10-19T01:50:00Z,36.37,36.28,16.0,13.0,,,,6.21,30.0,,,,,,TRUE,,,,,SCT,4000,,,,,,,VFR,,,,,,,,,,,,METAR,80.0
LTCS 190150Z 13003KT CAVOK 14/08 Q1018 RMK RWY22 16002KT 3AC120,LTCS,2021-10-19T01:50:00Z,37.45,38.9,14.0,8.0,130,3,,6.21,30.059055,,,,,,,,,,,CAVOK,,,,,,,,VFR,,,,,,,,,,,,METAR,825.0
LTCR 190150Z 30004KT 210V010 CAVOK 13/07 Q1015,LTCR,2021-10-19T01:50:00Z,37.22,40.63,13.0,7.0,300,4,,6.21,29.970472,,,,,,,,,,,CAVOK,,,,,,,,VFR,,,,,,,,,,,,METAR,529.0
LTCN 190150Z 08004KT 9999 FEW090 14/09 Q1016 NOSIG,LTCN,2021-10-19T01:50:00Z,37.53,36.95,14.0,9.0,80,4,,6.21,30.0,,,,,,TRUE,,,,,FEW,9000,,,,,,,VFR,,,,,,,,,,,,METAR,505.0
LTCJ 190150Z VRB01KT 9999 FEW040 SCT100 12/07 Q1016 RMK RWY20 VRB02KT 2CU040 4AC100,LTCJ,2021-10-19T01:50:00Z,37.93,41.12,12.0,7.0,0,1,,6.21,30.0,,,,,,,,,,,FEW,4000,SCT,10000,,,,,VFR,,,,,,,,,,,,METAR,559.0
LTCI 190150Z 10006KT 9999 -TSRA FEW020CB SCT035 BKN070 07/06 Q1024 BECMG TL0250 NSW,LTCI,2021-10-19T01:50:00Z,38.47,43.33,7.0,6.0,100,6,,6.21,30.236221,,,,,,,,,,-TSRA,FEW,2000,SCT,3500,BKN,7000,,,VFR,,,,,,,,,,,,SPECI,1654.0
LTCG 190150Z 25006KT 9999 SCT012 FEW020CB BKN028 16/11 Q1021 NOSIG RMK RWY29 25008KT,LTCG,2021-10-19T01:50:00Z,41.0,39.77,16.0,11.0,250,6,,6.21,30.147638,,,,,,TRUE,,,,,SCT,1200,FEW,2000,BKN,2800,,,MVFR,,,,,,,,,,,,METAR,28.0
LTCF 190150Z 09003KT 9999 BKN035 04/02 Q1020,LTCF,2021-10-19T01:50:00Z,40.57,43.12,4.0,2.0,90,3,,6.21,30.11811,,,,,,,,,,,BKN,3500,,,,,,,VFR,,,,,,,,,,,,METAR,1794.0
LTCE 190150Z 28006KT 9999 BKN040 06/04 Q1021 NOSIG RMK RWY08R 27004KT 240V300 RWY26R 27005KT RWY08L 27004KT,LTCE,2021-10-19T01:50:00Z,39.95,41.17,6.0,4.0,280,6,,6.21,30.147638,,,,,,TRUE,,,,,BKN,4000,,,,,,,VFR,,,,,,,,,,,,METAR,1758.0
LTCD 190150Z VRB02KT 9999 SCT045 BKN100 09/07 Q1021 NOSIG,LTCD,2021-10-19T01:50:00Z,39.72,39.52,9.0,7.0,0,2,,6.21,30.147638,,,,,,TRUE,,,,,SCT,4500,BKN,10000,,,,,VFR,,,,,,,,,,,,METAR,1146.0
LTCC 190150Z VRB02KT 9999 FEW040 SCT100 13/03 Q1016 NOSIG RMK RWY16 00000KT,LTCC,2021-10-19T01:50:00Z,37.88,40.2,13.0,3.0,0,2,,6.21,30.0,,,,,,TRUE,,,,,FEW,4000,SCT,10000,,,,,VFR,,,,,,,,,,,,METAR,676.0
LTCB 190150Z 22001KT 9999 -SHRA SCT012 BKN028 14/13 Q1022,LTCB,2021-10-19T01:50:00Z,40.97,38.07,14.0,13.0,220,1,,6.21,30.177166,,,,,,,,,,-SHRA,SCT,1200,BKN,2800,,,,,MVFR,,,,,,,,,,,,METAR,5.0
LTCA 190150Z 24004KT CAVOK 12/02 Q1018 NOSIG,LTCA,2021-10-19T01:50:00Z,38.6,39.28,12.0,2.0,240,4,,6.21,30.059055,,,,,,TRUE,,,,,CAVOK,,,,,,,,VFR,,,,,,,,,,,,METAR,887.0
LTBY 190150Z 25004KT CAVOK 07/06 Q1023,LTBY,2021-10-19T01:50:00Z,39.82,30.52,7.0,6.0,250,4,,6.21,30.206694,,,,,,,,,,,CAVOK,,,,,,,,VFR,,,,,,,,,,,,METAR,788.0
LTBU 190150Z 36007KT 9999 BKN040 12/10 Q1025 RMK RWY22 36008KT,LTBU,2021-10-19T01:50:00Z,41.13,27.92,12.0,10.0,360,7,,6.21,30.265747,,,,,,,,,,,BKN,4000,,,,,,,VFR,,,,,,,,,,,,SPECI,165.0
LTBS 190150Z 06003KT 020V100 CAVOK 16/11 Q1017 NOSIG RMK RWY19 35004KT 310V030 SKC,LTBS,2021-10-19T01:50:00Z,36.7,28.78,16.0,11.0,60,3,,6.21,30.029528,,,,,,TRUE,,,,,CAVOK,,,,,,,,VFR,,,,,,,,,,,,METAR,2.0
LTBR 190150Z 34002KT 4500 BR SCT030 09/09 Q1024 NOSIG RMK RWY07 VRB02KT,LTBR,2021-10-19T01:50:00Z,40.25,29.57,9.0,9.0,340,2,,2.8,30.236221,,,,,,TRUE,,,,BR,SCT,3000,,,,,,,IFR,,,,,,,,,,,,SPECI,233.0
LTBQ 190150Z 00000KT 9999 BKN030 11/11 Q1025 NOSIG,LTBQ,2021-10-19T01:50:00Z,40.73,30.07,11.0,11.0,0,0,,6.21,30.265747,,,,,,TRUE,,,,,BKN,3000,,,,,,,MVFR,,,,,,,,,,,,METAR,51.0
LTBJ 190150Z 01011KT CAVOK 14/11 Q1020 NOSIG RMK RWY16 36010KT,LTBJ,2021-10-19T01:50:00Z,38.28,27.15,14.0,11.0,10,11,,6.21,30.11811,,,,,,TRUE,,,,,CAVOK,,,,,,,,VFR,,,,,,,,,,,,METAR,123.0
LTBH 190150Z 02006KT CAVOK 12/11 Q1024,LTBH,2021-10-19T01:50:00Z,40.13,26.42,12.0,11.0,20,6,,6.21,30.236221,,,,,,,,,,,CAVOK,,,,,,,,VFR,,,,,,,,,,,,METAR,8.0
LTBF 190150Z 01008KT 9999 FEW020 SCT035 14/11 Q1023 NOSIG,LTBF,2021-10-19T01:50:00Z,39.62,27.92,14.0,11.0,10,8,,6.21,30.206694,,,,,,TRUE,,,,,FEW,2000,SCT,3500,,,,,VFR,,,,,,,,,,,,METAR,95.0
LTBA 190150Z 03006KT 9999 FEW028 BKN070 14/10 Q1025 NOSIG RMK RWY23 03005KT,LTBA,2021-10-19T01:50:00Z,40.97,28.82,14.0,10.0,30,6,,6.21,30.265747,,,,,,TRUE,,,,,FEW,2800,BKN,7000,,,,,VFR,,,,,,,,,,,,METAR,33.0
LTAZ 190150Z 16004KT 9999 SCT040 BKN100 06/04 Q1022 RMK RWY29 VRB01KT,LTAZ,2021-10-19T01:50:00Z,38.77,34.52,6.0,4.0,160,4,,6.21,30.177166,,,,,,,,,,,SCT,4000,BKN,10000,,,,,VFR,,,,,,,,,,,,SPECI,944.0
LTAY 190150Z 00000KT 8000 3000NE BR FEW010 08/07 Q1022,LTAY,2021-10-19T01:50:00Z,37.78,29.7,8.0,7.0,0,0,,4.97,30.177166,,,,,,,,,,BR,FEW,1000,,,,,,,MVFR,,,,,,,,,,,,METAR,851.0
LTAU 190150Z 07001KT 9999 SCT040 03/03 Q1021 NOSIG RMK RWY07 00000KT,LTAU,2021-10-19T01:50:00Z,38.77,35.48,3.0,3.0,70,1,,6.21,30.147638,,,,,,TRUE,,,,,SCT,4000,,,,,,,VFR,,,,,,,,,,,,METAR,1053.0
LTAT 190150Z VRB02KT CAVOK 11/04 Q1019 NOSIG RMK RWY03 00000KT,LTAT,2021-10-19T01:50:00Z,38.43,38.08,11.0,4.0,0,2,,6.21,30.088583,,,,,,TRUE,,,,,CAVOK,,,,,,,,VFR,,,,,,,,,,,,METAR,850.0
LTAR 190150Z 35005KT 6000 SCT010 BKN025 05/05 Q1022,LTAR,2021-10-19T01:50:00Z,39.8,36.9,5.0,5.0,350,5,,3.73,30.177166,,,,,,,,,,,SCT,1000,BKN,2500,,,,,MVFR,,,,,,,,,,,,METAR,1601.0
LTAP 190150Z 36004KT 9999 SCT040 BKN080 11/08 Q1022 NOSIG RMK RWY23 03008KT,LTAP,2021-10-19T01:50:00Z,40.83,35.52,11.0,8.0,360,4,,6.21,30.177166,,,,,,TRUE,,,,,SCT,4000,BKN,8000,,,,,VFR,,,,,,,,,,,,METAR,536.0
LTAN 190150Z 33009KT 9999 SCT040 BKN090 10/06 Q1021 NOSIG,LTAN,2021-10-19T01:50:00Z,37.97,32.55,10.0,6.0,330,9,,6.21,30.147638,,,,,,TRUE,,,,,SCT,4000,BKN,9000,,,,,VFR,,,,,,,,,,,,METAR,1029.0
LTAJ 190150Z 00000KT CAVOK 14/09 Q1016 NOSIG RMK RWY10 00000KT 4AC120,LTAJ,2021-10-19T01:50:00Z,36.95,37.48,14.0,9.0,0,0,,6.21,30.0,,,,,,TRUE,,,,,CAVOK,,,,,,,,VFR,,,,,,,,,,,,METAR,684.0
LTAI 190150Z 33007KT CAVOK 18/08 Q1016 NOSIG RMK RWY18C 34007KT RWY36R 36006KT RWY18L 34005KT,LTAI,2021-10-19T01:50:00Z,36.9,30.8,18.0,8.0,330,7,,6.21,30.0,,,,,,TRUE,,,,,CAVOK,,,,,,,,VFR,,,,,,,,,,,,METAR,50.0
LTAG 190150Z 02005KT 9999 FEW030 15/15 Q1015 NOSIG RMK 1CU030,LTAG,2021-10-19T01:50:00Z,37.0,35.42,15.0,15.0,20,5,,6.21,29.970472,,,,,,TRUE,,,,,FEW,3000,,,,,,,VFR,,,,,,,,,,,,SPECI,62.0
LTAF 190150Z 00000KT CAVOK 17/15 Q1015 NOSIG RMK RWY23 /////KT,LTAF,2021-10-19T01:50:00Z,36.98,35.28,17.0,15.0,0,0,,6.21,29.970472,,,,,,TRUE,,,,,CAVOK,,,,,,,,VFR,,,,,,,,,,,,METAR,19.0
LTAE 190150Z 01005KT 9999 SCT040 SCT100 09/06 Q1022 NOSIG RMK RWY21 01003KT,LTAE,2021-10-19T01:50:00Z,40.07,32.57,9.0,6.0,10,5,,6.21,30.177166,,,,,,TRUE,,,,,SCT,4000,SCT,10000,,,,,VFR,,,,,,,,,,,,METAR,836.0
LTAC 190150Z VRB02KT 9999 SCT040 SCT100 08/05 Q1022 NOSIG RMK RWY21L 36004KT RWY03L 36004KT RWY21R 02002KT,LTAC,2021-10-19T01:50:00Z,40.12,32.98,8.0,5.0,0,2,,6.21,30.177166,,,,,,TRUE,,,,,SCT,4000,SCT,10000,,,,,VFR,,,,,,,,,,,,SPECI,952.0
LSZS 190150Z AUTO 19001KT 9999 NSC M04/M05 Q1030,LSZS,2021-10-19T01:50:00Z,46.53,9.88,-4.0,-5.0,190,1,,6.21,30.413385,,,TRUE,,,,,,,,CLR,,,,,,,,VFR,,,,,,,,,,,,METAR,1708.0
LSZR 190150Z AUTO VRB03KT 9999 OVC002 09/08 Q1026,LSZR,2021-10-19T01:50:00Z,47.48,9.57,9.0,8.0,0,3,,6.21,30.295275,,,TRUE,,,,,,,,OVC,200,,,,,,,LIFR,,,,,,,,,,,,METAR,396.0
LSZL 190150Z AUTO 00000KT 5000NDV BR SCT230 07/07 Q1028 RMK,LSZL,2021-10-19T01:50:00Z,46.17,8.88,7.0,7.0,0,0,,,30.35433,,,TRUE,,,,,,,BR,SCT,23000,,,,,,,,,,,,,,,,,,,METAR,198.0
LSZH 190150Z AUTO VRB02KT 9000 2000N VCFG FEW002 05/05 Q1027 TEMPO 4000 BR,LSZH,2021-10-19T01:50:00Z,47.48,8.53,5.0,5.0,0,2,,5.59,30.324802,,,TRUE,,,,,,,VCFG,FEW,200,,,,,,,VFR,,,,,,,,,,,,METAR,424.0
LSZG 190150Z AUTO 22002KT 4700 BR SCT003 04/04 Q1027,LSZG,2021-10-19T01:50:00Z,47.17,7.42,4.0,4.0,220,2,,2.92,30.324802,,,TRUE,,,,,,,BR,SCT,300,,,,,,,IFR,,,,,,,,,,,,METAR,428.0
LSZC 190150Z AUTO 23003KT 190V280 9999 NSC 07/04 Q1027,LSZC,2021-10-19T01:50:00Z,46.97,8.38,7.0,4.0,230,3,,6.21,30.324802,,,TRUE,,,,,,,,CLR,,,,,,,,VFR,,,,,,,,,,,,METAR,445.0
LSZB 190150Z AUTO VRB02KT 9999 NSC 03/03 Q1027,LSZB,2021-10-19T01:50:00Z,46.92,7.5,3.0,3.0,0,2,,6.21,30.324802,,,TRUE,,,,,,,,CLR,,,,,,,,VFR,,,,,,,,,,,,METAR,510.0
LSZA 190150Z AUTO VRB01KT 9000 NSC 08/08 Q1027,LSZA,2021-10-19T01:50:00Z,46.0,8.92,8.0,8.0,0,1,,5.59,30.324802,,,TRUE,,,,,,,,CLR,,,,,,,,VFR,,,,,,,,,,,,METAR,276.0
LSMP 190150Z AUTO VRB01KT 5000NDV BKN210 05/05 Q1027 RMK,LSMP,2021-10-19T01:50:00Z,46.83,6.92,5.0,5.0,0,1,,,30.324802,,,TRUE,,,,,,,,BKN,21000,,,,,,,,,,,,,,,,,,,METAR,490.0
LSMM 190150Z AUTO 10003KT 060V130 9999NDV FEW240 02/02 Q1028 RMK,LSMM,2021-10-19T01:50:00Z,46.75,8.12,2.0,2.0,100,3,,,30.35433,,,TRUE,,,,,,,,FEW,24000,,,,,,,,,,,,,,,,,,,METAR,570.0
LSME 190150Z AUTO 00000KT 9999NDV NCD 06/05 Q1027 RMK,LSME,2021-10-19T01:50:00Z,47.1,8.3,6.0,5.0,0,0,,,30.324802,,,TRUE,,,,,,,,CLR,,,,,,,,,,,,,,,,,,,,METAR,427.0
LSMD 190150Z AUTO 00000KT 8000NDV SCT200 06/05 Q1027 RMK,LSMD,2021-10-19T01:50:00Z,47.4,8.65,6.0,5.0,0,0,,,30.324802,,,TRUE,,,,,,,,SCT,20000,,,,,,,,,,,,,,,,,,,METAR,436.0
LSMA 190150Z AUTO VRB02KT 9999NDV NCD 06/05 Q1027 RMK,LSMA,2021-10-19T01:50:00Z,46.95,8.28,6.0,5.0,0,2,,,30.324802,,,TRUE,,,,,,,,CLR,,,,,,,,,,,,,,,,,,,,METAR,441.0
LSGS 190150Z AUTO 08004KT CAVOK 07/04 Q1029,LSGS,2021-10-19T01:50:00Z,46.22,7.32,7.0,4.0,80,4,,6.21,30.383858,,,TRUE,,,,,,,,CAVOK,,,,,,,,VFR,,,,,,,,,,,,METAR,482.0
LSGG 190150Z AUTO VRB02KT 9999 NSC 07/06 Q1027 NOSIG,LSGG,2021-10-19T01:50:00Z,46.25,6.12,7.0,6.0,0,2,,6.21,30.324802,,,TRUE,,,TRUE,,,,,CLR,,,,,,,,VFR,,,,,,,,,,,,METAR,411.0
LSGC 190150Z AUTO VRB01KT 9999 NSC 05/02 Q1027,LSGC,2021-10-19T01:50:00Z,47.08,6.8,5.0,2.0,0,1,,6.21,30.324802,,,TRUE,,,,,,,,CLR,,,,,,,,VFR,,,,,,,,,,,,METAR,1018.0
LOWW 190150Z VRB02KT CAVOK 04/03 Q1027 NOSIG,LOWW,2021-10-19T01:50:00Z,48.12,16.57,4.0,3.0,0,2,,6.21,30.324802,,,,,,TRUE,,,,,CAVOK,,,,,,,,VFR,,,,,,,,,,,,METAR,179.0
LOWS 190150Z AUTO 16010KT 9999 NSC 08/05 Q1026,LOWS,2021-10-19T01:50:00Z,47.78,13.02,8.0,5.0,160,10,,6.21,30.295275,,,TRUE,,,,,,,,CLR,,,,,,,,VFR,,,,,,,,,,,,METAR,427.0
LOWL 190150Z AUTO 30003KT 0500 R26/P1500D BCFG BKN001 03/03 Q1027,LOWL,2021-10-19T01:50:00Z,48.22,14.18,3.0,3.0,300,3,,0.31,30.324802,,,TRUE,,,,,,,BCFG,BKN,100,,,,,,,LIFR,,,,,,,,,,,,METAR,290.0
LOWK 190150Z AUTO 30003KT 9999 FEW006 BKN017 05/04 Q1029,LOWK,2021-10-19T01:50:00Z,46.65,14.32,5.0,4.0,300,3,,6.21,30.383858,,,TRUE,,,,,,,,FEW,600,BKN,1700,,,,,MVFR,,,,,,,,,,,,METAR,450.0
LOWI 190150Z AUTO 26004KT 9999 NSC 04/03 Q1029,LOWI,2021-10-19T01:50:00Z,47.27,11.33,4.0,3.0,260,4,,6.21,30.383858,,,TRUE,,,,,,,,CLR,,,,,,,,VFR,,,,,,,,,,,,METAR,570.0
LOWG 190150Z AUTO VRB01KT 0500 R16/0400U R34/0600U FG FEW000 BKN001 02/02 Q1028,LOWG,2021-10-19T01:50:00Z,47.0,15.43,2.0,2.0,0,1,,0.31,30.35433,,,TRUE,,,,,,,FG,FEW,0,BKN,100,,,,,LIFR,,,,,,,,,,,,METAR,337.0
LLBG 190150Z 13006KT 9999 SCT040 20/14 Q1017 TEMPO -RA BKN030 RMK BKN080,LLBG,2021-10-19T01:50:00Z,32.0,34.88,20.0,14.0,130,6,,6.21,30.029528,,,,,,,,,,,SCT,4000,,,,,,,VFR,,,,,,,,,,,,METAR,35.0
LIRZ 190150Z AUTO 08003KT 020V110 9999 NCD 05/05 Q1027,LIRZ,2021-10-19T01:50:00Z,43.1,12.5,5.0,5.0,80,3,,6.21,30.324802,,,TRUE,,,,,,,,CLR,,,,,,,,VFR,,,,,,,,,,,,METAR,206.0
LIRQ 190150Z VRB02KT CAVOK 06/05 Q1027,LIRQ,2021-10-19T01:50:00Z,43.8,11.2,6.0,5.0,0,2,,6.21,30.324802,,,,,,,,,,,CAVOK,,,,,,,,VFR,,,,,,,,,,,,METAR,33.0
LIRN 190150Z VRB02KT CAVOK 12/08 Q1025 NOSIG,LIRN,2021-10-19T01:50:00Z,40.88,14.3,12.0,8.0,0,2,,6.21,30.265747,,,,,,TRUE,,,,,CAVOK,,,,,,,,VFR,,,,,,,,,,,,METAR,76.0
LIRF 190150Z 09004KT CAVOK 10/06 Q1026 NOSIG,LIRF,2021-10-19T01:50:00Z,41.78,12.23,10.0,6.0,90,4,,6.21,30.295275,,,,,,TRUE,,,,,CAVOK,,,,,,,,VFR,,,,,,,,,,,,METAR,2.0
LIRA 190150Z 05003KT 010V070 CAVOK 10/06 Q1026,LIRA,2021-10-19T01:50:00Z,41.8,12.58,10.0,6.0,50,3,,6.21,30.295275,,,,,,,,,,,CAVOK,,,,,,,,VFR,,,,,,,,,,,,METAR,101.0
LIPZ 190150Z 34004KT 9000 NSC 08/07 Q1027 NOSIG,LIPZ,2021-10-19T01:50:00Z,45.5,12.35,8.0,7.0,340,4,,5.59,30.324802,,,,,,TRUE,,,,,CLR,,,,,,,,VFR,,,,,,,,,,,,METAR,3.0
LIPY 190150Z AUTO 20003KT 9999 ///////// 08/06 Q1027,LIPY,2021-10-19T01:50:00Z,43.62,13.37,8.0,6.0,200,3,,6.21,30.324802,,,TRUE,,,,,,,,,,,,,,,,,,,,,,,,,,,,METAR,11.0
LIPX 190150Z 16002KT 8000 NSC 06/05 Q1027,LIPX,2021-10-19T01:50:00Z,45.38,10.87,6.0,5.0,160,2,,4.97,30.324802,,,,,,,,,,,CLR,,,,,,,,MVFR,,,,,,,,,,,,METAR,67.0
LIPR 190150Z AUTO 20003KT 9999 NCD 07/06 Q1027,LIPR,2021-10-19T01:50:00Z,44.02,12.62,7.0,6.0,200,3,,6.21,30.324802,,,TRUE,,,,,,,,CLR,,,,,,,,VFR,,,,,,,,,,,,METAR,10.0
LIPQ 190150Z AUTO 03003KT 350V060 9999 NCD 06/06 Q1027,LIPQ,2021-10-19T01:50:00Z,45.82,13.47,6.0,6.0,30,3,,6.21,30.324802,,,TRUE,,,,,,,,CLR,,,,,,,,VFR,,,,,,,,,,,,METAR,6.0
LIPO 190150Z AUTO 36005KT 7000 NCD 10/08 Q1027,LIPO,2021-10-19T01:50:00Z,45.42,10.33,10.0,8.0,360,5,,4.35,30.324802,,,TRUE,,,,,,,,CLR,,,,,,,,MVFR,,,,,,,,,,,,METAR,104.0
LIPE 190150Z 21006KT CAVOK 10/06 Q1027,LIPE,2021-10-19T01:50:00Z,44.52,11.3,10.0,6.0,210,6,,6.21,30.324802,,,,,,,,,,,CAVOK,,,,,,,,VFR,,,,,,,,,,,,METAR,37.0
LIMZ 190150Z AUTO 23003KT 9999 NCD 05/04 Q1028,LIMZ,2021-10-19T01:50:00Z,44.53,7.62,5.0,4.0,230,3,,6.21,30.35433,,,TRUE,,,,,,,,CLR,,,,,,,,VFR,,,,,,,,,,,,METAR,377.0
LIML 190150Z 35003KT 7000 NSC 09/08 Q1027 NOSIG,LIML,2021-10-19T01:50:00Z,45.47,9.27,9.0,8.0,350,3,,4.35,30.324802,,,,,,TRUE,,,,,CLR,,,,,,,,MVFR,,,,,,,,,,,,METAR,109.0
LIMJ 190150Z VRB01KT CAVOK 15/11 Q1027,LIMJ,2021-10-19T01:50:00Z,44.42,8.83,15.0,11.0,0,1,,6.21,30.324802,,,,,,,,,,,CAVOK,,,,,,,,VFR,,,,,,,,,,,,METAR,3.0
LIMF 190150Z 29003KT 250V350 CAVOK 09/07 Q1028,LIMF,2021-10-19T01:50:00Z,45.22,7.65,9.0,7.0,290,3,,6.21,30.35433,,,,,,,,,,,CAVOK,,,,,,,,VFR,,,,,,,,,,,,METAR,295.0
LIME 190150Z AUTO 01006KT 5000 BR NCD 10/08 Q1027,LIME,2021-10-19T01:50:00Z,45.67,9.7,10.0,8.0,10,6,,3.11,30.324802,,,TRUE,,,,,,,BR,CLR,,,,,,,,MVFR,,,,,,,,,,,,METAR,239.0
LIMC 190150Z VRB02KT CAVOK 09/09 Q1028 NOSIG,LIMC,2021-10-19T01:50:00Z,45.62,8.72,9.0,9.0,0,2,,6.21,30.35433,,,,,,TRUE,,,,,CAVOK,,,,,,,,VFR,,,,,,,,,,,,METAR,221.0
LIEO 190150Z AUTO 21003KT 9999 NCD 09/08 Q1027,LIEO,2021-10-19T01:50:00Z,40.88,9.52,9.0,8.0,210,3,,6.21,30.324802,,,TRUE,,,,,,,,CLR,,,,,,,,VFR,,,,,,,,,,,,METAR,8.0
LIEE 190150Z 35005KT CAVOK 11/10 Q1026,LIEE,2021-10-19T01:50:00Z,39.25,9.07,11.0,10.0,350,5,,6.21,30.295275,,,,,,,,,,,CAVOK,,,,,,,,VFR,,,,,,,,,,,,METAR,1.0
LIEA 190150Z VRB01KT CAVOK 09/08 Q1027,LIEA,2021-10-19T01:50:00Z,40.62,8.28,9.0,8.0,0,1,,6.21,30.324802,,,,,,,,,,,CAVOK,,,,,,,,VFR,,,,,,,,,,,,METAR,22.0
LICR 190150Z AUTO VRB01KT 9999 OVC095/// 16/10 Q1025,LICR,2021-10-19T01:50:00Z,38.07,15.65,16.0,10.0,0,1,,6.21,30.265747,,,TRUE,,,,,,,,OVC,9500,,,,,,,VFR,,,,,,,,,,,,METAR,16.0
LICD 190150Z AUTO 02009KT 9999 NCD 20/14 Q1024,LICD,2021-10-19T01:50:00Z,35.5,12.62,20.0,14.0,20,9,,6.21,30.236221,,,TRUE,,,,,,,,CLR,,,,,,,,VFR,,,,,,,,,,,,METAR,20.0
LICC 190150Z 27002KT 6000 -RA FEW040 BKN060 16/15 Q1025,LICC,2021-10-19T01:50:00Z,37.47,15.05,16.0,15.0,270,2,,3.73,30.265747,,,,,,,,,,-RA,FEW,4000,BKN,6000,,,,,MVFR,,,,,,,,,,,,METAR,6.0
LICB 190150Z AUTO 05005KT 9999 NCD 14/13 Q1025,LICB,2021-10-19T01:50:00Z,37.0,14.62,14.0,13.0,50,5,,6.21,30.265747,,,TRUE,,,,,,,,CLR,,,,,,,,VFR,,,,,,,,,,,,METAR,212.0
LICA 190150Z 10008KT CAVOK 12/11 Q1025,LICA,2021-10-19T01:50:00Z,38.9,16.25,12.0,11.0,100,8,,6.21,30.265747,,,,,,,,,,,CAVOK,,,,,,,,VFR,,,,,,,,,,,,METAR,7.0
LIBR 190150Z 34011KT 9999 FEW010 17/15 Q1025,LIBR,2021-10-19T01:50:00Z,40.65,17.95,17.0,15.0,340,11,,6.21,30.265747,,,,,,,,,,,FEW,1000,,,,,,,VFR,,,,,,,,,,,,METAR,5.0
LIBP 190150Z AUTO 24004KT 9999 NCD 09/08 Q1027,LIBP,2021-10-19T01:50:00Z,42.42,14.18,9.0,8.0,240,4,,6.21,30.324802,,,TRUE,,,,,,,,CLR,,,,,,,,VFR,,,,,,,,,,,,METAR,10.0
LIBD 190150Z AUTO 25006KT 9999 NCD 12/11 Q1026,LIBD,2021-10-19T01:50:00Z,41.13,16.77,12.0,11.0,250,6,,6.21,30.295275,,,TRUE,,,,,,,,CLR,,,,,,,,VFR,,,,,,,,,,,,METAR,42.0
LGTS 190150Z 34004KT 9999 FEW010 SCT025 16/13 Q1025 NOSIG,LGTS,2021-10-19T01:50:00Z,40.52,22.97,16.0,13.0,340,4,,6.21,30.265747,,,,,,TRUE,,,,,FEW,1000,SCT,2500,,,,,VFR,,,,,,,,,,,,METAR,4.0
LGSO 190150Z AUTO 35018KT //// // ////// 18/12 Q1022 RE//,LGSO,2021-10-19T01:50:00Z,37.42,24.95,18.0,12.0,350,18,,,30.177166,,,TRUE,,,,,,,,,,,,,,,,,,,,,,,,,,,,SPECI,71.0
LGSA 190150Z 28004KT 9999 FEW018 14/13 Q1021,LGSA,2021-10-19T01:50:00Z,35.53,24.13,14.0,13.0,280,4,,6.21,30.147638,,,,,,,,,,,FEW,1800,,,,,,,VFR,,,,,,,,,,,,METAR,122.0
LGRX 190150Z 00000KT 9999 FEW020 13/12 Q1023,LGRX,2021-10-19T01:50:00Z,38.17,21.42,13.0,12.0,0,0,,6.21,30.206694,,,,,,,,,,,FEW,2000,,,,,,,VFR,,,,,,,,,,,,METAR,16.0
LGRP 190150Z 29006KT 9999 FEW015 20/15 Q1017 NOSIG,LGRP,2021-10-19T01:50:00Z,36.4,28.08,20.0,15.0,290,6,,6.21,30.029528,,,,,,TRUE,,,,,FEW,1500,,,,,,,VFR,,,,,,,,,,,,METAR,3.0
LGPZ 190150Z AUTO 05007KT //// // ////// 16/13 Q1023 RE//,LGPZ,2021-10-19T01:50:00Z,38.92,20.77,16.0,13.0,50,7,,,30.206694,,,TRUE,,,,,,,,,,,,,,,,,,,,,,,,,,,,METAR,3.0
LGPA 190150Z AUTO 35014KT //// // ////// 17/12 Q1022 RE//,LGPA,2021-10-19T01:50:00Z,37.02,25.1,17.0,12.0,350,14,,,30.177166,,,TRUE,,,,,,,,,,,,,,,,,,,,,,,,,,,,SPECI,42.0
LGLM 190150Z 00000KT 9999 FEW018 14/12 Q1024,LGLM,2021-10-19T01:50:00Z,39.92,25.23,14.0,12.0,0,0,,6.21,30.236221,,,,,,,,,,,FEW,1800,,,,,,,VFR,,,,,,,,,,,,METAR,4.0
LGKZ 190150Z AUTO 36004KT 300V030 //// // ////// 10/08 Q1026 RE//,LGKZ,2021-10-19T01:50:00Z,40.28,21.83,10.0,8.0,360,4,,,30.295275,,,TRUE,,,,,,,,,,,,,,,,,,,,,,,,,,,,METAR,615.0
LGKR 190150Z 00000KT 9999 FEW020 15/13 Q1022 NOSIG,LGKR,2021-10-19T01:50:00Z,39.62,19.92,15.0,13.0,0,0,,6.21,30.177166,,,,,,TRUE,,,,,FEW,2000,,,,,,,VFR,,,,,,,,,,,,METAR,2.0
LGKO 190150Z 34007KT CAVOK 17/12 Q1019,LGKO,2021-10-19T01:50:00Z,36.8,27.08,17.0,12.0,340,7,,6.21,30.088583,,,,,,,,,,,CAVOK,,,,,,,,VFR,,,,,,,,,,,,METAR,130.0
LGKL 190150Z AUTO VRB03KT //// // ////// 13/12 Q1023 RE//,LGKL,2021-10-19T01:50:00Z,37.07,22.02,13.0,12.0,0,3,,,30.206694,,,TRUE,,,,,,,,,,,,,,,,,,,,,,,,,,,,METAR,4.0
LGIR 190150Z 32011KT 9999 SCT025 19/14 Q1021 NOSIG,LGIR,2021-10-19T01:50:00Z,35.33,25.17,19.0,14.0,320,11,,6.21,30.147638,,,,,,TRUE,,,,,SCT,2500,,,,,,,VFR,,,,,,,,,,,,METAR,37.0
LGIO 190150Z AUTO 00000KT //// // ////// 11/11 Q1025 RE//,LGIO,2021-10-19T01:50:00Z,39.7,20.82,11.0,11.0,0,0,,,30.265747,,,TRUE,,,,,,,,,,,,,,,,,,,,,,,,,,,,METAR,476.0
LGEL 190150Z AUTO 31004KT 280V360 //// // ////// 16/11 Q1021 RE//,LGEL,2021-10-19T01:50:00Z,38.07,23.55,16.0,11.0,310,4,,,30.147638,,,TRUE,,,,,,,,,,,,,,,,,,,,,,,,,,,,METAR,21.0
LGBL 190150Z 00000KT 9999 FEW025 11/11 Q1025,LGBL,2021-10-19T01:50:00Z,39.22,22.8,11.0,11.0,0,0,,6.21,30.265747,,,,,,,,,,,FEW,2500,,,,,,,VFR,,,,,,,,,,,,METAR,13.0
LGAV 190150Z 36005KT 9999 FEW030 14/11 Q1024 NOSIG,LGAV,2021-10-19T01:50:00Z,37.93,23.95,14.0,11.0,360,5,,6.21,30.236221,,,,,,TRUE,,,,,FEW,3000,,,,,,,VFR,,,,,,,,,,,,METAR,83.0
LGAL 190150Z 05004KT 9999 FEW035 10/08 Q1025,LGAL,2021-10-19T01:50:00Z,40.85,25.95,10.0,8.0,50,4,,6.21,30.265747,,,,,,,,,,,FEW,3500,,,,,,,VFR,,,,,,,,,,,,METAR,5.0
LGAD 190150Z 00000KT CAVOK 13/12 Q1023,LGAD,2021-10-19T01:50:00Z,37.92,21.28,13.0,12.0,0,0,,6.21,30.206694,,,,,,,,,,,CAVOK,,,,,,,,VFR,,,,,,,,,,,,METAR,8.0
LCRA 190150Z 28009KT CAVOK 21/14 Q1016 NOSIG,LCRA,2021-10-19T01:50:00Z,34.58,32.98,21.0,14.0,280,9,,6.21,30.0,,,,,,TRUE,,,,,CAVOK,,,,,,,,VFR,,,,,,,,,,,,METAR,23.0
LCEN 190150Z 29011KT 9999 FEW025 17/13 Q1016 NOSIG RMK RWY11 30007KT,LCEN,2021-10-19T01:50:00Z,35.15,33.5,17.0,13.0,290,11,,6.21,30.0,,,,,,TRUE,,,,,FEW,2500,,,,,,,VFR,,,,,,,,,,,,METAR,91.0
LATI 190150Z 00000KT CAVOK 10/09 Q1024 NOSIG,LATI,2021-10-19T01:50:00Z,41.42,19.72,10.0,9.0,0,0,,6.21,30.236221,,,,,,TRUE,,,,,CAVOK,,,,,,,,VFR,,,,,,,,,,,,METAR,32.0
KWWR 190150Z AUTO 17014G21KT 10SM CLR 18/04 A2992 RMK AO2,KWWR,2021-10-19T01:50:00Z,36.45,-99.52,18.0,4.0,170,14,21,10.0,29.920275,,,TRUE,TRUE,,,,,,,CLR,,,,,,,,VFR,,,,,,,,,,,,METAR,664.0
KW99 190150Z AUTO 01003KT 10SM CLR 15/05 A3011 RMK AO2 T01460047,KW99,2021-10-19T01:50:00Z,39.0,-79.15,14.6,4.7,10,3,,10.0,30.109253,,,TRUE,TRUE,,,,,,,CLR,,,,,,,,VFR,,,,,,,,,,,,METAR,288.0
KVQQ 190150Z 00000KT 10SM CLR 16/15 A3016,KVQQ,2021-10-19T01:50:00Z,30.22,-81.88,16.0,15.0,0,0,,10.0,30.159449,,,,,,,,,,,CLR,,,,,,,,VFR,,,,,,,,,,,,METAR,21.0
KT82 190150Z AUTO 00000KT 10SM CLR 18/11 A3005 RMK AO2 T01810107,KT82,2021-10-19T01:50:00Z,30.25,-98.92,18.1,10.7,0,0,,10.0,30.050198,,,TRUE,TRUE,,,,,,,CLR,,,,,,,,VFR,,,,,,,,,,,,METAR,509.0
KSQL 190150Z 29007KT 10SM CLR 13/08 A3003,KSQL,2021-10-19T01:50:00Z,37.52,-122.25,13.0,8.0,290,7,,10.0,30.029528,,,,,,,,,,,CLR,,,,,,,,VFR,,,,,,,,,,,,METAR,1.0
KSBO 190150Z AUTO 00000KT 10SM CLR 11/09 A3019 RMK AO2,KSBO,2021-10-19T01:50:00Z,32.62,-82.37,11.0,9.0,0,0,,10.0,30.188976,,,TRUE,TRUE,,,,,,,CLR,,,,,,,,VFR,,,,,,,,,,,,METAR,98.0
KRYY 190150Z 00000KT 10SM CLR 11/09 A3019 RMK AO2 SLP221 T01110094 $,KRYY,2021-10-19T01:50:00Z,34.02,-84.6,11.1,9.4,0,0,,10.0,30.188976,1022.1,,,TRUE,TRUE,,,,,,CLR,,,,,,,,VFR,,,,,,,,,,,,METAR,306.0
KRKW 190150Z AUTO 00000KT 10SM CLR 10/07 A3020 RMK A01,KRKW,2021-10-19T01:50:00Z,35.92,-84.68,10.0,7.0,0,0,,10.0,30.200787,,,TRUE,TRUE,,,,,,,CLR,,,,,,,,VFR,,,,,,,,,,,,METAR,505.0
KPNA 190150Z AUTO 13003KT 10SM SCT100 SCT120 06/M05 A2987 RMK AO2,KPNA,2021-10-19T01:50:00Z,42.8,-109.8,6.0,-5.0,130,3,,10.0,29.870079,,,TRUE,TRUE,,,,,,,SCT,10000,SCT,12000,,,,,VFR,,,,,,,,,,,,METAR,2158.0
KPEQ 190150Z AUTO 11009KT 10SM CLR 22/05 A2990 RMK AO2 T02190051,KPEQ,2021-10-19T01:50:00Z,31.38,-103.52,21.9,5.1,110,9,,10.0,29.899607,,,TRUE,TRUE,,,,,,,CLR,,,,,,,,VFR,,,,,,,,,,,,METAR,794.0
KMMU 190150Z 00000KT 10SM SCT070 06/04 A2999,KMMU,2021-10-19T01:50:00Z,40.78,-74.42,6.0,4.0,0,0,,10.0,29.991142,,,,,,,,,,,SCT,7000,,,,,,,VFR,,,,,,,,,,,,METAR,55.0
KJQF 190150Z 00000KT 10SM CLR 11/07 A3017,KJQF,2021-10-19T01:50:00Z,35.38,-80.72,11.0,7.0,0,0,,10.0,30.171259,,,,,,,,,,,CLR,,,,,,,,VFR,,,,,,,,,,,,METAR,204.0
KIWA 190150Z 25009KT 10SM SCT060 24/07 A2982,KIWA,2021-10-19T01:50:00Z,33.3,-111.65,24.0,7.0,250,9,,10.0,29.819881,,,,,,,,,,,SCT,6000,,,,,,,VFR,,,,,,,,,,,,METAR,420.0
KHMZ 190150Z AUTO 31006KT 10SM CLR 10/01 A3009 RMK AO2 T00980010,KHMZ,2021-10-19T01:50:00Z,40.08,-78.52,9.8,1.0,310,6,,10.0,30.088583,,,TRUE,TRUE,,,,,,,CLR,,,,,,,,VFR,,,,,,,,,,,,METAR,351.0
KHHW 190150Z AUTO 13004KT 10SM CLR 15/07 A3005 RMK AO2,KHHW,2021-10-19T01:50:00Z,34.03,-95.55,15.0,7.0,130,4,,10.0,30.050198,,,TRUE,TRUE,,,,,,,CLR,,,,,,,,VFR,,,,,,,,,,,,METAR,178.0
KGRY 190150Z AUTO 06016G21KT 10SM BKN038 BKN046 OVC055 25/17 A3006 RMK A01,KGRY,2021-10-19T01:50:00Z,27.63,-90.45,25.0,17.0,60,16,21,10.0,30.059055,,,TRUE,TRUE,,,,,,,BKN,3800,BKN,4600,OVC,5500,,,VFR,,,,,,,,,,,,METAR,58.0
KGPM 190150Z 14006KT 10SM SKC 19/06 A3005,KGPM,2021-10-19T01:50:00Z,32.7,-97.05,19.0,6.0,140,6,,10.0,30.050198,,,,,,,,,,,SKC,,,,,,,,VFR,,,,,,,,,,,,METAR,178.0
KFMM 190150Z AUTO 07009KT 10SM CLR 11/M02 A2977 RMK AO2 T01141023,KFMM,2021-10-19T01:50:00Z,40.33,-103.8,11.4,-2.3,70,9,,10.0,29.769686,,,TRUE,TRUE,,,,,,,CLR,,,,,,,,VFR,,,,,,,,,,,,METAR,1376.0
KFEP 190150Z AUTO 17003KT 10SM CLR 13/04 A3006 RMK AO2 T01280040,KFEP,2021-10-19T01:50:00Z,42.25,-89.58,12.8,4.0,170,3,,10.0,30.059055,,,TRUE,TRUE,,,,,,,CLR,,,,,,,,VFR,,,,,,,,,,,,METAR,255.0
KESN 190150Z 00000KT 10SM SCT075 12/09 A3008,KESN,2021-10-19T01:50:00Z,38.8,-76.07,12.0,9.0,0,0,,10.0,30.079725,,,,,,,,,,,SCT,7500,,,,,,,VFR,,,,,,,,,,,,METAR,14.0
KEFD 190150Z 12004KT 10SM CLR 18/13 A3009,KEFD,2021-10-19T01:50:00Z,29.6,-95.17,18.0,13.0,120,4,,10.0,30.088583,,,,,,,,,,,CLR,,,,,,,,VFR,,,,,,,,,,,,METAR,9.0
KDWA 190150Z AUTO 00000KT 10SM FEW060 15/03 A3002 RMK AO2,KDWA,2021-10-19T01:50:00Z,38.58,-121.85,15.0,3.0,0,0,,10.0,30.02067,,,TRUE,TRUE,,,,,,,FEW,6000,,,,,,,VFR,,,,,,,,,,,,METAR,28.0
KDED 190150Z AUTO 00000KT 10SM CLR 19/17 A3013 RMK AO2 T01880167,KDED,2021-10-19T01:50:00Z,29.07,-81.28,18.8,16.7,0,0,,10.0,30.129921,,,TRUE,TRUE,,,,,,,CLR,,,,,,,,VFR,,,,,,,,,,,,METAR,21.0
KDAG 190150Z AUTO 28018G24KT 10SM CLR 14/M04 A2990 RMK AO2 SLP113 T01441039,KDAG,2021-10-19T01:50:00Z,34.85,-116.78,14.4,-3.9,280,18,24,10.0,29.899607,1011.3,,TRUE,TRUE,,,,,,,CLR,,,,,,,,VFR,,,,,,,,,,,,METAR,584.0
KD73 190150Z AUTO 00000KT 10SM CLR 10/ A3019 RMK AO2 T0105////,KD73,2021-10-19T01:50:00Z,33.78,-83.7,10.5,,0,0,,10.0,30.188976,,,TRUE,TRUE,,,,,,,CLR,,,,,,,,VFR,,,,,,,,,,,,METAR,254.0
KCZT 190150Z AUTO 13008KT 10SM CLR 24/12 A2998 RMK AO2,KCZT,2021-10-19T01:50:00Z,28.52,-99.82,24.0,12.0,130,8,,10.0,29.97933,,,TRUE,TRUE,,,,,,,CLR,,,,,,,,VFR,,,,,,,,,,,,METAR,176.0
KCXW 190150Z AUTO 00000KT 10SM FEW034 SCT039 SCT047 13/09 A3011 RMK A01,KCXW,2021-10-19T01:50:00Z,35.02,-92.55,13.0,9.0,0,0,,10.0,30.109253,,,TRUE,TRUE,,,,,,,FEW,3400,SCT,3900,SCT,4700,,,VFR,,,,,,,,,,,,METAR,84.0
KAEG 190150Z 22012KT 10SM CLR 16/M09 A2993,KAEG,2021-10-19T01:50:00Z,35.13,-106.8,16.0,-9.0,220,12,,10.0,29.929134,,,,,,,,,,,CLR,,,,,,,,VFR,,,,,,,,,,,,METAR,1771.0
KADT 190150Z AUTO 10SM CLR 18/05 A2979 RMK AO2 T01790049,KADT,2021-10-19T01:50:00Z,39.83,-101.05,17.9,4.9,,,,10.0,29.790354,,,TRUE,TRUE,,,,,,,CLR,,,,,,,,VFR,,,,,,,,,,,,METAR,899.0
KADM 190150Z 00000KT 10SM BKN032 14/08 A3001,KADM,2021-10-19T01:50:00Z,34.3,-97.02,14.0,8.0,0,0,,10.0,30.008858,,,,,,,,,,,BKN,3200,,,,,,,VFR,,,,,,,,,,,,METAR,223.0
K8A0 190150Z AUTO 16003KT 10SM CLR 12/08 A3019 RMK AO2,K8A0,2021-10-19T01:50:00Z,34.23,-86.25,12.0,8.0,160,3,,10.0,30.188976,,,TRUE,TRUE,,,,,,,CLR,,,,,,,,VFR,,,,,,,,,,,,METAR,313.0
K65S 190150Z AUTO 00000KT 10SM FEW041 08/03 A2989 RMK AO2,K65S,2021-10-19T01:50:00Z,48.73,-116.3,8.0,3.0,0,0,,10.0,29.890747,,,TRUE,TRUE,,,,,,,FEW,4100,,,,,,,VFR,,,,,,,,,,,,SPECI,708.0
K3AU 190150Z AUTO 16011KT 10SM CLR 16/03 A2996 RMK AO2,K3AU,2021-10-19T01:50:00Z,37.67,-97.08,16.0,3.0,160,11,,10.0,29.958662,,,TRUE,TRUE,,,,,,,CLR,,,,,,,,VFR,,,,,,,,,,,,METAR,403.0
K18A 190150Z AUTO 00000KT 10SM CLR 12/09 A3017 RMK AO2 T01170086,K18A,2021-10-19T01:50:00Z,34.35,-83.13,11.7,8.6,0,0,,10.0,30.171259,,,TRUE,TRUE,,,,,,,CLR,,,,,,,,VFR,,,,,,,,,,,,METAR,260.0
K17J 190150Z AUTO 00000KT 10SM CLR 13/11 A3017 RMK AO2 T01280107,K17J,2021-10-19T01:50:00Z,31.0,-84.87,12.8,10.7,0,0,,10.0,30.171259,,,TRUE,TRUE,,,,,,,CLR,,,,,,,,VFR,,,,,,,,,,,,METAR,42.0
EYVI 190150Z 16002KT CAVOK M00/M01 Q1022 NOSIG,EYVI,2021-10-19T01:50:00Z,54.63,25.28,0.0,-1.0,160,2,,6.21,30.177166,,,,,,TRUE,,,,,CAVOK,,,,,,,,VFR,,,,,,,,,,,,METAR,180.0
EYSA 190150Z 29006KT CAVOK 02/00 Q1023 NOSIG,EYSA,2021-10-19T01:50:00Z,55.9,23.4,2.0,0.0,290,6,,6.21,30.206694,,,,,,TRUE,,,,,CAVOK,,,,,,,,VFR,,,,,,,,,,,,METAR,135.0
EYKA 190150Z 28004KT 260V330 CAVOK 00/M01 Q1023,EYKA,2021-10-19T01:50:00Z,54.97,24.08,0.0,-1.0,280,4,,6.21,30.206694,,,,,,,,,,,CAVOK,,,,,,,,VFR,,,,,,,,,,,,METAR,68.0
EVVA 190150Z AUTO VRB02KT 9999 FEW046 07/01 Q1023,EVVA,2021-10-19T01:50:00Z,57.35,21.55,7.0,1.0,0,2,,6.21,30.206694,,,TRUE,,,,,,,,FEW,4600,,,,,,,VFR,,,,,,,,,,,,METAR,1.0
EVRA 190150Z 27003KT 230V310 9999 FEW035CB SCT042 03/02 Q1022 R36/290195 NOSIG,EVRA,2021-10-19T01:50:00Z,56.92,23.97,3.0,2.0,270,3,,6.21,30.177166,,,,,,TRUE,,,,,FEW,3500,SCT,4200,,,,,VFR,,,,,,,,,,,,METAR,7.0
EVLA 190150Z AUTO 11003KT 9999 BKN170/// M01/M02 Q1023,EVLA,2021-10-19T01:50:00Z,56.52,21.1,-1.0,-2.0,110,3,,6.21,30.206694,,,TRUE,,,,,,,,BKN,17000,,,,,,,VFR,,,,,,,,,,,,METAR,5.0
EVGA 190150Z AUTO VRB01KT 9999 FEW003/// 02/02 Q1021,EVGA,2021-10-19T01:50:00Z,,,2.0,2.0,0,1,,6.21,30.147638,,,TRUE,,,,,,,,FEW,300,,,,,,,VFR,,,,,,,,,,,,METAR,
ETNG 190150Z 21005KT 8000 BKN033 14/13 Q1019,ETNG,2021-10-19T01:50:00Z,50.97,6.03,14.0,13.0,210,5,,4.97,30.088583,,,,,,,,,,,BKN,3300,,,,,,,MVFR,,,,,,,,,,,,METAR,76.0
ESUT 190150Z AUTO VRB03KT 9999 SCT003/// M09/M09 Q1018,ESUT,2021-10-19T01:50:00Z,65.8,15.08,-9.0,-9.0,0,3,,6.21,30.059055,,,TRUE,,,,,,,,SCT,300,,,,,,,VFR,,,,,,,,,,,,METAR,457.0
ESUP 190150Z AUTO /////KT 9999 NCD M08/M08 Q1019,ESUP,2021-10-19T01:50:00Z,67.25,23.07,-8.0,-8.0,,,,6.21,30.088583,,,TRUE,,,,,,,,CLR,,,,,,,,VFR,,,,,,,,,,,,METAR,164.0
ESTL 190150Z AUTO 13007KT 9999 OVC004/// 08/08 Q1019,ESTL,2021-10-19T01:50:00Z,56.07,13.2,8.0,8.0,130,7,,6.21,30.088583,,,TRUE,,,,,,,,OVC,400,,,,,,,LIFR,,,,,,,,,,,,METAR,39.0
ESTA 190150Z AUTO 12011KT 9999 OVC007/// 07/06 Q1019,ESTA,2021-10-19T01:50:00Z,56.28,12.83,7.0,6.0,120,11,,6.21,30.088583,,,TRUE,,,,,,,,OVC,700,,,,,,,IFR,,,,,,,,,,,,METAR,19.0
ESSV 190150Z AUTO 17006KT 9999 FEW130/// 01/M01 Q1023,ESSV,2021-10-19T01:50:00Z,57.67,18.35,1.0,-1.0,170,6,,6.21,30.206694,,,TRUE,,,,,,,,FEW,13000,,,,,,,VFR,,,,,,,,,,,,METAR,38.0
ESST 190150Z AUTO 00000KT 9999 SCT055/// OVC074/// M01/M01 Q1021,ESST,2021-10-19T01:50:00Z,60.15,12.98,-1.0,-1.0,0,0,,6.21,30.147638,,,TRUE,,,,,,,,SCT,5500,OVC,7400,,,,,VFR,,,,,,,,,,,,METAR,110.0
ESSP 190150Z AUTO 00000KT 9999 SCT110/// M01/M03 Q1022,ESSP,2021-10-19T01:50:00Z,58.58,16.25,-1.0,-3.0,0,0,,6.21,30.177166,,,TRUE,,,,,,,,SCT,11000,,,,,,,VFR,,,,,,,,,,,,METAR,3.0
ESSL 190150Z AUTO 12002KT 2500 BCFG BKN090/// OVC110/// M00/M01 Q1022,ESSL,2021-10-19T01:50:00Z,58.4,15.67,0.0,-1.0,120,2,,1.55,30.177166,,,TRUE,,,,,,,BCFG,BKN,9000,OVC,11000,,,,,IFR,,,,,,,,,,,,METAR,51.0
ESSD 190150Z AUTO 00000KT 9999 BKN140/// M03/M03 Q1021,ESSD,2021-10-19T01:50:00Z,60.42,15.5,-3.0,-3.0,0,0,,6.21,30.147638,,,TRUE,,,,,,,,BKN,14000,,,,,,,VFR,,,,,,,,,,,,METAR,151.0
ESSB 190150Z AUTO 00000KT 9999 SCT140/// M01/M01 Q1022,ESSB,2021-10-19T01:50:00Z,59.35,17.93,-1.0,-1.0,0,0,,6.21,30.177166,,,TRUE,,,,,,,,SCT,14000,,,,,,,VFR,,,,,,,,,,,,METAR,14.0
ESSA 190150Z 15002KT CAVOK M03/M03 Q1022 NOSIG,ESSA,2021-10-19T01:50:00Z,59.65,17.93,-3.0,-3.0,150,2,,6.21,30.177166,,,,,,TRUE,,,,,CAVOK,,,,,,,,VFR,,,,,,,,,,,,METAR,36.0
ESPE 190150Z AUTO 00000KT 9999 FEW040/// BKN052/// M07/M08 Q1020,ESPE,2021-10-19T01:50:00Z,65.88,20.15,-7.0,-8.0,0,0,,6.21,30.11811,,,TRUE,,,,,,,,FEW,4000,BKN,5200,,,,,VFR,,,,,,,,,,,,METAR,182.0
ESPA 190150Z AUTO 33005KT 9999 NCD M04/M05 Q1020,ESPA,2021-10-19T01:50:00Z,65.53,22.12,-4.0,-5.0,330,5,,6.21,30.11811,,,TRUE,,,,,,,,CLR,,,,,,,,VFR,,,,,,,,,,,,METAR,12.0
ESOW 190150Z AUTO 01002KT 9999 NCD M02/M03 Q1022,ESOW,2021-10-19T01:50:00Z,59.58,16.63,-2.0,-3.0,10,2,,6.21,30.177166,,,TRUE,,,,,,,,CLR,,,,,,,,VFR,,,,,,,,,,,,METAR,7.0
ESOK 190150Z AUTO 09005KT 9999 FEW060/// 02/01 Q1020,ESOK,2021-10-19T01:50:00Z,59.45,13.33,2.0,1.0,90,5,,6.21,30.11811,,,TRUE,,,,,,,,FEW,6000,,,,,,,VFR,,,,,,,,,,,,METAR,101.0
ESOH 190150Z AUTO 00000KT 9999 BKN068/// M01/M02 Q1020,ESOH,2021-10-19T01:50:00Z,60.02,13.58,-1.0,-2.0,0,0,,6.21,30.11811,,,TRUE,,,,,,,,BKN,6800,,,,,,,VFR,,,,,,,,,,,,METAR,145.0
ESOE 190150Z AUTO 00000KT 9999 NCD M00/M02 Q1021,ESOE,2021-10-19T01:50:00Z,59.22,15.05,0.0,-2.0,0,0,,6.21,30.147638,,,TRUE,,,,,,,,CLR,,,,,,,,VFR,,,,,,,,,,,,METAR,57.0
ESNZ 190150Z AUTO 12007KT 9999 NCD M02/M02 Q1018,ESNZ,2021-10-19T01:50:00Z,63.18,14.5,-2.0,-2.0,120,7,,6.21,30.059055,,,TRUE,,,,,,,,CLR,,,,,,,,VFR,,,,,,,,,,,,METAR,360.0
ESNX 190150Z AUTO 31003KT 9999 NCD M06/M06 Q1019,ESNX,2021-10-19T01:50:00Z,65.58,19.28,-6.0,-6.0,310,3,,6.21,30.088583,,,TRUE,,,,,,,,CLR,,,,,,,,VFR,,,,,,,,,,,,METAR,380.0
ESNV 190150Z AUTO VRB02KT 9999 NCD M10/M11 Q1019,ESNV,2021-10-19T01:50:00Z,64.58,16.83,-10.0,-11.0,0,2,,6.21,30.088583,,,TRUE,,,,,,,,CLR,,,,,,,,VFR,,,,,,,,,,,,METAR,348.0
ESNU 190150Z 33003KT CAVOK M04/M05 Q1021,ESNU,2021-10-19T01:50:00Z,63.78,20.28,-4.0,-5.0,330,3,,6.21,30.147638,,,,,,,,,,,CAVOK,,,,,,,,VFR,,,,,,,,,,,,METAR,8.0
ESNS 190150Z AUTO 25003KT 9999 NCD M04/M05 Q1020,ESNS,2021-10-19T01:50:00Z,64.62,21.07,-4.0,-5.0,250,3,,6.21,30.11811,,,TRUE,,,,,,,,CLR,,,,,,,,VFR,,,,,,,,,,,,METAR,41.0
ESNQ 190150Z AUTO VRB02KT 9999 NCD M11/M12 Q1017,ESNQ,2021-10-19T01:50:00Z,67.82,20.33,-11.0,-12.0,0,2,,6.21,30.029528,,,TRUE,,,,,,,,CLR,,,,,,,,VFR,,,,,,,,,,,,METAR,447.0
ESNO 190150Z AUTO 32004KT 9999 NCD M03/M05 Q1020,ESNO,2021-10-19T01:50:00Z,63.4,18.97,-3.0,-5.0,320,4,,6.21,30.11811,,,TRUE,,,,,,,,CLR,,,,,,,,VFR,,,,,,,,,,,,METAR,100.0
ESNN 190150Z AUTO 31005KT 9999 SCT170/// M02/M04 Q1021,ESNN,2021-10-19T01:50:00Z,62.52,17.43,-2.0,-4.0,310,5,,6.21,30.147638,,,TRUE,,,,,,,,SCT,17000,,,,,,,VFR,,,,,,,,,,,,METAR,4.0
ESNL 190150Z AUTO 00000KT 9999 NCD M07/M08 Q1020,ESNL,2021-10-19T01:50:00Z,64.55,18.72,-7.0,-8.0,0,0,,6.21,30.11811,,,TRUE,,,,,,,,CLR,,,,,,,,VFR,,,,,,,,,,,,METAR,220.0
ESNK 190150Z AUTO 33003KT 9999 NCD M04/M04 Q1021,ESNK,2021-10-19T01:50:00Z,63.03,17.77,-4.0,-4.0,330,3,,6.21,30.147638,,,TRUE,,,,,,,,CLR,,,,,,,,VFR,,,,,,,,,,,,METAR,4.0
ESNG 190150Z AUTO 30005KT 9999 NCD M11/M14 Q1019,ESNG,2021-10-19T01:50:00Z,67.13,20.82,-11.0,-14.0,300,5,,6.21,30.088583,,,TRUE,,,,,,,,CLR,,,,,,,,VFR,,,,,,,,,,,,METAR,300.0
ESND 190150Z AUTO 10003KT 9999 OVC038/// M04/M04 Q1019,ESND,2021-10-19T01:50:00Z,62.05,14.42,-4.0,-4.0,100,3,,6.21,30.088583,,,TRUE,,,,,,,,OVC,3800,,,,,,,VFR,,,,,,,,,,,,METAR,352.0
ESMX 190150Z AUTO 14005KT 9999 SCT033/// 05/01 Q1021,ESMX,2021-10-19T01:50:00Z,56.92,14.72,5.0,1.0,140,5,,6.21,30.147638,,,TRUE,,,,,,,,SCT,3300,,,,,,,VFR,,,,,,,,,,,,METAR,176.0
ESMT 190150Z AUTO 14009KT 9999 OVC012/// 07/05 Q1019,ESMT,2021-10-19T01:50:00Z,56.68,12.82,7.0,5.0,140,9,,6.21,30.088583,,,TRUE,,,,,,,,OVC,1200,,,,,,,MVFR,,,,,,,,,,,,METAR,24.0
ESMS 190150Z 14005KT 3100 BR OVC002 10/10 Q1019,ESMS,2021-10-19T01:50:00Z,55.53,13.37,10.0,10.0,140,5,,1.93,30.088583,,,,,,,,,,BR,OVC,200,,,,,,,LIFR,,,,,,,,,,,,METAR,68.0
ESMQ 190150Z AUTO 33001KT 9999 FEW100/// SCT110/// M00/M00 Q1022,ESMQ,2021-10-19T01:50:00Z,56.68,16.3,0.0,0.0,330,1,,6.21,30.177166,,,TRUE,,,,,,,,FEW,10000,SCT,11000,,,,,VFR,,,,,,,,,,,,METAR,3.0
ESMK 190150Z AUTO 13008KT 4700 BR FEW005/// SCT009/// OVC012/// 09/08 Q1020,ESMK,2021-10-19T01:50:00Z,55.92,14.08,9.0,8.0,130,8,,2.92,30.11811,,,TRUE,,,,,,,BR,FEW,500,SCT,900,OVC,1200,,,IFR,,,,,,,,,,,,METAR,20.0
ESKS 190150Z AUTO 12004KT 9999 SCT046/// BKN067/// OVC094/// M00/M04 Q1018,ESKS,2021-10-19T01:50:00Z,61.17,12.83,0.0,-4.0,120,4,,6.21,30.059055,,,TRUE,,,,,,,,SCT,4600,BKN,6700,OVC,9400,,,VFR,,,,,,,,,,,,METAR,503.0
ESKN 190150Z 09001KT 9999 OVC120 M02/M02 Q1022,ESKN,2021-10-19T01:50:00Z,58.78,16.92,-2.0,-2.0,90,1,,6.21,30.177166,,,,,,,,,,,OVC,12000,,,,,,,VFR,,,,,,,,,,,,METAR,41.0
ESKM 190150Z AUTO 00000KT 9999 BKN120/// M02/M02 Q1020,ESKM,2021-10-19T01:50:00Z,60.97,14.52,-2.0,-2.0,0,0,,6.21,30.11811,,,TRUE,,,,,,,,BKN,12000,,,,,,,VFR,,,,,,,,,,,,METAR,184.0
ESIB 190150Z AUTO 11008KT 9999 -SHRA BKN052/// OVC064/// 04/01 Q1019,ESIB,2021-10-19T01:50:00Z,58.42,12.7,4.0,1.0,110,8,,6.21,30.088583,,,TRUE,,,,,,,-SHRA,BKN,5200,OVC,6400,,,,,VFR,,,,,,,,,,,,METAR,51.0
ESIA 190150Z AUTO 15005KT 9999 BKN088/// OVC110/// 06/M00 Q1021,ESIA,2021-10-19T01:50:00Z,58.52,14.5,6.0,0.0,150,5,,6.21,30.147638,,,TRUE,,,,,,,,BKN,8800,OVC,11000,,,,,VFR,,,,,,,,,,,,METAR,94.0
ESGT 190150Z AUTO 12007KT 9999 -RA OVC038/// 04/00 Q1019,ESGT,2021-10-19T01:50:00Z,58.32,12.33,4.0,0.0,120,7,,6.21,30.088583,,,TRUE,,,,,,,-RA,OVC,3800,,,,,,,VFR,,,,,,,,,,,,METAR,40.0
ESGJ 190150Z AUTO 00000KT 9999 NCD 01/M00 Q1020,ESGJ,2021-10-19T01:50:00Z,57.77,14.07,1.0,0.0,0,0,,6.21,30.11811,,,TRUE,,,,,,,,CLR,,,,,,,,VFR,,,,,,,,,,,,METAR,224.0
ESGG 190150Z 13010KT 8000 DZ OVC046 03/01 Q1018,ESGG,2021-10-19T01:50:00Z,57.67,12.3,3.0,1.0,130,10,,4.97,30.059055,,,,,,,,,,DZ,OVC,4600,,,,,,,MVFR,,,,,,,,,,,,METAR,152.0
ESDF 190150Z AUTO 11005KT 9999 OVC034/// 06/04 Q1022,ESDF,2021-10-19T01:50:00Z,56.27,15.27,6.0,4.0,110,5,,6.21,30.177166,,,TRUE,,,,,,,,OVC,3400,,,,,,,VFR,,,,,,,,,,,,METAR,52.0
ESCM 190150Z AUTO 00000KT 9999 NCD M03/M03 Q1022,ESCM,2021-10-19T01:50:00Z,59.88,17.6,-3.0,-3.0,0,0,,6.21,30.177166,,,TRUE,,,,,,,,CLR,,,,,,,,VFR,,,,,,,,,,,,METAR,21.0
ESCF 190150Z AUTO 00000KT 9999 OVC110/// M00/M01 Q1022,ESCF,2021-10-19T01:50:00Z,58.38,15.52,0.0,-1.0,0,0,,6.21,30.177166,,,TRUE,,,,,,,,OVC,11000,,,,,,,VFR,,,,,,,,,,,,METAR,86.0
ENWV 190150Z AUTO 21021KT 0100NDV -RA NCD 13/13 Q1010 W///S4,ENWV,2021-10-19T01:50:00Z,56.28,3.4,13.0,13.0,210,21,,,29.822834,,,TRUE,,,,,,,-RA,CLR,,,,,,,,,,,,,,,,,,,,METAR,30.0
ENVA 190150Z 11008KT CAVOK 03/M02 Q1015 RMK WIND 670FT 10013KT,ENVA,2021-10-19T01:50:00Z,63.47,10.92,3.0,-2.0,110,8,,6.21,29.970472,,,,,,,,,,,CAVOK,,,,,,,,VFR,,1.3,,,,,,,,,,METAR,12.0
ENUN 190150Z AUTO 10017KT 9999NDV FEW130/// 05/M03 Q1016 W09/S/,ENUN,2021-10-19T01:50:00Z,,,5.0,-3.0,100,17,,,30.0,,,TRUE,,,,,,,,FEW,13000,,,,,,,,,,,,,,,,,,,METAR,
ENUG 190150Z AUTO 35017KT 320V020 9999NDV OVC045/// 01/M09 Q1018 W///S5,ENUG,2021-10-19T01:50:00Z,71.3,22.25,1.0,-9.0,350,17,,,30.059055,,,TRUE,,,,,,,,OVC,4500,,,,,,,,,,,,,,,,,,,METAR,30.0
ENTO 190150Z AUTO 36005KT 9999 RA BKN024/// OVC036/// 03/03 Q1019,ENTO,2021-10-19T01:50:00Z,59.2,10.27,3.0,3.0,360,5,,6.21,30.088583,,,TRUE,,,,,,,RA,BKN,2400,OVC,3600,,,,,MVFR,,,,,,,,,,,,METAR,84.0
ENTC 190150Z VRB01KT 9999 FEW059 M04/M06 Q1021 RMK WIND 2600FT VRB03KT,ENTC,2021-10-19T01:50:00Z,69.68,18.92,-4.0,-6.0,0,1,,6.21,30.147638,,,,,,,,,,,FEW,5900,,,,,,,VFR,,,,,,,,,,,,METAR,9.0
ENSL 190150Z AUTO 20019KT 6000NDV NCD 12/12 Q1006 W10/S5,ENSL,2021-10-19T01:50:00Z,58.37,1.9,12.0,12.0,200,19,,,29.704725,,,TRUE,,,,,,,,CLR,,,,,,,,,,,,,,,,,,,,METAR,50.0
ENSF 190150Z AUTO 16033KT 2100NDV -DZ OVC004/// 12/10 Q1003 W///S5,ENSF,2021-10-19T01:50:00Z,61.25,1.85,12.0,10.0,160,33,,,29.616142,,,TRUE,,,,,,,-DZ,OVC,400,,,,,,,,,,,,,,,,,,,METAR,15.0
ENSE 190150Z AUTO 16036KT 2900NDV -RA OVC005/// 11/10 Q1003 RERA W///S6,ENSE,2021-10-19T01:50:00Z,61.45,2.15,11.0,10.0,160,36,,,29.616142,,,TRUE,,,,,,,-RA,OVC,500,,,,,,,,,,,,,,,,,,,METAR,10.0
ENSB 190150Z 12009KT CAVOK M08/M11 Q1023 RMK WIND 1400FT 05006KT,ENSB,2021-10-19T01:50:00Z,78.25,15.47,-8.0,-11.0,120,9,,6.21,30.206694,,,,,,,,,,,CAVOK,,,,,,,,VFR,,,,,,,,,,,,METAR,30.0
ENRY 190150Z AUTO 04006KT 9999NDV -RA BKN042/// 02/01 Q1020,ENRY,2021-10-19T01:50:00Z,59.37,10.77,2.0,1.0,40,6,,,30.11811,,,TRUE,,,,,,,-RA,BKN,4200,,,,,,,,,,,,,,,,,,,METAR,45.0
ENRO 190150Z AUTO 12010KT 9999NDV BKN120/// M00/M04 Q1014,ENRO,2021-10-19T01:50:00Z,62.57,11.33,0.0,-4.0,120,10,,,29.940945,,,TRUE,,,,,,,,BKN,12000,,,,,,,,,,,,,,,,,,,METAR,624.0
ENQR 190150Z AUTO 14036KT 1500NDV -RA OVC005/// 10/10 Q1003 RERA W///S5,ENQR,2021-10-19T01:50:00Z,61.52,2.22,10.0,10.0,140,36,,,29.616142,,,TRUE,,,,,,,-RA,OVC,500,,,,,,,,,,,,,,,,,,,METAR,10.0
ENQC 190150Z AUTO 14038KT 4500NDV -RA BR OVC006/// 10/09 Q1005 W///S6,ENQC,2021-10-19T01:50:00Z,60.88,3.62,10.0,9.0,140,38,,,29.675198,,,TRUE,,,,,,,-RA BR,OVC,600,,,,,,,,,,,,,,,,,,,METAR,20.0
ENQA 190150Z AUTO 16043KT 4500NDV OVC007/// 10/09 Q1006 W10/S6,ENQA,2021-10-19T01:50:00Z,60.65,3.72,10.0,9.0,160,43,,,29.704725,,,TRUE,,,,,,,,OVC,700,,,,,,,,,,,,,,,,,,,METAR,90.0
ENOL 190150Z 11017KT CAVOK 05/M02 Q1012,ENOL,2021-10-19T01:50:00Z,63.7,9.6,5.0,-2.0,110,17,,6.21,29.88189,,,,,,,,,,,CAVOK,,,,,,,,VFR,,,,,,,,,,,,METAR,9.0
ENOA 190150Z 16042KT 1900 -RA BR OVC005 10/10 Q1004 RERA W///S6,ENOA,2021-10-19T01:50:00Z,60.5,2.83,10.0,10.0,160,42,,1.18,29.64567,,,,,,,,,,-RA BR,OVC,500,,,,,,,IFR,,,,,,,,,,,,METAR,5.0
ENNE 190150Z AUTO 11019KT 9999NDV BKN120/// 05/M02 Q1015 W///S4,ENNE,2021-10-19T01:50:00Z,66.03,8.08,5.0,-2.0,110,19,,,29.970472,,,TRUE,,,,,,,,BKN,12000,,,,,,,,,,,,,,,,,,,METAR,10.0
ENNA 190150Z AUTO 30015KT 270V330 9999 FEW055/// BKN078/// M01/M06 Q1017 RMK WIND 1800FT 29015KT,ENNA,2021-10-19T01:50:00Z,70.07,24.97,-1.0,-6.0,300,15,,6.21,30.029528,,,TRUE,,,,,,,,FEW,5500,BKN,7800,,,,,VFR,,,,,,,,,,,,METAR,12.0
ENML 190150Z AUTO 05006KT 9999NDV OVC068/// 04/M01 Q1011,ENML,2021-10-19T01:50:00Z,62.75,7.27,4.0,-1.0,50,6,,,29.852362,,,TRUE,,,,,,,,OVC,6800,,,,,,,,,,,,,,,,,,,METAR,3.0
ENLE 190150Z 20020KT 0800 -RA FG VV003 13/13 Q1009 W13/S4,ENLE,2021-10-19T01:50:00Z,56.53,3.22,13.0,13.0,200,20,,0.5,29.793306,,,,,,,,,,-RA FG,OVX,0,,,,,,,LIFR,,,,,,,,,,,300,METAR,10.0
ENLA 190150Z AUTO 20018KT 2200NDV BR FEW003/// OVC020/// 13/13 Q1008 W///S4,ENLA,2021-10-19T01:50:00Z,57.1,2.83,13.0,13.0,200,18,,,29.763779,,,TRUE,,,,,,,BR,FEW,300,OVC,2000,,,,,,,,,,,,,,,,,METAR,10.0
ENKR 190150Z AUTO 33013KT 9999 SCT020/// BKN074/// M01/M04 Q1013 RMK WIND 731FT 32016KT,ENKR,2021-10-19T01:50:00Z,69.72,29.88,-1.0,-4.0,330,13,,6.21,29.911417,,,TRUE,,,,,,,,SCT,2000,BKN,7400,,,,,VFR,,,,,,,,,,,,METAR,86.0
ENKB 190150Z AUTO 12006KT 080V150 9999 OVC090/// 05/M03 Q1010 RMK WIND 745FT 14016KT,ENKB,2021-10-19T01:50:00Z,63.12,7.82,5.0,-3.0,120,6,,6.21,29.822834,,,TRUE,,,,,,,,OVC,9000,,,,,,,VFR,,,,,,,,,,,,METAR,62.0
ENHM 190150Z AUTO 16026KT 4000NDV BR NCD 12/12 Q1006 W12/S/,ENHM,2021-10-19T01:50:00Z,59.57,2.23,12.0,12.0,160,26,,,29.704725,,,TRUE,,,,,,,BR,CLR,,,,,,,,,,,,,,,,,,,,METAR,10.0
ENHF 190150Z 05007KT 9999 -SHSN FEW010 SCT019 BKN030 M02/M03 Q1017 RMK WIND 1254FT 01017KT,ENHF,2021-10-19T01:50:00Z,70.67,23.67,-2.0,-3.0,50,7,,6.21,30.029528,,,,,,,,,,-SHSN,FEW,1000,SCT,1900,BKN,3000,,,MVFR,,,,,,,,,,,,METAR,79.0
ENHE 190150Z 10029KT 9999 FEW025 BKN110 07/01 Q1014 W///S4,ENHE,2021-10-19T01:50:00Z,65.33,2.33,7.0,1.0,100,29,,6.21,29.940945,,,,,,,,,,,FEW,2500,BKN,11000,,,,,VFR,,,,,,,,,,,,SPECI,10.0
ENHD 190150Z AUTO 12021KT 9999 OVC023/// 09/07 Q1010,ENHD,2021-10-19T01:50:00Z,59.35,5.22,9.0,7.0,120,21,,6.21,29.822834,,,TRUE,,,,,,,,OVC,2300,,,,,,,MVFR,,,,,,,,,,,,METAR,22.0
ENGM 190150Z VRB02KT 9999 -RA SCT016 OVC033 01/M01 Q1019,ENGM,2021-10-19T01:50:00Z,60.2,11.07,1.0,-1.0,0,2,,6.21,30.088583,,,,,,,,,,-RA,SCT,1600,OVC,3300,,,,,VFR,,,,,,,,,,,,METAR,204.0
ENGC 190150Z 17039KT 3000 RA OVC005 10/10 Q1004 W10/S6,ENGC,2021-10-19T01:50:00Z,61.02,2.02,10.0,10.0,170,39,,1.86,29.64567,,,,,,,,,,RA,OVC,500,,,,,,,IFR,,,,,,,,,,,,METAR,10.0
ENFL 190150Z AUTO 10019KT 9999NDV RA OVC030/// 06/04 Q1009,ENFL,2021-10-19T01:50:00Z,61.57,5.02,6.0,4.0,100,19,,,29.793306,,,TRUE,,,,,,,RA,OVC,3000,,,,,,,,,,,,,,,,,,,METAR,1.0
ENFB 190150Z AUTO 16038KT 4600NDV -RA BR BKN004/// 11/11 Q1003 W///S5,ENFB,2021-10-19T01:50:00Z,61.2,1.83,11.0,11.0,160,38,,,29.616142,,,TRUE,,,,,,,-RA BR,BKN,400,,,,,,,,,,,,,,,,,,,METAR,10.0
ENEV 190150Z AUTO VRB02KT 9999 BKN008/// OVC012/// M04/M04 Q1021 RMK WIND 1400FT 13006KT,ENEV,2021-10-19T01:50:00Z,68.48,16.67,-4.0,-4.0,0,2,,6.21,30.147638,,,TRUE,,,,,,,,BKN,800,OVC,1200,,,,,IFR,,,,,,,,,,,,METAR,26.0
ENDU 190150Z AUTO 00000KT 9999 NCD M08/M09 Q1020 RMK WIND 1100FT 23002KT WIND 2200FT 28005KT,ENDU,2021-10-19T01:50:00Z,69.05,18.55,-8.0,-9.0,0,0,,6.21,30.11811,,,TRUE,,,,,,,,CLR,,,,,,,,VFR,,,,,,,,,,,,METAR,65.0
ENCN 190150Z AUTO 03009KT 4700 -DZ BKN005/// OVC006/// 07/06 Q1015,ENCN,2021-10-19T01:50:00Z,58.2,8.07,7.0,6.0,30,9,,2.92,29.970472,,,TRUE,,,,,,,-DZ,BKN,500,OVC,600,,,,,IFR,,,,,,,,,,,,METAR,17.0
ENBR 190150Z 14015KT 9999 -RA BKN028 09/06 Q1009 RMK WIND 1200FT 14030KT,ENBR,2021-10-19T01:50:00Z,60.28,5.22,9.0,6.0,140,15,,6.21,29.793306,,,,,,,,,,-RA,BKN,2800,,,,,,,MVFR,,,,,,,,,,,,METAR,49.0
ENBO 190150Z 08011KT 9999 FEW040 BKN200 M00/M02 Q1020,ENBO,2021-10-19T01:50:00Z,67.27,14.37,0.0,-2.0,80,11,,6.21,30.11811,,,,,,,,,,,FEW,4000,BKN,20000,,,,,VFR,,,,,,,,,,,,METAR,13.0
ENBN 190150Z 07007KT 030V090 CAVOK 02/M03 Q1018,ENBN,2021-10-19T01:50:00Z,65.47,12.22,2.0,-3.0,70,7,,6.21,30.059055,,,,,,,,,,,CAVOK,,,,,,,,VFR,,,,,,,,,,,,METAR,3.0
ENAT 190150Z AUTO 29010KT 9999 FEW023/// SCT039/// BKN070/// M01/M05 Q1019 RMK WIND 700FT 30011KT,ENAT,2021-10-19T01:50:00Z,69.97,23.37,-1.0,-5.0,290,10,,6.21,30.088583,,,TRUE,,,,,,,,FEW,2300,SCT,3900,BKN,7000,,,VFR,,,,,,,,,,,,METAR,3.0
ENAN 190150Z AUTO 25003KT 5000 +FZUP SCT007/// BKN011/// BKN032/// M01/M01 Q1020,ENAN,2021-10-19T01:50:00Z,69.3,16.13,-1.0,-1.0,250,3,,3.11,30.11811,,,TRUE,,,,,,,UP,SCT,700,BKN,1100,BKN,3200,,,MVFR,,,,,,,,,,,,METAR,13.0
ENAL 190150Z AUTO 12014KT 9999 -RA FEW006/// SCT025/// BKN044/// 07/03 Q1010,ENAL,2021-10-19T01:50:00Z,62.57,6.12,7.0,3.0,120,14,,6.21,29.822834,,,TRUE,,,,,,,-RA,FEW,600,SCT,2500,BKN,4400,,,VFR,,,,,,,,,,,,METAR,21.0
ELLX 190150Z AUTO 16005KT 130V190 2000 -RA OVC057/// 09/08 Q1022 NOSIG,ELLX,2021-10-19T01:50:00Z,49.63,6.2,9.0,8.0,160,5,,1.24,30.177166,,,TRUE,,,TRUE,,,,-RA,OVC,5700,,,,,,,IFR,,,,,,,,,,,,METAR,374.0
EKYT 190150Z 14006KT 3500 BR FEW002 OVC095 10/10 Q1016,EKYT,2021-10-19T01:50:00Z,57.1,9.87,10.0,10.0,140,6,,2.17,30.0,,,,,,,,,,BR,FEW,200,OVC,9500,,,,,IFR,,,,,,,,,,,,METAR,2.0
EKVG 190150Z AUTO 16013KT 2300 +DZ OVC002/// 11/11 Q0995,EKVG,2021-10-19T01:50:00Z,62.07,-7.27,11.0,11.0,160,13,,1.43,29.379921,,,TRUE,,,,,,,+DZ,OVC,200,,,,,,,LIFR,,,,,,,,,,,,METAR,89.0
EKVD 190150Z AUTO 17005KT //// ///////// 10/09 Q1016,EKVD,2021-10-19T01:50:00Z,55.43,9.32,10.0,9.0,170,5,,,30.0,,,TRUE,,,,,,,,,,,,,,,,,,,,,,,,,,,,METAR,41.0
EKSP 190150Z 18006KT 150V210 CAVOK 10/08 Q1016,EKSP,2021-10-19T01:50:00Z,55.22,9.27,10.0,8.0,180,6,,6.21,30.0,,,,,,,,,,,CAVOK,,,,,,,,VFR,,,,,,,,,,,,METAR,40.0
EKSB 190150Z AUTO 18005KT 150V220 9999 OVC075/// 11/09 Q1016,EKSB,2021-10-19T01:50:00Z,54.97,9.8,11.0,9.0,180,5,,6.21,30.0,,,TRUE,,,,,,,,OVC,7500,,,,,,,VFR,,,,,,,,,,,,METAR,23.0
EKRS 190150Z AUTO VRB04KT 7000 NCD 10/10 Q1018,EKRS,2021-10-19T01:50:00Z,55.42,11.8,10.0,10.0,0,4,,4.35,30.059055,,,TRUE,,,,,,,,CLR,,,,,,,,MVFR,,,,,,,,,,,,METAR,34.0
EKRN 190150Z AUTO 12009KT 9999 OVC003/// 11/11 Q1021,EKRN,2021-10-19T01:50:00Z,55.07,14.75,11.0,11.0,120,9,,6.21,30.147638,,,TRUE,,,,,,,,OVC,300,,,,,,,LIFR,,,,,,,,,,,,METAR,14.0
EKRK 190150Z AUTO 14007KT 3000 BR OVC130/// 10/10 Q1018,EKRK,2021-10-19T01:50:00Z,55.58,12.13,10.0,10.0,140,7,,1.86,30.059055,,,TRUE,,,,,,,BR,OVC,13000,,,,,,,IFR,,,,,,,,,,,,METAR,40.0
EKEB 190150Z AUTO 18010KT 6000 BKN042/// 11/10 Q1015,EKEB,2021-10-19T01:50:00Z,55.52,8.55,11.0,10.0,180,10,,3.73,29.970472,,,TRUE,,,,,,,,BKN,4200,,,,,,,MVFR,,,,,,,,,,,,METAR,29.0
EKCH 190150Z 17008KT 6000 BKN006 12/11 Q1019 BECMG SCT006,EKCH,2021-10-19T01:50:00Z,55.62,12.67,12.0,11.0,170,8,,3.73,30.088583,,,,,,,,,,,BKN,600,,,,,,,IFR,,,,,,,,,,,,METAR,4.0
EKBI 190150Z AUTO 15005KT 120V180 4600 -RA OVC073/// 10/09 Q1016,EKBI,2021-10-19T01:50:00Z,55.73,9.15,10.0,9.0,150,5,,2.86,30.0,,,TRUE,,,,,,,-RA,OVC,7300,,,,,,,IFR,,,,,,,,,,,,METAR,67.0
EKAH 190150Z AUTO 17004KT 100V210 4800 BR OVC100/// 11/11 Q1017,EKAH,2021-10-19T01:50:00Z,56.28,10.62,11.0,11.0,170,4,,2.98,30.029528,,,TRUE,,,,,,,BR,OVC,10000,,,,,,,IFR,,,,,,,,,,,,METAR,25.0
EGYP 190150Z 27010KT 9999 FEW020 SCT025 05/04 Q1006,EGYP,2021-10-19T01:50:00Z,-51.82,-58.45,5.0,4.0,270,10,,6.21,29.704725,,,,,,,,,,,FEW,2000,SCT,2500,,,,,VFR,,,,,,,,,,,,METAR,70.0
EGYM 190150Z AUTO 20005KT 2900 BR OVC003/// 16/15 Q1013 REDZ,EGYM,2021-10-19T01:50:00Z,52.63,0.57,16.0,15.0,200,5,,1.8,29.911417,,,TRUE,,,,,,,BR,OVC,300,,,,,,,LIFR,,,,,,,,,,,,METAR,25.0
EGYD 190150Z AUTO 21009KT 9999 // SCT017/// BKN140/// 15/14 Q1011,EGYD,2021-10-19T01:50:00Z,53.03,-0.5,15.0,14.0,210,9,,6.21,29.852362,,,TRUE,,,,,,,,SCT,1700,BKN,14000,,,,,VFR,,,,,,,,,,,,METAR,65.0
EGXZ 190150Z AUTO 15009KT 9999 FEW006/// BKN220/// 14/14 Q1010,EGXZ,2021-10-19T01:50:00Z,54.2,-1.38,14.0,14.0,150,9,,6.21,29.822834,,,TRUE,,,,,,,,FEW,600,BKN,22000,,,,,VFR,,,,,,,,,,,,METAR,24.0
EGXW 190150Z AUTO 19008KT 9999 BKN016/// BKN210/// 15/14 Q1011,EGXW,2021-10-19T01:50:00Z,53.18,-0.52,15.0,14.0,190,8,,6.21,29.852362,,,TRUE,,,,,,,,BKN,1600,BKN,21000,,,,,MVFR,,,,,,,,,,,,SPECI,70.0
EGXV 190150Z AUTO 19005KT 4700 BR SCT028/// BKN230/// 15/14 Q1010,EGXV,2021-10-19T01:50:00Z,53.87,-0.45,15.0,14.0,190,5,,2.92,29.822834,,,TRUE,,,,,,,BR,SCT,2800,BKN,23000,,,,,IFR,,,,,,,,,,,,METAR,6.0
EGXT 190150Z AUTO 18004KT 9999 // BKN012/// BKN150/// 15/14 Q1012,EGXT,2021-10-19T01:50:00Z,52.62,-0.47,15.0,14.0,180,4,,6.21,29.88189,,,TRUE,,,,,,,,BKN,1200,BKN,15000,,,,,MVFR,,,,,,,,,,,,METAR,74.0
EGXS 190150Z AUTO 14005KT 4000 // BKN008/// 15/14 Q1011,EGXS,2021-10-19T01:50:00Z,53.48,0.15,15.0,14.0,140,5,,2.49,29.852362,,,TRUE,,,,,,,,BKN,800,,,,,,,IFR,,,,,,,,,,,,METAR,6.0
EGXP 190150Z AUTO 18006KT 9000 // BKN200/// 15/15 Q1011,EGXP,2021-10-19T01:50:00Z,53.3,-0.55,15.0,15.0,180,6,,5.59,29.852362,,,TRUE,,,,,,,,BKN,20000,,,,,,,VFR,,,,,,,,,,,,METAR,58.0
EGXE 190150Z AUTO 14006KT 7000 BR FEW021/// SCT220/// 14/14 Q1009,EGXE,2021-10-19T01:50:00Z,54.28,-1.52,14.0,14.0,140,6,,4.35,29.793306,,,TRUE,,,,,,,BR,FEW,2100,SCT,22000,,,,,MVFR,,,,,,,,,,,,SPECI,30.0
EGXC 190150Z 20008KT 9999 OVC018 16/15 Q1012 RMK WHT,EGXC,2021-10-19T01:50:00Z,53.1,-0.17,16.0,15.0,200,8,,6.21,29.88189,,,,,,,,,,,OVC,1800,,,,,,,MVFR,,,,,,,,,,,,METAR,9.0
EGWU 190150Z AUTO 22007KT 7000 OVC003/// 17/16 Q1013,EGWU,2021-10-19T01:50:00Z,51.55,-0.42,17.0,16.0,220,7,,4.35,29.911417,,,TRUE,,,,,,,,OVC,300,,,,,,,LIFR,,,,,,,,,,,,METAR,33.0
EGVP 190150Z AUTO 19010KT 8000 OVC003/// 16/15 Q1014,EGVP,2021-10-19T01:50:00Z,51.13,-1.57,16.0,15.0,190,10,,4.97,29.940945,,,TRUE,,,,,,,,OVC,300,,,,,,,LIFR,,,,,,,,,,,,SPECI,80.0
EGVO 190150Z AUTO 20012KT 9999 OVC003/// 16/16 Q1014 REDZ,EGVO,2021-10-19T01:50:00Z,51.23,-0.95,16.0,16.0,200,12,,6.21,29.940945,,,TRUE,,,,,,,,OVC,300,,,,,,,LIFR,,,,,,,,,,,,METAR,118.0
EGVN 190150Z 19004KT 3000 BR OVC003 16/16 Q1012 TEMPO 4000 BKN005 RMK YLO2 TEMPO YLO1,EGVN,2021-10-19T01:50:00Z,51.77,-1.58,16.0,16.0,190,4,,1.86,29.88189,,,,,,,,,,BR,OVC,300,,,,,,,LIFR,,,,,,,,,,,,SPECI,83.0
EGUW 190150Z AUTO 22007KT 9999 SCT002/// BKN010/// 16/16 Q1013 REDZ,EGUW,2021-10-19T01:50:00Z,52.12,0.97,16.0,16.0,220,7,,6.21,29.911417,,,TRUE,,,,,,,,SCT,200,BKN,1000,,,,,MVFR,,,,,,,,,,,,METAR,86.0
EGUB 190150Z AUTO 18006KT 9999 // OVC003/// 16/16 Q1013,EGUB,2021-10-19T01:50:00Z,51.62,-1.08,16.0,16.0,180,6,,6.21,29.911417,,,TRUE,,,,,,,,OVC,300,,,,,,,LIFR,,,,,,,,,,,,METAR,56.0
EGSS 190150Z AUTO 21008KT 1300 R22/P1500 BR OVC002 16/16 Q1014,EGSS,2021-10-19T01:50:00Z,51.88,0.22,16.0,16.0,210,8,,0.81,29.940945,,,TRUE,,,,,,,BR,OVC,200,,,,,,,LIFR,,,,,,,,,,,,METAR,101.0
EGSH 190150Z AUTO 19004KT 140V230 5000 BR OVC003/// 16/15 Q1013,EGSH,2021-10-19T01:50:00Z,52.68,1.28,16.0,15.0,190,4,,3.11,29.911417,,,TRUE,,,,,,,BR,OVC,300,,,,,,,LIFR,,,,,,,,,,,,METAR,21.0
EGQS 190150Z 20006KT 9999 FEW048 BKN220 14/11 Q1004 RMK BLU,EGQS,2021-10-19T01:50:00Z,57.72,-3.32,14.0,11.0,200,6,,6.21,29.64567,,,,,,,,,,,FEW,4800,BKN,22000,,,,,VFR,,,,,,,,,,,,METAR,6.0
EGQM 190150Z AUTO 16004KT 7000 BR BKN015/// 13/13 Q1008,EGQM,2021-10-19T01:50:00Z,55.42,-1.6,13.0,13.0,160,4,,4.35,29.763779,,,TRUE,,,,,,,BR,BKN,1500,,,,,,,MVFR,,,,,,,,,,,,METAR,24.0
EGQL 190150Z 24005KT 9999 BKN022 BKN240 15/13 Q1006 RMK WHT,EGQL,2021-10-19T01:50:00Z,56.38,-2.87,15.0,13.0,240,5,,6.21,29.704725,,,,,,,,,,,BKN,2200,BKN,24000,,,,,MVFR,,,,,,,,,,,,METAR,11.0
EGQK 190150Z AUTO /////KT 9999 BKN048/// 15/11 Q1004,EGQK,2021-10-19T01:50:00Z,57.65,-3.57,15.0,11.0,,,,6.21,29.64567,,,TRUE,,,,,,,,BKN,4800,,,,,,,VFR,,,,,,,,,,,,METAR,5.0
EGPU 190150Z AUTO 19017KT 9999 SCT045/// 14/13 Q1003,EGPU,2021-10-19T01:50:00Z,56.5,-6.88,14.0,13.0,190,17,,6.21,29.616142,,,TRUE,,,,,,,,SCT,4500,,,,,,,VFR,,,,,,,,,,,,METAR,12.0
EGPO 190150Z AUTO 19016KT 9999 SCT008/// BKN012/// BKN022/// 14/13 Q1000,EGPO,2021-10-19T01:50:00Z,58.22,-6.32,14.0,13.0,190,16,,6.21,29.52756,,,TRUE,,,,,,,,SCT,800,BKN,1200,BKN,2200,,,MVFR,,,,,,,,,,,,METAR,10.0
EGPL 190150Z AUTO 18018KT 9999 BKN009/// OVC013/// 15/13 Q1001,EGPL,2021-10-19T01:50:00Z,57.47,-7.37,15.0,13.0,180,18,,6.21,29.557087,,,TRUE,,,,,,,,BKN,900,OVC,1300,,,,,IFR,,,,,,,,,,,,METAR,3.0
EGPK 190150Z 17010KT 9999 FEW042 15/14 Q1006,EGPK,2021-10-19T01:50:00Z,55.5,-4.58,15.0,14.0,170,10,,6.21,29.704725,,,,,,,,,,,FEW,4200,,,,,,,VFR,,,,,,,,,,,,METAR,14.0
EGPI 190150Z AUTO 11008KT 060V130 9999 BKN031/// 15/13 Q1005,EGPI,2021-10-19T01:50:00Z,55.68,-6.25,15.0,13.0,110,8,,6.21,29.675198,,,TRUE,,,,,,,,BKN,3100,,,,,,,VFR,,,,,,,,,,,,METAR,17.0
EGPH 190150Z 22009KT CAVOK 15/13 Q1007,EGPH,2021-10-19T01:50:00Z,55.95,-3.35,15.0,13.0,220,9,,6.21,29.734253,,,,,,,,,,,CAVOK,,,,,,,,VFR,,,,,,,,,,,,METAR,29.0
EGPF 190150Z AUTO VRB03KT 9999 SCT022 12/11 Q1007,EGPF,2021-10-19T01:50:00Z,55.87,-4.42,12.0,11.0,0,3,,6.21,29.734253,,,TRUE,,,,,,,,SCT,2200,,,,,,,VFR,,,,,,,,,,,,METAR,8.0
EGPE 190150Z VRB02KT 9999 BKN049 13/11 Q1004,EGPE,2021-10-19T01:50:00Z,57.53,-4.05,13.0,11.0,0,2,,6.21,29.64567,,,,,,,,,,,BKN,4900,,,,,,,VFR,,,,,,,,,,,,METAR,7.0
EGPD 190150Z AUTO 24016KT 9999 NCD 15/13 Q1005 NOSIG,EGPD,2021-10-19T01:50:00Z,57.2,-2.22,15.0,13.0,240,16,,6.21,29.675198,,,TRUE,,,TRUE,,,,,CLR,,,,,,,,VFR,,,,,,,,,,,,METAR,65.0
EGPC 190150Z AUTO 21011KT 9999 NCD 14/12 Q1003,EGPC,2021-10-19T01:50:00Z,58.45,-3.08,14.0,12.0,210,11,,6.21,29.616142,,,TRUE,,,,,,,,CLR,,,,,,,,VFR,,,,,,,,,,,,METAR,38.0
EGPB 190150Z AUTO 25010KT 9999 SCT010/// BKN039/// 12/12 Q1003,EGPB,2021-10-19T01:50:00Z,59.87,-1.3,12.0,12.0,250,10,,6.21,29.616142,,,TRUE,,,,,,,,SCT,1000,BKN,3900,,,,,VFR,,,,,,,,,,,,METAR,2.0
EGPA 190150Z AUTO 19007KT 9999 FEW043/// 12/11 Q1003,EGPA,2021-10-19T01:50:00Z,58.95,-2.9,12.0,11.0,190,7,,6.21,29.616142,,,TRUE,,,,,,,,FEW,4300,,,,,,,VFR,,,,,,,,,,,,METAR,15.0
EGOV 190150Z AUTO 19016KT 2200 DZ OVC003/// 15/14 Q1009,EGOV,2021-10-19T01:50:00Z,53.25,-4.53,15.0,14.0,190,16,,1.37,29.793306,,,TRUE,,,,,,,DZ,OVC,300,,,,,,,LIFR,,,,,,,,,,,,SPECI,11.0
EGOS 190150Z AUTO 17005KT 9999 OVC140/// 15/14 Q1011,EGOS,2021-10-19T01:50:00Z,52.8,-2.67,15.0,14.0,170,5,,6.21,29.852362,,,TRUE,,,,,,,,OVC,14000,,,,,,,VFR,,,,,,,,,,,,SPECI,76.0
EGOP 190150Z AUTO 14008KT 2100 // OVC003/// 16/16 Q1010,EGOP,2021-10-19T01:50:00Z,51.72,-4.37,16.0,16.0,140,8,,1.3,29.822834,,,TRUE,,,,,,,,OVC,300,,,,,,,LIFR,,,,,,,,,,,,METAR,8.0
EGOM 190150Z AUTO 24004KT 9999 FEW016/// 12/12 Q1009,EGOM,2021-10-19T01:50:00Z,55.05,-2.55,12.0,12.0,240,4,,6.21,29.793306,,,TRUE,,,,,,,,FEW,1600,,,,,,,VFR,,,,,,,,,,,,SPECI,286.0
EGNX 190150Z 21010KT 9999 BKN009 15/14 Q1011,EGNX,2021-10-19T01:50:00Z,52.82,-1.32,15.0,14.0,210,10,,6.21,29.852362,,,,,,,,,,,BKN,900,,,,,,,IFR,,,,,,,,,,,,METAR,91.0
EGNT 190150Z AUTO 00000KT 9999 NCD 12/12 Q1008,EGNT,2021-10-19T01:50:00Z,55.03,-1.7,12.0,12.0,0,0,,6.21,29.763779,,,TRUE,,,,,,,,CLR,,,,,,,,VFR,,,,,,,,,,,,METAR,77.0
EGNS 190150Z 22012KT 9999 FEW005 OVC007 15/14 Q1008,EGNS,2021-10-19T01:50:00Z,54.08,-4.63,15.0,14.0,220,12,,6.21,29.763779,,,,,,,,,,,FEW,500,OVC,700,,,,,IFR,,,,,,,,,,,,METAR,18.0
EGNJ 190150Z AUTO 20007KT 7000 NCD 15/14 Q1011,EGNJ,2021-10-19T01:50:00Z,53.57,-0.35,15.0,14.0,200,7,,4.35,29.852362,,,TRUE,,,,,,,,CLR,,,,,,,,MVFR,,,,,,,,,,,,METAR,23.0
EGMD 190150Z AUTO 23015KT 8000 OVC002/// 17/17 Q1015,EGMD,2021-10-19T01:50:00Z,50.95,0.93,17.0,17.0,230,15,,4.97,29.970472,,,TRUE,,,,,,,,OVC,200,,,,,,,LIFR,,,,,,,,,,,,METAR,4.0
EGLL 190150Z AUTO 21008KT 9999 OVC003 17/16 Q1014 NOSIG,EGLL,2021-10-19T01:50:00Z,51.48,-0.45,17.0,16.0,210,8,,6.21,29.940945,,,TRUE,,,TRUE,,,,,OVC,300,,,,,,,LIFR,,,,,,,,,,,,METAR,26.0
EGLF 190150Z AUTO 21007KT 9999 OVC004/// 17/16 Q1014,EGLF,2021-10-19T01:50:00Z,51.28,-0.77,17.0,16.0,210,7,,6.21,29.940945,,,TRUE,,,,,,,,OVC,400,,,,,,,LIFR,,,,,,,,,,,,METAR,65.0
EGLC 190150Z AUTO 21007KT 9999 OVC006 17/16 Q1014,EGLC,2021-10-19T01:50:00Z,51.5,0.05,17.0,16.0,210,7,,6.21,29.940945,,,TRUE,,,,,,,,OVC,600,,,,,,,IFR,,,,,,,,,,,,METAR,10.0
EGKK 190150Z 21007KT 4000 -DZ OVC003 17/17 Q1015,EGKK,2021-10-19T01:50:00Z,51.13,-0.18,17.0,17.0,210,7,,2.49,29.970472,,,,,,,,,,-DZ,OVC,300,,,,,,,LIFR,,,,,,,,,,,,METAR,58.0
EGJJ 190150Z AUTO 19015KT 9999 FEW003/// SCT005/// BKN015/// 17/17 Q1017 RERA,EGJJ,2021-10-19T01:50:00Z,49.22,-2.2,17.0,17.0,190,15,,6.21,30.029528,,,TRUE,,,,,,,,FEW,300,SCT,500,BKN,1500,,,MVFR,,,,,,,,,,,,METAR,84.0
EGJB 190150Z 19011KT 0600 DZ FG BKN000 17/17 Q1016,EGJB,2021-10-19T01:50:00Z,49.42,-2.6,17.0,17.0,190,11,,0.37,30.0,,,,,,,,,,DZ FG,BKN,0,,,,,,,LIFR,,,,,,,,,,,,METAR,102.0
EGHQ 190150Z AUTO 19013KT 3600 +RA BKN002/// 17/17 Q1012,EGHQ,2021-10-19T01:50:00Z,50.43,-5.0,17.0,17.0,190,13,,2.24,29.88189,,,TRUE,,,,,,,+RA,BKN,200,,,,,,,LIFR,,,,,,,,,,,,METAR,101.0
EGGW 190150Z AUTO 20006KT 1400 R25/P1500 BR OVC002 16/16 Q1014,EGGW,2021-10-19T01:50:00Z,51.87,-0.37,16.0,16.0,200,6,,0.87,29.940945,,,TRUE,,,,,,,BR,OVC,200,,,,,,,LIFR,,,,,,,,,,,,METAR,159.0
EGGP 190150Z AUTO 12004KT 070V210 9999 NCD 15/14 Q1010,EGGP,2021-10-19T01:50:00Z,53.33,-2.85,15.0,14.0,120,4,,6.21,29.822834,,,TRUE,,,,,,,,CLR,,,,,,,,VFR,,,,,,,,,,,,METAR,23.0
EGGD 190150Z AUTO 18011KT 4800 BR OVC001 16/16 Q1012,EGGD,2021-10-19T01:50:00Z,51.37,-2.72,16.0,16.0,180,11,,2.98,29.88189,,,TRUE,,,,,,,BR,OVC,100,,,,,,,LIFR,,,,,,,,,,,,METAR,182.0
EGFF 190150Z AUTO 13006KT 4500 RA BKN002 BKN009 OVC016 16/16 Q1012,EGFF,2021-10-19T01:50:00Z,51.38,-3.35,16.0,16.0,130,6,,2.8,29.88189,,,TRUE,,,,,,,RA,BKN,200,BKN,900,OVC,1600,,,LIFR,,,,,,,,,,,,METAR,65.0
EGDY 190150Z AUTO 19006KT 9999 OVC005/// 17/16 Q1013,EGDY,2021-10-19T01:50:00Z,51.0,-2.63,17.0,16.0,190,6,,6.21,29.911417,,,TRUE,,,,,,,,OVC,500,,,,,,,IFR,,,,,,,,,,,,SPECI,21.0
EGDR 190150Z AUTO 19013KT 0200 // VV/// 16/16 Q1012,EGDR,2021-10-19T01:50:00Z,50.08,-5.25,16.0,16.0,190,13,,0.12,29.88189,,,TRUE,,,,,,,,OVX,0,,,,,,,LIFR,,,,,,,,,,,,METAR,74.0
EGDM 190150Z AUTO 20009KT 5000 BR OVC002/// 16/15 Q1014,EGDM,2021-10-19T01:50:00Z,51.17,-1.75,16.0,15.0,200,9,,3.11,29.940945,,,TRUE,,,,,,,BR,OVC,200,,,,,,,LIFR,,,,,,,,,,,,SPECI,122.0
EGCN 190150Z 14006KT 9999 FEW010 15/14 Q1012,EGCN,2021-10-19T01:50:00Z,53.48,-1.0,15.0,14.0,140,6,,6.21,29.88189,,,,,,,,,,,FEW,1000,,,,,,,VFR,,,,,,,,,,,,METAR,9.0
EGCK 190150Z AUTO 18014KT 9999 OVC008/// 15/14 Q1010,EGCK,2021-10-19T01:50:00Z,53.1,-4.33,15.0,14.0,180,14,,6.21,29.822834,,,TRUE,,,,,,,,OVC,800,,,,,,,IFR,,,,,,,,,,,,METAR,6.0
EGCC 190150Z AUTO 18004KT 130V240 9999 NCD 15/14 Q1011,EGCC,2021-10-19T01:50:00Z,53.35,-2.27,15.0,14.0,180,4,,6.21,29.852362,,,TRUE,,,,,,,,CLR,,,,,,,,VFR,,,,,,,,,,,,METAR,78.0
EGBB 190150Z 19004KT 150V240 9999 BKN010 16/16 Q1012,EGBB,2021-10-19T01:50:00Z,52.47,-1.75,16.0,16.0,190,4,,6.21,29.88189,,,,,,,,,,,BKN,1000,,,,,,,MVFR,,,,,,,,,,,,METAR,91.0
EGAC 190150Z AUTO 17006KT 9999 -RA NCD 14/14 Q1006,EGAC,2021-10-19T01:50:00Z,54.62,-5.87,14.0,14.0,170,6,,6.21,29.704725,,,TRUE,,,,,,,-RA,CLR,,,,,,,,VFR,,,,,,,,,,,,METAR,2.0
EGAA 190150Z AUTO 18007KT 150V210 9999 -RA //////TCU 15/14 Q1006,EGAA,2021-10-19T01:50:00Z,54.65,-6.22,15.0,14.0,180,7,,6.21,29.704725,,,TRUE,,,,,,,-RA,,,,,,,,,,,,,,,,,,,,,METAR,65.0
EFVA 190150Z AUTO 00000KT 9999 NCD M04/M04 Q1020,EFVA,2021-10-19T01:50:00Z,63.05,21.77,-4.0,-4.0,0,0,,6.21,30.11811,,,TRUE,,,,,,,,CLR,,,,,,,,VFR,,,,,,,,,,,,METAR,4.0
EFUT 190150Z AUTO 31008KT 9999 BKN046 01/M02 Q1016,EFUT,2021-10-19T01:50:00Z,60.88,26.93,1.0,-2.0,310,8,,6.21,30.0,,,TRUE,,,,,,,,BKN,4600,,,,,,,VFR,,,,,,,,,,,,METAR,104.0
EFTU 190150Z AUTO 26003KT 9999 1300 R26/P2000D NCD M02/M02 Q1020,EFTU,2021-10-19T01:50:00Z,60.52,22.27,-2.0,-2.0,260,3,,6.21,30.11811,,,TRUE,,,,,,,,CLR,,,,,,,,VFR,,,,,,,,,,,,METAR,47.0
EFTP 190150Z AUTO VRB02KT CAVOK M02/M04 Q1019,EFTP,2021-10-19T01:50:00Z,61.42,23.62,-2.0,-4.0,0,2,,6.21,30.088583,,,TRUE,,,,,,,,CAVOK,,,,,,,,VFR,,,,,,,,,,,,METAR,111.0
EFSI 190150Z AUTO VRB01KT CAVOK M03/M05 Q1019,EFSI,2021-10-19T01:50:00Z,62.7,22.83,-3.0,-5.0,0,1,,6.21,30.088583,,,TRUE,,,,,,,,CAVOK,,,,,,,,VFR,,,,,,,,,,,,METAR,90.0
EFSA 190150Z AUTO 33007KT 9999 OVC036 01/M02 Q1014,EFSA,2021-10-19T01:50:00Z,61.95,28.93,1.0,-2.0,330,7,,6.21,29.940945,,,TRUE,,,,,,,,OVC,3600,,,,,,,VFR,,,,,,,,,,,,METAR,90.0
EFRO 190150Z AUTO 32009KT CAVOK M03/M06 Q1016,EFRO,2021-10-19T01:50:00Z,66.57,25.82,-3.0,-6.0,320,9,,6.21,30.0,,,TRUE,,,,,,,,CAVOK,,,,,,,,VFR,,,,,,,,,,,,METAR,201.0
EFPO 190150Z AUTO 00000KT 9999 NCD M04/M04 Q1020,EFPO,2021-10-19T01:50:00Z,61.47,21.8,-4.0,-4.0,0,0,,6.21,30.11811,,,TRUE,,,,,,,,CLR,,,,,,,,VFR,,,,,,,,,,,,METAR,10.0
EFOU 190150Z AUTO 36009KT CAVOK M00/M05 Q1018,EFOU,2021-10-19T01:50:00Z,64.92,25.37,0.0,-5.0,360,9,,6.21,30.059055,,,TRUE,,,,,,,,CAVOK,,,,,,,,VFR,,,,,,,,,,,,METAR,15.0
EFMI 190150Z AUTO 30006KT 260V330 9999 BKN036 01/M02 Q1016,EFMI,2021-10-19T01:50:00Z,61.68,27.2,1.0,-2.0,300,6,,6.21,30.0,,,TRUE,,,,,,,,BKN,3600,,,,,,,VFR,,,,,,,,,,,,METAR,99.0
EFMA 190150Z AUTO 34001KT CAVOK M02/M03 Q1022,EFMA,2021-10-19T01:50:00Z,60.12,19.9,-2.0,-3.0,340,1,,6.21,30.177166,,,TRUE,,,,,,,,CAVOK,,,,,,,,VFR,,,,,,,,,,,,METAR,6.0
EFLP 190150Z AUTO 32009KT 280V350 9999 -SHSN BKN011 BKN031 01/M01 Q1014,EFLP,2021-10-19T01:50:00Z,61.03,28.15,1.0,-1.0,320,9,,6.21,29.940945,,,TRUE,,,,,,,-SHSN,BKN,1100,BKN,3100,,,,,MVFR,,,,,,,,,,,,METAR,102.0
EFKU 190150Z AUTO 30012KT CAVOK M00/M03 Q1015,EFKU,2021-10-19T01:50:00Z,63.02,27.8,0.0,-3.0,300,12,,6.21,29.970472,,,TRUE,,,,,,,,CAVOK,,,,,,,,VFR,,,,,,,,,,,,METAR,92.0
EFKT 190150Z AUTO 31005KT 280V350 CAVOK M06/M08 Q1017,EFKT,2021-10-19T01:50:00Z,67.7,24.85,-6.0,-8.0,310,5,,6.21,30.029528,,,TRUE,,,,,,,,CAVOK,,,,,,,,VFR,,,,,,,,,,,,METAR,190.0
EFKS 190150Z AUTO 34009KT 310V010 9999 BKN018 M03/M06 Q1012,EFKS,2021-10-19T01:50:00Z,66.0,29.23,-3.0,-6.0,340,9,,6.21,29.88189,,,TRUE,,,,,,,,BKN,1800,,,,,,,MVFR,,,,,,,,,,,,METAR,270.0
EFKK 190150Z AUTO 32003KT CAVOK M02/M03 Q1019,EFKK,2021-10-19T01:50:00Z,63.72,23.13,-2.0,-3.0,320,3,,6.21,30.088583,,,TRUE,,,,,,,,CAVOK,,,,,,,,VFR,,,,,,,,,,,,METAR,25.0
EFKI 190150Z AUTO 33010KT 300V360 9999 BKN014 M02/M04 Q1015,EFKI,2021-10-19T01:50:00Z,64.27,27.67,-2.0,-4.0,330,10,,6.21,29.970472,,,TRUE,,,,,,,,BKN,1400,,,,,,,MVFR,,,,,,,,,,,,METAR,132.0
EFKE 190150Z 34007KT CAVOK M02/M05 Q1018,EFKE,2021-10-19T01:50:00Z,65.78,24.57,-2.0,-5.0,340,7,,6.21,30.059055,,,,,,,,,,,CAVOK,,,,,,,,VFR,,,,,,,,,,,,METAR,15.0
EFJY 190150Z AUTO 30006KT 9999 FEW012 M01/M03 Q1017,EFJY,2021-10-19T01:50:00Z,62.4,25.68,-1.0,-3.0,300,6,,6.21,30.029528,,,TRUE,,,,,,,,FEW,1200,,,,,,,VFR,,,,,,,,,,,,METAR,139.0
EFJO 190150Z AUTO 32009KT 9999 OVC039 00/M03 Q1013,EFJO,2021-10-19T01:50:00Z,62.67,29.62,0.0,-3.0,320,9,,6.21,29.911417,,,TRUE,,,,,,,,OVC,3900,,,,,,,VFR,,,,,,,,,,,,METAR,118.0
EFIV 190150Z AUTO 32010KT CAVOK M04/M06 Q1015,EFIV,2021-10-19T01:50:00Z,68.62,27.42,-4.0,-6.0,320,10,,6.21,29.970472,,,TRUE,,,,,,,,CAVOK,,,,,,,,VFR,,,,,,,,,,,,METAR,145.0
EFHK 190150Z 29008KT CAVOK M02/M03 Q1019 NOSIG,EFHK,2021-10-19T01:50:00Z,60.32,24.97,-2.0,-3.0,290,8,,6.21,30.088583,,,,,,TRUE,,,,,CAVOK,,,,,,,,VFR,,,,,,,,,,,,METAR,56.0
EFHA 190150Z AUTO 29005KT CAVOK M02/M03 Q1018,EFHA,2021-10-19T01:50:00Z,61.85,24.8,-2.0,-3.0,290,5,,6.21,30.059055,,,TRUE,,,,,,,,CAVOK,,,,,,,,VFR,,,,,,,,,,,,METAR,144.0
EFET 190150Z AUTO VRB03KT CAVOK M10/M11 Q1017,EFET,2021-10-19T01:50:00Z,68.37,23.43,-10.0,-11.0,0,3,,6.21,30.029528,,,TRUE,,,,,,,,CAVOK,,,,,,,,VFR,,,,,,,,,,,,METAR,300.0
EETU 190150Z AUTO 29008KT 260V320 9999 FEW035/// 01/M01 Q1018,EETU,2021-10-19T01:50:00Z,58.32,26.68,1.0,-1.0,290,8,,6.21,30.059055,,,TRUE,,,,,,,,FEW,3500,,,,,,,VFR,,,,,,,,,,,,METAR,67.0
EETN 190150Z 34006KT 310V010 9999 FEW027 04/M02 Q1020,EETN,2021-10-19T01:50:00Z,59.4,24.82,4.0,-2.0,340,6,,6.21,30.11811,,,,,,,,,,,FEW,2700,,,,,,,VFR,,,,,,,,,,,,METAR,41.0
EEKE 190150Z AUTO 28003KT 9999NDV NSC M01/M01 Q1022,EEKE,2021-10-19T01:50:00Z,58.23,22.52,-1.0,-1.0,280,3,,,30.177166,,,TRUE,,,,,,,,CLR,,,,,,,,,,,,,,,,,,,,SPECI,4.0
EDXW 190150Z AUTO 20010KT 9999 // OVC042/// 13/11 Q1016,EDXW,2021-10-19T01:50:00Z,54.92,8.33,13.0,11.0,200,10,,6.21,30.0,,,TRUE,,,,,,,,OVC,4200,,,,,,,VFR,,,,,,,,,,,,METAR,8.0
EDWE 190150Z AUTO 18007KT 9999 // BKN039/// 12/10 Q1017,EDWE,2021-10-19T01:50:00Z,53.38,7.23,12.0,10.0,180,7,,6.21,30.029528,,,TRUE,,,,,,,,BKN,3900,,,,,,,VFR,,,,,,,,,,,,METAR,0.0
EDVE 190150Z AUTO 23004KT 180V270 9999 // BKN140/// OVC160/// 10/07 Q1021,EDVE,2021-10-19T01:50:00Z,52.32,10.55,10.0,7.0,230,4,,6.21,30.147638,,,TRUE,,,,,,,,BKN,14000,OVC,16000,,,,,VFR,,,,,,,,,,,,METAR,83.0
EDTY 190150Z AUTO 07003KT 040V100 5000 // BKN220/// 04/04 Q1024,EDTY,2021-10-19T01:50:00Z,49.12,9.78,4.0,4.0,70,3,,3.11,30.236221,,,TRUE,,,,,,,,BKN,22000,,,,,,,MVFR,,,,,,,,,,,,METAR,398.0
EDSB 190150Z AUTO 18003KT 0550 R21/0800N // VV002 07/07 Q1024,EDSB,2021-10-19T01:50:00Z,48.78,8.08,7.0,7.0,180,3,,0.34,30.236221,,,TRUE,,,,,,,,OVX,0,,,,,,,LIFR,,,,,,,,,,,200,SPECI,122.0
EDNY 190150Z AUTO 07003KT 0350 R24/0400N // VV/// 06/06 Q1026,EDNY,2021-10-19T01:50:00Z,47.67,9.52,6.0,6.0,70,3,,0.22,30.295275,,,TRUE,,,,,,,,OVX,0,,,,,,,LIFR,,,,,,,,,,,,METAR,411.0
EDMO 190150Z AUTO 19004KT 130V220 9999 // FEW230/// 05/05 Q1025,EDMO,2021-10-19T01:50:00Z,48.07,11.27,5.0,5.0,190,4,,6.21,30.265747,,,TRUE,,,,,,,,FEW,23000,,,,,,,VFR,,,,,,,,,,,,METAR,587.0
EDMA 190150Z AUTO 16004KT 0350 R25/0400N VV/// 06/05 Q1025,EDMA,2021-10-19T01:50:00Z,48.42,10.92,6.0,5.0,160,4,,0.22,30.265747,,,TRUE,,,,,,,,OVX,0,,,,,,,LIFR,,,,,,,,,,,,METAR,462.0
EDLW 190150Z AUTO 17011KT 9999 // OVC028/// 13/08 Q1020,EDLW,2021-10-19T01:50:00Z,51.52,7.62,13.0,8.0,170,11,,6.21,30.11811,,,TRUE,,,,,,,,OVC,2800,,,,,,,MVFR,,,,,,,,,,,,METAR,122.0
EDLP 190150Z 17009KT CAVOK 12/07 Q1020,EDLP,2021-10-19T01:50:00Z,51.62,8.62,12.0,7.0,170,9,,6.21,30.11811,,,,,,,,,,,CAVOK,,,,,,,,VFR,,,,,,,,,,,,METAR,211.0
EDLN 190150Z AUTO 15005KT 110V200 9999 // FEW023/// BKN064/// BKN079/// 11/10 Q1019,EDLN,2021-10-19T01:50:00Z,51.23,6.5,11.0,10.0,150,5,,6.21,30.088583,,,TRUE,,,,,,,,FEW,2300,BKN,6400,BKN,7900,,,VFR,,,,,,,,,,,,METAR,38.0
EDJA 190150Z AUTO 20003KT 180V240 9999 // SCT220/// 04/03 Q1026,EDJA,2021-10-19T01:50:00Z,47.98,10.23,4.0,3.0,200,3,,6.21,30.295275,,,TRUE,,,,,,,,SCT,22000,,,,,,,VFR,,,,,,,,,,,,METAR,625.0
EDHI 190150Z AUTO 22005KT 190V250 9999 // FEW088/// OVC110/// 11/08 Q1019,EDHI,2021-10-19T01:50:00Z,53.53,9.83,11.0,8.0,220,5,,6.21,30.088583,,,TRUE,,,,,,,,FEW,8800,OVC,11000,,,,,VFR,,,,,,,,,,,,METAR,5.0
EDDW 190150Z 15004KT CAVOK 11/08 Q1019,EDDW,2021-10-19T01:50:00Z,53.03,8.8,11.0,8.0,150,4,,6.21,30.088583,,,,,,,,,,,CAVOK,,,,,,,,VFR,,,,,,,,,,,,METAR,5.0
EDDV 190150Z 17004KT 110V220 CAVOK 11/08 Q1020,EDDV,2021-10-19T01:50:00Z,52.47,9.68,11.0,8.0,170,4,,6.21,30.11811,,,,,,,,,,,CAVOK,,,,,,,,VFR,,,,,,,,,,,,METAR,53.0
EDDS 190150Z 07002KT 9999 BCFG NSC 04/03 Q1024,EDDS,2021-10-19T01:50:00Z,48.68,9.22,4.0,3.0,70,2,,6.21,30.236221,,,,,,,,,,BCFG,CLR,,,,,,,,VFR,,,,,,,,,,,,METAR,374.0
EDDR 190150Z 20006KT 9999 -RA NSC 10/08 Q1023,EDDR,2021-10-19T01:50:00Z,49.22,7.1,10.0,8.0,200,6,,6.21,30.206694,,,,,,,,,,-RA,CLR,,,,,,,,VFR,,,,,,,,,,,,METAR,317.0
EDDP 190150Z 20010KT CAVOK 09/07 Q1022 NOSIG,EDDP,2021-10-19T01:50:00Z,51.43,12.23,9.0,7.0,200,10,,6.21,30.177166,,,,,,TRUE,,,,,CAVOK,,,,,,,,VFR,,,,,,,,,,,,METAR,129.0
EDDN 190150Z 12004KT 2800 R10/0800V1300D BCFG NSC 03/03 Q1025,EDDN,2021-10-19T01:50:00Z,49.5,11.05,3.0,3.0,120,4,,1.74,30.265747,,,,,,,,,,BCFG,CLR,,,,,,,,IFR,,,,,,,,,,,,METAR,312.0
EDDM 190150Z VRB02KT 0200 R26R/0650N R26L/0650N FG VV/// 03/03 Q1026 NOSIG,EDDM,2021-10-19T01:50:00Z,48.35,11.82,3.0,3.0,0,2,,0.12,30.295275,,,,,,TRUE,,,,FG,OVX,0,,,,,,,LIFR,,,,,,,,,,,,METAR,445.0
EDDL 190150Z 16011KT 9999 -RA FEW020 SCT030 12/09 Q1019 NOSIG,EDDL,2021-10-19T01:50:00Z,51.3,6.77,12.0,9.0,160,11,,6.21,30.088583,,,,,,TRUE,,,,-RA,FEW,2000,SCT,3000,,,,,VFR,,,,,,,,,,,,METAR,37.0
EDDK 190150Z 14008KT 9999 -RA FEW025 BKN040 11/08 Q1021 NOSIG,EDDK,2021-10-19T01:50:00Z,50.87,7.15,11.0,8.0,140,8,,6.21,30.147638,,,,,,TRUE,,,,-RA,FEW,2500,BKN,4000,,,,,VFR,,,,,,,,,,,,METAR,92.0
EDDH 190150Z 16005KT CAVOK 10/08 Q1019 NOSIG,EDDH,2021-10-19T01:50:00Z,53.63,10.0,10.0,8.0,160,5,,6.21,30.088583,,,,,,TRUE,,,,,CAVOK,,,,,,,,VFR,,,,,,,,,,,,METAR,8.0
EDDG 190150Z 15004KT 9999 BKN027 12/09 Q1019 NOSIG,EDDG,2021-10-19T01:50:00Z,52.13,7.7,12.0,9.0,150,4,,6.21,30.088583,,,,,,TRUE,,,,,BKN,2700,,,,,,,MVFR,,,,,,,,,,,,METAR,46.0
EDDF 190150Z 23001KT 9999 FEW003 06/05 Q1024 NOSIG,EDDF,2021-10-19T01:50:00Z,50.05,8.6,6.0,5.0,230,1,,6.21,30.236221,,,,,,TRUE,,,,,FEW,300,,,,,,,VFR,,,,,,,,,,,,METAR,113.0
EDDE 190150Z 20007KT CAVOK 08/06 Q1022,EDDE,2021-10-19T01:50:00Z,50.98,10.97,8.0,6.0,200,7,,6.21,30.177166,,,,,,,,,,,CAVOK,,,,,,,,VFR,,,,,,,,,,,,METAR,314.0
EDDC 190150Z 16005KT 080V240 CAVOK 08/05 Q1022,EDDC,2021-10-19T01:50:00Z,51.13,13.75,8.0,5.0,160,5,,6.21,30.177166,,,,,,,,,,,CAVOK,,,,,,,,VFR,,,,,,,,,,,,METAR,227.0
EDDB 190150Z 16007KT CAVOK 08/06 Q1021 NOSIG,EDDB,2021-10-19T01:50:00Z,52.38,13.53,8.0,6.0,160,7,,6.21,30.147638,,,,,,TRUE,,,,,CAVOK,,,,,,,,VFR,,,,,,,,,,,,METAR,48.0
EDAC 190150Z AUTO 20005KT 9999 // OVC220/// 09/05 Q1023,EDAC,2021-10-19T01:50:00Z,50.98,12.5,9.0,5.0,200,5,,6.21,30.206694,,,TRUE,,,,,,,,OVC,22000,,,,,,,VFR,,,,,,,,,,,,SPECI,193.0
EBOS 190150Z 20011KT 9999 FEW005 BKN006 15/14 Q1016 TEMPO 3000 -DZRA BR BKN003,EBOS,2021-10-19T01:50:00Z,51.2,2.87,15.0,14.0,200,11,,6.21,30.0,,,,,,,,,,,FEW,500,BKN,600,,,,,IFR,,,,,,,,,,,,METAR,5.0
EBLG 190150Z 18010KT 9999 FEW011 BKN030 13/12 Q1019 BECMG BKN012,EBLG,2021-10-19T01:50:00Z,50.63,5.45,13.0,12.0,180,10,,6.21,30.088583,,,,,,,,,,,FEW,1100,BKN,3000,,,,,MVFR,,,,,,,,,,,,METAR,187.0
EBCI 190150Z 19011KT 6000 -RA SCT004 BKN006 14/13 Q1019 NOSIG,EBCI,2021-10-19T01:50:00Z,50.47,4.45,14.0,13.0,190,11,,3.73,30.088583,,,,,,TRUE,,,,-RA,SCT,400,BKN,600,,,,,IFR,,,,,,,,,,,,METAR,176.0
EBBR 190150Z 19009KT 9999 SCT008 BKN011 14/13 Q1018 TEMPO 4000 -RADZ BKN008,EBBR,2021-10-19T01:50:00Z,50.9,4.52,14.0,13.0,190,9,,6.21,30.059055,,,,,,,,,,,SCT,800,BKN,1100,,,,,MVFR,,,,,,,,,,,,METAR,49.0
EBAW 190150Z AUTO 19009KT 9000 // BKN006/// OVC007/// 14/13 Q1017 RERA,EBAW,2021-10-19T01:50:00Z,51.2,4.47,14.0,13.0,190,9,,5.59,30.029528,,,TRUE,,,,,,,,BKN,600,OVC,700,,,,,IFR,,,,,,,,,,,,METAR,7.0
BGSF 190150Z AUTO 07011KT 9999NDV FEW250/// M07/M16 Q1024,BGSF,2021-10-19T01:50:00Z,67.0,-50.72,-7.0,-16.0,70,11,,,30.236221,,,TRUE,,,,,,,,FEW,25000,,,,,,,,,,,,,,,,,,,SPECI,75.0
BGKK 190150Z AUTO 20003KT 9999NDV NCD M02/M11 Q1022,BGKK,2021-10-19T01:50:00Z,65.57,-37.13,-2.0,-11.0,200,3,,,30.177166,,,TRUE,,,,,,,,CLR,,,,,,,,,,,,,,,,,,,,SPECI,37.0
BGJN 190150Z AUTO 10017G28KT 060V120 //// NCD M00/M18 Q1024,BGJN,2021-10-19T01:50:00Z,69.25,-51.07,0.0,-18.0,100,17,28,,30.236221,,,TRUE,,,,,,,,CLR,,,,,,,,,,,,,,,,,,,,SPECI,22.0
BGGH 190150Z AUTO 06013KT 9999NDV NCD 02/M12 Q1018,BGGH,2021-10-19T01:50:00Z,64.2,-51.68,2.0,-12.0,60,13,,,30.059055,,,TRUE,,,,,,,,CLR,,,,,,,,,,,,,,,,,,,,SPECI,76.0
BGBW 190150Z AUTO 05031KT 9999NDV BKN170/// 08/M13 Q1011,BGBW,2021-10-19T01:50:00Z,61.17,-45.42,8.0,-13.0,50,31,,,29.852362,,,TRUE,,,,,,,,BKN,17000,,,,,,,,,,,,,,,,,,,SPECI,49.0
PAKU 190149Z 27007KT 1 1/2SM R24/P6000FT -SN BR BKN010 OVC049 M08/M09 A2985,PAKU,2021-10-19T01:49:00Z,70.32,-149.6,-8.0,-9.0,270,7,,1.5,29.84941,,,,,,,,,,-SN BR,BKN,1000,OVC,4900,,,,,IFR,,,,,,,,,,,,METAR,23.0
MMTJ 190149Z 27006KT 6SM SCT026 BKN050 15/11 A3001 RMK 8/500 HZY,MMTJ,2021-10-19T01:49:00Z,32.53,-116.97,15.0,11.0,270,6,,6.0,30.008858,,,,,,,,,,,SCT,2600,BKN,5000,,,,,VFR,,,,,,,,,,,,METAR,150.0
MMPR 190149Z 36003KT 15SM FEW025 SCT220 28/25 A2985 RMK 8/408,MMPR,2021-10-19T01:49:00Z,20.67,-105.25,28.0,25.0,360,3,,15.0,29.84941,,,,,,,,,,,FEW,2500,SCT,22000,,,,,VFR,,,,,,,,,,,,METAR,6.0
MMMM 190149Z 00000KT 8SM BKN250 15/13 A3019 RMK 8/002,MMMM,2021-10-19T01:49:00Z,19.85,-101.03,15.0,13.0,0,0,,8.0,30.188976,,,,,,,,,,,BKN,25000,,,,,,,VFR,,,,,,,,,,,,METAR,1840.0
MMIO 190149Z 36005KT 10SM SCT040 17/10 A3018 RMK 8/500,MMIO,2021-10-19T01:49:00Z,25.55,-100.93,17.0,10.0,360,5,,10.0,30.180119,,,,,,,,,,,SCT,4000,,,,,,,VFR,,,,,,,,,,,,METAR,1430.0
KGEU 190149Z 20011G19KT 10SM SKC 24/06 A2981,KGEU,2021-10-19T01:49:00Z,33.53,-112.3,24.0,6.0,200,11,19,10.0,29.811024,,,,,,,,,,,SKC,,,,,,,,VFR,,,,,,,,,,,,METAR,319.0
MMMZ 190148Z 01003KT 10SM SCT240 27/24 A2986 RMK 8/002,MMMZ,2021-10-19T01:48:00Z,23.17,-106.27,27.0,24.0,10,3,,10.0,29.861221,,,,,,,,,,,SCT,24000,,,,,,,VFR,,,,,,,,,,,,METAR,7.0
MMML 190148Z 29011KT 10SM SKC 20/06 A2984 RMK MSG TX MMMX,MMML,2021-10-19T01:48:00Z,32.62,-115.23,20.0,6.0,290,11,,10.0,29.840551,,,,,,,,,,,SKC,,,,,,,,VFR,,,,,,,,,,,,METAR,21.0
MMAS 190148Z 04004KT 10SM SCT040 SCT100 BKN250 19/10 A3022 RMK 8/463,MMAS,2021-10-19T01:48:00Z,21.7,-102.32,19.0,10.0,40,4,,10.0,30.221457,,,,,,,,,,,SCT,4000,SCT,10000,BKN,25000,,,VFR,,,,,,,,,,,,METAR,1866.0
KJDN 190148Z AUTO 36017G25KT 13/01 A2987 RMK AO1 PK WND 36030/0128 SLP124 T01330011,KJDN,2021-10-19T01:48:00Z,47.33,-106.95,13.3,1.1,360,17,25,,29.870079,1012.4,,TRUE,TRUE,,,,,,,,,,,,,,,,,,,,,,,,,,,METAR,802.0
KASG 190148Z 12005KT 10SM CLR 15/10 A3009,KASG,2021-10-19T01:48:00Z,36.17,-94.12,15.0,10.0,120,5,,10.0,30.088583,,,,,,,,,,,CLR,,,,,,,,VFR,,,,,,,,,,,,METAR,410.0
MMAA 190147Z 23003KT 6SM BKN300 28/25 A2982 RMK 8/008 HZY,MMAA,2021-10-19T01:47:00Z,16.75,-99.75,28.0,25.0,230,3,,6.0,29.819881,,,,,,,,,,,BKN,30000,,,,,,,VFR,,,,,,,,,,,,METAR,5.0
KSEE 190147Z 28008KT 7SM BKN029 BKN034 16/09 A2997,KSEE,2021-10-19T01:47:00Z,32.82,-116.97,16.0,9.0,280,8,,7.0,29.970472,,,,,,,,,,,BKN,2900,BKN,3400,,,,,MVFR,,,,,,,,,,,,METAR,113.0
KSAW 190147Z 19007KT 10SM CLR 10/04 A3000,KSAW,2021-10-19T01:47:00Z,46.35,-87.4,10.0,4.0,190,7,,10.0,30.0,,,,,,,,,,,CLR,,,,,,,,VFR,,,,,,,,,,,,METAR,359.0
KPAO 190147Z 33007KT 10SM FEW035 12/07 A3002,KPAO,2021-10-19T01:47:00Z,37.47,-122.12,12.0,7.0,330,7,,10.0,30.02067,,,,,,,,,,,FEW,3500,,,,,,,VFR,,,,,,,,,,,,METAR,2.0
KLBE 190147Z 00000KT 20SM CLR 08/03 A3012,KLBE,2021-10-19T01:47:00Z,40.27,-79.4,8.0,3.0,0,0,,20.0,30.121063,,,,,,,,,,,CLR,,,,,,,,VFR,,,,,,,,,,,,METAR,345.0
KGYR 190147Z 25012KT 10SM FEW070 FEW250 24/07 A2980,KGYR,2021-10-19T01:47:00Z,33.42,-112.37,24.0,7.0,250,12,,10.0,29.799213,,,,,,,,,,,FEW,7000,FEW,25000,,,,,VFR,,,,,,,,,,,,METAR,292.0
KEVB 190147Z 06006KT 10SM SCT046 23/14 A3011 RMK LAST,KEVB,2021-10-19T01:47:00Z,29.05,-80.95,23.0,14.0,60,6,,10.0,30.109253,,,,,,,,,,,SCT,4600,,,,,,,VFR,,,,,,,,,,,,SPECI,2.0
KCWA 190147Z 18004KT 10SM CLR 12/05 A3002,KCWA,2021-10-19T01:47:00Z,44.78,-89.67,12.0,5.0,180,4,,10.0,30.02067,,,,,,,,,,,CLR,,,,,,,,VFR,,,,,,,,,,,,METAR,387.0
KCIC 190147Z 00000KT 40SM SCT050 14/05 A3004,KCIC,2021-10-19T01:47:00Z,39.78,-121.85,14.0,5.0,0,0,,40.0,30.041338,,,,,,,,,,,SCT,5000,,,,,,,VFR,,,,,,,,,,,,METAR,72.0
KCHD 190147Z 23007G15KT 10SM CLR 25/06 A2980,KCHD,2021-10-19T01:47:00Z,33.27,-111.82,25.0,6.0,230,7,15,10.0,29.799213,,,,,,,,,,,CLR,,,,,,,,VFR,,,,,,,,,,,,METAR,378.0
KCFO 190147Z 13006KT 10SM SCT120 16/M06 A2978,KCFO,2021-10-19T01:47:00Z,39.78,-104.55,16.0,-6.0,130,6,,10.0,29.778543,,,,,,,,,,,SCT,12000,,,,,,,VFR,,,,,,,,,,,,METAR,1672.0
KALN 190147Z 16008KT 10SM CLR 14/07 A3011,KALN,2021-10-19T01:47:00Z,38.88,-90.03,14.0,7.0,160,8,,10.0,30.109253,,,,,,,,,,,CLR,,,,,,,,VFR,,,,,,,,,,,,METAR,159.0
KADS 190147Z 15009KT 13SM SKC 20/06 A3004,KADS,2021-10-19T01:47:00Z,32.97,-96.83,20.0,6.0,150,9,,13.0,30.041338,,,,,,,,,,,SKC,,,,,,,,VFR,,,,,,,,,,,,METAR,198.0
MMMD 190146Z 03006KT 7SM FEW100 SCT300 28/23 A2995 RMK 8/078,MMMD,2021-10-19T01:46:00Z,20.95,-89.65,28.0,23.0,30,6,,7.0,29.949802,,,,,,,,,,,FEW,10000,SCT,30000,,,,,VFR,,,,,,,,,,,,METAR,10.0
MMCU 190146Z 20003KT 10SM SCT100 BKN200 20/08 A3005 RMK 8/072 ISOL SC,MMCU,2021-10-19T01:46:00Z,28.7,-105.97,20.0,8.0,200,3,,10.0,30.050198,,,,,,,,,,,SCT,10000,BKN,20000,,,,,VFR,,,,,,,,,,,,METAR,1349.0
MMCL 190146Z 30005KT 10SM OVC230 27/23 A2986 RMK 8/007 ISOL SC,MMCL,2021-10-19T01:46:00Z,24.77,-107.47,27.0,23.0,300,5,,10.0,29.861221,,,,,,,,,,,OVC,23000,,,,,,,VFR,,,,,,,,,,,,METAR,35.0
KSCH 190146Z 29007KT 15SM CLR 07/03 A2993 RMK LAST,KSCH,2021-10-19T01:46:00Z,42.85,-73.92,7.0,3.0,290,7,,15.0,29.929134,,,,,,,,,,,CLR,,,,,,,,VFR,,,,,,,,,,,,METAR,100.0
PALP 190145Z 00000KT 7SM FEW030 BKN100 M09/M11 A2986 RMK LAST,PALP,2021-10-19T01:45:00Z,70.33,-150.93,-9.0,-11.0,0,0,,7.0,29.861221,,,,,,,,,,,FEW,3000,BKN,10000,,,,,VFR,,,,,,,,,,,,SPECI,4.0
MMTG 190145Z 31016KT 7SM BKN080 BKN300 24/19 A2998 RMK 8/052,MMTG,2021-10-19T01:45:00Z,16.57,-93.03,24.0,19.0,310,16,,7.0,29.97933,,,,,,,,,,,BKN,8000,BKN,30000,,,,,VFR,,,,,,,,,,,,METAR,463.0
MMPQ 190145Z 29003KT 7SM SCT015CB 25/23 A2985 RMK 8/300 HZY MSG TX MMMX,MMPQ,2021-10-19T01:45:00Z,17.53,-92.02,25.0,23.0,290,3,,7.0,29.84941,,,,,,,,,,,SCT,1500,,,,,,,VFR,,,,,,,,,,,,METAR,48.0
MMPB 190145Z 12005KT 9SM SCT020TCU 14/11 A3032 RMK 8/200,MMPB,2021-10-19T01:45:00Z,19.17,-98.37,14.0,11.0,120,5,,9.0,30.318897,,,,,,,,,,,SCT,2000,,,,,,,VFR,,,,,,,,,,,,METAR,2250.0
MMLM 190145Z 27005KT 10SM SCT030 SCT090 SCT220 25/19 A2988 RMK 8/431,MMLM,2021-10-19T01:45:00Z,25.68,-109.08,25.0,19.0,270,5,,10.0,29.878937,,,,,,,,,,,SCT,3000,SCT,9000,SCT,22000,,,VFR,,,,,,,,,,,,METAR,6.0
MMGL 190145Z 26008KT 8SM SCT020CB BKN100 20/12 A3014 RMK 8/960 LTGIC S/SE,MMGL,2021-10-19T01:45:00Z,20.52,-103.32,20.0,12.0,260,8,,8.0,30.138779,,,,,,,,,,,SCT,2000,BKN,10000,,,,,VFR,,,,,,,,,,,,METAR,1531.0
LMML 190145Z 07004KT 9999 FEW024 16/15 Q1024 NOSIG,LMML,2021-10-19T01:45:00Z,35.85,14.47,16.0,15.0,70,4,,6.21,30.236221,,,,,,TRUE,,,,,FEW,2400,,,,,,,VFR,,,,,,,,,,,,METAR,78.0
LIRP 190145Z 11005KT CAVOK 10/09 Q1027 NOSIG,LIRP,2021-10-19T01:45:00Z,43.68,10.38,10.0,9.0,110,5,,6.21,30.324802,,,,,,TRUE,,,,,CAVOK,,,,,,,,VFR,,,,,,,,,,,,METAR,1.0
LHSN 190145Z 25004KT CAVOK 06/04 Q1028 NOSIG RMK BLU,LHSN,2021-10-19T01:45:00Z,47.12,20.23,6.0,4.0,250,4,,6.21,30.35433,,,,,,TRUE,,,,,CAVOK,,,,,,,,VFR,,,,,,,,,,,,METAR,89.0
LHSM 190145Z AUTO 00000KT 5000 BR NSC 03/03 Q1029,LHSM,2021-10-19T01:45:00Z,46.68,17.17,3.0,3.0,0,0,,3.11,30.383858,,,TRUE,,,,,,,BR,CLR,,,,,,,,MVFR,,,,,,,,,,,,METAR,119.0
LHPR 190145Z AUTO 09002KT CAVOK 02/01 Q1028,LHPR,2021-10-19T01:45:00Z,47.63,17.82,2.0,1.0,90,2,,6.21,30.35433,,,TRUE,,,,,,,,CAVOK,,,,,,,,VFR,,,,,,,,,,,,METAR,127.0
LHPP 190145Z AUTO 00000KT CAVOK 06/04 Q1028,LHPP,2021-10-19T01:45:00Z,45.98,18.23,6.0,4.0,0,0,,6.21,30.35433,,,TRUE,,,,,,,,CAVOK,,,,,,,,VFR,,,,,,,,,,,,METAR,193.0
LHPA 190145Z 15004KT CAVOK 03/03 Q1028 NOSIG RMK BLU,LHPA,2021-10-19T01:45:00Z,47.35,17.5,3.0,3.0,150,4,,6.21,30.35433,,,,,,TRUE,,,,,CAVOK,,,,,,,,VFR,,,,,,,,,,,,METAR,143.0
LHKE 190145Z 00000KT 6000 NSC 03/02 Q1028 NOSIG RMK WHT,LHKE,2021-10-19T01:45:00Z,46.92,19.75,3.0,2.0,0,0,,3.73,30.35433,,,,,,TRUE,,,,,CLR,,,,,,,,MVFR,,,,,,,,,,,,METAR,113.0
KWDG 190145Z 15009KT 10SM SCT200 16/07 A2994 RMK LAST,KWDG,2021-10-19T01:45:00Z,36.37,-97.78,16.0,7.0,150,9,,10.0,29.940945,,,,,,,,,,,SCT,20000,,,,,,,VFR,,,,,,,,,,,,SPECI,352.0
KVCV 190145Z AUTO 25011KT 10SM SKC 11/M04 A2996,KVCV,2021-10-19T01:45:00Z,34.58,-117.38,11.0,-4.0,250,11,,10.0,29.958662,,,TRUE,,,,,,,,SKC,,,,,,,,VFR,,,,,,,,,,,,METAR,871.0
KUES 190145Z 00000KT 10SM CLR 11/05 A3006,KUES,2021-10-19T01:45:00Z,43.05,-88.25,11.0,5.0,0,0,,10.0,30.059055,,,,,,,,,,,CLR,,,,,,,,VFR,,,,,,,,,,,,METAR,273.0
KSWF 190145Z 26008KT 10SM BKN060 07/04 A2995,KSWF,2021-10-19T01:45:00Z,41.5,-74.08,7.0,4.0,260,8,,10.0,29.949802,,,,,,,,,,,BKN,6000,,,,,,,VFR,,,,,,,,,,,,METAR,139.0
KRYN 190145Z 21008KT 10SM CLR 23/09 A2986,KRYN,2021-10-19T01:45:00Z,32.15,-111.17,23.0,9.0,210,8,,10.0,29.861221,,,,,,,,,,,CLR,,,,,,,,VFR,,,,,,,,,,,,METAR,731.0
KMER 190145Z 34004KT 10SM SKC 13/03 A3000,KMER,2021-10-19T01:45:00Z,37.38,-120.57,13.0,3.0,340,4,,10.0,30.0,,,,,,,,,,,SKC,,,,,,,,VFR,,,,,,,,,,,,METAR,58.0
KJVL 190145Z 00000KT 10SM CLR 13/06 A3005,KJVL,2021-10-19T01:45:00Z,42.62,-89.05,13.0,6.0,0,0,,10.0,30.050198,,,,,,,,,,,CLR,,,,,,,,VFR,,,,,,,,,,,,METAR,244.0
KGYY 190145Z 15003KT 10SM CLR 10/09 A3009,KGYY,2021-10-19T01:45:00Z,41.62,-87.42,10.0,9.0,150,3,,10.0,30.088583,,,,,,,,,,,CLR,,,,,,,,VFR,,,,,,,,,,,,METAR,179.0
KF45 190145Z AUTO 01004KT 10SM A3010 RMK AO2,KF45,2021-10-19T01:45:00Z,26.85,-80.22,,,10,4,,10.0,30.100393,,,TRUE,TRUE,,,,,,,,,,,,,,,,,,,,,,,,,,,METAR,6.0
KEMT 190145Z 24005KT 10SM BKN047 17/07 A2994,KEMT,2021-10-19T01:45:00Z,34.08,-118.03,17.0,7.0,240,5,,10.0,29.940945,,,,,,,,,,,BKN,4700,,,,,,,VFR,,,,,,,,,,,,METAR,84.0
KCGF 190145Z 00000KT 20SM CLR 07/06 A3011,KCGF,2021-10-19T01:45:00Z,41.57,-81.47,7.0,6.0,0,0,,20.0,30.109253,,,,,,,,,,,CLR,,,,,,,,VFR,,,,,,,,,,,,METAR,265.0
KBJC 190145Z COR 35005KT 10SM SCT120 17/M05 A2978,KBJC,2021-10-19T01:45:00Z,39.9,-105.1,17.0,-5.0,350,5,,10.0,29.778543,,TRUE,,,,,,,,,SCT,12000,,,,,,,VFR,,,,,,,,,,,,METAR,1694.0
KBAK 190145Z 00000KT 10SM CLR 09/07 A3017,KBAK,2021-10-19T01:45:00Z,39.27,-85.9,9.0,7.0,0,0,,10.0,30.171259,,,,,,,,,,,CLR,,,,,,,,VFR,,,,,,,,,,,,METAR,199.0
KATW 190145Z VRB04KT 10SM CLR 13/08 A3002,KATW,2021-10-19T01:45:00Z,44.27,-88.52,13.0,8.0,0,4,,10.0,30.02067,,,,,,,,,,,CLR,,,,,,,,VFR,,,,,,,,,,,,METAR,266.0
KANE 190145Z 15008KT 10SM CLR 18/04 A2990,KANE,2021-10-19T01:45:00Z,45.15,-93.22,18.0,4.0,150,8,,10.0,29.899607,,,,,,,,,,,CLR,,,,,,,,VFR,,,,,,,,,,,,METAR,276.0
CYTR 190145Z 29008KT 15SM FEW043 07/03 A2999 RMK SC1 LAST STFD OBS/NEXT 190945 UTC SLP158,CYTR,2021-10-19T01:45:00Z,44.12,-77.52,7.0,3.0,290,8,,15.0,29.991142,1015.8,,,,,,,,,,FEW,4300,,,,,,,VFR,,,,,,,,,,,,SPECI,80.0
MMZO 190144Z 00000KT 10SM FEW210 28/24 A2978 RMK 8/004,MMZO,2021-10-19T01:44:00Z,19.13,-104.57,28.0,24.0,0,0,,10.0,29.778543,,,,,,,,,,,FEW,21000,,,,,,,VFR,,,,,,,,,,,,SPECI,11.0
MMSP 190144Z 26003KT 8SM FEW250 17/09 A3022 RMK 8/001,MMSP,2021-10-19T01:44:00Z,22.25,-100.93,17.0,9.0,260,3,,8.0,30.221457,,,,,,,,,,,FEW,25000,,,,,,,VFR,,,,,,,,,,,,SPECI,1841.0
MMCS 190144Z 25010KT 10SM SKC 26/00 A2994,MMCS,2021-10-19T01:44:00Z,31.63,-106.42,26.0,0.0,250,10,,10.0,29.940945,,,,,,,,,,,SKC,,,,,,,,VFR,,,,,,,,,,,,METAR,1194.0
MMZC 190143Z 00000KT 10SM BKN030 17/12 A3025 RMK 8/400,MMZC,2021-10-19T01:43:00Z,22.9,-102.68,17.0,12.0,0,0,,10.0,30.250984,,,,,,,,,,,BKN,3000,,,,,,,MVFR,,,,,,,,,,,,SPECI,2175.0
MMVA 190143Z 00000KT 6SM SCT017 SCT060 BKN200 24/24 A2997 RMK 8/628,MMVA,2021-10-19T01:43:00Z,18.0,-92.82,24.0,24.0,0,0,,6.0,29.970472,,,,,,,,,,,SCT,1700,SCT,6000,BKN,20000,,,VFR,,,,,,,,,,,,METAR,13.0
MMCZ 190142Z 10006KT 7SM BKN250 26/23 A2993 RMK 8/008 SC,MMCZ,2021-10-19T01:42:00Z,20.52,-86.92,26.0,23.0,100,6,,7.0,29.929134,,,,,,,,,,,BKN,25000,,,,,,,VFR,,,,,,,,,,,,METAR,7.0
MMUN 190141Z 00000KT 7SM FEW015TCU SCT250 29/24 A2995 RMK 8/208 SC,MMUN,2021-10-19T01:41:00Z,21.03,-86.85,29.0,24.0,0,0,,7.0,29.949802,,,,,,,,,,,FEW,1500,SCT,25000,,,,,VFR,,,,,,,,,,,,METAR,13.0
MMLO 190141Z 36004KT 8SM SCT030 BKN080 BKN220 17/14 A3025 RMK 8/463,MMLO,2021-10-19T01:41:00Z,21.0,-101.47,17.0,14.0,360,4,,8.0,30.250984,,,,,,,,,,,SCT,3000,BKN,8000,BKN,22000,,,VFR,,,,,,,,,,,,SPECI,1805.0
RJNY 190140Z 03007KT 350V070 9999 FEW015 BKN100 16/12 Q1015 RMK 1CU015 7AC100 A2999,RJNY,2021-10-19T01:40:00Z,34.82,138.3,16.0,12.0,30,7,,6.21,29.970472,,,,,,,,,,,FEW,1500,BKN,10000,,,,,VFR,,,,,,,,,,,,METAR,7.0
MMZH 190140Z 30005KT 7SM SCT090 SCT250 29/23 A2986 RMK 8/032 HZY,MMZH,2021-10-19T01:40:00Z,17.6,-101.47,29.0,23.0,300,5,,7.0,29.861221,,,,,,,,,,,SCT,9000,SCT,25000,,,,,VFR,,,,,,,,,,,,METAR,9.0
MMTP 190140Z 00000KT 10SM BKN015 BKN060 24/24 A2987 RMK 60015 8/460 -RAE05,MMTP,2021-10-19T01:40:00Z,14.78,-92.37,24.0,24.0,0,0,,10.0,29.870079,,,,,,,,,,,BKN,1500,BKN,6000,,,,,MVFR,,,,,,,,,,,,METAR,27.0
MMTM 190140Z 00000KT 8SM SCT200 23/20 A3001 RMK 8/001,MMTM,2021-10-19T01:40:00Z,22.28,-97.87,23.0,20.0,0,0,,8.0,30.008858,,,,,,,,,,,SCT,20000,,,,,,,VFR,,,,,,,,,,,,METAR,21.0
MMTC 190140Z 03005KT 10SM SCT110 BKN250 28/10 A3001 RMK 8/072,MMTC,2021-10-19T01:40:00Z,25.57,-103.4,28.0,10.0,30,5,,10.0,30.008858,,,,,,,,,,,SCT,11000,BKN,25000,,,,,VFR,,,,,,,,,,,,SPECI,1128.0
MMQT 190140Z 08008KT 10SM SKC 18/09 A3027 RMK CI,MMQT,2021-10-19T01:40:00Z,20.62,-100.18,18.0,9.0,80,8,,10.0,30.268702,,,,,,,,,,,SKC,,,,,,,,VFR,,,,,,,,,,,,METAR,1909.0
MMPS 190140Z 05005KT 8SM SCT010CB BKN070 BKN310 27/19 A2988 RMK 8/963 FQST TS S-SW FQTS LTGIC S-SW-NW,MMPS,2021-10-19T01:40:00Z,15.87,-97.08,27.0,19.0,50,5,,8.0,29.878937,,,,,,,,,,,SCT,1000,BKN,7000,BKN,31000,,,VFR,,,,,,,,,,,,METAR,65.0
MMMY 190140Z 10006KT 10SM SKC 22/15 A3001,MMMY,2021-10-19T01:40:00Z,25.77,-100.1,22.0,15.0,100,6,,10.0,30.008858,,,,,,,,,,,SKC,,,,,,,,VFR,,,,,,,,,,,,METAR,382.0
MMIA 190140Z 00000KT 7SM BKN015 OVC090 24/22 A2998 RMK 8/76/,MMIA,2021-10-19T01:40:00Z,19.27,-103.57,24.0,22.0,0,0,,7.0,29.97933,,,,,,,,,,,BKN,1500,OVC,9000,,,,,MVFR,,,,,,,,,,,,SPECI,744.0
MMHO 190140Z 24004KT 10SM SKC 25/15 A2989 RMK HZY,MMHO,2021-10-19T01:40:00Z,29.08,-111.05,25.0,15.0,240,4,,10.0,29.890747,,,,,,,,,,,SKC,,,,,,,,VFR,,,,,,,,,,,,METAR,186.0
MMCN 190140Z 24002KT 10SM SKC 24/16 A2985 RMK HZY ISOL CI,MMCN,2021-10-19T01:40:00Z,27.4,-109.83,24.0,16.0,240,2,,10.0,29.84941,,,,,,,,,,,SKC,,,,,,,,VFR,,,,,,,,,,,,METAR,57.0
MMAN 190140Z 00000KT 12SM SKC 21/13 A3006 RMK ISOL AC,MMAN,2021-10-19T01:40:00Z,25.87,-100.23,21.0,13.0,0,0,,12.0,30.059055,,,,,,,,,,,SKC,,,,,,,,VFR,,,,,,,,,,,,SPECI,447.0
KMHV 190140Z AUTO 30019G25KT 10SM CLR 10/M01 A2989 RMK A01,KMHV,2021-10-19T01:40:00Z,35.07,-118.15,10.0,-1.0,300,19,25,10.0,29.890747,,,TRUE,TRUE,,,,,,,CLR,,,,,,,,VFR,,,,,,,,,,,,METAR,841.0
KGZN 190140Z AUTO 15011KT 10SM CLR 17/07 A2998 RMK AO2,KGZN,2021-10-19T01:40:00Z,32.37,-99.02,17.0,7.0,150,11,,10.0,29.97933,,,TRUE,TRUE,,,,,,,CLR,,,,,,,,VFR,,,,,,,,,,,,METAR,522.0
RJAK 190138Z 07005KT 010V100 9999 -RA FEW020 BKN030 BKN080 14/09 Q1017 RMK 1SC020 6SC030 7AC080 A3003 P/FR,RJAK,2021-10-19T01:38:00Z,36.03,140.18,14.0,9.0,70,5,,6.21,30.029528,,,,,,,,,,-RA,FEW,2000,BKN,3000,BKN,8000,,,MVFR,,,,,,,,,,,,METAR,20.0
ETNN 190138Z 14003KT 6000 +RA BKN040 BKN120 11/10 Q1020 WHT,ETNN,2021-10-19T01:38:00Z,50.82,6.67,11.0,10.0,140,3,,3.73,30.11811,,,,,,,,,,+RA,BKN,4000,BKN,12000,,,,,MVFR,,,,,,,,,,,,SPECI,108.0
KXVG 190136Z AUTO 15006KT 10SM CLR 16/06 A2984 RMK AO2,KXVG,2021-10-19T01:36:00Z,46.98,-94.2,16.0,6.0,150,6,,10.0,29.840551,,,TRUE,TRUE,,,,,,,CLR,,,,,,,,VFR,,,,,,,,,,,,METAR,407.0
KTWT 190135Z AUTO 00000KT 10SM CLR 10/07 A3016 RMK AO2,KTWT,2021-10-19T01:35:00Z,,,10.0,7.0,0,0,,10.0,30.159449,,,TRUE,TRUE,,,,,,,CLR,,,,,,,,VFR,,,,,,,,,,,,METAR,
KOZS 190135Z AUTO 15005KT 10SM CLR 15/06 A3007 RMK AO2,KOZS,2021-10-19T01:35:00Z,37.97,-92.68,15.0,6.0,150,5,,10.0,30.070866,,,TRUE,TRUE,,,,,,,CLR,,,,,,,,VFR,,,,,,,,,,,,METAR,321.0
KMDS 190135Z AUTO 18008KT 10SM CLR 13/03 A2984 RMK AO2,KMDS,2021-10-19T01:35:00Z,44.02,-97.08,13.0,3.0,180,8,,10.0,29.840551,,,TRUE,TRUE,,,,,,,CLR,,,,,,,,VFR,,,,,,,,,,,,METAR,524.0
KKNB 190135Z AUTO 28017G24KT 10SM FEW060 BKN075 BKN110 08/M08 A2989 RMK A01,KKNB,2021-10-19T01:35:00Z,37.02,-112.53,8.0,-8.0,280,17,24,10.0,29.890747,,,TRUE,TRUE,,,,,,,FEW,6000,BKN,7500,BKN,11000,,,VFR,,,,,,,,,,,,METAR,1476.0
KHOB 190135Z AUTO 15009G16KT 10SM CLR 20/05 A2994 RMK AO2,KHOB,2021-10-19T01:35:00Z,32.67,-103.22,20.0,5.0,150,9,16,10.0,29.940945,,,TRUE,TRUE,,,,,,,CLR,,,,,,,,VFR,,,,,,,,,,,,METAR,1112.0
CWND 191331Z M01/M02 RMK 8020 T10121015,CWND,2021-10-19T01:34:07Z,69.63,-135.43,-1.2,-1.5,,,,,,,,,,,,,,,,,,,,,,,,,,,,,,,,,,,,METAR,14.0
YESP 190134Z AUTO 31020G31KT 9999 // BKN115 OVC125 23/14 Q1003,YESP,2021-10-19T01:34:00Z,-33.68,121.82,23.0,14.0,310,20,31,6.21,29.616142,,,TRUE,,,,,,,,BKN,11500,OVC,12500,,,,,VFR,,,,,,,,,,,,SPECI,143.0
RJCT 190133Z VRB02KT 9999 FEW020 BKN040 BKN080 07/01 Q1022 RMK 2CU020 6CU040 6AC080 A3018,RJCT,2021-10-19T01:33:00Z,42.88,143.17,7.0,1.0,0,2,,6.21,30.177166,,,,,,,,,,,FEW,2000,BKN,4000,BKN,8000,,,VFR,,,,,,,,,,,,SPECI,79.0
RJTK 190132Z 01007KT 9999 -SHRA FEW020 BKN025 BKN070 14/11 Q1017 RMK 1CU020 5CU025 6AC070 A3004,RJTK,2021-10-19T01:32:00Z,35.38,139.92,14.0,11.0,10,7,,6.21,30.029528,,,,,,,,,,-SHRA,FEW,2000,BKN,2500,BKN,7000,,,MVFR,,,,,,,,,,,,SPECI,2.0
PAGM 190131Z AUTO 12028G41KT 2 1/2SM -SN BR OVC008 00/M02 A2925 RMK AO2 PK WND 12041/0126 VIS 1 3/4V3 P0000 FZRANO,PAGM,2021-10-19T01:31:00Z,63.77,-171.73,0.0,-2.0,120,28,41,2.5,29.25,,,TRUE,TRUE,,,,TRUE,,-SN BR,OVC,800,,,,,,,IFR,,,,,,0.005,,,,,,SPECI,6.0
YSSY 190130Z 17021KT 9999 FEW015 19/15 Q1015,YSSY,2021-10-19T01:30:00Z,-33.95,151.17,19.0,15.0,170,21,,6.21,29.970472,,,,,,,,,,,FEW,1500,,,,,,,VFR,,,,,,,,,,,,METAR,3.0
YMEK 190130Z AUTO 31025G35KT 9999 // SCT100 27/04 Q1009,YMEK,2021-10-19T01:30:00Z,-26.62,118.55,27.0,4.0,310,25,35,6.21,29.793306,,,TRUE,,,,,,,,SCT,10000,,,,,,,VFR,,,,,,,,,,,,SPECI,521.0
WMKK 190130Z VRB04KT 9999 FEW018 29/24 Q1013 NOSIG,WMKK,2021-10-19T01:30:00Z,2.75,101.72,29.0,24.0,0,4,,6.21,29.911417,,,,,,TRUE,,,,,FEW,1800,,,,,,,VFR,,,,,,,,,,,,METAR,21.0
WIPP 190130Z 29003KT 8000 FEW010 28/24 Q1015 NOSIG,WIPP,2021-10-19T01:30:00Z,-2.88,104.7,28.0,24.0,290,3,,4.97,29.970472,,,,,,TRUE,,,,,FEW,1000,,,,,,,MVFR,,,,,,,,,,,,METAR,7.0
WIOO 190130Z 17007KT 9999 FEW011CB SCT012 27/25 Q1014 RERA NOSIG,WIOO,2021-10-19T01:30:00Z,-0.15,109.4,27.0,25.0,170,7,,6.21,29.940945,,,,,,TRUE,,,,,FEW,1100,SCT,1200,,,,,VFR,,,,,,,,,,,,METAR,4.0
WIMM 190130Z 12005KT 9999 SCT018 27/25 Q1013 NOSIG,WIMM,2021-10-19T01:30:00Z,3.57,98.67,27.0,25.0,120,5,,6.21,29.911417,,,,,,TRUE,,,,,SCT,1800,,,,,,,VFR,,,,,,,,,,,,METAR,27.0
WIHH 190130Z 23006KT 5000 HZ FEW020 28/24 Q1015 NOSIG,WIHH,2021-10-19T01:30:00Z,-6.27,106.88,28.0,24.0,230,6,,3.11,29.970472,,,,,,TRUE,,,,HZ,FEW,2000,,,,,,,MVFR,,,,,,,,,,,,METAR,26.0
WIEE 190130Z 10001KT 9999 FEW020 27/23 Q1014 NOSIG,WIEE,2021-10-19T01:30:00Z,-0.78,100.28,27.0,23.0,100,1,,6.21,29.940945,,,,,,TRUE,,,,,FEW,2000,,,,,,,VFR,,,,,,,,,,,,METAR,5.0
WIDD 190130Z 21004KT 9999 SCT014 29/25 Q1015 NOSIG,WIDD,2021-10-19T01:30:00Z,1.12,104.12,29.0,25.0,210,4,,6.21,29.970472,,,,,,TRUE,,,,,SCT,1400,,,,,,,VFR,,,,,,,,,,,,METAR,26.0
WIBB 190130Z 15005KT 8000 FEW015 26/24 Q1013 NOSIG,WIBB,2021-10-19T01:30:00Z,0.47,101.45,26.0,24.0,150,5,,4.97,29.911417,,,,,,TRUE,,,,,FEW,1500,,,,,,,MVFR,,,,,,,,,,,,METAR,41.0
WATT 190130Z 33005KT 9999 FEW018 31/25 Q1015 NOSIG,WATT,2021-10-19T01:30:00Z,-10.17,123.67,31.0,25.0,330,5,,6.21,29.970472,,,,,,TRUE,,,,,FEW,1800,,,,,,,VFR,,,,,,,,,,,,METAR,104.0
WARR 190130Z 10004KT 9999 FEW020 31/24 Q1014 NOSIG,WARR,2021-10-19T01:30:00Z,-7.37,112.78,31.0,24.0,100,4,,6.21,29.940945,,,,,,TRUE,,,,,FEW,2000,,,,,,,VFR,,,,,,,,,,,,METAR,3.0
WAQQ 190130Z 29003KT 9999 BKN015 28/25 Q1013 METAR ,WAQQ,2021-10-19T01:30:00Z,3.33,117.57,28.0,25.0,290,3,,6.21,29.911417,,,,,,,,,,,BKN,1500,,,,,,,MVFR,,,,,,,,,,,,METAR,6.0
WAPP 190130Z 22004KT 170V260 9999 FEW018 30/27 Q1013 NOSIG,WAPP,2021-10-19T01:30:00Z,-3.7,128.08,30.0,27.0,220,4,,6.21,29.911417,,,,,,TRUE,,,,,FEW,1800,,,,,,,VFR,,,,,,,,,,,,METAR,20.0
WAOO 190130Z 05003KT 9999 SCT020 30/25 Q1014 NOSIG,WAOO,2021-10-19T01:30:00Z,-3.45,114.77,30.0,25.0,50,3,,6.21,29.940945,,,,,,TRUE,,,,,SCT,2000,,,,,,,VFR,,,,,,,,,,,,METAR,23.0
WAHS 190130Z 00000KT 5000 HZ FEW014 29/24 Q1014 NOSIG,WAHS,2021-10-19T01:30:00Z,-6.98,110.38,29.0,24.0,0,0,,3.11,29.940945,,,,,,TRUE,,,,HZ,FEW,1400,,,,,,,MVFR,,,,,,,,,,,,METAR,3.0
WADD 190130Z VRB03KT 9999 FEW017 31/25 Q1014 NOSIG,WADD,2021-10-19T01:30:00Z,-8.73,115.17,31.0,25.0,0,3,,6.21,29.940945,,,,,,TRUE,,,,,FEW,1700,,,,,,,VFR,,,,,,,,,,,,METAR,3.0
WAAA 190130Z VRB02KT 9999 FEW019 30/25 Q1014 NOSIG,WAAA,2021-10-19T01:30:00Z,-5.07,119.55,30.0,25.0,0,2,,6.21,29.940945,,,,,,TRUE,,,,,FEW,1900,,,,,,,VFR,,,,,,,,,,,,METAR,13.0
VYYY 190130Z 08006KT 7000 BKN018 FEW025CB BKN110 27/26 Q1013,VYYY,2021-10-19T01:30:00Z,16.9,96.13,27.0,26.0,80,6,,4.35,29.911417,,,,,,,,,,,BKN,1800,FEW,2500,BKN,11000,,,MVFR,,,,,,,,,,,,METAR,31.0
VVNB 190130Z VRB01KT 9999 FEW016 SCT027 OVC032 21/21 Q1020 NOSIG,VVNB,2021-10-19T01:30:00Z,21.22,105.8,21.0,21.0,0,1,,6.21,30.11811,,,,,,TRUE,,,,,FEW,1600,SCT,2700,OVC,3200,,,VFR,,,,,,,,,,,,METAR,6.0
VVCI 190130Z 29004KT 7000 OVC022 22/21 Q1018 NOSIG,VVCI,2021-10-19T01:30:00Z,20.82,106.73,22.0,21.0,290,4,,4.35,30.059055,,,,,,TRUE,,,,,OVC,2200,,,,,,,MVFR,,,,,,,,,,,,METAR,6.0
VOPB 190130Z 20006KT 6000 G/CLOUDY SCT012 SCT080 28/25 Q1012 TEMPO DZ,VOPB,2021-10-19T01:30:00Z,11.63,92.73,28.0,25.0,200,6,,3.73,29.88189,,,,,,,,,,,SCT,1200,SCT,8000,,,,,MVFR,,,,,,,,,,,,METAR,1.0
VEBS 190130Z 19004KT 3500 -RA FEW012 SCT018 FEW030CB OVC090 26/26 Q1008 TEMPO 3000 -TSRA,VEBS,2021-10-19T01:30:00Z,20.25,85.82,26.0,26.0,190,4,,2.17,29.763779,,,,,,,,,,-RA,FEW,1200,SCT,1800,FEW,3000,OVC,9000,IFR,,,,,,,,,,,,METAR,42.0
VAID 190130Z 29006KT 2500 HZ FEW020 18/16 Q1011 NOSIG,VAID,2021-10-19T01:30:00Z,22.72,75.8,18.0,16.0,290,6,,1.55,29.852362,,,,,,TRUE,,,,HZ,FEW,2000,,,,,,,IFR,,,,,,,,,,,,METAR,564.0
UTTT 190130Z 06004KT 5000 FU NSC 08/02 Q1015 R08R/CLRD70 NOSIG,UTTT,2021-10-19T01:30:00Z,41.27,69.27,8.0,2.0,60,4,,3.11,29.970472,,,,,,TRUE,,,,FU,CLR,,,,,,,,MVFR,,,,,,,,,,,,METAR,429.0
UTST 190130Z 03004KT CAVOK 07/01 Q1015 R25/CLRD70 NOSIG,UTST,2021-10-19T01:30:00Z,37.28,67.32,7.0,1.0,30,4,,6.21,29.970472,,,,,,TRUE,,,,,CAVOK,,,,,,,,VFR,,,,,,,,,,,,METAR,311.0
UTSS 190130Z 15006KT 6000 NSC 10/00 Q1015 R09/70D NOSIG,UTSS,2021-10-19T01:30:00Z,39.7,66.98,10.0,0.0,150,6,,3.73,29.970472,,,,,,TRUE,,,,,CLR,,,,,,,,MVFR,,,,,,,,,,,,METAR,665.0
UTSK 190130Z 07006KT CAVOK 08/M03 Q1014 R16/CLRD70,UTSK,2021-10-19T01:30:00Z,38.8,65.77,8.0,-3.0,70,6,,6.21,29.940945,,,,,,,,,,,CAVOK,,,,,,,,VFR,,,,,,,,,,,,METAR,399.0
UTSB 190130Z 07002KT CAVOK 06/M02 Q1014 R01/CLRD70 NOSIG,UTSB,2021-10-19T01:30:00Z,39.77,64.48,6.0,-2.0,70,2,,6.21,29.940945,,,,,,TRUE,,,,,CAVOK,,,,,,,,VFR,,,,,,,,,,,,METAR,225.0
UTSA 190130Z 10006KT 9999 NSC 07/M04 Q1014 R07/CLRD70 NOSIG,UTSA,2021-10-19T01:30:00Z,40.12,65.17,7.0,-4.0,100,6,,6.21,29.940945,,,,,,TRUE,,,,,CLR,,,,,,,,VFR,,,,,,,,,,,,METAR,346.0
UTNU 190130Z 15004KT CAVOK 04/M01 Q1013 R31/CLRD70 NOSIG,UTNU,2021-10-19T01:30:00Z,41.58,60.63,4.0,-1.0,150,4,,6.21,29.911417,,,,,,TRUE,,,,,CAVOK,,,,,,,,VFR,,,,,,,,,,,,METAR,97.0
UTNN 190130Z 30002KT CAVOK 03/M06 Q1013 R33/CLRD60 NOSIG,UTNN,2021-10-19T01:30:00Z,42.48,59.63,3.0,-6.0,300,2,,6.21,29.911417,,,,,,TRUE,,,,,CAVOK,,,,,,,,VFR,,,,,,,,,,,,METAR,76.0
UTFN 190130Z 01002KT 6000 NSC 08/03 Q1015 R28/CLRD70 NOSIG,UTFN,2021-10-19T01:30:00Z,40.98,71.57,8.0,3.0,10,2,,3.73,29.970472,,,,,,TRUE,,,,,CLR,,,,,,,,MVFR,,,,,,,,,,,,METAR,477.0
UTFF 190130Z 16008KT 8000 NSC 10/01 Q1015 R18/CLRD70,UTFF,2021-10-19T01:30:00Z,40.37,71.73,10.0,1.0,160,8,,4.97,29.970472,,,,,,,,,,,CLR,,,,,,,,MVFR,,,,,,,,,,,,METAR,612.0
UTFA 190130Z 00000KT 1400 BR NSC 06/03 1015,UTFA,2021-10-19T01:30:00Z,40.73,72.3,6.0,3.0,0,0,,0.87,,,,,,,,,,,BR,CLR,,,,,,,,LIFR,,,,,,,,,,,,METAR,474.0
SBCT 190130Z 12005KT 3000 -RADZ BR OVC003 12/12 Q1022,SBCT,2021-10-19T01:30:00Z,-25.52,-49.17,12.0,12.0,120,5,,1.86,30.177166,,,,,,,,,,-RA -DZ BR,OVC,300,,,,,,,LIFR,,,,,,,,,,,,SPECI,914.0
LWSK 190130Z 04008KT 9999 OVC050 12/07 Q1027 NOSIG,LWSK,2021-10-19T01:30:00Z,41.97,21.63,12.0,7.0,40,8,,6.21,30.324802,,,,,,TRUE,,,,,OVC,5000,,,,,,,VFR,,,,,,,,,,,,METAR,232.0
LEST 190130Z 16007KT 3000 BR FEW002 15/13 Q1021 NOSIG,LEST,2021-10-19T01:30:00Z,42.88,-8.42,15.0,13.0,160,7,,1.86,30.147638,,,,,,TRUE,,,,BR,FEW,200,,,,,,,IFR,,,,,,,,,,,,METAR,363.0
HSSK 190130Z 07004KT CAVOK 28/02 Q1009 NOSIG,HSSK,2021-10-19T01:30:00Z,15.58,32.55,28.0,2.0,70,4,,6.21,29.793306,,,,,,TRUE,,,,,CAVOK,,,,,,,,VFR,,,,,,,,,,,,METAR,380.0
GQNO 190130Z 35009KT 8000 NSC 26/13 Q1011 NOSIG,GQNO,2021-10-19T01:30:00Z,18.3,-15.97,26.0,13.0,350,9,,4.97,29.852362,,,,,,TRUE,,,,,CLR,,,,,,,,MVFR,,,,,,,,,,,,METAR,1.0
GABS 190130Z 31004KT 9999 FEW020 27/21 Q1012 NOSIG,GABS,2021-10-19T01:30:00Z,12.53,-7.95,27.0,21.0,310,4,,6.21,29.88189,,,,,,TRUE,,,,,FEW,2000,,,,,,,VFR,,,,,,,,,,,,METAR,375.0
DAON 190130Z 00000KT CAVOK 16/08 Q1023,DAON,2021-10-19T01:30:00Z,35.02,-1.47,16.0,8.0,0,0,,6.21,30.206694,,,,,,,,,,,CAVOK,,,,,,,,VFR,,,,,,,,,,,,METAR,245.0
SBCF 190127Z 16007KT 1800 R16R///// R34L///// -TSRA BCFG SCT002 BKN025 FEW030CB BKN080 19/18 Q1018 RERA,SBCF,2021-10-19T01:27:00Z,-19.63,-43.97,19.0,18.0,160,7,,1.12,30.059055,,,,,,,,,,BCFG -TSRA,SCT,200,BKN,2500,FEW,3000,BKN,8000,IFR,,,,,,,,,,,,SPECI,825.0
RJTC 190125Z 34006KT 9999 FEW020 BKN030 BKN080 13/08 Q1018 RMK 1CU020 6SC030 7AC080 A3007,RJTC,2021-10-19T01:25:00Z,35.7,139.4,13.0,8.0,340,6,,6.21,30.059055,,,,,,,,,,,FEW,2000,BKN,3000,BKN,8000,,,MVFR,,,,,,,,,,,,SPECI,86.0
SBBV 190124Z 35006KT 2000 TSRA BKN020 FEW030CB BKN070 24/22 Q1013,SBBV,2021-10-19T01:24:00Z,2.85,-60.7,24.0,22.0,350,6,,1.24,29.911417,,,,,,,,,,TSRA,BKN,2000,FEW,3000,BKN,7000,,,IFR,,,,,,,,,,,,SPECI,80.0
RJCA 190122Z 17010KT 9999 FEW030 SCT040 BKN200 12/04 Q1017 RMK 1CU030 3CU040 6CI200 A3006 MAX WIND 19KT,RJCA,2021-10-19T01:22:00Z,43.78,142.37,12.0,4.0,170,10,,6.21,30.029528,,,,,,,,,,,FEW,3000,SCT,4000,BKN,20000,,,VFR,,,,,,,,,,,,METAR,113.0
RJOE 190121Z 27005KT 210V320 9999 FEW012 SCT020 BKN060 17/13 Q1016 RMK 1CU012 3CU020 5SC060 A3001,RJOE,2021-10-19T01:21:00Z,34.52,136.67,17.0,13.0,270,5,,6.21,30.0,,,,,,,,,,,FEW,1200,SCT,2000,BKN,6000,,,VFR,,,,,,,,,,,,METAR,6.0
ETWM 190120Z AUTO /////KT //// // ////// 12/09 Q1018 ///,ETWM,2021-10-19T01:20:00Z,52.72,7.33,12.0,9.0,,,,,30.059055,,,TRUE,,,,,,,,,,,,,,,,,,,,,,,,,,,,SPECI,18.0
ETSN 190120Z 20003KT 0200 FG VV000 07/06 Q1025 RED,ETSN,2021-10-19T01:20:00Z,48.72,11.22,7.0,6.0,200,3,,0.12,30.265747,,,,,,,,,,FG,OVX,0,,,,,,,LIFR,,,,,,,,,,,0,METAR,378.0
ETSL 190120Z VRB02KT 8000 BKN220 04/03 Q1025 BLU+,ETSL,2021-10-19T01:20:00Z,48.18,10.87,4.0,3.0,0,2,,4.97,30.265747,,,,,,,,,,,BKN,22000,,,,,,,MVFR,,,,,,,,,,,,METAR,548.0
ETSI 190120Z AUTO 19003KT 0150 // ////// 06/06 Q1026 ///,ETSI,2021-10-19T01:20:00Z,48.72,11.53,6.0,6.0,190,3,,0.09,30.295275,,,TRUE,,,,,,,,,,,,,,,,,,,,,,,,,,,,METAR,366.0
ETSH 190120Z 18005KT 9999 FEW100 OVC170 09/07 Q1022 BLU,ETSH,2021-10-19T01:20:00Z,51.77,13.17,9.0,7.0,180,5,,6.21,30.177166,,,,,,,,,,,FEW,10000,OVC,17000,,,,,VFR,,,,,,,,,,,,METAR,79.0
ETSB 190120Z AUTO 24006KT 5000 // ////// 08/07 Q1022 ///,ETSB,2021-10-19T01:20:00Z,50.17,7.07,8.0,7.0,240,6,,3.11,30.177166,,,TRUE,,,,,,,,,,,,,,,,,,,,,,,,,,,,SPECI,477.0
ETNW 190120Z 21011KT 9999 FEW032 BKN130 11/08 Q1019 BLU,ETNW,2021-10-19T01:20:00Z,52.45,9.42,11.0,8.0,210,11,,6.21,30.088583,,,,,,,,,,,FEW,3200,BKN,13000,,,,,VFR,,,,,,,,,,,,METAR,57.0
ETNT 190120Z 19007KT 9999 BKN080 12/10 Q1017 BLU,ETNT,2021-10-19T01:20:00Z,53.53,7.67,12.0,10.0,190,7,,6.21,30.029528,,,,,,,,,,,BKN,8000,,,,,,,VFR,,,,,,,,,,,,METAR,5.0
ETNS 190120Z AUTO 17007KT 6000 // ////// 10/08 Q1017 ///,ETNS,2021-10-19T01:20:00Z,54.47,9.52,10.0,8.0,170,7,,3.73,30.029528,,,TRUE,,,,,,,,,,,,,,,,,,,,,,,,,,,,METAR,22.0
ETNL 190120Z 17005KT 9999 BKN140 09/07 Q1020 BLU,ETNL,2021-10-19T01:20:00Z,53.92,12.27,9.0,7.0,170,5,,6.21,30.11811,,,,,,,,,,,BKN,14000,,,,,,,VFR,,,,,,,,,,,,METAR,40.0
ETNH 190120Z 18005KT 9999 BKN150 11/08 Q1017 BLU,ETNH,2021-10-19T01:20:00Z,54.32,9.55,11.0,8.0,180,5,,6.21,30.029528,,,,,,,,,,,BKN,15000,,,,,,,VFR,,,,,,,,,,,,METAR,6.0
ETMN 190120Z 19007KT 9999 BKN054 OVC080 11/08 Q1018 BLU,ETMN,2021-10-19T01:20:00Z,53.77,8.67,11.0,8.0,190,7,,6.21,30.059055,,,,,,,,,,,BKN,5400,OVC,8000,,,,,VFR,,,,,,,,,,,,METAR,23.0
ETHS 190120Z 19004KT 9999 BKN130 09/07 Q1020 BLU,ETHS,2021-10-19T01:20:00Z,52.92,10.18,9.0,7.0,190,4,,6.21,30.11811,,,,,,,,,,,BKN,13000,,,,,,,VFR,,,,,,,,,,,,METAR,71.0
ETHN 190120Z 14004KT 9999 MIFG BKN200 06/05 Q1024 BLU+,ETHN,2021-10-19T01:20:00Z,49.38,9.97,6.0,5.0,140,4,,6.21,30.236221,,,,,,,,,,MIFG,BKN,20000,,,,,,,VFR,,,,,,,,,,,,METAR,466.0
ETHL 190120Z VRB02KT 0300 FG VV000 02/02 Q1026 RED,ETHL,2021-10-19T01:20:00Z,48.22,9.92,2.0,2.0,0,2,,0.19,30.295275,,,,,,,,,,FG,OVX,0,,,,,,,LIFR,,,,,,,,,,,0,METAR,536.0
ETHF 190120Z 14004KT 9999 OVC140 07/06 Q1023 BLU,ETHF,2021-10-19T01:20:00Z,51.12,9.28,7.0,6.0,140,4,,6.21,30.206694,,,,,,,,,,,OVC,14000,,,,,,,VFR,,,,,,,,,,,,METAR,171.0
ETHC 190120Z 19005KT 9999 BKN130 10/07 Q1020 BLU,ETHC,2021-10-19T01:20:00Z,52.6,10.02,10.0,7.0,190,5,,6.21,30.11811,,,,,,,,,,,BKN,13000,,,,,,,VFR,,,,,,,,,,,,METAR,35.0
ETHB 190120Z AUTO 19009KT 9999 // ////// 11/08 Q1019 ///,ETHB,2021-10-19T01:20:00Z,52.27,9.07,11.0,8.0,190,9,,6.21,30.088583,,,TRUE,,,,,,,,,,,,,,,,,,,,,,,,,,,,SPECI,69.0
ETHA 190120Z AUTO 25005KT //// // ////// 04/03 Q1026 ///,ETHA,2021-10-19T01:20:00Z,47.83,10.87,4.0,3.0,250,5,,,30.295275,,,TRUE,,,,,,,,,,,,,,,,,,,,,,,,,,,,SPECI,738.0
ETGG 190120Z AUTO 18010KT 9999 // ////// 10/08 Q1017 ///,ETGG,2021-10-19T01:20:00Z,54.83,9.5,10.0,8.0,180,10,,6.21,30.029528,,,TRUE,,,,,,,,,,,,,,,,,,,,,,,,,,,,SPECI,33.0
ENZV 190120Z 12014KT 9999 -RA FEW007 SCT019 BKN033 09/06 Q1011,ENZV,2021-10-19T01:20:00Z,58.88,5.63,9.0,6.0,120,14,,6.21,29.852362,,,,,,,,,,-RA,FEW,700,SCT,1900,BKN,3300,,,VFR,,,,,,,,,,,,METAR,7.0
EGTE 190120Z 15008KT 9000 FEW004 BKN009 17/16 Q1013,EGTE,2021-10-19T01:20:00Z,50.73,-3.42,17.0,16.0,150,8,,5.59,29.911417,,,,,,,,,,,FEW,400,BKN,900,,,,,IFR,,,,,,,,,,,,METAR,30.0
EGMC 190120Z 20007KT 6000 -RA BKN005 16/16 Q1014,EGMC,2021-10-19T01:20:00Z,51.57,0.7,16.0,16.0,200,7,,3.73,29.940945,,,,,,,,,,-RA,BKN,500,,,,,,,IFR,,,,,,,,,,,,METAR,15.0
EDFH 190120Z 16010KT 5000 BR NSC 06/06 Q1022,EDFH,2021-10-19T01:20:00Z,49.95,7.27,6.0,6.0,160,10,,3.11,30.177166,,,,,,,,,,BR,CLR,,,,,,,,MVFR,,,,,,,,,,,,METAR,494.0
RJTR 190118Z AUTO 30006KT 9SM OVC028 12/10 A3004 RMK AO2 RAE18 SLP175 $,RJTR,2021-10-19T01:18:00Z,35.52,139.4,12.0,10.0,300,6,,9.0,30.041338,1017.5,,TRUE,TRUE,TRUE,,,,,,OVC,2800,,,,,,,MVFR,,,,,,,,,,,,METAR,106.0
K40B 190116Z AUTO VRB02KT 05/05 A2964 RMK AO1 SLP043 T00500048 52005,K40B,2021-10-19T01:16:00Z,46.62,-69.52,5.0,4.8,0,2,,,29.639763,1004.3,,TRUE,TRUE,,,,,,,,,,,,,,,,0.5,,,,,,,,,,,METAR,344.0
RJAI 190112Z 07002KT 9999 -RA FEW025 BKN035 BKN090 13/08 Q1018 RMK 1CU025 5SC035 7AC090 A3008,RJAI,2021-10-19T01:12:00Z,35.72,139.92,13.0,8.0,70,2,,6.21,30.059055,,,,,,,,,,-RA,FEW,2500,BKN,3500,BKN,9000,,,VFR,,,,,,,,,,,,METAR,31.0
YHUG 190111Z AUTO 19015KT 9999 // SCT087 SCT115 35/05 Q1015,YHUG,2021-10-19T01:11:00Z,-20.82,144.23,35.0,5.0,190,15,,6.21,29.970472,,,TRUE,,,,,,,,SCT,8700,SCT,11500,,,,,VFR,,,,,,,,,,,,SPECI,320.0
VCRI 190110Z 00000KT 9999 FEW018 25/25 Q1010 NOSIG,VCRI,2021-10-19T01:10:00Z,6.28,81.13,25.0,25.0,0,0,,6.21,29.822834,,,,,,TRUE,,,,,FEW,1800,,,,,,,VFR,,,,,,,,,,,,METAR,50.0
VCBI 190110Z VRB02KT 9000 SCT017 25/23 Q1010 NOSIG,VCBI,2021-10-19T01:10:00Z,7.17,79.88,25.0,23.0,0,2,,5.59,29.822834,,,,,,TRUE,,,,,SCT,1700,,,,,,,VFR,,,,,,,,,,,,METAR,10.0
SBLB 190105Z AUTO 15019KT 9999 SCT028 22/20 Q1016 W24/S4,SBLB,2021-10-19T01:05:00Z,-22.1,-39.92,22.0,20.0,150,19,,6.21,30.0,,,TRUE,,,,,,,,SCT,2800,,,,,,,VFR,,,,,,,,,,,,METAR,10.0
YRMD 190100Z AUTO 27007KT 230V310 9999 // NCD 39/00 Q1013,YRMD,2021-10-19T01:00:00Z,-20.7,143.12,39.0,0.0,270,7,,6.21,29.911417,,,TRUE,,,,,,,,CLR,,,,,,,,VFR,,,,,,,,,,,,METAR,209.0
YOLD 190100Z AUTO 06011KT 9999 // NCD 30/04 Q1017,YOLD,2021-10-19T01:00:00Z,-30.48,136.88,30.0,4.0,60,11,,6.21,30.029528,,,TRUE,,,,,,,,CLR,,,,,,,,VFR,,,,,,,,,,,,METAR,102.0
YNWN 190100Z AUTO 33020KT 9999 // NCD 31/04 Q1013,YNWN,2021-10-19T01:00:00Z,-23.42,119.8,31.0,4.0,330,20,,6.21,29.911417,,,TRUE,,,,,,,,CLR,,,,,,,,VFR,,,,,,,,,,,,METAR,526.0
YNTN 190100Z AUTO 35005KT 310V020 9999 // NCD 35/17 Q1013,YNTN,2021-10-19T01:00:00Z,-17.68,141.07,35.0,17.0,350,5,,6.21,29.911417,,,TRUE,,,,,,,,CLR,,,,,,,,VFR,,,,,,,,,,,,METAR,19.0
YNBR 190100Z AUTO 22004KT 180V250 9999 // NCD 25/08 Q1016,YNBR,2021-10-19T01:00:00Z,-30.32,149.83,25.0,8.0,220,4,,6.21,30.0,,,TRUE,,,,,,,,CLR,,,,,,,,VFR,,,,,,,,,,,,METAR,230.0
YNAR 190100Z AUTO 22011KT 9999 // NCD 19/07 Q1019,YNAR,2021-10-19T01:00:00Z,-34.7,146.52,19.0,7.0,220,11,,6.21,30.088583,,,TRUE,,,,,,,,CLR,,,,,,,,VFR,,,,,,,,,,,,METAR,142.0
YMTG 190100Z AUTO 09006KT 9999 // BKN054 15/07 Q1024,YMTG,2021-10-19T01:00:00Z,-37.75,140.78,15.0,7.0,90,6,,6.21,30.236221,,,TRUE,,,,,,,,BKN,5400,,,,,,,VFR,,,,,,,,,,,,METAR,65.0
YMOR 190100Z AUTO 31005KT 200V360 9999 // NCD 26/10 Q1016,YMOR,2021-10-19T01:00:00Z,-29.5,149.85,26.0,10.0,310,5,,6.21,30.0,,,TRUE,,,,,,,,CLR,,,,,,,,VFR,,,,,,,,,,,,METAR,211.0
YMIA 190100Z AUTO 18007KT 130V220 9999 // NCD 17/01 Q1022,YMIA,2021-10-19T01:00:00Z,-34.23,142.08,17.0,1.0,180,7,,6.21,30.177166,,,TRUE,,,,,,,,CLR,,,,,,,,VFR,,,,,,,,,,,,METAR,53.0
YMER 190100Z AUTO 22006KT 9999 -SHRA BKN055 OVC063 13/10 Q1019,YMER,2021-10-19T01:00:00Z,-36.92,149.9,13.0,10.0,220,6,,6.21,30.088583,,,TRUE,,,,,,,-SHRA,BKN,5500,OVC,6300,,,,,VFR,,,,,,,,,,,,METAR,2.0
YMEN 190100Z AUTO 16011KT 9999 // SCT049 SCT056 15/09 Q1022,YMEN,2021-10-19T01:00:00Z,-37.72,144.9,15.0,9.0,160,11,,6.21,30.177166,,,TRUE,,,,,,,,SCT,4900,SCT,5600,,,,,VFR,,,,,,,,,,,,METAR,86.0
YMDG 190100Z AUTO 31010KT 9999 // NCD 23/08 Q1016,YMDG,2021-10-19T01:00:00Z,-32.57,149.62,23.0,8.0,310,10,,6.21,30.0,,,TRUE,,,,,,,,CLR,,,,,,,,VFR,,,,,,,,,,,,METAR,470.0
YMAY 190100Z AUTO 13007KT 9999 // NCD 17/08 Q1018,YMAY,2021-10-19T01:00:00Z,-36.07,146.95,17.0,8.0,130,7,,6.21,30.059055,,,TRUE,,,,,,,,CLR,,,,,,,,VFR,,,,,,,,,,,,METAR,156.0
YLRE 190100Z AUTO 36008KT 340V040 9999 // NCD 35/00 Q1015,YLRE,2021-10-19T01:00:00Z,-23.43,144.28,35.0,0.0,360,8,,6.21,29.970472,,,TRUE,,,,,,,,CLR,,,,,,,,VFR,,,,,,,,,,,,METAR,191.0
YLIS 190100Z AUTO 23005KT 9999 // NCD 23/14 Q1015,YLIS,2021-10-19T01:00:00Z,-28.83,153.27,23.0,14.0,230,5,,6.21,29.970472,,,TRUE,,,,,,,,CLR,,,,,,,,VFR,,,,,,,,,,,,METAR,6.0
YLEC 190100Z AUTO 11017KT 9999 // NCD 27/05 Q1018,YLEC,2021-10-19T01:00:00Z,-30.6,138.43,27.0,5.0,110,17,,6.21,30.059055,,,TRUE,,,,,,,,CLR,,,,,,,,VFR,,,,,,,,,,,,METAR,261.0
YKRY 190100Z AUTO 20006KT 150V240 9999 // SCT044 25/13 Q1016,YKRY,2021-10-19T01:00:00Z,-26.57,151.83,25.0,13.0,200,6,,6.21,30.0,,,TRUE,,,,,,,,SCT,4400,,,,,,,VFR,,,,,,,,,,,,METAR,435.0
YGTH 190100Z AUTO 20010KT 170V230 9999 // NCD 18/05 Q1019,YGTH,2021-10-19T01:00:00Z,-34.25,146.07,18.0,5.0,200,10,,6.21,30.088583,,,TRUE,,,,,,,,CLR,,,,,,,,VFR,,,,,,,,,,,,METAR,132.0
YGTE 190100Z AUTO 03006KT 350V080 9999 // NCD 35/20 Q1012,YGTE,2021-10-19T01:00:00Z,-13.97,136.45,35.0,20.0,30,6,,6.21,29.88189,,,TRUE,,,,,,,,CLR,,,,,,,,VFR,,,,,,,,,,,,METAR,14.0
YGFN 190100Z AUTO 02007KT 350V050 9999 // NCD 23/16 Q1015,YGFN,2021-10-19T01:00:00Z,-29.77,153.03,23.0,16.0,20,7,,6.21,29.970472,,,TRUE,,,,,,,,CLR,,,,,,,,VFR,,,,,,,,,,,,METAR,26.0
YEML 190100Z AUTO 23005KT 9999 // NCD 31/10 Q1015,YEML,2021-10-19T01:00:00Z,-23.57,148.18,31.0,10.0,230,5,,6.21,29.970472,,,TRUE,,,,,,,,CLR,,,,,,,,VFR,,,,,,,,,,,,METAR,192.0
YDBY 190100Z AUTO 30006KT 270V330 9999 // NCD 33/14 Q1014,YDBY,2021-10-19T01:00:00Z,-17.37,123.67,33.0,14.0,300,6,,6.21,29.940945,,,TRUE,,,,,,,,CLR,,,,,,,,VFR,,,,,,,,,,,,METAR,7.0
YCNM 190100Z AUTO 21004KT 140V240 //// // ////// 26/13 Q1016,YCNM,2021-10-19T01:00:00Z,-30.98,148.38,26.0,13.0,210,4,,,30.0,,,TRUE,,,,,,,,,,,,,,,,,,,,,,,,,,,,METAR,180.0
YCDU 190100Z AUTO 05018KT 9999 // NCD 31/06 Q1015,YCDU,2021-10-19T01:00:00Z,-32.12,133.7,31.0,6.0,50,18,,6.21,29.970472,,,TRUE,,,,,,,,CLR,,,,,,,,VFR,,,,,,,,,,,,METAR,21.0
YBPN 190100Z AUTO 36011KT 9999 // NCD 32/21 Q1013,YBPN,2021-10-19T01:00:00Z,-20.5,148.55,32.0,21.0,360,11,,6.21,29.911417,,,TRUE,,,,,,,,CLR,,,,,,,,VFR,,,,,,,,,,,,METAR,20.0
YBOK 190100Z 24006KT 210V270 9999 FEW035 23/12 Q1016,YBOK,2021-10-19T01:00:00Z,-27.42,151.73,23.0,12.0,240,6,,6.21,30.0,,,,,,,,,,,FEW,3500,,,,,,,VFR,,,,,,,,,,,,METAR,406.0
YBNA 190100Z AUTO 10006KT 070V140 9999 // NCD 22/16 Q1015,YBNA,2021-10-19T01:00:00Z,-28.83,153.57,22.0,16.0,100,6,,6.21,29.970472,,,TRUE,,,,,,,,CLR,,,,,,,,VFR,,,,,,,,,,,,METAR,3.0
YBMK 190100Z AUTO 03011KT 9999 // SCT024 BKN029 29/21 Q1015,YBMK,2021-10-19T01:00:00Z,-21.17,149.17,29.0,21.0,30,11,,6.21,29.970472,,,TRUE,,,,,,,,SCT,2400,BKN,2900,,,,,MVFR,,,,,,,,,,,,METAR,4.0
YBHI 190100Z AUTO 14014KT 9999 // NCD 20/04 Q1020,YBHI,2021-10-19T01:00:00Z,-32.0,141.47,20.0,4.0,140,14,,6.21,30.11811,,,TRUE,,,,,,,,CLR,,,,,,,,VFR,,,,,,,,,,,,METAR,285.0
WIDN 190100Z 00000KT 9999 FEW017 26/25 Q1014 NOSIG,WIDN,2021-10-19T01:00:00Z,0.92,104.53,26.0,25.0,0,0,,6.21,29.940945,,,,,,TRUE,,,,,FEW,1700,,,,,,,VFR,,,,,,,,,,,,METAR,18.0
WAKK 190100Z 09008KT 9999 SCT016 31/24 Q1013 NOSIG,WAKK,2021-10-19T01:00:00Z,-8.52,140.42,31.0,24.0,90,8,,6.21,29.911417,,,,,,TRUE,,,,,SCT,1600,,,,,,,VFR,,,,,,,,,,,,METAR,5.0
VRMM 190100Z 30004KT 9999 FEW017TCU BKN120 28/25 Q1011 TEMPO 5000 SHRA,VRMM,2021-10-19T01:00:00Z,4.2,73.52,28.0,25.0,300,4,,6.21,29.852362,,,,,,,,,,,FEW,1700,BKN,12000,,,,,VFR,,,,,,,,,,,,METAR,2.0
VOGO 190100Z VRB02KT 6000 FEW012 26/24 Q1010 NOSIG,VOGO,2021-10-19T01:00:00Z,15.38,73.83,26.0,24.0,0,2,,3.73,29.822834,,,,,,TRUE,,,,,FEW,1200,,,,,,,MVFR,,,,,,,,,,,,METAR,56.0
VGEG 190100Z 00000KT 5000 CLOUDY SCT017 BKN120 27/26 Q1011 NOSIG,VGEG,2021-10-19T01:00:00Z,22.23,91.82,27.0,26.0,0,0,,3.11,29.852362,,,,,,TRUE,,,,,SCT,1700,BKN,12000,,,,,MVFR,,,,,,,,,,,,METAR,7.0
VEIM 190100Z 00000KT 3000 BR FEW010 SCT018 BKN100 23/21 Q1015 NOSIG,VEIM,2021-10-19T01:00:00Z,24.77,93.9,23.0,21.0,0,0,,1.86,29.970472,,,,,,TRUE,,,,BR,FEW,1000,SCT,1800,BKN,10000,,,IFR,,,,,,,,,,,,METAR,777.0
VCCC 190100Z VRB01KT 8000 FEW016 BKN018TCU(N/NE/E/SE/S/SW/W/NW) 27/25 Q1010 A2984,VCCC,2021-10-19T01:00:00Z,6.82,79.88,27.0,25.0,0,1,,4.97,29.822834,,,,,,,,,,,FEW,1600,,,,,,,MVFR,,,,,,,,,,,,METAR,6.0
SUMU 190100Z 13006KT CAVOK 13/08 Q1023 NOSIG,SUMU,2021-10-19T01:00:00Z,-34.83,-56.02,13.0,8.0,130,6,,6.21,30.206694,,,,,,TRUE,,,,,CAVOK,,,,,,,,VFR,,,,,,,,,,,,METAR,32.0
SBYS 190100Z 21008KT 9999 FEW018 BKN034 19/18 Q1018,SBYS,2021-10-19T01:00:00Z,-21.97,-47.33,19.0,18.0,210,8,,6.21,30.059055,,,,,,,,,,,FEW,1800,BKN,3400,,,,,VFR,,,,,,,,,,,,METAR,600.0
SBVT 190100Z 27002KT 6000 -RA FEW005 BKN010 OVC015 22/22 Q1016,SBVT,2021-10-19T01:00:00Z,-20.25,-40.28,22.0,22.0,270,2,,3.73,30.0,,,,,,,,,,-RA,FEW,500,BKN,1000,OVC,1500,,,MVFR,,,,,,,,,,,,METAR,4.0
SBUR 190100Z 09005KT 9999 SCT040 BKN100 10/09 Q1017,SBUR,2021-10-19T01:00:00Z,-19.77,-47.97,10.0,9.0,90,5,,6.21,30.029528,,,,,,,,,,,SCT,4000,BKN,10000,,,,,VFR,,,,,,,,,,,,METAR,807.0
SBUL 190100Z 11009KT CAVOK 20/18 Q1018,SBUL,2021-10-19T01:00:00Z,-18.87,-48.22,20.0,18.0,110,9,,6.21,30.059055,,,,,,,,,,,CAVOK,,,,,,,,VFR,,,,,,,,,,,,METAR,945.0
SBTE 190100Z 34015KT 9999 -RA BKN030 25/23 Q1011,SBTE,2021-10-19T01:00:00Z,-5.05,-42.82,25.0,23.0,340,15,,6.21,29.852362,,,,,,,,,,-RA,BKN,3000,,,,,,,MVFR,,,,,,,,,,,,METAR,60.0
SBTA 190100Z 21003KT 160V260 7000 SCT015 OVC032 18/17 Q1018,SBTA,2021-10-19T01:00:00Z,-23.03,-45.5,18.0,17.0,210,3,,4.35,30.059055,,,,,,,,,,,SCT,1500,OVC,3200,,,,,MVFR,,,,,,,,,,,,METAR,578.0
SBSV 190100Z 08010KT 9999 FEW020 26/20 Q1014,SBSV,2021-10-19T01:00:00Z,-12.9,-38.32,26.0,20.0,80,10,,6.21,29.940945,,,,,,,,,,,FEW,2000,,,,,,,VFR,,,,,,,,,,,,METAR,9.0
SBSR 190100Z 17006KT 9999 FEW035TCU SCT040 23/17 Q1016,SBSR,2021-10-19T01:00:00Z,-20.8,-49.4,23.0,17.0,170,6,,6.21,30.0,,,,,,,,,,,FEW,3500,SCT,4000,,,,,VFR,,,,,,,,,,,,METAR,537.0
SBSP 190100Z 15009KT 9999 SCT005 OVC007 15/14 Q1021,SBSP,2021-10-19T01:00:00Z,-23.62,-46.65,15.0,14.0,150,9,,6.21,30.147638,,,,,,,,,,,SCT,500,OVC,700,,,,,IFR,,,,,,,,,,,,METAR,802.0
SBSN 190100Z 21004KT 9999 SCT015 SCT100 26/25 Q1012,SBSN,2021-10-19T01:00:00Z,-2.42,-54.78,26.0,25.0,210,4,,6.21,29.88189,,,,,,,,,,,SCT,1500,SCT,10000,,,,,VFR,,,,,,,,,,,,METAR,57.0
SBSM 190100Z 10007KT 9999 FEW040 17/14 Q1020,SBSM,2021-10-19T01:00:00Z,-29.72,-53.7,17.0,14.0,100,7,,6.21,30.11811,,,,,,,,,,,FEW,4000,,,,,,,VFR,,,,,,,,,,,,METAR,86.0
SBSL 190100Z 04008KT CAVOK 28/24 Q1012,SBSL,2021-10-19T01:00:00Z,-2.58,-44.23,28.0,24.0,40,8,,6.21,29.88189,,,,,,,,,,,CAVOK,,,,,,,,VFR,,,,,,,,,,,,METAR,53.0
SBSJ 190100Z 19002KT 4000 -RA BR BKN013 OVC024 16/15 Q1020,SBSJ,2021-10-19T01:00:00Z,-23.22,-45.87,16.0,15.0,190,2,,2.49,30.11811,,,,,,,,,,-RA BR,BKN,1300,OVC,2400,,,,,IFR,,,,,,,,,,,,METAR,640.0
SBSG 190100Z 13003KT 100V200 CAVOK 24/22 Q1014,SBSG,2021-10-19T01:00:00Z,-5.77,-35.37,24.0,22.0,130,3,,6.21,29.940945,,,,,,,,,,,CAVOK,,,,,,,,VFR,,,,,,,,,,,,METAR,83.0
SBSC 190100Z 10003KT 9999 BKN006 OVC018 20/19 Q1017,SBSC,2021-10-19T01:00:00Z,-22.92,-43.72,20.0,19.0,100,3,,6.21,30.029528,,,,,,,,,,,BKN,600,OVC,1800,,,,,IFR,,,,,,,,,,,,METAR,6.0
SBRP 190100Z 14006KT CAVOK 22/19 Q1016,SBRP,2021-10-19T01:00:00Z,-21.13,-47.77,22.0,19.0,140,6,,6.21,30.0,,,,,,,,,,,CAVOK,,,,,,,,VFR,,,,,,,,,,,,METAR,550.0
SBRF 190100Z 12005KT 9999 SCT025 27/21 Q1014,SBRF,2021-10-19T01:00:00Z,-8.13,-34.92,27.0,21.0,120,5,,6.21,29.940945,,,,,,,,,,,SCT,2500,,,,,,,VFR,,,,,,,,,,,,METAR,10.0
SBRB 190100Z 04003KT 8000 VCSH VCTS FEW025CB SCT060 24/24 Q1012,SBRB,2021-10-19T01:00:00Z,-9.87,-67.88,24.0,24.0,40,3,,4.97,29.88189,,,,,,,,,,VCSH VCTS,FEW,2500,SCT,6000,,,,,MVFR,,,,,,,,,,,,METAR,190.0
SBPV 190100Z 18001KT 9999 FEW030 24/23 Q1012,SBPV,2021-10-19T01:00:00Z,-8.72,-63.9,24.0,23.0,180,1,,6.21,29.88189,,,,,,,,,,,FEW,3000,,,,,,,VFR,,,,,,,,,,,,METAR,89.0
SBPS 190100Z 05007KT 9999 BKN018 25/22 Q1015,SBPS,2021-10-19T01:00:00Z,-16.43,-39.07,25.0,22.0,50,7,,6.21,29.970472,,,,,,,,,,,BKN,1800,,,,,,,MVFR,,,,,,,,,,,,METAR,44.0
SBPJ 190100Z 29006KT 9999 SCT015 SCT050 26/22 Q1015,SBPJ,2021-10-19T01:00:00Z,-10.28,-48.37,26.0,22.0,290,6,,6.21,29.970472,,,,,,,,,,,SCT,1500,SCT,5000,,,,,VFR,,,,,,,,,,,,METAR,226.0
SBPA 190100Z 12010KT CAVOK 17/13 Q1021,SBPA,2021-10-19T01:00:00Z,-30.0,-51.17,17.0,13.0,120,10,,6.21,30.147638,,,,,,,,,,,CAVOK,,,,,,,,VFR,,,,,,,,,,,,METAR,3.0
SBNT 190100Z 13006KT 9999 FEW021 26/23 Q1013,SBNT,2021-10-19T01:00:00Z,-5.92,-35.25,26.0,23.0,130,6,,6.21,29.911417,,,,,,,,,,,FEW,2100,,,,,,,VFR,,,,,,,,,,,,METAR,51.0
SBNM 190100Z AUTO 12008KT CAVOK 16/12 Q1019,SBNM,2021-10-19T01:00:00Z,-28.27,-54.17,16.0,12.0,120,8,,6.21,30.088583,,,TRUE,,,,,,,,CAVOK,,,,,,,,VFR,,,,,,,,,,,,METAR,325.0
SBNF 190100Z 15009KT 5000 -RADZ BKN006 BKN010 17/16 Q1022,SBNF,2021-10-19T01:00:00Z,-26.88,-48.65,17.0,16.0,150,9,,3.11,30.177166,,,,,,,,,,-RA -DZ,BKN,600,BKN,1000,,,,,IFR,,,,,,,,,,,,METAR,5.0
SBMT 190100Z 12008KT 9999 SCT009 BKN013 16/14 Q1020,SBMT,2021-10-19T01:00:00Z,-23.52,-46.63,16.0,14.0,120,8,,6.21,30.11811,,,,,,,,,,,SCT,900,BKN,1300,,,,,MVFR,,,,,,,,,,,,METAR,722.0
SBMQ 190100Z 03004KT 9999 SCT020 29/26 Q1013,SBMQ,2021-10-19T01:00:00Z,0.05,-51.07,29.0,26.0,30,4,,6.21,29.911417,,,,,,,,,,,SCT,2000,,,,,,,VFR,,,,,,,,,,,,METAR,15.0
SBMO 190100Z 08005KT 9999 FEW019 SCT070 24/23 Q1015,SBMO,2021-10-19T01:00:00Z,-9.52,-35.78,24.0,23.0,80,5,,6.21,29.970472,,,,,,,,,,,FEW,1900,SCT,7000,,,,,VFR,,,,,,,,,,,,METAR,116.0
SBMN 190100Z 16002KT 9999 BKN025 BKN070 27/23 Q1012,SBMN,2021-10-19T01:00:00Z,-3.13,-59.98,27.0,23.0,160,2,,6.21,29.88189,,,,,,,,,,,BKN,2500,BKN,7000,,,,,MVFR,,,,,,,,,,,,METAR,71.0
SBML 190100Z 17010KT CAVOK 20/19 Q1017,SBML,2021-10-19T01:00:00Z,-22.18,-49.92,20.0,19.0,170,10,,6.21,30.029528,,,,,,,,,,,CAVOK,,,,,,,,VFR,,,,,,,,,,,,METAR,643.0
SBMK 190100Z 19004KT CAVOK 27/17 Q1015,SBMK,2021-10-19T01:00:00Z,-16.7,-43.82,27.0,17.0,190,4,,6.21,29.970472,,,,,,,,,,,CAVOK,,,,,,,,VFR,,,,,,,,,,,,METAR,665.0
SBMG 190100Z 14005KT 9999 FEW035 SCT040 BKN080 20/18 Q1015,SBMG,2021-10-19T01:00:00Z,-23.48,-52.02,20.0,18.0,140,5,,6.21,29.970472,,,,,,,,,,,FEW,3500,SCT,4000,BKN,8000,,,VFR,,,,,,,,,,,,METAR,543.0
SBME 190100Z 16002KT 5000 -RA BR BKN007 OVC015 21/21 Q1017,SBME,2021-10-19T01:00:00Z,-22.35,-41.77,21.0,21.0,160,2,,3.11,30.029528,,,,,,,,,,-RA BR,BKN,700,OVC,1500,,,,,IFR,,,,,,,,,,,,METAR,2.0
SBLS 190100Z VRB03KT 8000 +TSRA BKN004 BKN030 FEW040CB BKN080 19/19 Q1018,SBLS,2021-10-19T01:00:00Z,-19.67,-43.88,19.0,19.0,0,3,,4.97,30.059055,,,,,,,,,,+TSRA,BKN,400,BKN,3000,FEW,4000,BKN,8000,LIFR,,,,,,,,,,,,METAR,850.0
SBLO 190100Z 10012KT 9999 BKN030 21/17 Q1017,SBLO,2021-10-19T01:00:00Z,-23.33,-51.12,21.0,17.0,100,12,,6.21,30.029528,,,,,,,,,,,BKN,3000,,,,,,,MVFR,,,,,,,,,,,,METAR,563.0
SBKP 190100Z 13010KT 9999 FEW013 17/15 Q1019,SBKP,2021-10-19T01:00:00Z,-23.0,-47.13,17.0,15.0,130,10,,6.21,30.088583,,,,,,,,,,,FEW,1300,,,,,,,VFR,,,,,,,,,,,,METAR,659.0
SBJV 190100Z 19002KT 3000 -RADZ BKN005 OVC020 16/16 Q1021,SBJV,2021-10-19T01:00:00Z,-26.22,-48.8,16.0,16.0,190,2,,1.86,30.147638,,,,,,,,,,-RA -DZ,BKN,500,OVC,2000,,,,,IFR,,,,,,,,,,,,METAR,3.0
SBJU 190100Z 17012KT 9999 -RA SCT020 30/16 Q1015,SBJU,2021-10-19T01:00:00Z,-7.22,-39.27,30.0,16.0,170,12,,6.21,29.970472,,,,,,,,,,-RA,SCT,2000,,,,,,,VFR,,,,,,,,,,,,METAR,407.0
SBJP 190100Z 13004KT 9999 FEW020 24/22 Q1014,SBJP,2021-10-19T01:00:00Z,-7.15,-34.95,24.0,22.0,130,4,,6.21,29.940945,,,,,,,,,,,FEW,2000,,,,,,,VFR,,,,,,,,,,,,METAR,66.0
SBIP 190100Z AUTO VRB02KT 9999 -RA NSC 24/23 Q1015,SBIP,2021-10-19T01:00:00Z,-19.47,-42.48,24.0,23.0,0,2,,6.21,29.970472,,,TRUE,,,,,,,-RA,CLR,,,,,,,,VFR,,,,,,,,,,,,METAR,240.0
SBIL 190100Z 06006KT 9999 SCT020 FEW025TCU 27/23 Q1015,SBIL,2021-10-19T01:00:00Z,-14.8,-39.02,27.0,23.0,60,6,,6.21,29.970472,,,,,,,,,,,SCT,2000,FEW,2500,,,,,VFR,,,,,,,,,,,,METAR,9.0
SBIH 190100Z 00000KT 9999 SCT018 SCT100 26/24 Q1012,SBIH,2021-10-19T01:00:00Z,-4.25,-56.0,26.0,24.0,0,0,,6.21,29.88189,,,,,,,,,,,SCT,1800,SCT,10000,,,,,VFR,,,,,,,,,,,,METAR,30.0
SBGR 190100Z 14003KT 9999 OVC009 16/15 Q1020,SBGR,2021-10-19T01:00:00Z,-23.42,-46.47,16.0,15.0,140,3,,6.21,30.11811,,,,,,,,,,,OVC,900,,,,,,,IFR,,,,,,,,,,,,METAR,745.0
SBGO 190100Z 15004KT 9999 VCTS FEW040 FEW045CB BKN100 25/19 Q1017,SBGO,2021-10-19T01:00:00Z,-16.62,-49.22,25.0,19.0,150,4,,6.21,30.029528,,,,,,,,,,VCTS,FEW,4000,FEW,4500,BKN,10000,,,VFR,,,,,,,,,,,,METAR,740.0
SBGL 190100Z 16007KT 5000 -RA BR SCT006 BKN008 OVC030 20/19 Q1017,SBGL,2021-10-19T01:00:00Z,-22.82,-43.25,20.0,19.0,160,7,,3.11,30.029528,,,,,,,,,,-RA BR,SCT,600,BKN,800,OVC,3000,,,IFR,,,,,,,,,,,,METAR,3.0
SBFZ 190100Z 10011KT 9999 SCT017 27/23 Q1013,SBFZ,2021-10-19T01:00:00Z,-3.77,-38.52,27.0,23.0,100,11,,6.21,29.911417,,,,,,,,,,,SCT,1700,,,,,,,VFR,,,,,,,,,,,,METAR,32.0
SBFN 190100Z AUTO 11010KT 9999 BKN015 26/24 Q1014,SBFN,2021-10-19T01:00:00Z,-3.85,-32.42,26.0,24.0,110,10,,6.21,29.940945,,,TRUE,,,,,,,,BKN,1500,,,,,,,MVFR,,,,,,,,,,,,METAR,52.0
SBFL 190100Z 20007KT 9999 BKN030 17/13 Q1022,SBFL,2021-10-19T01:00:00Z,-27.67,-48.53,17.0,13.0,200,7,,6.21,30.177166,,,,,,,,,,,BKN,3000,,,,,,,MVFR,,,,,,,,,,,,METAR,5.0
SBFI 190100Z 15003KT CAVOK 20/15 Q1016,SBFI,2021-10-19T01:00:00Z,-25.6,-54.48,20.0,15.0,150,3,,6.21,30.0,,,,,,,,,,,CAVOK,,,,,,,,VFR,,,,,,,,,,,,METAR,233.0
SBEG 190100Z 29001KT 9999 FEW020 SCT050 26/24 Q1012,SBEG,2021-10-19T01:00:00Z,-3.03,-60.03,26.0,24.0,290,1,,6.21,29.88189,,,,,,,,,,,FEW,2000,SCT,5000,,,,,VFR,,,,,,,,,,,,METAR,69.0
SBDN 190100Z 10006KT CAVOK 21/20 Q1016,SBDN,2021-10-19T01:00:00Z,-22.18,-51.43,21.0,20.0,100,6,,6.21,30.0,,,,,,,,,,,CAVOK,,,,,,,,VFR,,,,,,,,,,,,METAR,438.0
SBCY 190100Z 13002KT 9999 FEW025 24/23 Q1014,SBCY,2021-10-19T01:00:00Z,-15.65,-56.12,24.0,23.0,130,2,,6.21,29.940945,,,,,,,,,,,FEW,2500,,,,,,,VFR,,,,,,,,,,,,METAR,182.0
SBCO 190100Z 12007KT CAVOK 16/13 Q1021,SBCO,2021-10-19T01:00:00Z,-29.95,-51.15,16.0,13.0,120,7,,6.21,30.147638,,,,,,,,,,,CAVOK,,,,,,,,VFR,,,,,,,,,,,,METAR,8.0
SBCH 190100Z 18006KT 9999 FEW020 SCT080 16/13 Q1019,SBCH,2021-10-19T01:00:00Z,-27.13,-52.67,16.0,13.0,180,6,,6.21,30.088583,,,,,,,,,,,FEW,2000,SCT,8000,,,,,VFR,,,,,,,,,,,,METAR,639.0
SBCG 190100Z 13005KT 9999 SCT040 SCT070 24/20 Q1016,SBCG,2021-10-19T01:00:00Z,-20.47,-54.67,24.0,20.0,130,5,,6.21,30.0,,,,,,,,,,,SCT,4000,SCT,7000,,,,,VFR,,,,,,,,,,,,METAR,556.0
SBBU 190100Z 09009KT 9999 BKN017 OVC025 20/16 Q1018,SBBU,2021-10-19T01:00:00Z,-22.33,-49.07,20.0,16.0,90,9,,6.21,30.059055,,,,,,,,,,,BKN,1700,OVC,2500,,,,,MVFR,,,,,,,,,,,,METAR,616.0
SBBR 190100Z 21007KT 180V240 9999 VCTS FEW030 FEW040CB SCT100 22/18 Q1019,SBBR,2021-10-19T01:00:00Z,-15.87,-47.92,22.0,18.0,210,7,,6.21,30.088583,,,,,,,,,,VCTS,FEW,3000,FEW,4000,SCT,10000,,,VFR,,,,,,,,,,,,METAR,1051.0
SBBI 190100Z 12005KT 8000 BKN005 OVC008 13/12 Q1022,SBBI,2021-10-19T01:00:00Z,-25.4,-49.23,13.0,12.0,120,5,,4.97,30.177166,,,,,,,,,,,BKN,500,OVC,800,,,,,IFR,,,,,,,,,,,,METAR,928.0
SBBH 190100Z 14008KT 2000 TSRA SCT010 BKN025 FEW035CB OVC100 19/18 Q1018,SBBH,2021-10-19T01:00:00Z,-19.85,-43.95,19.0,18.0,140,8,,1.24,30.059055,,,,,,,,,,TSRA,SCT,1000,BKN,2500,FEW,3500,OVC,10000,IFR,,,,,,,,,,,,METAR,799.0
SBBG 190100Z AUTO 04007KT CAVOK 14/11 Q1021,SBBG,2021-10-19T01:00:00Z,-31.38,-54.12,14.0,11.0,40,7,,6.21,30.147638,,,TRUE,,,,,,,,CAVOK,,,,,,,,VFR,,,,,,,,,,,,METAR,182.0
SBBE 190100Z 11004KT 9999 FEW045 SCT100 24/23 Q1013,SBBE,2021-10-19T01:00:00Z,-1.37,-48.47,24.0,23.0,110,4,,6.21,29.911417,,,,,,,,,,,FEW,4500,SCT,10000,,,,,VFR,,,,,,,,,,,,METAR,16.0
SBAX 190100Z AUTO 04003KT CAVOK 19/18 Q1018,SBAX,2021-10-19T01:00:00Z,-19.57,-46.97,19.0,18.0,40,3,,6.21,30.059055,,,TRUE,,,,,,,,CAVOK,,,,,,,,VFR,,,,,,,,,,,,METAR,989.0
SBAU 190100Z 13010KT CAVOK 23/19 Q1015,SBAU,2021-10-19T01:00:00Z,-21.13,-50.43,23.0,19.0,130,10,,6.21,29.970472,,,,,,,,,,,CAVOK,,,,,,,,VFR,,,,,,,,,,,,METAR,415.0
SBAR 190100Z 08008KT 9999 BKN018 26/22 Q1014,SBAR,2021-10-19T01:00:00Z,-10.98,-37.07,26.0,22.0,80,8,,6.21,29.940945,,,,,,,,,,,BKN,1800,,,,,,,MVFR,,,,,,,,,,,,METAR,4.0
SBAN 190100Z 24007KT 9999 FEW030 FEW035TCU SCT090 22/19 Q1019,SBAN,2021-10-19T01:00:00Z,-16.22,-48.97,22.0,19.0,240,7,,6.21,30.088583,,,,,,,,,,,FEW,3000,FEW,3500,SCT,9000,,,VFR,,,,,,,,,,,,METAR,1131.0
SARL 190100Z 16008KT CAVOK 18/10 Q1020,SARL,2021-10-19T01:00:00Z,-29.68,-57.15,18.0,10.0,160,8,,6.21,30.11811,,,,,,,,,,,CAVOK,,,,,,,,VFR,,,,,,,,,,,,METAR,70.0
ROTM 190100Z 29008KT 8000 -SHRA BKN020 OVC038 23/23 A3004 RMK SHRAB00 SLP159 T02330233,ROTM,2021-10-19T01:00:00Z,26.27,127.75,23.3,23.3,290,8,,4.97,30.041338,1015.9,,,,,,,,,-SHRA,BKN,2000,OVC,3800,,,,,MVFR,,,,,,,,,,,,METAR,80.0
RKSM 190100Z 18002KT 6000 BR BKN012 12/09 A3013,RKSM,2021-10-19T01:00:00Z,37.43,127.12,12.0,9.0,180,2,,3.73,30.129921,,,,,,,,,,BR,BKN,1200,,,,,,,MVFR,,,,,,,,,,,,METAR,18.0
OIZC 190100Z 00000KT CAVOK 19/16 Q1008,OIZC,2021-10-19T01:00:00Z,25.45,60.38,19.0,16.0,0,0,,6.21,29.763779,,,,,,,,,,,CAVOK,,,,,,,,VFR,,,,,,,,,,,,METAR,13.0
NFNS 190100Z AUTO 12013KT //// ///// Q////,NFNS,2021-10-19T01:00:00Z,-16.82,179.33,,,120,13,,,,,,TRUE,,,,,,,,,,,,,,,,,,,,,,,,,,,,METAR,4.0
NFNL 190100Z AUTO 12010KT //// 32/19 Q1015,NFNL,2021-10-19T01:00:00Z,-16.47,179.33,32.0,19.0,120,10,,,29.970472,,,TRUE,,,,,,,,,,,,,,,,,,,,,,,,,,,,METAR,17.0
MPSM 190100Z 33004KT 9999 FEW020 25/24 Q1010,MPSM,2021-10-19T01:00:00Z,8.38,-80.13,25.0,24.0,330,4,,6.21,29.822834,,,,,,,,,,,FEW,2000,,,,,,,VFR,,,,,,,,,,,,METAR,36.0
MNMG 190100Z 12004KT 9999 FEW020CB SCT023 26/23 Q1010 A2985 CB/SE/ SW/W/NW BECMG 8000 DZ/-TSRA,MNMG,2021-10-19T01:00:00Z,12.15,-86.17,26.0,23.0,120,4,,6.21,29.822834,,,,,,,,,,,FEW,2000,SCT,2300,,,,,VFR,,,,,,,,,,,,METAR,59.0
MHCA 190100Z VRB01KT 9999 SCT026TCU BKN080 24/20,MHCA,2021-10-19T01:00:00Z,14.87,-85.78,24.0,20.0,0,1,,6.21,,,,,,,,,,,,SCT,2600,BKN,8000,,,,,VFR,,,,,,,,,,,,METAR,386.0
LQSA 190100Z 31003KT 1200 R11/0600D BR BKN003 05/05 Q1029,LQSA,2021-10-19T01:00:00Z,43.82,18.32,5.0,5.0,310,3,,0.75,30.383858,,,,,,,,,,BR,BKN,300,,,,,,,LIFR,,,,,,,,,,,,METAR,505.0
HKNW 190100Z 00000KT 9999 BKN018 17/14 Q1021,HKNW,2021-10-19T01:00:00Z,-1.32,36.82,17.0,14.0,0,0,,6.21,30.147638,,,,,,,,,,,BKN,1800,,,,,,,MVFR,,,,,,,,,,,,METAR,1666.0
HKJK 190100Z 09008KT 9999 FEW009 BKN020 17/15 Q102 NOSIG,HKJK,2021-10-19T01:00:00Z,-1.32,36.92,17.0,15.0,90,8,,6.21,,,,,,,TRUE,,,,,FEW,900,BKN,2000,,,,,MVFR,,,,,,,,,,,,METAR,1615.0
HKEL 190100Z 12007KT CAVOK 13/11 Q1022,HKEL,2021-10-19T01:00:00Z,0.4,35.23,13.0,11.0,120,7,,6.21,30.177166,,,,,,,,,,,CAVOK,,,,,,,,VFR,,,,,,,,,,,,METAR,2116.0
HESN 190100Z 36008KT CAVOK 23/06 Q1015 NOSIG,HESN,2021-10-19T01:00:00Z,23.97,32.82,23.0,6.0,360,8,,6.21,29.970472,,,,,,TRUE,,,,,CAVOK,,,,,,,,VFR,,,,,,,,,,,,METAR,197.0
HESH 190100Z 36013KT CAVOK 25/14 Q1014 NOSIG,HESH,2021-10-19T01:00:00Z,27.97,34.38,25.0,14.0,360,13,,6.21,29.940945,,,,,,TRUE,,,,,CAVOK,,,,,,,,VFR,,,,,,,,,,,,METAR,50.0
HESG 190100Z 30008KT CAVOK 22/10 Q1015 NOSIG,HESG,2021-10-19T01:00:00Z,26.33,31.75,22.0,10.0,300,8,,6.21,29.970472,,,,,,TRUE,,,,,CAVOK,,,,,,,,VFR,,,,,,,,,,,,METAR,70.0
HEPS 190100Z 36007KT CAVOK 22/17 Q1019 NOSIG,HEPS,2021-10-19T01:00:00Z,31.28,32.25,22.0,17.0,360,7,,6.21,30.088583,,,,,,TRUE,,,,,CAVOK,,,,,,,,VFR,,,,,,,,,,,,METAR,2.0
HEMM 190100Z 24003KT CAVOK 18/13 Q1021 NOSIG,HEMM,2021-10-19T01:00:00Z,31.32,27.22,18.0,13.0,240,3,,6.21,30.147638,,,,,,TRUE,,,,,CAVOK,,,,,,,,VFR,,,,,,,,,,,,METAR,26.0
HELX 190100Z 18004KT CAVOK 22/07 Q1014 NOSIG,HELX,2021-10-19T01:00:00Z,25.67,32.7,22.0,7.0,180,4,,6.21,29.940945,,,,,,TRUE,,,,,CAVOK,,,,,,,,VFR,,,,,,,,,,,,METAR,86.0
HEGN 190100Z 28011KT CAVOK 23/12 Q1015 NOSIG,HEGN,2021-10-19T01:00:00Z,27.18,33.8,23.0,12.0,280,11,,6.21,29.970472,,,,,,TRUE,,,,,CAVOK,,,,,,,,VFR,,,,,,,,,,,,METAR,14.0
HEBL 190100Z 35010KT CAVOK 24/06 Q1014 NOSIG,HEBL,2021-10-19T01:00:00Z,22.38,31.62,24.0,6.0,350,10,,6.21,29.940945,,,,,,TRUE,,,,,CAVOK,,,,,,,,VFR,,,,,,,,,,,,METAR,184.0
HEBA 190100Z 00000KT 9999 SCT020 18/14 Q1019 NOSIG,HEBA,2021-10-19T01:00:00Z,30.92,29.7,18.0,14.0,0,0,,6.21,30.088583,,,,,,TRUE,,,,,SCT,2000,,,,,,,VFR,,,,,,,,,,,,METAR,41.0
HEAX 190100Z 33005KT 9999 SCT020 22/14 Q1019 NOSIG,HEAX,2021-10-19T01:00:00Z,31.18,29.93,22.0,14.0,330,5,,6.21,30.088583,,,,,,TRUE,,,,,SCT,2000,,,,,,,VFR,,,,,,,,,,,,METAR,-2.0
HEAT 190100Z 36012KT CAVOK 20/11 Q1020 NOSIG,HEAT,2021-10-19T01:00:00Z,27.05,31.02,20.0,11.0,360,12,,6.21,30.11811,,,,,,TRUE,,,,,CAVOK,,,,,,,,VFR,,,,,,,,,,,,METAR,229.0
GOSS 190100Z VRB02KT CAVOK 28/27 Q1012,GOSS,2021-10-19T01:00:00Z,16.05,-16.45,28.0,27.0,0,2,,6.21,29.88189,,,,,,,,,,,CAVOK,,,,,,,,VFR,,,,,,,,,,,,METAR,3.0
GOOY 190100Z 00000KT 9999 SCT013 28/26 Q1012,GOOY,2021-10-19T01:00:00Z,14.73,-17.5,28.0,26.0,0,0,,6.21,29.88189,,,,,,,,,,,SCT,1300,,,,,,,VFR,,,,,,,,,,,,METAR,21.0
GOGG 190100Z 00000KT CAVOK 27/26 Q1014,GOGG,2021-10-19T01:00:00Z,12.55,-16.27,27.0,26.0,0,0,,6.21,29.940945,,,,,,,,,,,CAVOK,,,,,,,,VFR,,,,,,,,,,,,METAR,24.0
GFLL 190100Z 35008KT 8000 -TSRA BKN012 FEW026CB 28/23 Q1012 RMK CB NE/SE,GFLL,2021-10-19T01:00:00Z,8.62,-13.18,28.0,23.0,350,8,,4.97,29.88189,,,,,,,,,,-TSRA,BKN,1200,FEW,2600,,,,,MVFR,,,,,,,,,,,,SPECI,28.0
FZAA 190100Z 24004KT 7000 BKN018 25/22 Q1010 NOSIG,FZAA,2021-10-19T01:00:00Z,-4.38,15.45,25.0,22.0,240,4,,4.35,29.822834,,,,,,TRUE,,,,,BKN,1800,,,,,,,MVFR,,,,,,,,,,,,METAR,309.0
FTTJ 190100Z 21002KT 8000 NSC 26/20 Q1007 NOSIG,FTTJ,2021-10-19T01:00:00Z,12.13,15.03,26.0,20.0,210,2,,4.97,29.734253,,,,,,TRUE,,,,,CLR,,,,,,,,MVFR,,,,,,,,,,,,METAR,295.0
FTTA 190100Z 00000KT CAVOK 23/21 Q1010,FTTA,2021-10-19T01:00:00Z,9.15,18.37,23.0,21.0,0,0,,6.21,29.822834,,,,,,,,,,,CAVOK,,,,,,,,VFR,,,,,,,,,,,,METAR,361.0
FQMA 190100Z 21010KT 9999 BKN025 16/12 Q1026 NOSIG,FQMA,2021-10-19T01:00:00Z,-25.92,32.57,16.0,12.0,210,10,,6.21,30.295275,,,,,,TRUE,,,,,BKN,2500,,,,,,,MVFR,,,,,,,,,,,,METAR,34.0
FDST 190100Z AUTO 06004KT //// // ////// ///// Q1025,FDST,2021-10-19T01:00:00Z,-26.43,31.95,,,60,4,,,30.265747,,,TRUE,,,,,,,,,,,,,,,,,,,,,,,,,,,,METAR,642.0
FDBB 190100Z AUTO 24002KT //// // ////// 21/14 Q1026,FDBB,2021-10-19T01:00:00Z,-26.8,31.93,21.0,14.0,240,2,,,30.295275,,,TRUE,,,,,,,,,,,,,,,,,,,,,,,,,,,,METAR,106.0
FCPP 190100Z 22007KT 9999 FEW010 OVC023 25/22 Q1011 NOSIG,FCPP,2021-10-19T01:00:00Z,-4.82,11.9,25.0,22.0,220,7,,6.21,29.852362,,,,,,TRUE,,,,,FEW,1000,OVC,2300,,,,,MVFR,,,,,,,,,,,,METAR,18.0
FCBB 190100Z 27003KT 240V300 9999 NSC 24/21 Q1011 NOSIG,FCBB,2021-10-19T01:00:00Z,-4.25,15.25,24.0,21.0,270,3,,6.21,29.852362,,,,,,TRUE,,,,,CLR,,,,,,,,VFR,,,,,,,,,,,,METAR,316.0
FALA 190100Z AUTO 36006KT 330V040 //// // ////// 12/08 Q1026,FALA,2021-10-19T01:00:00Z,-25.93,27.92,12.0,8.0,360,6,,,30.295275,,,TRUE,,,,,,,,,,,,,,,,,,,,,,,,,,,,METAR,1365.0
DXXX 190100Z VRB02KT 9999 TS FEW010 FEW017CB 23/22 Q1012 BECMG NSW,DXXX,2021-10-19T01:00:00Z,6.17,1.25,23.0,22.0,0,2,,6.21,29.88189,,,,,,,,,,TS,FEW,1000,FEW,1700,,,,,VFR,,,,,,,,,,,,METAR,22.0
DTTZ 190100Z 04007KT 9999 FEW030 19/12 Q1024 NOSIG,DTTZ,2021-10-19T01:00:00Z,33.93,8.1,19.0,12.0,40,7,,6.21,30.236221,,,,,,TRUE,,,,,FEW,3000,,,,,,,VFR,,,,,,,,,,,,METAR,87.0
DTTX 190100Z 34006KT 9999 FEW020 17/15 Q1024,DTTX,2021-10-19T01:00:00Z,34.72,10.68,17.0,15.0,340,6,,6.21,30.236221,,,,,,,,,,,FEW,2000,,,,,,,VFR,,,,,,,,,,,,METAR,17.0
DRRN 190100Z 06004KT 9999 FEW030 27/24 Q1011 NOSIG,DRRN,2021-10-19T01:00:00Z,13.47,2.17,27.0,24.0,60,4,,6.21,29.852362,,,,,,TRUE,,,,,FEW,3000,,,,,,,VFR,,,,,,,,,,,,METAR,223.0
DNPO 190100Z 00000KT 8000 TS BKN008 FEW020CB 25/24 Q1011 NOSIG,DNPO,2021-10-19T01:00:00Z,4.83,7.02,25.0,24.0,0,0,,4.97,29.852362,,,,,,TRUE,,,,TS,BKN,800,FEW,2000,,,,,IFR,,,,,,,,,,,,METAR,17.0
DIBK 190100Z 20010KT 8000 BKN010 24/24 Q1014 NOSIG,DIBK,2021-10-19T01:00:00Z,7.73,-5.07,24.0,24.0,200,10,,4.97,29.940945,,,,,,TRUE,,,,,BKN,1000,,,,,,,MVFR,,,,,,,,,,,,METAR,363.0
DGAA 190100Z 27007KT 9999 SCT010 25/24 Q1011 NOSIG,DGAA,2021-10-19T01:00:00Z,5.58,-0.17,25.0,24.0,270,7,,6.21,29.852362,,,,,,TRUE,,,,,SCT,1000,,,,,,,VFR,,,,,,,,,,,,METAR,68.0
DFOO 190100Z 22004KT 9999 TS FEW020 FEW033CB 22/21 Q1013,DFOO,2021-10-19T01:00:00Z,11.17,-4.32,22.0,21.0,220,4,,6.21,29.911417,,,,,,,,,,TS,FEW,2000,FEW,3300,,,,,VFR,,,,,,,,,,,,METAR,461.0
DBBB 190100Z 32003KT 9999 FEW010 25/24 Q1011 NOSIG,DBBB,2021-10-19T01:00:00Z,6.35,2.38,25.0,24.0,320,3,,6.21,29.852362,,,,,,TRUE,,,,,FEW,1000,,,,,,,VFR,,,,,,,,,,,,METAR,4.0
CZST 190100Z 35005KT 260V020 15SM SCT100 BKN130 BKN200 08/M01 A2990 RMK AC3AC3CS1 LAST STFD OBS/NEXT191300Z PRESFR SLP127,CZST,2021-10-19T01:00:00Z,55.93,-129.98,8.0,-1.0,350,5,,15.0,29.899607,1012.7,,,,,,,,,,SCT,10000,BKN,13000,BKN,20000,,,VFR,,,,,,,,,,,,METAR,10.0
CZRP 190100Z AUTO 16007KT M04/M04 RMK AO1 SOG 24 7005 SLP930 T10431035,CZRP,2021-10-19T01:00:00Z,75.37,-105.72,-4.3,-3.5,160,7,,,,993.0,,TRUE,TRUE,,,,,,,,,,,,,,,,,,,,,,,,,,,METAR,6.0
CZPS 190100Z AUTO 05006KT 03/00 RMK AO1 T00280000,CZPS,2021-10-19T01:00:00Z,52.43,-113.6,2.8,0.0,50,6,,,,,,TRUE,TRUE,,,,,,,,,,,,,,,,,,,,,,,,,,,METAR,953.0
CZMU 190100Z AUTO 32003KT 03/01 RMK AO1 T00300005,CZMU,2021-10-19T01:00:00Z,53.57,-112.3,3.0,0.5,320,3,,,,,,TRUE,TRUE,,,,,,,,,,,,,,,,,,,,,,,,,,,METAR,682.0
CZMT 190100Z 15021G36KT 15SM BKN030 OVC120 09/06 A2969 RMK SC6AC2 LAST STFD OBS/NEXT 191400 UTC SLP055,CZMT,2021-10-19T01:00:00Z,54.03,-132.13,9.0,6.0,150,21,36,15.0,29.68996,1005.5,,,,,,,,,,BKN,3000,OVC,12000,,,,,MVFR,,,,,,,,,,,,METAR,11.0
CZFA 190100Z CCA 15012KT 30SM FEW150 BKN180 BKN200 OVC220 M03/M09 A2982 RMK AC1AS4CC1CI2 STN CLSD AFT MEDEVAC LAST STFD OBS/NXT 191400Z SLP152,CZFA,2021-10-19T01:00:00Z,62.2,-133.38,-3.0,-9.0,150,12,,30.0,29.819881,1015.2,,,,,,,,,,FEW,15000,BKN,18000,BKN,20000,OVC,22000,VFR,,,,,,,,,,,,SPECI,702.0
CYSN 190100Z 30015KT 15SM FEW030 11/02 A3003 RMK SC1 LAST STFD OBS/NEXT 191100UTC SLP173,CYSN,2021-10-19T01:00:00Z,43.2,-79.17,11.0,2.0,300,15,,15.0,30.029528,1017.3,,,,,,,,,,FEW,3000,,,,,,,VFR,,,,,,,,,,,,METAR,96.0
CYND 190100Z 28006KT 15SM BKN037 08/04 A2990 RMK SC7 LAST STFD OBS/NXT 191100Z SLP130,CYND,2021-10-19T01:00:00Z,45.52,-75.57,8.0,4.0,280,6,,15.0,29.899607,1013.0,,,,,,,,,,BKN,3700,,,,,,,VFR,,,,,,,,,,,,METAR,57.0
CYLD 190100Z 22003KT 15SM SKC 05/00 A2998 RMK LAST STFD OBS/ NEXT 191000UTC SLP175,CYLD,2021-10-19T01:00:00Z,47.82,-83.35,5.0,0.0,220,3,,15.0,29.97933,1017.5,,,,,,,,,,SKC,,,,,,,,VFR,,,,,,,,,,,,METAR,449.0
CYDC 190100Z 00000KT 25SM FEW110 FEW310 12/03 A2989 RMK AS1CI1 AS TR CI TR CONTRAILS/LAST STFD OB/NEXT 19 1300UTC SLP132 DENSITY ALT 2600FT,CYDC,2021-10-19T01:00:00Z,49.47,-120.52,12.0,3.0,0,0,,25.0,29.890747,1013.2,,,,,,,,,,FEW,11000,FEW,31000,,,,,VFR,,,,,,,,,,,,METAR,703.0
CYCX 190100Z 24005KT 15SM BKN050 09/07 A2957 RMK SC6 DA-5FT LAST STFD OBS/NEXT 190845 UTC SLP016,CYCX,2021-10-19T01:00:00Z,45.83,-66.45,9.0,7.0,240,5,,15.0,29.568897,1001.6,,,,,,,,,,BKN,5000,,,,,,,VFR,,,,,,,,,,,,METAR,46.0
CYCQ 190100Z 03002KT 15SM FEW025 BKN100 OVC200 01/M02 A3005 RMK CU2AC3CI3 VIRGA E LAST STFD OBS/NEXT 191300Z SLP209,CYCQ,2021-10-19T01:00:00Z,55.7,-121.62,1.0,-2.0,30,2,,15.0,30.050198,1020.9,,,,,,,,,,FEW,2500,BKN,10000,OVC,20000,,,VFR,,,,,,,,,,,,METAR,614.0
CYCP 190100Z VRB02KT 15SM FEW002 FEW012 SCT055 SCT075 SCT250 06/04 A2998 RMK ST1ST1CU2AC1CI1 ST TR CI TR LAST STFD OBS/NEXT 191300Z SLP175,CYCP,2021-10-19T01:00:00Z,52.13,-119.28,6.0,4.0,0,2,,15.0,29.97933,1017.5,,,,,,,,,,FEW,200,FEW,1200,SCT,5500,SCT,7500,VFR,,,,,,,,,,,,METAR,677.0
CYBD 190100Z 00000KT 15SM FEW054 FEW150 BKN200 08/07 A2992 RMK SC1AC2CI5 SC TR LAST STFD OBS/NXT 191300Z/ SLP136,CYBD,2021-10-19T01:00:00Z,52.38,-126.58,8.0,7.0,0,0,,15.0,29.920275,1013.6,,,,,,,,,,FEW,5400,FEW,15000,BKN,20000,,,VFR,,,,,,,,,,,,METAR,40.0
CYAZ 190100Z 12006KT 15SM BKN180 09/06 A2996 RMK AC7 LAST STFD OBS/NXT 191300UTC SLP147,CYAZ,2021-10-19T01:00:00Z,49.08,-125.77,9.0,6.0,120,6,,15.0,29.958662,1014.7,,,,,,,,,,BKN,18000,,,,,,,VFR,,,,,,,,,,,,METAR,26.0
CXYH 190100Z AUTO M00/M08 RMK AO1 SOG 02 1002 SLP149 T10031077,CXYH,2021-10-19T01:00:00Z,61.25,-123.75,-0.3,-7.7,,,,,,1014.9,,TRUE,TRUE,,,,,,,,,,,,,,,,,,,,,,,,,,,METAR,197.0
CXWB 190100Z AUTO 21017KT 02/M03 RMK AO1 PK WND 21023/0000 SLP046 T00171031 53009,CXWB,2021-10-19T01:00:00Z,65.88,-89.45,1.7,-3.1,210,17,,,,1004.6,,TRUE,TRUE,,,,,,,,,,,,,,,,0.9,,,,,,,,,,,METAR,14.0
CXVW 190100Z AUTO 07004KT M00/M03 RMK AO1 SLP222 T10041026 53006,CXVW,2021-10-19T01:00:00Z,55.1,-117.2,-0.4,-2.6,70,4,,,,1022.2,,TRUE,TRUE,,,,,,,,,,,,,,,,0.6,,,,,,,,,,,METAR,696.0
CXTV 190100Z AUTO 26004KT M08/M09 RMK AO1 SOG 13 6005 SLP103 T10821091,CXTV,2021-10-19T01:00:00Z,68.75,-133.5,-8.2,-9.1,260,4,,,,1010.3,,TRUE,TRUE,,,,,,,,,,,,,,,,,,,,,,,,,,,METAR,91.0
CXTN 190100Z AUTO 00000KT M10/M11 RMK AO1 SOG 34 8003 SLP127 T11031113,CXTN,2021-10-19T01:00:00Z,69.2,-122.35,-10.3,-11.3,0,0,,,,1012.7,,TRUE,TRUE,,,,,,,,,,,,,,,,,,,,,,,,,,,METAR,564.0
CXSE 190100Z AUTO 25009KT M03/M03 RMK AO1 SLP929 T10261030 56004,CXSE,2021-10-19T01:00:00Z,73.77,-105.28,-2.6,-3.0,250,9,,,,992.9,,TRUE,TRUE,,,,,,,,,,,,,,,,-0.4,,,,,,,,,,,METAR,11.0
CXLL 190100Z AUTO 20002KT M01/M08 RMK AO1 SOG 01 0002 SLP168 T10051076,CXLL,2021-10-19T01:00:00Z,61.12,-122.85,-0.5,-7.6,200,2,,,,1016.8,,TRUE,TRUE,,,,,,,,,,,,,,,,,,,,,,,,,,,METAR,180.0
CXDP 190100Z AUTO 28001KT 03/M03 RMK AO1 T00261034,CXDP,2021-10-19T01:00:00Z,54.32,-113.92,2.6,-3.4,280,1,,,,,,TRUE,TRUE,,,,,,,,,,,,,,,,,,,,,,,,,,,METAR,613.0
CXDK 190100Z AUTO 01/M09 RMK AO1 SLP170 T00131089 51001,CXDK,2021-10-19T01:00:00Z,61.27,-124.47,1.3,-8.9,,,,,,1017.0,,TRUE,TRUE,,,,,,,,,,,,,,,,0.1,,,,,,,,,,,METAR,269.0
CWZL 190100Z AUTO 14037G45KT 10/ RMK AO1 PK WND 14046/0022 SLP069 T0099 55010,CWZL,2021-10-19T01:00:00Z,53.03,-131.6,9.9,,140,37,45,,,1006.9,,TRUE,TRUE,,,,,,,,,,,,,,,,-1.0,,,,,,,,,,,METAR,17.0
CWXC 190100Z AUTO 32005KT 06/04 RMK AO1 T00560038,CWXC,2021-10-19T01:00:00Z,48.88,-71.03,5.6,3.8,320,5,,,,,,TRUE,TRUE,,,,,,,,,,,,,,,,,,,,,,,,,,,METAR,306.0
CWWS 190100Z AUTO 25009KT 15/11 RMK AO1 PK WND 30020/0036 SLP040 T01480108 53017,CWWS,2021-10-19T01:00:00Z,52.82,-97.62,14.8,10.8,250,9,,,,1004.0,,TRUE,TRUE,,,,,,,,,,,,,,,,1.7,,,,,,,,,,,METAR,220.0
CWWL 190100Z AUTO 12015G25KT 09/04 RMK AO1 PK WND 14035/0015 SLP078 T00910043 58014,CWWL,2021-10-19T01:00:00Z,53.5,-130.63,9.1,4.3,120,15,25,,,1007.8,,TRUE,TRUE,,,,,,,,,,,,,,,,-1.4,,,,,,,,,,,METAR,8.0
CWWK 190100Z AUTO 23001KT 10/07 RMK AO1 SLP163 T00990073 58002,CWWK,2021-10-19T01:00:00Z,49.02,-122.78,9.9,7.3,230,1,,,,1016.3,,TRUE,TRUE,,,,,,,,,,,,,,,,-0.2,,,,,,,,,,,METAR,10.0
CWUX 190100Z AUTO 28011KT 06/04 RMK AO1 PK WND 29018/0043 T00640039,CWUX,2021-10-19T01:00:00Z,48.3,-70.93,6.4,3.9,280,11,,,,,,TRUE,TRUE,,,,,,,,,,,,,,,,,,,,,,,,,,,METAR,150.0
CWSW 190100Z 11014G23KT 20SM SKC 08/M00 A2995 RMK LAST STFD OBS/NXT 191300Z SLP172 DENSITY ALT 3900FT,CWSW,2021-10-19T01:00:00Z,49.83,-114.87,8.0,0.0,110,14,23,20.0,29.949802,1017.2,,,,,,,,,,SKC,,,,,,,,VFR,,,,,,,,,,,,METAR,1173.0
CWST 190100Z AUTO 30004KT 09/03 RMK AO1 PK WND 30017/0014 SLP036 T00890031 51004,CWST,2021-10-19T01:00:00Z,47.35,-70.02,8.9,3.1,300,4,,,,1003.6,,TRUE,TRUE,,,,,,,,,,,,,,,,0.4,,,,,,,,,,,METAR,31.0
CWSS 190100Z AUTO 00000KT 06/05 RMK AO1 SLP034 T00560048 51013,CWSS,2021-10-19T01:00:00Z,45.2,-67.25,5.6,4.8,0,0,,,,1003.4,,TRUE,TRUE,,,,,,,,,,,,,,,,1.3,,,,,,,,,,,METAR,27.0
CWRU 190100Z AUTO 11034G40KT 10/04 RMK AO1 PK WND 12040/0051 SLP098 T01000035 56021,CWRU,2021-10-19T01:00:00Z,50.12,-127.93,10.0,3.5,110,34,40,,,1009.8,,TRUE,TRUE,,,,,,,,,,,,,,,,-2.1,,,,,,,,,,,METAR,76.0
CWRO 190100Z AUTO 13036G45KT 09/ RMK AO1 PK WND 14045/0051 SLP064 T0091 58009,CWRO,2021-10-19T01:00:00Z,54.17,-131.67,9.1,,130,36,45,,,1006.4,,TRUE,TRUE,,,,,,,,,,,,,,,,-0.9,,,,,,,,,,,METAR,7.0
CWQS 190100Z AUTO 13019G27KT 12/04 RMK AO1 PK WND 13036/0041 SLP017 T01180040 56018,CWQS,2021-10-19T01:00:00Z,53.32,-132.77,11.8,4.0,130,19,27,,,1001.7,,TRUE,TRUE,,,,,,,,,,,,,,,,-1.8,,,,,,,,,,,METAR,10.0
CWMZ 190100Z AUTO 32019KT 13/04 RMK AO1 PK WND 33024/0041 SLP167 T01260039 58001,CWMZ,2021-10-19T01:00:00Z,45.02,-80.37,12.6,3.9,320,19,,,,1016.7,,TRUE,TRUE,,,,,,,,,,,,,,,,-0.1,,,,,,,,,,,METAR,175.0
CWME 190100Z AUTO 06015KT 08/05 RMK AO1 PK WND 04020/0027 SLP122 T00830048 57014,CWME,2021-10-19T01:00:00Z,52.18,-127.47,8.3,4.8,60,15,,,,1012.2,,TRUE,TRUE,,,,,,,,,,,,,,,,-1.4,,,,,,,,,,,METAR,23.0
CWKD 190100Z AUTO 30007KT 04/03 RMK AO1 5PAST HR 1002 SLP033 P0002 T00370033 50005,CWKD,2021-10-19T01:00:00Z,50.73,-71.02,3.7,3.3,300,7,,,,1003.3,,TRUE,TRUE,,,,,,,,,,,,,,,,0.5,,,,,0.02,,,,,,METAR,496.0
CWJO 190100Z AUTO 29014G21KT 08/03 RMK AO1 PK WND 27024/0028 SLP055 T00760030 55000,CWJO,2021-10-19T01:00:00Z,48.43,-71.15,7.6,3.0,290,14,21,,,1005.5,,TRUE,TRUE,,,,,,,,,,,,,,,,0.0,,,,,,,,,,,METAR,113.0
CWIX 190100Z AUTO 30012KT 07/03 RMK AO1 SLP051 T00730032 52006,CWIX,2021-10-19T01:00:00Z,48.6,-71.72,7.3,3.2,300,12,,,,1005.1,,TRUE,TRUE,,,,,,,,,,,,,,,,0.6,,,,,,,,,,,METAR,109.0
CWHP 190100Z AUTO 22014KT 10/09 RMK AO1 PK WND 21017/0027 SLP954 T00970092 50000,CWHP,2021-10-19T01:00:00Z,49.08,-61.7,9.7,9.2,220,14,,,,995.4,,TRUE,TRUE,,,,,,,,,,,,,,,,0.0,,,,,,,,,,,METAR,7.0
CWGM 190100Z AUTO 07004KT 06/M00 RMK AO1 T00551002,CWGM,2021-10-19T01:00:00Z,49.13,-113.8,5.5,-0.2,70,4,,,,,,TRUE,TRUE,,,,,,,,,,,,,,,,,,,,,,,,,,,METAR,1292.0
CWEF 190100Z AUTO 11/ RMK AO1 SLP973 T0114,CWEF,2021-10-19T01:00:00Z,47.22,-60.13,11.4,,,,,,,997.3,,TRUE,TRUE,,,,,,,,,,,,,,,,,,,,,,,,,,,METAR,27.0
CWEE 190100Z AUTO 04/02 RMK AO1 SLP068 T00430015 51005,CWEE,2021-10-19T01:00:00Z,49.27,-73.35,4.3,1.5,,,,,,1006.8,,TRUE,TRUE,,,,,,,,,,,,,,,,0.5,,,,,,,,,,,METAR,302.0
CWDT 190100Z AUTO 29012KT RMK AO1 1PAST HR 2001 P0000 50001,CWDT,2021-10-19T01:00:00Z,49.83,-71.17,,,290,12,,,,,,TRUE,TRUE,,,,,,,,,,,,,,,,0.1,,,,,0.005,,,,,,METAR,389.0
CWDO 190100Z AUTO 11012G22KT 07/05 RMK AO1 PK WND 10025/0022 SLP046 T00660052 58021,CWDO,2021-10-19T01:00:00Z,49.68,-54.78,6.6,5.2,110,12,22,,,1004.6,,TRUE,TRUE,,,,,,,,,,,,,,,,-2.1,,,,,,,,,,,METAR,89.0
CWDM 190100Z AUTO 07011G18KT 08/08 RMK AO1 4PAST HR 6015 PK WND 05021/0005 SLP998 P0017 T00820081 50044,CWDM,2021-10-19T01:00:00Z,50.47,-59.63,8.2,8.1,70,11,18,,,999.8,,TRUE,TRUE,,,,,,,,,,,,,,,,4.4,,,,,0.17,,,,,,METAR,2.0
CWDC 190100Z AUTO 28006KT 02/M02 RMK AO1 SLP212 T00181024 53023,CWDC,2021-10-19T01:00:00Z,59.57,-108.48,1.8,-2.4,280,6,,,,1021.2,,TRUE,TRUE,,,,,,,,,,,,,,,,2.3,,,,,,,,,,,METAR,311.0
CWCI 190100Z AUTO 17007KT 11/08 RMK AO1 SLP162 T01130084 58003,CWCI,2021-10-19T01:00:00Z,47.33,-85.82,11.3,8.4,170,7,,,,1016.2,,TRUE,TRUE,,,,,,,,,,,,,,,,-0.3,,,,,,,,,,,METAR,167.0
CWAE 190100Z 00000KT 15SM FEW050 FEW250 06/04 A2996 RMK CU1CI1 CU TR LAST OBS/NEXT 191300UTC WND ESTD SLP158,CWAE,2021-10-19T01:00:00Z,50.13,-122.95,6.0,4.0,0,0,,15.0,29.958662,1015.8,,,,,,,,,,FEW,5000,FEW,25000,,,,,VFR,,,,,,,,,,,,METAR,658.0
CTRA 190100Z AUTO 19005KT 15/06 RMK AO1 SLP074 T01450063 56005,CTRA,2021-10-19T01:00:00Z,49.67,-93.73,14.5,6.3,190,5,,,,1007.4,,TRUE,TRUE,,,,,,,,,,,,,,,,-0.5,,,,,,,,,,,METAR,432.0
CPST 190100Z AUTO 04007KT 05/01 RMK AO1 T00480007,CPST,2021-10-19T01:00:00Z,51.03,-113.28,4.8,0.7,40,7,,,,,,TRUE,TRUE,,,,,,,,,,,,,,,,,,,,,,,,,,,METAR,1005.0
CPIR 190100Z AUTO 02008KT 08/02 RMK AO1 T00810016,CPIR,2021-10-19T01:00:00Z,49.9,-112.73,8.1,1.6,20,8,,,,,,TRUE,TRUE,,,,,,,,,,,,,,,,,,,,,,,,,,,METAR,895.0
AYNZ 190100Z 03005KT 9999 HZ SCT035 SCT050 30/23 Q1013,AYNZ,2021-10-19T01:00:00Z,-6.57,146.72,30.0,23.0,30,5,,6.21,29.911417,,,,,,,,,,HZ,SCT,3500,SCT,5000,,,,,VFR,,,,,,,,,,,,METAR,74.0
MTPP 190059Z AUTO 20007KT 9000 ////// 27/24 Q1013 A2991 NOSIG,MTPP,2021-10-19T00:59:00Z,18.57,-72.3,27.0,24.0,200,7,,5.59,29.911417,,,TRUE,,,TRUE,,,,,,,,,,,,,,,,,,,,,,,,,METAR,36.0
KGRF 190058Z AUTO 18003KT 10SM SCT017 OVC038 11/08 A3000 RMK AO2 SLP164 T01110080 $,KGRF,2021-10-19T00:58:00Z,47.07,-122.57,11.1,8.0,180,3,,10.0,30.0,1016.4,,TRUE,TRUE,TRUE,,,,,,SCT,1700,OVC,3800,,,,,VFR,,,,,,,,,,,,SPECI,91.0
KCVS 190058Z AUTO 19009KT 10SM CLR 19/05 A2990 RMK AO2 SLP094 T01870048 $,KCVS,2021-10-19T00:58:00Z,34.37,-103.32,18.7,4.8,190,9,,10.0,29.899607,1009.4,,TRUE,TRUE,TRUE,,,,,,CLR,,,,,,,,VFR,,,,,,,,,,,,SPECI,1305.0
KCMY 190058Z AUTO 00000KT 8SM R29/5500FT CLR 08/06 A3002 RMK AO2 SLP176 T00820060,KCMY,2021-10-19T00:58:00Z,43.97,-90.73,8.2,6.0,0,0,,8.0,30.02067,1017.6,,TRUE,TRUE,,,,,,,CLR,,,,,,,,VFR,,,,,,,,,,,,METAR,253.0
KBIF 190058Z AUTO 24011G16KT 10SM CLR 26/M01 A2989 RMK AO2 SLP067 T02611014 $,KBIF,2021-10-19T00:58:00Z,31.85,-106.38,26.1,-1.4,240,11,16,10.0,29.890747,1006.7,,TRUE,TRUE,TRUE,,,,,,CLR,,,,,,,,VFR,,,,,,,,,,,,METAR,1201.0
PGUA 190056Z 12008KT 10SM FEW012 SCT140 29/25 A2996 RMK AO2A SLP136 T02850247 $,PGUA,2021-10-19T00:56:00Z,13.57,144.92,28.5,24.7,120,8,,10.0,29.958662,1013.6,,,TRUE,TRUE,,,,,,FEW,1200,SCT,14000,,,,,VFR,,,,,,,,,,,,METAR,159.0
PFWS 190056Z AUTO 32003KT 8SM CLR 06/M03 A2962 RMK AO2 SLP075 T00561028,PFWS,2021-10-19T00:56:00Z,58.7,-157.0,5.6,-2.8,320,3,,8.0,29.619095,1007.5,,TRUE,TRUE,,,,,,,CLR,,,,,,,,VFR,,,,,,,,,,,,METAR,40.0
PAWG 190056Z 07006KT 10SM SCT080 OVC100 09/M02 A2980 RMK AO2 SLP091 T00941022,PAWG,2021-10-19T00:56:00Z,56.48,-132.37,9.4,-2.2,70,6,,10.0,29.799213,1009.1,,,TRUE,,,,,,,SCT,8000,OVC,10000,,,,,VFR,,,,,,,,,,,,METAR,6.0
PASL 190056Z AUTO 00000KT 10SM CLR 00/M05 A2965 RMK AO2 SLP034 T00001050 FZRANO,PASL,2021-10-19T00:56:00Z,61.68,-157.15,0.0,-5.0,0,0,,10.0,29.648623,1003.4,,TRUE,TRUE,,,,TRUE,,,CLR,,,,,,,,VFR,,,,,,,,,,,,METAR,64.0
PASH 190056Z AUTO 10013KT 10SM CLR M04/M07 A2961 RMK AO2 SLP026 T10391072 FZRANO,PASH,2021-10-19T00:56:00Z,66.27,-166.08,-3.9,-7.2,100,13,,10.0,29.610237,1002.6,,TRUE,TRUE,,,,TRUE,,,CLR,,,,,,,,VFR,,,,,,,,,,,,METAR,3.0
KSZL 190056Z 14006KT 10SM CLR 16/07 A2999 RMK AO2A SLP158 T01630072 $,KSZL,2021-10-19T00:56:00Z,38.73,-93.53,16.3,7.2,140,6,,10.0,29.991142,1015.8,,,TRUE,TRUE,,,,,,CLR,,,,,,,,VFR,,,,,,,,,,,,METAR,259.0
