No errors
No warnings
446 ms
data source=metars
4829 results
raw_text,station_id,observation_time,latitude,longitude,temp_c,dewpoint_c,wind_dir_degrees,wind_speed_kt,wind_gust_kt,visibility_statute_mi,altim_in_hg,sea_level_pressure_mb,corrected,auto,auto_station,maintenance_indicator_on,no_signal,lightning_sensor_off,freezing_rain_sensor_off,present_weather_sensor_off,wx_string,sky_cover,cloud_base_ft_agl,sky_cover,cloud_base_ft_agl,sky_cover,cloud_base_ft_agl,sky_cover,cloud_base_ft_agl,flight_category,three_hr_pressure_tendency_mb,maxT_c,minT_c,maxT24hr_c,minT24hr_c,precip_in,pcp3hr_in,pcp6hr_in,pcp24hr_in,snow_in,vert_vis_ft,metar_type,elevation_m
UTO8 M M M 101/01/-01/3004/M/ 1018 68MM,UTO8,2021-10-04T01:08:08Z,,,,,,,,,,,,,,,,,,,,,,,,,,,,,,,,,,,,,,,,METAR,
YWHA 040108Z AUTO 28018G28KT 9999 // BKN055 18/03 Q1010,YWHA,2021-10-04T01:08:00Z,-33.07,137.52,18.0,3.0,280,18,28,6.21,29.822834,,,TRUE,,,,,,,,BKN,5500,,,,,,,VFR,,,,,,,,,,,,SPECI,12.0
CYCA 040108Z AUTO 32011G16KT 4SM BR BKN013 BKN022 OVC028 05/04 A2996 RMK SLP149,CYCA,2021-10-04T01:08:00Z,53.68,-57.03,5.0,4.0,320,11,16,4.0,29.958662,1014.9,,TRUE,,,,,,,BR,BKN,1300,BKN,2200,OVC,2800,,,MVFR,,,,,,,,,,,,SPECI,12.0
CYDB 040107Z AUTO 31006KT 3SM -SN BKN009 OVC020 M01/M02 A2983 RMK SLP144,CYDB,2021-10-04T01:07:00Z,61.37,-139.02,-1.0,-2.0,310,6,,3.0,29.828741,1014.4,,TRUE,,,,,,,-SN,BKN,900,OVC,2000,,,,,IFR,,,,,,,,,,,,SPECI,807.0
UASP 040106Z 06005MPS 9999 OVC014CB 01/01 Q1019 R21/290355 NOSIG RMK QFE753/1004,UASP,2021-10-04T01:06:00Z,52.2,77.07,1.0,1.0,60,10,,6.21,30.088583,,,,,,TRUE,,,,,OVC,1400,,,,,,,MVFR,,,,,,,,,,,,METAR,122.0
PHBK 040106Z AUTO 25004KT 6SM -RA BR FEW007 BKN041 OVC050 24/22 A2989 RMK AO2 P0001 T02390222 ,PHBK,2021-10-04T01:06:00Z,22.03,-159.78,23.9,22.2,250,4,,6.0,29.890747,,,TRUE,TRUE,,,,,,-RA BR,FEW,700,BKN,4100,OVC,5000,,,VFR,,,,,,0.01,,,,,,SPECI,5.0
PAUN 040106Z AUTO 27006KT 10SM BKN026 OVC031 02/M04 A3019 RMK AO2 FZRANO,PAUN,2021-10-04T01:06:00Z,63.88,-160.8,2.0,-4.0,270,6,,10.0,30.188976,,,TRUE,TRUE,,,,TRUE,,,BKN,2600,OVC,3100,,,,,MVFR,,,,,,,,,,,,SPECI,4.0
NLWW 040106Z 10012KT 9999 SCT025 30/24 Q1009 NOSIG,NLWW,2021-10-04T01:06:00Z,-13.23,-176.18,30.0,24.0,100,12,,6.21,29.793306,,,,,,TRUE,,,,,SCT,2500,,,,,,,VFR,,,,,,,,,,,,METAR,24.0
MMEP 040106Z 00000KT 8SM -TSRA SCT020CB OVC090 22/21 A3003 RMK 8/96/ RAB02 OCNL LTGIC,MMEP,2021-10-04T01:06:00Z,21.42,-104.85,22.0,21.0,0,0,,8.0,30.029528,,,,,,,,,,-TSRA,SCT,2000,OVC,9000,,,,,VFR,,,,,,,,,,,,METAR,921.0
KSUE 040106Z AUTO 01004KT 3SM -RA BR OVC005 18/18 A2987 RMK AO2 PNO $,KSUE,2021-10-04T01:06:00Z,44.85,-87.42,18.0,18.0,10,4,,3.0,29.870079,,,TRUE,TRUE,TRUE,,,,,-RA BR,OVC,500,,,,,,,IFR,,,,,,,,,,,,SPECI,215.0
KPEO 040106Z AUTO VRB03KT 2SM -RA BR OVC002 18/18 A2989 RMK AO2 P0001 T01830183 $,KPEO,2021-10-04T01:06:00Z,42.65,-77.05,18.3,18.3,0,3,,2.0,29.890747,,,TRUE,TRUE,TRUE,,,,,-RA BR,OVC,200,,,,,,,LIFR,,,,,,0.01,,,,,,SPECI,268.0
KMTW 040106Z AUTO 04004KT 6SM BR SCT004 OVC013 18/18 A2986 RMK AO2,KMTW,2021-10-04T01:06:00Z,44.12,-87.67,18.0,18.0,40,4,,6.0,29.861221,,,TRUE,TRUE,,,,,,BR,SCT,400,OVC,1300,,,,,MVFR,,,,,,,,,,,,SPECI,197.0
KMBS 040106Z 02007KT 2 1/2SM -RA BR OVC005 19/18 A2983 RMK AO2 P0002 T01890183,KMBS,2021-10-04T01:06:00Z,43.53,-84.08,18.9,18.3,20,7,,2.5,29.828741,,,,TRUE,,,,,,-RA BR,OVC,500,,,,,,,IFR,,,,,,0.02,,,,,,SPECI,201.0
KLOZ 040106Z AUTO 17003KT 10SM FEW006 BKN027 OVC070 18/18 A2998 RMK AO2 T01830178,KLOZ,2021-10-04T01:06:00Z,37.08,-84.07,18.3,17.8,170,3,,10.0,29.97933,,,TRUE,TRUE,,,,,,,FEW,600,BKN,2700,OVC,7000,,,MVFR,,,,,,,,,,,,SPECI,361.0
KGLR 040106Z AUTO 07005KT 3SM -RA OVC003 20/17 A2988 RMK AO2 RAB0057 P0000 T02000167,KGLR,2021-10-04T01:06:00Z,45.02,-84.68,20.0,16.7,70,5,,3.0,29.878937,,,TRUE,TRUE,,,,,,-RA,OVC,300,,,,,,,LIFR,,,,,,0.005,,,,,,SPECI,403.0
KDET 040106Z 34003KT 10SM SCT027 BKN060 BKN070 22/19 A2983 RMK AO2 LTG DSNT SW T02220189,KDET,2021-10-04T01:06:00Z,42.4,-83.02,22.2,18.9,340,3,,10.0,29.828741,,,,TRUE,,,,,,,SCT,2700,BKN,6000,BKN,7000,,,VFR,,,,,,,,,,,,SPECI,190.0
KBJJ 040106Z AUTO 20004KT 10SM FEW009 FEW050 SCT100 19/18 A2990 RMK AO2 LTG DSNT SE T01940183,KBJJ,2021-10-04T01:06:00Z,40.87,-81.88,19.4,18.3,200,4,,10.0,29.899607,,,TRUE,TRUE,,,,,,,FEW,900,FEW,5000,SCT,10000,,,VFR,,,,,,,,,,,,SPECI,338.0
PABL 040105Z AUTO 27011KT 6SM -SN BR OVC009 01/M01 A3012 RMK AO2 CIG 008V012 P0000 FZRANO,PABL,2021-10-04T01:05:00Z,65.98,-161.15,1.0,-1.0,270,11,,6.0,30.121063,,,TRUE,TRUE,,,,TRUE,,-SN BR,OVC,900,,,,,,,IFR,,,,,,0.005,,,,,,SPECI,7.0
KPSF 040105Z AUTO 00000KT 1 3/4SM -RA BR BKN002 OVC007 14/14 A2996 RMK AO2 P0000 T01440139,KPSF,2021-10-04T01:05:00Z,42.43,-73.28,14.4,13.9,0,0,,1.75,29.958662,,,TRUE,TRUE,,,,,,-RA BR,BKN,200,OVC,700,,,,,LIFR,,,,,,0.005,,,,,,SPECI,352.0
KJST 040105Z AUTO 22006KT 10SM FEW017 SCT027 BKN034 19/16 A2997 RMK AO2 T01890161,KJST,2021-10-04T01:05:00Z,40.32,-78.83,18.9,16.1,220,6,,10.0,29.970472,,,TRUE,TRUE,,,,,,,FEW,1700,SCT,2700,BKN,3400,,,VFR,,,,,,,,,,,,SPECI,695.0
KITH 040105Z AUTO 07004KT 2 1/2SM RA BR BKN009 BKN017 OVC026 17/17 A2991 RMK AO2 VIS 2V4 CIG 006V013 P0002,KITH,2021-10-04T01:05:00Z,42.48,-76.45,17.0,17.0,70,4,,2.5,29.911417,,,TRUE,TRUE,,,,,,RA BR,BKN,900,BKN,1700,OVC,2600,,,IFR,,,,,,0.02,,,,,,SPECI,338.0
KIJD 040105Z AUTO 04003KT 10SM FEW006 BKN050 OVC085 18/17 A2996 RMK AO2 RAE01 P0000 T01780172,KIJD,2021-10-04T01:05:00Z,41.75,-72.18,17.8,17.2,40,3,,10.0,29.958662,,,TRUE,TRUE,,,,,,,FEW,600,BKN,5000,OVC,8500,,,VFR,,,,,,0.005,,,,,,SPECI,73.0
KACK 040105Z AUTO 00000KT 1 1/2SM BR BKN100 19/18 A2996 RMK AO2 VIS 1/2V4 T01940178,KACK,2021-10-04T01:05:00Z,41.25,-70.07,19.4,17.8,0,0,,1.5,29.958662,,,TRUE,TRUE,,,,,,BR,BKN,10000,,,,,,,IFR,,,,,,,,,,,,SPECI,12.0
CYZE 040105Z AUTO 06009KT 9SM OVC008 15/14 A2990 RMK SLP129 DENSITY ALT 800FT,CYZE,2021-10-04T01:05:00Z,45.88,-82.57,15.0,14.0,60,9,,9.0,29.899607,1012.9,,TRUE,,,,,,,,OVC,800,,,,,,,IFR,,,,,,,,,,,,SPECI,189.0
CYUX 040105Z AUTO 18008KT 3SM BR OVC003 02/02 A2988 RMK SLP121,CYUX,2021-10-04T01:05:00Z,68.77,-81.22,2.0,2.0,180,8,,3.0,29.878937,1012.1,,TRUE,,,,,,,BR,OVC,300,,,,,,,LIFR,,,,,,,,,,,,SPECI,8.0
CYTE 040105Z AUTO 25004KT 9SM BKN014 04/02 A3003 RMK SLP173,CYTE,2021-10-04T01:05:00Z,64.22,-76.52,4.0,2.0,250,4,,9.0,30.029528,1017.3,,TRUE,,,,,,,,BKN,1400,,,,,,,MVFR,,,,,,,,,,,,METAR,49.0
RJOI 1004 DH0100/PPH 0.00,RJOI,2021-10-04T01:04:04Z,34.13,132.23,,,,,,,,,,,,,,,,,,,,,,,,,,,,,,,,,,,,,,METAR,2.0
VABP 040104Z 19002KT 4000 HZ NSC 22/21 Q1010 NOSIG,VABP,2021-10-04T01:04:00Z,23.28,77.33,22.0,21.0,190,2,,2.49,29.822834,,,,,,TRUE,,,,HZ,CLR,,,,,,,,IFR,,,,,,,,,,,,METAR,520.0
KTOI 040104Z AUTO 22006KT 8SM VCTS -RA SCT026 BKN044 OVC090 22/19 A3003 RMK AO2 P0000 T02220194,KTOI,2021-10-04T01:04:00Z,31.85,-86.02,22.2,19.4,220,6,,8.0,30.029528,,,TRUE,TRUE,,,,,,VCTS -RA,SCT,2600,BKN,4400,OVC,9000,,,VFR,,,,,,0.005,,,,,,SPECI,120.0
KTAN 040104Z AUTO 00000KT 10SM SCT010 BKN018 OVC065 16/15 A2997 RMK AO2 T01610150,KTAN,2021-10-04T01:04:00Z,41.88,-71.02,16.1,15.0,0,0,,10.0,29.970472,,,TRUE,TRUE,,,,,,,SCT,1000,BKN,1800,OVC,6500,,,MVFR,,,,,,,,,,,,SPECI,8.0
KSBM 040104Z AUTO 00000KT 10SM -RA SCT005 SCT012 OVC110 18/ A2985 RMK AO2 P0000 T0178 $,KSBM,2021-10-04T01:04:00Z,43.78,-87.85,17.8,,0,0,,10.0,29.84941,,,TRUE,TRUE,TRUE,,,,,-RA,SCT,500,SCT,1200,OVC,11000,,,VFR,,,,,,0.005,,,,,,SPECI,225.0
KMVL 040104Z AUTO 36003KT 4SM -RA BR OVC003 13/13 A3001 RMK AO2 RAB01 P0000 T01330133,KMVL,2021-10-04T01:04:00Z,44.53,-72.62,13.3,13.3,360,3,,4.0,30.008858,,,TRUE,TRUE,,,,,,-RA BR,OVC,300,,,,,,,LIFR,,,,,,0.005,,,,,,METAR,226.0
KMFI 040104Z AUTO 36008KT 10SM BKN019 17/14 A2991 RMK AO2 T01670139,KMFI,2021-10-04T01:04:00Z,44.63,-90.18,16.7,13.9,360,8,,10.0,29.911417,,,TRUE,TRUE,,,,,,,BKN,1900,,,,,,,MVFR,,,,,,,,,,,,SPECI,383.0
KCVC 040104Z AUTO 00000KT 7SM RA SCT110 21/21 A3002 RMK AO2 LTG DSNT S,KCVC,2021-10-04T01:04:00Z,33.63,-83.85,21.0,21.0,0,0,,7.0,30.02067,,,TRUE,TRUE,,,,,,RA,SCT,11000,,,,,,,VFR,,,,,,,,,,,,METAR,240.0
KBUF 040104Z 00000KT 6SM -RA BR BKN005 OVC012 20/19 A2986 RMK AO2 P0000 T02000189 $,KBUF,2021-10-04T01:04:00Z,42.93,-78.73,20.0,18.9,0,0,,6.0,29.861221,,,,TRUE,TRUE,,,,,-RA BR,BKN,500,OVC,1200,,,,,IFR,,,,,,0.005,,,,,,SPECI,217.0
YMAV 040103Z AUTO 30021G31KT 9999 -RA SCT048 BKN055 OVC068 11/06 Q0998,YMAV,2021-10-04T01:03:00Z,-38.03,144.48,11.0,6.0,300,21,31,6.21,29.468504,,,TRUE,,,,,,,-RA,SCT,4800,BKN,5500,OVC,6800,,,VFR,,,,,,,,,,,,METAR,11.0
SVVA 040103Z AUTO NIL,SVVA,2021-10-04T01:03:00Z,10.15,-67.92,,,,,,,,,,TRUE,,,,,,,,,,,,,,,,,,,,,,,,,,,,SPECI,428.0
SVSR 040103Z AUTO NIL,SVSR,2021-10-04T01:03:00Z,7.87,-67.43,,,,,,,,,,TRUE,,,,,,,,,,,,,,,,,,,,,,,,,,,,SPECI,49.0
SVPA 040103Z AUTO NIL,SVPA,2021-10-04T01:03:00Z,5.62,-67.6,,,,,,,,,,TRUE,,,,,,,,,,,,,,,,,,,,,,,,,,,,METAR,77.0
SVMI 040103Z AUTO 09010KT NCD ///// Q1009,SVMI,2021-10-04T01:03:00Z,10.6,-67.0,,,90,10,,,29.793306,,,TRUE,,,,,,,,CLR,,,,,,,,,,,,,,,,,,,,SPECI,48.0
SVMG 040103Z AUTO 10012KT NCD 32/24 Q1010,SVMG,2021-10-04T01:03:00Z,10.92,-63.97,32.0,24.0,100,12,,,29.822834,,,TRUE,,,,,,,,CLR,,,,,,,,,,,,,,,,,,,,METAR,16.0
SVMC 040103Z AUTO NIL,SVMC,2021-10-04T01:03:00Z,10.57,-71.72,,,,,,,,,,TRUE,,,,,,,,,,,,,,,,,,,,,,,,,,,,SPECI,76.0
SVLO 040103Z AUTO NIL,SVLO,2021-10-04T01:03:00Z,11.8,-66.18,,,,,,,,,,TRUE,,,,,,,,,,,,,,,,,,,,,,,,,,,,METAR,3.0
SVJM 040103Z AUTO 20005KT NCD 27/21 Q1009,SVJM,2021-10-04T01:03:00Z,9.92,-67.38,27.0,21.0,200,5,,,29.793306,,,TRUE,,,,,,,,CLR,,,,,,,,,,,,,,,,,,,,METAR,448.0
SVGU 040103Z AUTO 06003KT NCD 32/23 Q1008,SVGU,2021-10-04T01:03:00Z,9.03,-69.75,32.0,23.0,60,3,,,29.763779,,,TRUE,,,,,,,,CLR,,,,,,,,,,,,,,,,,,,,METAR,165.0
SVGD 040103Z AUTO NIL,SVGD,2021-10-04T01:03:00Z,7.22,-70.75,,,,,,,,,,TRUE,,,,,,,,,,,,,,,,,,,,,,,,,,,,METAR,129.0
SVFM 040103Z AUTO 16004KT NCD 23/20 Q1011,SVFM,2021-10-04T01:03:00Z,10.48,-66.83,23.0,20.0,160,4,,,29.852362,,,TRUE,,,,,,,,CLR,,,,,,,,,,,,,,,,,,,,METAR,852.0
SVCS 040103Z AUTO NIL,SVCS,2021-10-04T01:03:00Z,10.3,-66.82,,,,,,,,,,TRUE,,,,,,,,,,,,,,,,,,,,,,,,,,,,METAR,656.0
SVCJ 040103Z AUTO NIL,SVCJ,2021-10-04T01:03:00Z,9.65,-68.58,,,,,,,,,,TRUE,,,,,,,,,,,,,,,,,,,,,,,,,,,,METAR,156.0
SVBS 040103Z AUTO 00000KT NCD ///// Q////,SVBS,2021-10-04T01:03:00Z,10.25,-67.65,,,0,0,,,,,,TRUE,,,,,,,,CLR,,,,,,,,,,,,,,,,,,,,METAR,435.0
SVBM 040103Z AUTO 11009KT NCD 30/22 Q1011,SVBM,2021-10-04T01:03:00Z,10.05,-69.37,30.0,22.0,110,9,,,29.852362,,,TRUE,,,,,,,,CLR,,,,,,,,,,,,,,,,,,,,METAR,624.0
SVBI 040103Z AUTO NIL,SVBI,2021-10-04T01:03:00Z,8.62,-70.22,,,,,,,,,,TRUE,,,,,,,,,,,,,,,,,,,,,,,,,,,,METAR,185.0
SVBC 040103Z AUTO NIL,SVBC,2021-10-04T01:03:00Z,10.12,-64.68,,,,,,,,,,TRUE,,,,,,,,,,,,,,,,,,,,,,,,,,,,SPECI,7.0
PAVC 040103Z AUTO 26011KT 10SM BKN025 BKN030 08/05 A3031 RMK AO2 PNO $,PAVC,2021-10-04T01:03:00Z,55.12,-162.27,8.0,5.0,260,11,,10.0,30.31004,,,TRUE,TRUE,TRUE,,,,,,BKN,2500,BKN,3000,,,,,MVFR,,,,,,,,,,,,SPECI,48.0
MMZC 040103Z RTD 00000KT 10SM SCT030 BKN100 BKN200 17/13 A3025 RMK 8/823,MMZC,2021-10-04T01:03:00Z,22.9,-102.68,17.0,13.0,0,0,,10.0,30.250984,,,,,,,,,,,SCT,3000,BKN,10000,BKN,20000,,,VFR,,,,,,,,,,,,METAR,2175.0
KMCB 040103Z AUTO 17005KT 2 1/2SM RA BR SCT047 BKN070 OVC110 24/23 A2996 RMK AO2 P0006 T02390233,KMCB,2021-10-04T01:03:00Z,31.18,-90.47,23.9,23.3,170,5,,2.5,29.958662,,,TRUE,TRUE,,,,,,RA BR,SCT,4700,BKN,7000,OVC,11000,,,IFR,,,,,,0.06,,,,,,SPECI,124.0
KIPT 040103Z 00000KT 3SM -RA BR SCT006 OVC040 17/17 A2991 RMK AO2 P0001 T01720167,KIPT,2021-10-04T01:03:00Z,41.25,-76.92,17.2,16.7,0,0,,3.0,29.911417,,,,TRUE,,,,,,-RA BR,SCT,600,OVC,4000,,,,,MVFR,,,,,,0.01,,,,,,SPECI,160.0
KFOK 040103Z 00000KT 8SM FEW007 SCT060 OVC110 19/18 A2996 RMK AO2 T01890183,KFOK,2021-10-04T01:03:00Z,40.85,-72.62,18.9,18.3,0,0,,8.0,29.958662,,,,TRUE,,,,,,,FEW,700,SCT,6000,OVC,11000,,,VFR,,,,,,,,,,,,SPECI,13.0
KCEC 040103Z AUTO 17007KT 1/4SM FG VV002 11/11 A2996 RMK AO2 T01110106,KCEC,2021-10-04T01:03:00Z,41.78,-124.23,11.1,10.6,170,7,,0.25,29.958662,,,TRUE,TRUE,,,,,,FG,OVX,0,,,,,,,LIFR,,,,,,,,,,,200,SPECI,17.0
KARB 040103Z AUTO 14003KT 10SM SCT029 BKN055 BKN100 19/18 A2982 RMK AO2 LTG DSNT SE T01940178,KARB,2021-10-04T01:03:00Z,42.22,-83.73,19.4,17.8,140,3,,10.0,29.819881,,,TRUE,TRUE,,,,,,,SCT,2900,BKN,5500,BKN,10000,,,VFR,,,,,,,,,,,,METAR,251.0
CYKF 040103Z AUTO 08008KT 1 3/4SM -RA BR OVC004 17/17 A2986 RMK SLP112 DENSITY ALT 1700FT,CYKF,2021-10-04T01:03:00Z,43.47,-80.38,17.0,17.0,80,8,,1.75,29.861221,1011.2,,TRUE,,,,,,,-RA BR,OVC,400,,,,,,,LIFR,,,,,,,,,,,,SPECI,312.0
KHTL 040102Z AUTO 00000KT 3SM BR FEW009 BKN047 OVC100 18/17 A2987 RMK AO2 T01780172,KHTL,2021-10-04T01:02:00Z,44.35,-84.67,17.8,17.2,0,0,,3.0,29.870079,,,TRUE,TRUE,,,,,,BR,FEW,900,BKN,4700,OVC,10000,,,MVFR,,,,,,,,,,,,SPECI,350.0
KFLD 040102Z AUTO 06007KT 3SM +RA BKN006 OVC010 21/17 A2985 RMK AO2 CIG 004V008 P0007 T02060172 $,KFLD,2021-10-04T01:02:00Z,43.77,-88.48,20.6,17.2,60,7,,3.0,29.84941,,,TRUE,TRUE,TRUE,,,,,+RA,BKN,600,OVC,1000,,,,,IFR,,,,,,0.07,,,,,,METAR,242.0
KELM 040102Z 00000KT 4SM -RA BR BKN026 OVC033 18/17 A2989 RMK AO2 P0000 T01830172,KELM,2021-10-04T01:02:00Z,42.15,-76.9,18.3,17.2,0,0,,4.0,29.890747,,,,TRUE,,,,,,-RA BR,BKN,2600,OVC,3300,,,,,MVFR,,,,,,0.005,,,,,,SPECI,287.0
KDKK 040102Z AUTO 32006KT 1 1/2SM +RA BR SCT009 BKN014 OVC020 20/19 A2986 RMK AO2 P0012 T02000194 $,KDKK,2021-10-04T01:02:00Z,42.5,-79.28,20.0,19.4,320,6,,1.5,29.861221,,,TRUE,TRUE,TRUE,,,,,+RA BR,SCT,900,BKN,1400,OVC,2000,,,IFR,,,,,,0.12,,,,,,METAR,205.0
KDFI 040102Z AUTO 00000KT 8SM -RA SCT035 SCT070 OVC120 18/17 A2983 RMK AO2 LTG DSNT SE T01830172 PNO $,KDFI,2021-10-04T01:02:00Z,41.33,-84.43,18.3,17.2,0,0,,8.0,29.828741,,,TRUE,TRUE,TRUE,,,,,-RA,SCT,3500,SCT,7000,OVC,12000,,,VFR,,,,,,,,,,,,METAR,215.0
KBHM 040102Z 14003KT 10SM BKN010 BKN030 23/21 A3001 RMK AO2 LTG DSNT W AND NW T02280206 $,KBHM,2021-10-04T01:02:00Z,33.57,-86.75,22.8,20.6,140,3,,10.0,30.008858,,,,TRUE,TRUE,,,,,,BKN,1000,BKN,3000,,,,,MVFR,,,,,,,,,,,,SPECI,191.0
YMIA 040101Z AUTO 28015G25KT 9999 // SCT045 SCT054 OVC063 15/04 Q1007,YMIA,2021-10-04T01:01:00Z,-34.23,142.08,15.0,4.0,280,15,25,6.21,29.734253,,,TRUE,,,,,,,,SCT,4500,SCT,5400,OVC,6300,,,VFR,,,,,,,,,,,,METAR,53.0
TJNR 040101Z AUTO 09007KT 6SM HZ BKN026 OVC033 29/25 A2997 RMK AO2 T02890250,TJNR,2021-10-04T01:01:00Z,18.25,-65.63,28.9,25.0,90,7,,6.0,29.970472,,,TRUE,TRUE,,,,,,HZ,BKN,2600,OVC,3300,,,,,MVFR,,,,,,,,,,,,METAR,7.0
PALU 040101Z AUTO 16008KT 10SM BKN010 M01/M03 A3012 RMK AO2 SLP198,PALU,2021-10-04T01:01:00Z,68.88,-166.1,-1.0,-3.0,160,8,,10.0,30.121063,1019.8,,TRUE,TRUE,,,,,,,BKN,1000,,,,,,,MVFR,,,,,,,,,,,,METAR,8.0
PAFS 040101Z AUTO VRB04KT 10SM OVC060 02/M03 A3011 RMK AO2 SLP205 T00221033 FZRANO,PAFS,2021-10-04T01:01:00Z,63.02,-154.35,2.2,-3.3,0,4,,10.0,30.109253,1020.5,,TRUE,TRUE,,,,TRUE,,,OVC,6000,,,,,,,VFR,,,,,,,,,,,,METAR,131.0
KTVC 040101Z 00000KT 10SM BKN005 BKN017 OVC095 18/17 A2985 RMK AO2 RAE00 P0000 T01830172,KTVC,2021-10-04T01:01:00Z,44.73,-85.58,18.3,17.2,0,0,,10.0,29.84941,,,,TRUE,,,,,,,BKN,500,BKN,1700,OVC,9500,,,IFR,,,,,,0.005,,,,,,METAR,188.0
KPKV 040101Z AUTO 10004KT 10SM CLR 26/23 A2997 RMK AO2,KPKV,2021-10-04T01:01:00Z,28.65,-96.68,26.0,23.0,100,4,,10.0,29.970472,,,TRUE,TRUE,,,,,,,CLR,,,,,,,,VFR,,,,,,,,,,,,METAR,8.0
KHDC 040101Z AUTO 15003KT 10SM CLR 24/23 A2995 RMK AO2,KHDC,2021-10-04T01:01:00Z,30.52,-90.42,24.0,23.0,150,3,,10.0,29.949802,,,TRUE,TRUE,,,,,,,CLR,,,,,,,,VFR,,,,,,,,,,,,METAR,12.0
KAZO 040101Z 22003KT 4SM -RA BR SCT029 SCT095 SCT120 19/17 A2982 RMK AO2 RAB0059 P0000 T01890172 $,KAZO,2021-10-04T01:01:00Z,42.23,-85.55,18.9,17.2,220,3,,4.0,29.819881,,,,TRUE,TRUE,,,,,-RA BR,SCT,2900,SCT,9500,SCT,12000,,,MVFR,,,,,,0.005,,,,,,METAR,264.0
KACV 040101Z AUTO 32003KT 1/4SM R32/1200V1800FT FG VV001 11/11 A2995 RMK AO2 T01060106,KACV,2021-10-04T01:01:00Z,40.98,-124.1,10.6,10.6,320,3,,0.25,29.949802,,,TRUE,TRUE,,,,,,FG,OVX,0,,,,,,,LIFR,,,,,,,,,,,100,METAR,63.0
OSLK 041000Z 13006KT 9999 SCT030 22/18 Q1013,OSLK,2021-10-04T01:00:34Z,35.4,35.95,22.0,18.0,130,6,,6.21,29.911417,,,,,,,,,,,SCT,3000,,,,,,,VFR,,,,,,,,,,,,METAR,47.0
OSKL 041000Z 31008KT CAVOK 21/03 Q1009,OSKL,2021-10-04T01:00:34Z,37.03,41.2,21.0,3.0,310,8,,6.21,29.793306,,,,,,,,,,,CAVOK,,,,,,,,VFR,,,,,,,,,,,,METAR,443.0
OSDI 041000Z 00000KT CAVOK 12/06 Q1016,OSDI,2021-10-04T01:00:34Z,33.42,36.52,12.0,6.0,0,0,,6.21,30.0,,,,,,,,,,,CAVOK,,,,,,,,VFR,,,,,,,,,,,,METAR,614.0
ZYTX 040100Z 02007MPS 340V050 CAVOK 12/07 Q1023 NOSIG,ZYTX,2021-10-04T01:00:00Z,41.63,123.48,12.0,7.0,20,14,,6.21,30.206694,,,,,,TRUE,,,,,CAVOK,,,,,,,,VFR,,,,,,,,,,,,METAR,56.0
ZYTL 040100Z 35007G12MPS 310V050 CAVOK 18/10 Q1019 NOSIG,ZYTL,2021-10-04T01:00:00Z,38.97,121.55,18.0,10.0,350,14,23,6.21,30.088583,,,,,,TRUE,,,,,CAVOK,,,,,,,,VFR,,,,,,,,,,,,METAR,33.0
ZYHB 040100Z 33006MPS CAVOK 10/02 Q1025 NOSIG,ZYHB,2021-10-04T01:00:00Z,45.62,126.25,10.0,2.0,330,12,,6.21,30.265747,,,,,,TRUE,,,,,CAVOK,,,,,,,,VFR,,,,,,,,,,,,METAR,134.0
ZYCC 040100Z 01003MPS 320V070 9999 BKN030 09/03 Q1025 NOSIG,ZYCC,2021-10-04T01:00:00Z,43.98,125.68,9.0,3.0,10,6,,6.21,30.265747,,,,,,TRUE,,,,,BKN,3000,,,,,,,MVFR,,,,,,,,,,,,METAR,211.0
ZWWW 040100Z 17002MPS 140V200 CAVOK 05/M00 Q1025 NOSIG,ZWWW,2021-10-04T01:00:00Z,43.9,87.47,5.0,0.0,170,4,,6.21,30.265747,,,,,,TRUE,,,,,CAVOK,,,,,,,,VFR,,,,,,,,,,,,METAR,654.0
ZWSH 040100Z 12002MPS 2800 BR BKN040 10/07 Q1022 NOSIG,ZWSH,2021-10-04T01:00:00Z,39.55,76.02,10.0,7.0,120,4,,1.74,30.177166,,,,,,TRUE,,,,BR,BKN,4000,,,,,,,IFR,,,,,,,,,,,,METAR,1374.0
ZUUU 040100Z 04005MPS 010V070 7000 SCT040 25/23 Q1007 NOSIG,ZUUU,2021-10-04T01:00:00Z,30.58,103.95,25.0,23.0,40,10,,4.35,29.734253,,,,,,TRUE,,,,,SCT,4000,,,,,,,MVFR,,,,,,,,,,,,METAR,494.0
ZUTF 040100Z 03004MPS 5000 BR FEW008 SCT050 25/23 Q1006 NOSIG,ZUTF,2021-10-04T01:00:00Z,,,25.0,23.0,30,8,,3.11,29.704725,,,,,,TRUE,,,,BR,FEW,800,SCT,5000,,,,,MVFR,,,,,,,,,,,,METAR,
ZUGY 040100Z 19008MPS 9999 SCT023 BKN036 23/17 Q1017 NOSIG,ZUGY,2021-10-04T01:00:00Z,26.53,106.8,23.0,17.0,190,16,,6.21,30.029528,,,,,,TRUE,,,,,SCT,2300,BKN,3600,,,,,VFR,,,,,,,,,,,,METAR,1130.0
ZUCK 040100Z 09004MPS 070V140 CAVOK 31/19 Q1007 NOSIG,ZUCK,2021-10-04T01:00:00Z,29.72,106.63,31.0,19.0,90,8,,6.21,29.734253,,,,,,TRUE,,,,,CAVOK,,,,,,,,VFR,,,,,,,,,,,,METAR,416.0
ZSSS 040100Z 18007MPS CAVOK 29/22 Q1019 NOSIG,ZSSS,2021-10-04T01:00:00Z,31.2,121.33,29.0,22.0,180,14,,6.21,30.088583,,,,,,TRUE,,,,,CAVOK,,,,,,,,VFR,,,,,,,,,,,,METAR,2.0
ZSQD 040100Z 01003MPS 9999 SCT007 BKN020 24/23 Q1016 BECMG TL0150 SHRA BKN007 FEW020CB,ZSQD,2021-10-04T01:00:00Z,36.27,120.38,24.0,23.0,10,6,,6.21,30.0,,,,,,,,,,,SCT,700,BKN,2000,,,,,MVFR,,,,,,,,,,,,METAR,8.0
ZSPD 040100Z 17007MPS 9999 FEW023 30/24 Q1018 NOSIG,ZSPD,2021-10-04T01:00:00Z,31.15,121.8,30.0,24.0,170,14,,6.21,30.059055,,,,,,TRUE,,,,,FEW,2300,,,,,,,VFR,,,,,,,,,,,,METAR,4.0
ZSOF 040100Z 15006MPS CAVOK 31/23 Q1014 NOSIG,ZSOF,2021-10-04T01:00:00Z,31.98,116.97,31.0,23.0,150,12,,6.21,29.940945,,,,,,TRUE,,,,,CAVOK,,,,,,,,VFR,,,,,,,,,,,,METAR,23.0
ZSNJ 040100Z 13004MPS CAVOK 29/21 Q1016 NOSIG,ZSNJ,2021-10-04T01:00:00Z,31.75,118.87,29.0,21.0,130,8,,6.21,30.0,,,,,,TRUE,,,,,CAVOK,,,,,,,,VFR,,,,,,,,,,,,METAR,27.0
ZSNB 040100Z 18003MPS 150V220 9999 FEW030 29/22 Q1019 NOSIG,ZSNB,2021-10-04T01:00:00Z,29.83,121.47,29.0,22.0,180,6,,6.21,30.088583,,,,,,TRUE,,,,,FEW,3000,,,,,,,VFR,,,,,,,,,,,,METAR,5.0
ZSHC 040100Z 17003MPS 140V210 CAVOK 28/19 Q1018 NOSIG,ZSHC,2021-10-04T01:00:00Z,30.22,120.43,28.0,19.0,170,6,,6.21,30.059055,,,,,,TRUE,,,,,CAVOK,,,,,,,,VFR,,,,,,,,,,,,METAR,8.0
ZSFZ 040100Z 02008MPS 9999 FEW017 BKN023 29/24 Q1016 NOSIG,ZSFZ,2021-10-04T01:00:00Z,25.93,119.67,29.0,24.0,20,16,,6.21,30.0,,,,,,TRUE,,,,,FEW,1700,BKN,2300,,,,,MVFR,,,,,,,,,,,,METAR,14.0
ZSAM 040100Z 03006MPS 9999 BKN033 30/23 Q1014 NOSIG,ZSAM,2021-10-04T01:00:00Z,24.53,118.13,30.0,23.0,30,12,,6.21,29.940945,,,,,,TRUE,,,,,BKN,3300,,,,,,,VFR,,,,,,,,,,,,METAR,13.0
ZPPP 040100Z 21006MPS 9999 SCT023 BKN040 17/15 Q1024 NOSIG,ZPPP,2021-10-04T01:00:00Z,25.0,102.65,17.0,15.0,210,12,,6.21,30.236221,,,,,,TRUE,,,,,SCT,2300,BKN,4000,,,,,VFR,,,,,,,,,,,,METAR,1885.0
ZMUB 040100Z 00000MPS 9999 FEW033 M02/M05 Q1030 NOSIG RMK QFE663.5 79 MOP,ZMUB,2021-10-04T01:00:00Z,47.83,106.75,-2.0,-5.0,0,0,,6.21,30.413385,,,,,,TRUE,,,,,FEW,3300,,,,,,,VFR,,,,,,,,,,,,METAR,1300.0
ZMCK 040100Z VRB02MPS 9999 FEW033 M01/M05 Q1029 NOSIG RMK QFE655.0 73 MOP,ZMCK,2021-10-04T01:00:00Z,,,-1.0,-5.0,0,4,,6.21,30.383858,,,,,,TRUE,,,,,FEW,3300,,,,,,,VFR,,,,,,,,,,,,METAR,
ZLXY 040100Z 24007MPS 9999 BKN050 16/12 Q1017 NOSIG,ZLXY,2021-10-04T01:00:00Z,34.43,108.75,16.0,12.0,240,14,,6.21,30.029528,,,,,,TRUE,,,,,BKN,5000,,,,,,,VFR,,,,,,,,,,,,METAR,478.0
ZLLL 040100Z VRB01MPS 9999 FEW007 OVC036 05/04 Q1027 NOSIG,ZLLL,2021-10-04T01:00:00Z,36.52,103.62,5.0,4.0,0,2,,6.21,30.324802,,,,,,TRUE,,,,,FEW,700,OVC,3600,,,,,VFR,,,,,,,,,,,,METAR,1939.0
ZJSY 040100Z 07004MPS CAVOK 31/23 Q1010 NOSIG,ZJSY,2021-10-04T01:00:00Z,18.3,109.42,31.0,23.0,70,8,,6.21,29.822834,,,,,,TRUE,,,,,CAVOK,,,,,,,,VFR,,,,,,,,,,,,METAR,27.0
ZJHK 040100Z 08005MPS 9999 FEW033 30/26 Q1011 NOSIG,ZJHK,2021-10-04T01:00:00Z,19.93,110.43,30.0,26.0,80,10,,6.21,29.852362,,,,,,TRUE,,,,,FEW,3300,,,,,,,VFR,,,,,,,,,,,,METAR,21.0
ZHHH 040100Z 13004G12MPS 040V190 CAVOK 32/23 Q1012 NOSIG,ZHHH,2021-10-04T01:00:00Z,30.78,114.22,32.0,23.0,130,8,23,6.21,29.88189,,,,,,TRUE,,,,,CAVOK,,,,,,,,VFR,,,,,,,,,,,,METAR,33.0
ZHCC 040100Z 03006G11MPS 8000 OVC030 20/15 Q1016 NOSIG,ZHCC,2021-10-04T01:00:00Z,34.52,113.83,20.0,15.0,30,12,21,4.97,30.0,,,,,,TRUE,,,,,OVC,3000,,,,,,,MVFR,,,,,,,,,,,,METAR,149.0
ZGSZ 040100Z 05004MPS CAVOK 30/23 Q1013 NOSIG,ZGSZ,2021-10-04T01:00:00Z,22.63,113.8,30.0,23.0,50,8,,6.21,29.911417,,,,,,TRUE,,,,,CAVOK,,,,,,,,VFR,,,,,,,,,,,,METAR,18.0
ZGOW 040100Z 08004MPS 9999 FEW026 29/22 Q1015 NOSIG,ZGOW,2021-10-04T01:00:00Z,23.55,116.5,29.0,22.0,80,8,,6.21,29.970472,,,,,,TRUE,,,,,FEW,2600,,,,,,,VFR,,,,,,,,,,,,METAR,4.0
ZGNN 040100Z VRB01MPS 9999 FEW020 29/24 Q1013 NOSIG,ZGNN,2021-10-04T01:00:00Z,22.62,108.17,29.0,24.0,0,2,,6.21,29.911417,,,,,,TRUE,,,,,FEW,2000,,,,,,,VFR,,,,,,,,,,,,METAR,128.0
ZGKL 040100Z VRB01MPS CAVOK 29/21 Q1014 NOSIG,ZGKL,2021-10-04T01:00:00Z,25.22,110.03,29.0,21.0,0,2,,6.21,29.940945,,,,,,TRUE,,,,,CAVOK,,,,,,,,VFR,,,,,,,,,,,,METAR,151.0
ZGHA 040100Z 17004MPS CAVOK 31/23 Q1014 NOSIG,ZGHA,2021-10-04T01:00:00Z,28.18,113.22,31.0,23.0,170,8,,6.21,29.940945,,,,,,TRUE,,,,,CAVOK,,,,,,,,VFR,,,,,,,,,,,,METAR,61.0
ZGGG 040100Z 11002MPS 070V150 CAVOK 30/24 Q1014 NOSIG,ZGGG,2021-10-04T01:00:00Z,23.4,113.3,30.0,24.0,110,4,,6.21,29.940945,,,,,,TRUE,,,,,CAVOK,,,,,,,,VFR,,,,,,,,,,,,METAR,11.0
ZBYN 040100Z 01006MPS 5000 +RA BKN020 OVC040 12/09 Q1022 BECMG TL0140 RA,ZBYN,2021-10-04T01:00:00Z,37.73,112.63,12.0,9.0,10,12,,3.11,30.177166,,,,,,,,,,+RA,BKN,2000,OVC,4000,,,,,MVFR,,,,,,,,,,,,METAR,778.0
ZBTJ 040100Z 02005MPS CAVOK 19/10 Q1021 NOSIG,ZBTJ,2021-10-04T01:00:00Z,39.12,117.35,19.0,10.0,20,10,,6.21,30.147638,,,,,,TRUE,,,,,CAVOK,,,,,,,,VFR,,,,,,,,,,,,METAR,4.0
ZBSJ 040100Z 36002MPS 330V060 9999 -RA OVC046 17/12 Q1022 NOSIG,ZBSJ,2021-10-04T01:00:00Z,38.28,114.7,17.0,12.0,360,4,,6.21,30.177166,,,,,,TRUE,,,,-RA,OVC,4600,,,,,,,VFR,,,,,,,,,,,,METAR,70.0
ZBHH 040100Z 08007MPS 9999 FEW040 11/M06 Q1025 NOSIG,ZBHH,2021-10-04T01:00:00Z,40.85,111.82,11.0,-6.0,80,14,,6.21,30.265747,,,,,,TRUE,,,,,FEW,4000,,,,,,,VFR,,,,,,,,,,,,METAR,1081.0
ZBAD 040100Z 36007MPS CAVOK 18/03 Q1023 NOSIG,ZBAD,2021-10-04T01:00:00Z,39.5,116.42,18.0,3.0,360,14,,6.21,30.206694,,,,,,TRUE,,,,,CAVOK,,,,,,,,VFR,,,,,,,,,,,,METAR,25.0
ZBAA 040100Z 33003MPS 300V360 CAVOK 17/05 Q1023 NOSIG,ZBAA,2021-10-04T01:00:00Z,40.07,116.6,17.0,5.0,330,6,,6.21,30.206694,,,,,,TRUE,,,,,CAVOK,,,,,,,,VFR,,,,,,,,,,,,METAR,31.0
YWLM 040100Z AUTO 29020KT 9999 // NCD 27/10 Q0998,YWLM,2021-10-04T01:00:00Z,-32.8,151.83,27.0,10.0,290,20,,6.21,29.468504,,,TRUE,,,,,,,,CLR,,,,,,,,VFR,,,,,,,,,,,,METAR,7.0
YWGT 040100Z AUTO 30006G18KT 270V350 9999 // BKN020 BKN024 OVC028 14/11 Q1003,YWGT,2021-10-04T01:00:00Z,-36.42,146.3,14.0,11.0,300,6,18,6.21,29.616142,,,TRUE,,,,,,,,BKN,2000,BKN,2400,OVC,2800,,,MVFR,,,,,,,,,,,,METAR,152.0
YTRE 040100Z AUTO 16003KT 9999 // NCD 29/10 Q0997,YTRE,2021-10-04T01:00:00Z,-31.88,152.52,29.0,10.0,160,3,,6.21,29.438976,,,TRUE,,,,,,,,CLR,,,,,,,,VFR,,,,,,,,,,,,METAR,8.0
YTNK 040100Z AUTO 10020KT 9999 // NCD 31/04 Q1011,YTNK,2021-10-04T01:00:00Z,-19.63,134.18,31.0,4.0,100,20,,6.21,29.852362,,,TRUE,,,,,,,,CLR,,,,,,,,VFR,,,,,,,,,,,,METAR,368.0
YTEF 040100Z AUTO 12013KT 9999 // NCD 27/// Q1012,YTEF,2021-10-04T01:00:00Z,-21.72,122.23,,,120,13,,6.21,29.88189,,,TRUE,,,,,,,,CLR,,,,,,,,VFR,,,,,,,,,,,,METAR,298.0
YSWG 040100Z AUTO 25013KT 9999 // OVC033 15/09 Q1004,YSWG,2021-10-04T01:00:00Z,-35.15,147.47,15.0,9.0,250,13,,6.21,29.64567,,,TRUE,,,,,,,,OVC,3300,,,,,,,VFR,,,,,,,,,,,,METAR,212.0
YSTW 040100Z AUTO 28015KT 9999 // SCT050 22/12 Q1005,YSTW,2021-10-04T01:00:00Z,-31.08,150.85,22.0,12.0,280,15,,6.21,29.675198,,,TRUE,,,,,,,,SCT,5000,,,,,,,VFR,,,,,,,,,,,,METAR,404.0
YSSY 040100Z 24007KT CAVOK 26/09 Q0998,YSSY,2021-10-04T01:00:00Z,-33.95,151.17,26.0,9.0,240,7,,6.21,29.468504,,,,,,,,,,,CAVOK,,,,,,,,VFR,,,,,,,,,,,,METAR,3.0
YSRI 040100Z AUTO 21008KT 9999 // NCD 25/11 Q0999 RF00.0/000.0,YSRI,2021-10-04T01:00:00Z,-33.6,150.77,25.0,11.0,210,8,,6.21,29.498032,,,TRUE,,,,,,,,CLR,,,,,,,,VFR,,,,,,,,,,,,METAR,19.0
YSNF 040100Z AUTO 30010KT 9999 // BKN007 21/19 Q1011 RF00.0/000.2,YSNF,2021-10-04T01:00:00Z,-29.03,167.93,21.0,19.0,300,10,,6.21,29.852362,,,TRUE,,,,,,,,BKN,700,,,,,,,IFR,,,,,,,,,,,,METAR,113.0
YSDU 040100Z AUTO 26015KT 9999 // SCT034 18/09 Q1006 RF00.0/000.0,YSDU,2021-10-04T01:00:00Z,-32.22,148.57,18.0,9.0,260,15,,6.21,29.704725,,,TRUE,,,,,,,,SCT,3400,,,,,,,VFR,,,,,,,,,,,,METAR,285.0
YSCB 040100Z AUTO 31015KT 270V330 9999 // SCT040 18/10 Q1001,YSCB,2021-10-04T01:00:00Z,-35.3,149.18,18.0,10.0,310,15,,6.21,29.557087,,,TRUE,,,,,,,,SCT,4000,,,,,,,VFR,,,,,,,,,,,,METAR,577.0
YPXM 040100Z AUTO 14011KT 9999 // BKN005 OVC009 22/22 Q1014,YPXM,2021-10-04T01:00:00Z,-10.45,105.68,22.0,22.0,140,11,,6.21,29.940945,,,TRUE,,,,,,,,BKN,500,OVC,900,,,,,IFR,,,,,,,,,,,,METAR,262.0
YPWR 040100Z AUTO 24021KT 9999 // SCT050 17/03 Q1014 RF00.0/000.0,YPWR,2021-10-04T01:00:00Z,-31.15,136.82,17.0,3.0,240,21,,6.21,29.940945,,,TRUE,,,,,,,,SCT,5000,,,,,,,VFR,,,,,,,,,,,,METAR,169.0
YPTN 040100Z AUTO 31010KT 9999 // NCD 33/21 Q1008,YPTN,2021-10-04T01:00:00Z,-14.52,132.38,33.0,21.0,310,10,,6.21,29.763779,,,TRUE,,,,,,,,CLR,,,,,,,,VFR,,,,,,,,,,,,METAR,135.0
YPPH 040100Z 02006KT CAVOK 14/08 Q1014,YPPH,2021-10-04T01:00:00Z,-31.93,115.98,14.0,8.0,20,6,,6.21,29.940945,,,,,,,,,,,CAVOK,,,,,,,,VFR,,,,,,,,,,,,METAR,16.0
YPPD 040100Z AUTO 08006KT 030V100 9999 // NCD 29/03 Q1011 RF00.0/000.0,YPPD,2021-10-04T01:00:00Z,-20.37,118.62,29.0,3.0,80,6,,6.21,29.852362,,,TRUE,,,,,,,,CLR,,,,,,,,VFR,,,,,,,,,,,,METAR,6.0
YPLM 040100Z AUTO 20013KT 9999 // NCD 23/11 Q1013,YPLM,2021-10-04T01:00:00Z,-22.23,114.08,23.0,11.0,200,13,,6.21,29.911417,,,TRUE,,,,,,,,CLR,,,,,,,,VFR,,,,,,,,,,,,METAR,5.0
YPKU 040100Z AUTO 18008KT 9999 // NCD 36/11 Q1007,YPKU,2021-10-04T01:00:00Z,-15.77,128.7,36.0,11.0,180,8,,6.21,29.734253,,,TRUE,,,,,,,,CLR,,,,,,,,VFR,,,,,,,,,,,,METAR,42.0
YPKG 040100Z AUTO 01010KT 9999 // NCD 16/03 Q1016 RF00.0/000.0,YPKG,2021-10-04T01:00:00Z,-30.78,121.45,16.0,3.0,10,10,,6.21,30.0,,,TRUE,,,,,,,,CLR,,,,,,,,VFR,,,,,,,,,,,,METAR,372.0
YPJT 040100Z AUTO 36007KT 9999 // SCT044 OVC054 14/08 Q1015,YPJT,2021-10-04T01:00:00Z,-32.1,115.88,14.0,8.0,360,7,,6.21,29.970472,,,TRUE,,,,,,,,SCT,4400,OVC,5400,,,,,VFR,,,,,,,,,,,,METAR,29.0
YPGV 040100Z 35011KT 9999 FEW025 31/22 Q1009,YPGV,2021-10-04T01:00:00Z,-12.27,136.82,31.0,22.0,350,11,,6.21,29.793306,,,,,,,,,,,FEW,2500,,,,,,,VFR,,,,,,,,,,,,METAR,53.0
YPEA 040100Z 06007KT CAVOK 16/07 Q1015,YPEA,2021-10-04T01:00:00Z,-31.67,116.02,16.0,7.0,60,7,,6.21,29.970472,,,,,,,,,,,CAVOK,,,,,,,,VFR,,,,,,,,,,,,METAR,38.0
YPDN 040100Z 30009KT 9999 FEW022 SCT135 31/24 Q1008,YPDN,2021-10-04T01:00:00Z,-12.42,130.9,31.0,24.0,300,9,,6.21,29.763779,,,,,,,,,,,FEW,2200,SCT,13500,,,,,VFR,,,,,,,,,,,,METAR,32.0
YPCC 040100Z AUTO 13014KT 9999 // SCT022 OVC058 26/21 Q1013,YPCC,2021-10-04T01:00:00Z,-12.18,96.83,26.0,21.0,130,14,,6.21,29.911417,,,TRUE,,,,,,,,SCT,2200,OVC,5800,,,,,VFR,,,,,,,,,,,,METAR,3.0
YPAD 040100Z 29023KT 9999 VCSH FEW018 BKN045 14/09 Q1007,YPAD,2021-10-04T01:00:00Z,-34.95,138.52,14.0,9.0,290,23,,6.21,29.734253,,,,,,,,,,VCSH,FEW,1800,BKN,4500,,,,,VFR,,,,,,,,,,,,METAR,2.0
YMTG 040100Z AUTO 29020G30KT 9999 // SCT029 BKN039 BKN060 13/08 Q0998,YMTG,2021-10-04T01:00:00Z,-37.75,140.78,13.0,8.0,290,20,30,6.21,29.468504,,,TRUE,,,,,,,,SCT,2900,BKN,3900,BKN,6000,,,VFR,,,,,,,,,,,,SPECI,65.0
YMOR 040100Z AUTO 25012KT 9999 // NCD 22/12 Q1007,YMOR,2021-10-04T01:00:00Z,-29.5,149.85,22.0,12.0,250,12,,6.21,29.734253,,,TRUE,,,,,,,,CLR,,,,,,,,VFR,,,,,,,,,,,,METAR,211.0
YMML 040100Z 32016KT 9999 FEW045 SCT057 17/05 Q0999,YMML,2021-10-04T01:00:00Z,-37.67,144.82,17.0,5.0,320,16,,6.21,29.498032,,,,,,,,,,,FEW,4500,SCT,5700,,,,,VFR,,,,,,,,,,,,METAR,115.0
YMLT 040100Z AUTO 34018KT 6000 -RA OVC005 12/11 Q0993 RF00.2/001.2,YMLT,2021-10-04T01:00:00Z,-41.53,147.2,12.0,11.0,340,18,,3.73,29.320866,,,TRUE,,,,,,,-RA,OVC,500,,,,,,,IFR,,,,,,,,,,,,METAR,167.0
YMHB 040100Z 03006KT 9999 -SHRA FEW018 BKN025 BKN105 16/12 Q0992,YMHB,2021-10-04T01:00:00Z,-42.83,147.52,16.0,12.0,30,6,,6.21,29.291338,,,,,,,,,,-SHRA,FEW,1800,BKN,2500,BKN,10500,,,MVFR,,,,,,,,,,,,METAR,2.0
YMER 040100Z AUTO 09008KT 9999 // SCT099 19/16 Q0998,YMER,2021-10-04T01:00:00Z,-36.92,149.9,19.0,16.0,90,8,,6.21,29.468504,,,TRUE,,,,,,,,SCT,9900,,,,,,,VFR,,,,,,,,,,,,METAR,2.0
YMEN 040100Z AUTO 32013KT 9999 // BKN048 BKN057 16/06 Q0999,YMEN,2021-10-04T01:00:00Z,-37.72,144.9,16.0,6.0,320,13,,6.21,29.498032,,,TRUE,,,,,,,,BKN,4800,BKN,5700,,,,,VFR,,,,,,,,,,,,METAR,86.0
YMEK 040100Z AUTO 07008KT 9999 // NCD 21/04 Q1015,YMEK,2021-10-04T01:00:00Z,-26.62,118.55,21.0,4.0,70,8,,6.21,29.970472,,,TRUE,,,,,,,,CLR,,,,,,,,VFR,,,,,,,,,,,,METAR,521.0
YMDG 040100Z AUTO 28009KT 9999 // BKN024 OVC031 17/12 Q1004,YMDG,2021-10-04T01:00:00Z,-32.57,149.62,17.0,12.0,280,9,,6.21,29.64567,,,TRUE,,,,,,,,BKN,2400,OVC,3100,,,,,MVFR,,,,,,,,,,,,METAR,470.0
YMAY 040100Z AUTO 28008KT 9999 // SCT029 BKN036 OVC047 14/10 Q1004,YMAY,2021-10-04T01:00:00Z,-36.07,146.95,14.0,10.0,280,8,,6.21,29.64567,,,TRUE,,,,,,,,SCT,2900,BKN,3600,OVC,4700,,,VFR,,,,,,,,,,,,METAR,156.0
YLRE 040100Z AUTO 19010KT 9999 // NCD 29/03 Q1010,YLRE,2021-10-04T01:00:00Z,-23.43,144.28,29.0,3.0,190,10,,6.21,29.822834,,,TRUE,,,,,,,,CLR,,,,,,,,VFR,,,,,,,,,,,,METAR,191.0
YLHI 040100Z AUTO 04015KT 9999 // OVC010 22/22 Q1005 RF00.0/000.0,YLHI,2021-10-04T01:00:00Z,-31.53,159.07,22.0,22.0,40,15,,6.21,29.675198,,,TRUE,,,,,,,,OVC,1000,,,,,,,MVFR,,,,,,,,,,,,METAR,2.0
YHID 040100Z AUTO 04008KT 9999 // NCD 29/20 Q1009 RF00.0/000.0,YHID,2021-10-04T01:00:00Z,-10.58,142.3,29.0,20.0,40,8,,6.21,29.793306,,,TRUE,,,,,,,,CLR,,,,,,,,VFR,,,,,,,,,,,,METAR,5.0
YGLA 040100Z AUTO 35008KT 9999 // NCD 30/20 Q1007 RF00.0/000.0,YGLA,2021-10-04T01:00:00Z,-23.87,151.22,30.0,20.0,350,8,,6.21,29.734253,,,TRUE,,,,,,,,CLR,,,,,,,,VFR,,,,,,,,,,,,METAR,17.0
YGEL 040100Z AUTO 15004KT 110V190 9999 // NCD 18/08 Q1016 RF00.0/000.2,YGEL,2021-10-04T01:00:00Z,-28.8,114.7,18.0,8.0,150,4,,6.21,30.0,,,TRUE,,,,,,,,CLR,,,,,,,,VFR,,,,,,,,,,,,METAR,32.0
YFRT 040100Z AUTO 10003KT //// // ////// 15/05 Q1018 RF00.0/000.0,YFRT,2021-10-04T01:00:00Z,-30.83,128.12,15.0,5.0,100,3,,,30.059055,,,TRUE,,,,,,,,,,,,,,,,,,,,,,,,,,,,METAR,159.0
YCIN 040100Z AUTO 25004KT 130V290 9999 // NCD 28/16 Q1009 RF00.0/000.0,YCIN,2021-10-04T01:00:00Z,-17.58,123.83,28.0,16.0,250,4,,6.21,29.793306,,,TRUE,,,,,,,,CLR,,,,,,,,VFR,,,,,,,,,,,,METAR,83.0
YCFS 040100Z AUTO 36012KT 9999 // NCD 31/10 Q0999 RF00.0/000.0,YCFS,2021-10-04T01:00:00Z,-30.32,153.12,31.0,10.0,360,12,,6.21,29.498032,,,TRUE,,,,,,,,CLR,,,,,,,,VFR,,,,,,,,,,,,METAR,2.0
YCCY 040100Z AUTO 12007KT 110V180 9999 // NCD 31/00 Q1011,YCCY,2021-10-04T01:00:00Z,-20.67,140.5,31.0,0.0,120,7,,6.21,29.852362,,,TRUE,,,,,,,,CLR,,,,,,,,VFR,,,,,,,,,,,,METAR,188.0
YCBP 040100Z AUTO 22014KT 9999 // NCD 18/05 Q1016,YCBP,2021-10-04T01:00:00Z,-29.03,134.72,18.0,5.0,220,14,,6.21,30.0,,,TRUE,,,,,,,,CLR,,,,,,,,VFR,,,,,,,,,,,,METAR,227.0
YCBB 040100Z AUTO 23012KT 9999 // SCT018 16/11 Q1007,YCBB,2021-10-04T01:00:00Z,-31.33,149.27,16.0,11.0,230,12,,6.21,29.734253,,,TRUE,,,,,,,,SCT,1800,,,,,,,VFR,,,,,,,,,,,,METAR,644.0
YCBA 040100Z AUTO 25013KT //// // NCD 20/02 Q1008,YCBA,2021-10-04T01:00:00Z,-31.53,145.8,20.0,2.0,250,13,,,29.763779,,,TRUE,,,,,,,,CLR,,,,,,,,,,,,,,,,,,,,METAR,219.0
YCAS 040100Z AUTO 34013KT //// // ////// 33/09 Q1001,YCAS,2021-10-04T01:00:00Z,-28.88,153.07,33.0,9.0,340,13,,,29.557087,,,TRUE,,,,,,,,,,,,,,,,,,,,,,,,,,,,METAR,25.0
YCAR 040100Z AUTO 16020KT 9999 // NCD 20/11 Q1015,YCAR,2021-10-04T01:00:00Z,-24.88,113.67,20.0,11.0,160,20,,6.21,29.970472,,,TRUE,,,,,,,,CLR,,,,,,,,VFR,,,,,,,,,,,,METAR,4.0
YBWX 040100Z AUTO 22012KT //// // ////// 23/16 Q1011,YBWX,2021-10-04T01:00:00Z,-20.85,115.4,23.0,16.0,220,12,,,29.852362,,,TRUE,,,,,,,,,,,,,,,,,,,,,,,,,,,,METAR,5.0
YBWP 040100Z AUTO 29007KT 9999 // OVC031 OVC042 30/23 Q1009,YBWP,2021-10-04T01:00:00Z,-12.68,141.92,30.0,23.0,290,7,,6.21,29.793306,,,TRUE,,,,,,,,OVC,3100,OVC,4200,,,,,VFR,,,,,,,,,,,,METAR,21.0
YBUD 040100Z AUTO 36018KT 9999 // NCD 27/20 Q1006,YBUD,2021-10-04T01:00:00Z,-24.9,152.32,27.0,20.0,360,18,,6.21,29.704725,,,TRUE,,,,,,,,CLR,,,,,,,,VFR,,,,,,,,,,,,METAR,30.0
YBTL 040100Z AUTO 04012KT 9999 // NCD 30/23 Q1008,YBTL,2021-10-04T01:00:00Z,-19.25,146.75,30.0,23.0,40,12,,6.21,29.763779,,,TRUE,,,,,,,,CLR,,,,,,,,VFR,,,,,,,,,,,,METAR,4.0
YBRM 040100Z 32006KT CAVOK 28/20 Q1009,YBRM,2021-10-04T01:00:00Z,-17.93,122.23,28.0,20.0,320,6,,6.21,29.793306,,,,,,,,,,,CAVOK,,,,,,,,VFR,,,,,,,,,,,,METAR,11.0
YBRK 040100Z AUTO 31007KT 280V350 9999 // NCD 32/20 Q1007 RF00.0/000.0,YBRK,2021-10-04T01:00:00Z,-23.37,150.47,32.0,20.0,310,7,,6.21,29.734253,,,TRUE,,,,,,,,CLR,,,,,,,,VFR,,,,,,,,,,,,METAR,10.0
YBMA 040100Z AUTO 16010KT 130V190 9999 // NCD 29/M00 Q1012 RF00.0/000.0,YBMA,2021-10-04T01:00:00Z,-20.67,139.48,29.0,0.0,160,10,,6.21,29.88189,,,TRUE,,,,,,,,CLR,,,,,,,,VFR,,,,,,,,,,,,METAR,346.0
YBLN 040100Z AUTO 04007KT 360V090 //// // SCT072 15/13 Q1012,YBLN,2021-10-04T01:00:00Z,-33.68,115.4,15.0,13.0,40,7,,,29.88189,,,TRUE,,,,,,,,SCT,7200,,,,,,,,,,,,,,,,,,,METAR,17.0
YBHM 040100Z AUTO 32018KT 9999 // NCD 27/22 Q1008 RF00.0/000.0,YBHM,2021-10-04T01:00:00Z,-20.35,148.95,27.0,22.0,320,18,,6.21,29.763779,,,TRUE,,,,,,,,CLR,,,,,,,,VFR,,,,,,,,,,,,METAR,4.0
YBDV 040100Z AUTO 17015KT //// // ////// 25/01 Q1014,YBDV,2021-10-04T01:00:00Z,-25.9,139.35,25.0,1.0,170,15,,,29.940945,,,TRUE,,,,,,,,,,,,,,,,,,,,,,,,,,,,METAR,46.0
YBCV 040100Z AUTO 18008KT 170V240 9999 // NCD 25/02 Q1010,YBCV,2021-10-04T01:00:00Z,-26.4,146.27,25.0,2.0,180,8,,6.21,29.822834,,,TRUE,,,,,,,,CLR,,,,,,,,VFR,,,,,,,,,,,,METAR,306.0
YBCS 040100Z AUTO 01008KT 9999 // BKN015 29/23 Q1009,YBCS,2021-10-04T01:00:00Z,-16.87,145.75,29.0,23.0,10,8,,6.21,29.793306,,,TRUE,,,,,,,,BKN,1500,,,,,,,MVFR,,,,,,,,,,,,METAR,2.0
YBCG 040100Z AUTO 01016KT 9999 // NCD 25/19 Q1003,YBCG,2021-10-04T01:00:00Z,-28.17,153.5,25.0,19.0,10,16,,6.21,29.616142,,,TRUE,,,,,,,,CLR,,,,,,,,VFR,,,,,,,,,,,,METAR,5.0
YBBN 040100Z 03016KT CAVOK 27/21 Q1003,YBBN,2021-10-04T01:00:00Z,-27.38,153.13,27.0,21.0,30,16,,6.21,29.616142,,,,,,,,,,,CAVOK,,,,,,,,VFR,,,,,,,,,,,,METAR,3.0
YBAS 040100Z AUTO 11012KT 080V150 9999 // NCD 25/M01 Q1015,YBAS,2021-10-04T01:00:00Z,-23.8,133.9,25.0,-1.0,110,12,,6.21,29.970472,,,TRUE,,,,,,,,CLR,,,,,,,,VFR,,,,,,,,,,,,METAR,549.0
YAYE 040100Z AUTO 10010KT 9999 // NCD 25/M01 Q1015,YAYE,2021-10-04T01:00:00Z,-25.18,130.98,25.0,-1.0,100,10,,6.21,29.970472,,,TRUE,,,,,,,,CLR,,,,,,,,VFR,,,,,,,,,,,,METAR,489.0
YARG 040100Z AUTO 13009KT 9999 // NCD 36/02 Q1009,YARG,2021-10-04T01:00:00Z,-16.63,128.45,36.0,2.0,130,9,,6.21,29.793306,,,TRUE,,,,,,,,CLR,,,,,,,,VFR,,,,,,,,,,,,METAR,157.0
YAMB 040100Z AUTO 30008KT 9999 // NCD 33/14 Q1003,YAMB,2021-10-04T01:00:00Z,-27.63,152.72,33.0,14.0,300,8,,6.21,29.616142,,,TRUE,,,,,,,,CLR,,,,,,,,VFR,,,,,,,,,,,,METAR,26.0
YABA 040100Z AUTO 34012KT 9999 // NCD 15/07 Q1012,YABA,2021-10-04T01:00:00Z,-34.93,117.8,15.0,7.0,340,12,,6.21,29.88189,,,TRUE,,,,,,,,CLR,,,,,,,,VFR,,,,,,,,,,,,METAR,67.0
WSSS 040100Z 16004KT 100V220 9999 FEW018 SCT280 BKN300 29/26 Q1009 NOSIG,WSSS,2021-10-04T01:00:00Z,1.37,103.97,29.0,26.0,160,4,,6.21,29.793306,,,,,,TRUE,,,,,FEW,1800,SCT,28000,BKN,30000,,,VFR,,,,,,,,,,,,METAR,17.0
WSSL 040100Z VRB02KT 8000 FEW018 BKN300 28/25 Q1009,WSSL,2021-10-04T01:00:00Z,1.42,103.87,28.0,25.0,0,2,,4.97,29.793306,,,,,,,,,,,FEW,1800,BKN,30000,,,,,MVFR,,,,,,,,,,,,METAR,11.0
WSAP 040100Z 20004KT 9999 FEW017 BKN300 29/25 Q1009,WSAP,2021-10-04T01:00:00Z,1.37,103.92,29.0,25.0,200,4,,6.21,29.793306,,,,,,,,,,,FEW,1700,BKN,30000,,,,,VFR,,,,,,,,,,,,METAR,20.0
WMSA 040100Z VRB01KT 8000 FEW017CB 28/24 Q1010,WMSA,2021-10-04T01:00:00Z,3.13,101.55,28.0,24.0,0,1,,4.97,29.822834,,,,,,,,,,,FEW,1700,,,,,,,MVFR,,,,,,,,,,,,METAR,19.0
WMKP 040100Z 00000KT 9000 FEW020 29/26 Q1009 NOSIG,WMKP,2021-10-04T01:00:00Z,5.28,100.27,29.0,26.0,0,0,,5.59,29.793306,,,,,,TRUE,,,,,FEW,2000,,,,,,,VFR,,,,,,,,,,,,METAR,4.0
WMKM 040100Z 00000KT 9999 FEW018 27/24 Q1010,WMKM,2021-10-04T01:00:00Z,2.27,102.25,27.0,24.0,0,0,,6.21,29.822834,,,,,,,,,,,FEW,1800,,,,,,,VFR,,,,,,,,,,,,METAR,9.0
WMKL 040100Z VRB02KT 9999 FEW017CB 29/26 Q1009,WMKL,2021-10-04T01:00:00Z,6.32,99.72,29.0,26.0,0,2,,6.21,29.793306,,,,,,,,,,,FEW,1700,,,,,,,VFR,,,,,,,,,,,,METAR,4.0
WMKK 040100Z 00000KT 8000 VCSH FEW017CB 27/24 Q1009 NOSIG,WMKK,2021-10-04T01:00:00Z,2.75,101.72,27.0,24.0,0,0,,4.97,29.793306,,,,,,TRUE,,,,VCSH,FEW,1700,,,,,,,MVFR,,,,,,,,,,,,METAR,21.0
WMKJ 040100Z 00000KT 9999 FEW020 27/25 Q1009,WMKJ,2021-10-04T01:00:00Z,1.63,103.67,27.0,25.0,0,0,,6.21,29.793306,,,,,,,,,,,FEW,2000,,,,,,,VFR,,,,,,,,,,,,METAR,38.0
WMKD 040100Z 00000KT 9999 FEW020 27/24 Q1009 NOSIG,WMKD,2021-10-04T01:00:00Z,3.77,103.22,27.0,24.0,0,0,,6.21,29.793306,,,,,,TRUE,,,,,FEW,2000,,,,,,,VFR,,,,,,,,,,,,METAR,18.0
WIII 040100Z 21003KT 6000 NSC 27/24 Q1010 NOSIG,WIII,2021-10-04T01:00:00Z,-6.13,106.67,27.0,24.0,210,3,,3.73,29.822834,,,,,,TRUE,,,,,CLR,,,,,,,,MVFR,,,,,,,,,,,,METAR,9.0
WBSB 040100Z 21006KT 9999 FEW014 FEW015CB BKN140 28/25 Q1009 RERA NOSIG,WBSB,2021-10-04T01:00:00Z,4.93,114.92,28.0,25.0,210,6,,6.21,29.793306,,,,,,TRUE,,,,,FEW,1400,FEW,1500,BKN,14000,,,VFR,,,,,,,,,,,,METAR,15.0
WBKW 040100Z VRB02KT 9999 -RA FEW010 26/25 Q1009,WBKW,2021-10-04T01:00:00Z,4.32,118.12,26.0,25.0,0,2,,6.21,29.793306,,,,,,,,,,-RA,FEW,1000,,,,,,,VFR,,,,,,,,,,,,METAR,17.0
WBKT 040100Z 25006KT 210V300 9999 FEW015 28/24 Q1008,WBKT,2021-10-04T01:00:00Z,6.92,116.83,28.0,24.0,250,6,,6.21,29.763779,,,,,,,,,,,FEW,1500,,,,,,,VFR,,,,,,,,,,,,METAR,11.0
WBKS 040100Z 21004G18KT 130V260 9999 FEW016 27/24 Q1008,WBKS,2021-10-04T01:00:00Z,5.9,118.07,27.0,24.0,210,4,18,6.21,29.763779,,,,,,,,,,,FEW,1600,,,,,,,VFR,,,,,,,,,,,,METAR,13.0
WBKL 040100Z VRB03KT 9999 FEW014 28/22 Q1009,WBKL,2021-10-04T01:00:00Z,5.3,115.25,28.0,22.0,0,3,,6.21,29.793306,,,,,,,,,,,FEW,1400,,,,,,,VFR,,,,,,,,,,,,METAR,29.0
WBKK 040100Z 19009KT 160V230 9999 FEW015 29/23 Q1009 NOSIG,WBKK,2021-10-04T01:00:00Z,5.93,116.05,29.0,23.0,190,9,,6.21,29.793306,,,,,,TRUE,,,,,FEW,1500,,,,,,,VFR,,,,,,,,,,,,METAR,9.0
WBGY 040100Z 15004KT 090V230 9999 FEW014 28/25 Q1009,WBGY,2021-10-04T01:00:00Z,1.22,111.45,28.0,25.0,150,4,,6.21,29.793306,,,,,,,,,,,FEW,1400,,,,,,,VFR,,,,,,,,,,,,METAR,13.0
WBGS 040100Z VRB03KT 9999 FEW010 SCT018 27/25 Q1009,WBGS,2021-10-04T01:00:00Z,2.27,111.98,27.0,25.0,0,3,,6.21,29.793306,,,,,,,,,,,FEW,1000,SCT,1800,,,,,VFR,,,,,,,,,,,,METAR,26.0
WBGR 040100Z 18008KT 150V220 9999 FEW014 28/23 Q1009,WBGR,2021-10-04T01:00:00Z,4.32,113.98,28.0,23.0,180,8,,6.21,29.793306,,,,,,,,,,,FEW,1400,,,,,,,VFR,,,,,,,,,,,,METAR,18.0
WBGG 040100Z 17005KT 120V210 9999 FEW010 28/23 Q1009 NOSIG,WBGG,2021-10-04T01:00:00Z,1.48,110.35,28.0,23.0,170,5,,6.21,29.793306,,,,,,TRUE,,,,,FEW,1000,,,,,,,VFR,,,,,,,,,,,,METAR,26.0
WBGB 040100Z 14005KT 080V190 9999 FEW014 27/23 Q1009,WBGB,2021-10-04T01:00:00Z,3.12,113.02,27.0,23.0,140,5,,6.21,29.793306,,,,,,,,,,,FEW,1400,,,,,,,VFR,,,,,,,,,,,,METAR,34.0
WAMM 040100Z VRB01KT 9999 FEW021 31/22 Q1008 NOSIG,WAMM,2021-10-04T01:00:00Z,1.55,124.92,31.0,22.0,0,1,,6.21,29.763779,,,,,,TRUE,,,,,FEW,2100,,,,,,,VFR,,,,,,,,,,,,METAR,86.0
WAJJ 040100Z 18004KT 9999 FEW013 32/24 Q1006 NOSIG,WAJJ,2021-10-04T01:00:00Z,-2.58,140.52,32.0,24.0,180,4,,6.21,29.704725,,,,,,TRUE,,,,,FEW,1300,,,,,,,VFR,,,,,,,,,,,,METAR,93.0
WADL 040100Z 18006KT 150V210 8000 SCT016 28/20 Q1012 NOSIG,WADL,2021-10-04T01:00:00Z,-8.75,116.28,28.0,20.0,180,6,,4.97,29.88189,,,,,,TRUE,,,,,SCT,1600,,,,,,,MVFR,,,,,,,,,,,,METAR,97.0
VYYY 040100Z 36005KT 7000 SCT016 SCT110 26/25 Q1009 NOSIG,VYYY,2021-10-04T01:00:00Z,16.9,96.13,26.0,25.0,360,5,,4.35,29.793306,,,,,,TRUE,,,,,SCT,1600,SCT,11000,,,,,MVFR,,,,,,,,,,,,METAR,31.0
VVTS 040100Z VRB01KT 6000 FEW017 SCT050 28/26 Q1009 NOSIG,VVTS,2021-10-04T01:00:00Z,10.82,106.67,28.0,26.0,0,1,,3.73,29.793306,,,,,,TRUE,,,,,FEW,1700,SCT,5000,,,,,MVFR,,,,,,,,,,,,METAR,10.0
VVPQ 040100Z VRB02KT 9999 SCT015 SCT040 26/25 Q1008 NOSIG,VVPQ,2021-10-04T01:00:00Z,10.23,103.97,26.0,25.0,0,2,,6.21,29.763779,,,,,,TRUE,,,,,SCT,1500,SCT,4000,,,,,VFR,,,,,,,,,,,,METAR,8.0
VVPB 040100Z 23003KT 170V300 9999 FEW015 28/23 Q1011 NOSIG,VVPB,2021-10-04T01:00:00Z,16.38,107.7,28.0,23.0,230,3,,6.21,29.852362,,,,,,TRUE,,,,,FEW,1500,,,,,,,VFR,,,,,,,,,,,,METAR,15.0
VVNB 040100Z 04004KT 7000 BKN027 28/26 Q1013 NOSIG,VVNB,2021-10-04T01:00:00Z,21.22,105.8,28.0,26.0,40,4,,4.35,29.911417,,,,,,TRUE,,,,,BKN,2700,,,,,,,MVFR,,,,,,,,,,,,METAR,6.0
VVDN 040100Z 00000KT 9999 FEW015 31/23 Q1010 NOSIG,VVDN,2021-10-04T01:00:00Z,16.03,108.2,31.0,23.0,0,0,,6.21,29.822834,,,,,,TRUE,,,,,FEW,1500,,,,,,,VFR,,,,,,,,,,,,METAR,7.0
VVCT 040100Z VRB01KT 9999 FEW013 BKN040 25/24 Q1009 NOSIG,VVCT,2021-10-04T01:00:00Z,10.08,105.72,25.0,24.0,0,1,,6.21,29.793306,,,,,,TRUE,,,,,FEW,1300,BKN,4000,,,,,VFR,,,,,,,,,,,,METAR,6.0
VVCR 040100Z 33005KT 9999 FEW015 30/22 Q1009 NOSIG,VVCR,2021-10-04T01:00:00Z,12.0,109.22,30.0,22.0,330,5,,6.21,29.793306,,,,,,TRUE,,,,,FEW,1500,,,,,,,VFR,,,,,,,,,,,,METAR,12.0
VVCI 040100Z 05006KT CAVOK 29/28 Q1011 NOSIG,VVCI,2021-10-04T01:00:00Z,20.82,106.73,29.0,28.0,50,6,,6.21,29.852362,,,,,,TRUE,,,,,CAVOK,,,,,,,,VFR,,,,,,,,,,,,METAR,6.0
VTUW 040100Z VRB02KT CAVOK 28/23 Q1011 NOSIG,VTUW,2021-10-04T01:00:00Z,17.38,104.63,28.0,23.0,0,2,,6.21,29.852362,,,,,,TRUE,,,,,CAVOK,,,,,,,,VFR,,,,,,,,,,,,METAR,167.0
VTUV 040100Z 04008KT CAVOK 27/24 Q1010 NOSIG,VTUV,2021-10-04T01:00:00Z,16.12,103.78,27.0,24.0,40,8,,6.21,29.822834,,,,,,TRUE,,,,,CAVOK,,,,,,,,VFR,,,,,,,,,,,,METAR,136.0
VTUU 040100Z 05005KT 020V080 8000 NSC 25/25 Q1010 NOSIG,VTUU,2021-10-04T01:00:00Z,15.25,104.87,25.0,25.0,50,5,,4.97,29.822834,,,,,,TRUE,,,,,CLR,,,,,,,,MVFR,,,,,,,,,,,,METAR,123.0
VTUQ 040100Z VRB02KT 9999 SCT030 27/27 Q1011 NOSIG,VTUQ,2021-10-04T01:00:00Z,14.95,102.32,27.0,27.0,0,2,,6.21,29.852362,,,,,,TRUE,,,,,SCT,3000,,,,,,,VFR,,,,,,,,,,,,METAR,225.0
VTUO 040100Z 06009KT 8000 FEW025 27/27 Q1010 NOSIG,VTUO,2021-10-04T01:00:00Z,15.23,103.25,27.0,27.0,60,9,,4.97,29.822834,,,,,,TRUE,,,,,FEW,2500,,,,,,,MVFR,,,,,,,,,,,,METAR,182.0
VTUL 040100Z 00000KT 2000 BR SCT002 OVC030 24/24 Q1012 BECMG TL0200 5000 BR,VTUL,2021-10-04T01:00:00Z,17.43,101.72,24.0,24.0,0,0,,1.24,29.88189,,,,,,,,,,BR,SCT,200,OVC,3000,,,,,IFR,,,,,,,,,,,,METAR,257.0
VTUK 040100Z 04004KT 010V080 9000 FEW030 28/25 Q1011 NOSIG,VTUK,2021-10-04T01:00:00Z,16.47,102.78,28.0,25.0,40,4,,5.59,29.852362,,,,,,TRUE,,,,,FEW,3000,,,,,,,VFR,,,,,,,,,,,,METAR,190.0
VTUI 040100Z 00000KT CAVOK 28/23 Q1011 NOSIG,VTUI,2021-10-04T01:00:00Z,17.2,104.12,28.0,23.0,0,0,,6.21,29.852362,,,,,,TRUE,,,,,CAVOK,,,,,,,,VFR,,,,,,,,,,,,METAR,162.0
VTUD 040100Z 10003KT 050V140 CAVOK 27/25 Q1011 NOSIG,VTUD,2021-10-04T01:00:00Z,17.37,102.78,27.0,25.0,100,3,,6.21,29.852362,,,,,,TRUE,,,,,CAVOK,,,,,,,,VFR,,,,,,,,,,,,METAR,177.0
VTST 040100Z 00000KT 9999 FEW030 27/27 Q1009 NOSIG,VTST,2021-10-04T01:00:00Z,7.52,99.62,27.0,27.0,0,0,,6.21,29.793306,,,,,,TRUE,,,,,FEW,3000,,,,,,,VFR,,,,,,,,,,,,METAR,17.0
VTSS 040100Z 00000KT 6000 FEW002 26/26 Q1009 NOSIG,VTSS,2021-10-04T01:00:00Z,6.92,100.38,26.0,26.0,0,0,,3.73,29.793306,,,,,,TRUE,,,,,FEW,200,,,,,,,MVFR,,,,,,,,,,,,METAR,28.0
VTSR 040100Z 00000KT 9999 FEW020 29/24 Q1009 NOSIG,VTSR,2021-10-04T01:00:00Z,9.78,98.58,29.0,24.0,0,0,,6.21,29.793306,,,,,,TRUE,,,,,FEW,2000,,,,,,,VFR,,,,,,,,,,,,METAR,23.0
VTSP 040100Z VRB02KT 9999 FEW020 29/24 Q1009 NOSIG,VTSP,2021-10-04T01:00:00Z,8.12,98.32,29.0,24.0,0,2,,6.21,29.793306,,,,,,TRUE,,,,,FEW,2000,,,,,,,VFR,,,,,,,,,,,,METAR,12.0
VTSM 040100Z 30007KT 9999 FEW020 30/25 Q1009 NOSIG,VTSM,2021-10-04T01:00:00Z,9.55,100.07,30.0,25.0,300,7,,6.21,29.793306,,,,,,TRUE,,,,,FEW,2000,,,,,,,VFR,,,,,,,,,,,,METAR,12.0
VTSG 040100Z VRB01KT 9999 FEW020 SCT070 29/25 Q1009 NOSIG,VTSG,2021-10-04T01:00:00Z,8.1,98.98,29.0,25.0,0,1,,6.21,29.793306,,,,,,TRUE,,,,,FEW,2000,SCT,7000,,,,,VFR,,,,,,,,,,,,METAR,32.0
VTSF 040100Z 00000KT 9999 FEW018 SCT100 31/24 Q1009 NOSIG,VTSF,2021-10-04T01:00:00Z,8.53,99.95,31.0,24.0,0,0,,6.21,29.793306,,,,,,TRUE,,,,,FEW,1800,SCT,10000,,,,,VFR,,,,,,,,,,,,METAR,6.0
VTSE 040100Z VRB02KT 9999 FEW020 28/27 Q1008 NOSIG,VTSE,2021-10-04T01:00:00Z,10.72,99.37,28.0,27.0,0,2,,6.21,29.763779,,,,,,TRUE,,,,,FEW,2000,,,,,,,VFR,,,,,,,,,,,,METAR,8.0
VTSC 040100Z 00000KT 9999 FEW020 27/25 Q1009 NOSIG,VTSC,2021-10-04T01:00:00Z,6.52,101.75,27.0,25.0,0,0,,6.21,29.793306,,,,,,TRUE,,,,,FEW,2000,,,,,,,VFR,,,,,,,,,,,,METAR,5.0
VTSB 040100Z 21003KT 190V250 9999 FEW020 28/24 Q1010 NOSIG,VTSB,2021-10-04T01:00:00Z,9.12,99.15,28.0,24.0,210,3,,6.21,29.822834,,,,,,TRUE,,,,,FEW,2000,,,,,,,VFR,,,,,,,,,,,,METAR,10.0
VTPT 040100Z /////KT 9999 FEW020 27/25 Q//// NOSIG,VTPT,2021-10-04T01:00:00Z,16.88,99.25,27.0,25.0,,,,6.21,,,,,,,TRUE,,,,,FEW,2000,,,,,,,VFR,,,,,,,,,,,,METAR,148.0
VTPP 040100Z VRB02KT CAVOK 28/25 Q1010 NOSIG,VTPP,2021-10-04T01:00:00Z,16.78,100.28,28.0,25.0,0,2,,6.21,29.822834,,,,,,TRUE,,,,,CAVOK,,,,,,,,VFR,,,,,,,,,,,,METAR,45.0
VTPO 040100Z VRB02KT 9999 FEW020 26/25 Q1009 NOSIG,VTPO,2021-10-04T01:00:00Z,17.23,99.82,26.0,25.0,0,2,,6.21,29.793306,,,,,,TRUE,,,,,FEW,2000,,,,,,,VFR,,,,,,,,,,,,METAR,58.0
VTPM 040100Z 00000KT 9999 FEW025 SCT100 27/25 Q1011 NOSIG,VTPM,2021-10-04T01:00:00Z,16.7,98.53,27.0,25.0,0,0,,6.21,29.852362,,,,,,TRUE,,,,,FEW,2500,SCT,10000,,,,,VFR,,,,,,,,,,,,METAR,211.0
VTPH 040100Z 00000KT 9999 FEW030 29/24 Q1008 NOSIG,VTPH,2021-10-04T01:00:00Z,12.63,99.95,29.0,24.0,0,0,,6.21,29.763779,,,,,,TRUE,,,,,FEW,3000,,,,,,,VFR,,,,,,,,,,,,METAR,12.0
VTPB 040100Z VRB02KT 9000 FEW010 28/25 Q1010 NOSIG,VTPB,2021-10-04T01:00:00Z,16.67,101.2,28.0,25.0,0,2,,5.59,29.822834,,,,,,TRUE,,,,,FEW,1000,,,,,,,VFR,,,,,,,,,,,,METAR,134.0
VTCT 040100Z 03005KT 9999 SCT013 BKN025 25/25 Q1013 NOSIG,VTCT,2021-10-04T01:00:00Z,19.95,99.88,25.0,25.0,30,5,,6.21,29.911417,,,,,,TRUE,,,,,SCT,1300,BKN,2500,,,,,MVFR,,,,,,,,,,,,METAR,389.0
VTCP 040100Z 00000KT 7000 FEW004 BKN008 26/25 Q1011 NOSIG,VTCP,2021-10-04T01:00:00Z,18.13,100.17,26.0,25.0,0,0,,4.35,29.852362,,,,,,TRUE,,,,,FEW,400,BKN,800,,,,,IFR,,,,,,,,,,,,METAR,166.0
VTCN 040100Z 01004KT 330V040 9999 FEW005 SCT010 BKN030 25/24 Q1011 NOSIG,VTCN,2021-10-04T01:00:00Z,18.82,100.78,25.0,24.0,10,4,,6.21,29.852362,,,,,,TRUE,,,,,FEW,500,SCT,1000,BKN,3000,,,MVFR,,,,,,,,,,,,METAR,211.0
VTCL 040100Z VRB02KT 9999 FEW025 BKN100 25/23 Q1011 NOSIG,VTCL,2021-10-04T01:00:00Z,18.27,99.52,25.0,23.0,0,2,,6.21,29.852362,,,,,,TRUE,,,,,FEW,2500,BKN,10000,,,,,VFR,,,,,,,,,,,,METAR,240.0
VTCH 040100Z 00000KT 7000 FEW012 FEW020CB BKN025 26/24 Q1012 NOSIG,VTCH,2021-10-04T01:00:00Z,19.3,97.98,26.0,24.0,0,0,,4.35,29.88189,,,,,,TRUE,,,,,FEW,1200,FEW,2000,BKN,2500,,,MVFR,,,,,,,,,,,,METAR,266.0
VTCC 040100Z VRB01KT 9999 FEW035 26/24 Q1012 NOSIG,VTCC,2021-10-04T01:00:00Z,18.77,98.97,26.0,24.0,0,1,,6.21,29.88189,,,,,,TRUE,,,,,FEW,3500,,,,,,,VFR,,,,,,,,,,,,METAR,308.0
VTBU 040100Z 36008KT 9999 FEW020 27/24 Q1009 NOSIG,VTBU,2021-10-04T01:00:00Z,12.68,101.0,27.0,24.0,360,8,,6.21,29.793306,,,,,,TRUE,,,,,FEW,2000,,,,,,,VFR,,,,,,,,,,,,METAR,12.0
VTBS 040100Z VRB02KT 9999 FEW012 28/23 Q1009 NOSIG,VTBS,2021-10-04T01:00:00Z,13.68,100.75,28.0,23.0,0,2,,6.21,29.793306,,,,,,TRUE,,,,,FEW,1200,,,,,,,VFR,,,,,,,,,,,,METAR,1.0
VTBD 040100Z 00000KT 9999 FEW020 27/25 Q1009 NOSIG,VTBD,2021-10-04T01:00:00Z,13.92,100.6,27.0,25.0,0,0,,6.21,29.793306,,,,,,TRUE,,,,,FEW,2000,,,,,,,VFR,,,,,,,,,,,,METAR,6.0
VQPR 040100Z 14003KT 6000 FEW008 BKN025 BKN060 14/14 Q1021,VQPR,2021-10-04T01:00:00Z,27.4,89.43,14.0,14.0,140,3,,3.73,30.147638,,,,,,,,,,,FEW,800,BKN,2500,BKN,6000,,,MVFR,,,,,,,,,,,,METAR,2227.0
VOVZ 040100Z VRB02KT 4000 BR FEW018 27/26 Q1007 NOSIG,VOVZ,2021-10-04T01:00:00Z,17.72,83.22,27.0,26.0,0,2,,2.49,29.734253,,,,,,TRUE,,,,BR,FEW,1800,,,,,,,IFR,,,,,,,,,,,,METAR,4.0
VOTV 040100Z 00000KT 3000 BR FEW015 SCT080 26/25 Q1007 NOSIG,VOTV,2021-10-04T01:00:00Z,8.48,76.92,26.0,25.0,0,0,,1.86,29.734253,,,,,,TRUE,,,,BR,FEW,1500,SCT,8000,,,,,IFR,,,,,,,,,,,,METAR,9.0
VOTR 040100Z VRB01KT 4000 BR SCT016 BKN080 26/25 Q1008 NOSIG,VOTR,2021-10-04T01:00:00Z,10.77,78.72,26.0,25.0,0,1,,2.49,29.763779,,,,,,TRUE,,,,BR,SCT,1600,BKN,8000,,,,,IFR,,,,,,,,,,,,METAR,90.0
VOTP 040100Z VRB02KT 6000 FEW015 26/26 Q1007 NOSIG,VOTP,2021-10-04T01:00:00Z,13.63,79.55,26.0,26.0,0,2,,3.73,29.734253,,,,,,TRUE,,,,,FEW,1500,,,,,,,MVFR,,,,,,,,,,,,METAR,103.0
VORY 040100Z 03002KT 5000 BR FEW020 27/25 Q1007 NOSIG,VORY,2021-10-04T01:00:00Z,17.1,81.82,27.0,25.0,30,2,,3.11,29.734253,,,,,,TRUE,,,,BR,FEW,2000,,,,,,,MVFR,,,,,,,,,,,,METAR,47.0
VOMY 040100Z 00000KT 6000 FEW008 SCT015 24/23 Q1011,VOMY,2021-10-04T01:00:00Z,12.23,76.65,24.0,23.0,0,0,,3.73,29.852362,,,,,,,,,,,FEW,800,SCT,1500,,,,,MVFR,,,,,,,,,,,,METAR,727.0
VOMM 040100Z 00000KT 1000 R25/1400 R07/1400 MIFG BKN015 FEW025TCU 27/26 Q1006 BECMG 1500 BR,VOMM,2021-10-04T01:00:00Z,13.0,80.17,27.0,26.0,0,0,,0.62,29.704725,,,,,,,,,,MIFG,BKN,1500,FEW,2500,,,,,LIFR,,,,,,,,,,,,METAR,7.0
VOML 040100Z 00000KT 5000 BR FEW003 SCT080 25/24 Q1006 NOSIG,VOML,2021-10-04T01:00:00Z,12.97,74.88,25.0,24.0,0,0,,3.11,29.704725,,,,,,TRUE,,,,BR,FEW,300,SCT,8000,,,,,MVFR,,,,,,,,,,,,METAR,100.0
VOKN 040100Z VRB02KT 3000 BR FEW006 SCT012 BKN080 24/23 Q1007 NOSIG,VOKN,2021-10-04T01:00:00Z,11.92,75.55,24.0,23.0,0,2,,1.86,29.734253,,,,,,TRUE,,,,BR,FEW,600,SCT,1200,BKN,8000,,,IFR,,,,,,,,,,,,METAR,105.0
VOHS 040100Z VRB03KT 5000 BR FEW015 SCT100 23/22 Q1011 NOSIG,VOHS,2021-10-04T01:00:00Z,17.23,78.43,23.0,22.0,0,3,,3.11,29.852362,,,,,,TRUE,,,,BR,FEW,1500,SCT,10000,,,,,MVFR,,,,,,,,,,,,METAR,607.0
VOCL 040100Z 08004KT 1000 FG FEW003 SCT012 FEW025TCU BKN080 25/25 Q1007 BECMG 1500 BR,VOCL,2021-10-04T01:00:00Z,11.13,75.95,25.0,25.0,80,4,,0.62,29.734253,,,,,,,,,,FG,FEW,300,SCT,1200,FEW,2500,BKN,8000,LIFR,,,,,,,,,,,,METAR,104.0
VOCI 040100Z 07003KT 3000 BR SCT012 BKN080 24/23 Q1007 NOSIG,VOCI,2021-10-04T01:00:00Z,10.15,76.4,24.0,23.0,70,3,,1.86,29.734253,,,,,,TRUE,,,,BR,SCT,1200,BKN,8000,,,,,IFR,,,,,,,,,,,,METAR,8.0
VOCB 040100Z VRB02KT 3000 BR SCT012 SCT080 25/23 Q1010 NOSIG,VOCB,2021-10-04T01:00:00Z,11.02,77.03,25.0,23.0,0,2,,1.86,29.822834,,,,,,TRUE,,,,BR,SCT,1200,SCT,8000,,,,,IFR,,,,,,,,,,,,METAR,394.0
VOBZ 040100Z 00000KT 6000 NSC 27/25 Q1007 NOSIG,VOBZ,2021-10-04T01:00:00Z,16.52,80.78,27.0,25.0,0,0,,3.73,29.734253,,,,,,TRUE,,,,,CLR,,,,,,,,MVFR,,,,,,,,,,,,METAR,26.0
VOBM 040100Z 00000KT 1000 BR FEW012 20/19 Q1011,VOBM,2021-10-04T01:00:00Z,15.85,74.62,20.0,19.0,0,0,,0.62,29.852362,,,,,,,,,,BR,FEW,1200,,,,,,,LIFR,,,,,,,,,,,,METAR,758.0
VOBL 040100Z VRB01KT 4000 BR SCT008 SCT012 BKN080 21/20 Q1012 TEMPO 3000 BR,VOBL,2021-10-04T01:00:00Z,13.2,77.7,21.0,20.0,0,1,,2.49,29.88189,,,,,,,,,,BR,SCT,800,SCT,1200,BKN,8000,,,IFR,,,,,,,,,,,,METAR,908.0
VOBG 040100Z 00000KT 3000 BR SCT008 SCT012 BKN080 21/21 Q1011 NOSIG,VOBG,2021-10-04T01:00:00Z,12.95,77.65,21.0,21.0,0,0,,1.86,29.852362,,,,,,TRUE,,,,BR,SCT,800,SCT,1200,BKN,8000,,,IFR,,,,,,,,,,,,METAR,884.0
VOAR 040100Z VRB02KT 5000 BR SCT020 SCT100 25/24 Q1007 NOSIG,VOAR,2021-10-04T01:00:00Z,13.07,79.68,25.0,24.0,0,2,,3.11,29.734253,,,,,,TRUE,,,,BR,SCT,2000,SCT,10000,,,,,MVFR,,,,,,,,,,,,METAR,81.0
VLVT 040100Z 36004KT 8000 SCT016 FEW200 28/26 Q1011 NOSIG,VLVT,2021-10-04T01:00:00Z,17.98,102.57,28.0,26.0,360,4,,4.97,29.852362,,,,,,TRUE,,,,,SCT,1600,FEW,20000,,,,,MVFR,,,,,,,,,,,,METAR,171.0
VLSK 040100Z 02002KT 8000 FEW040 27/21 Q1011 NOSIG,VLSK,2021-10-04T01:00:00Z,16.55,104.75,27.0,21.0,20,2,,4.97,29.852362,,,,,,TRUE,,,,,FEW,4000,,,,,,,MVFR,,,,,,,,,,,,METAR,148.0
VLPS 040100Z 09002KT 9999 FEW013 FEW050 SCT200 28/25 Q1009 NOSIG,VLPS,2021-10-04T01:00:00Z,15.13,105.78,28.0,25.0,90,2,,6.21,29.793306,,,,,,TRUE,,,,,FEW,1300,FEW,5000,SCT,20000,,,VFR,,,,,,,,,,,,METAR,102.0
VLLN 040100Z 09002KT 2000 -DZ SCT010 OVC090 22/22 Q1014 NOSIG,VLLN,2021-10-04T01:00:00Z,20.97,101.4,22.0,22.0,90,2,,1.24,29.940945,,,,,,TRUE,,,,-DZ,SCT,1000,OVC,9000,,,,,IFR,,,,,,,,,,,,METAR,548.0
VLLB 040100Z 00000KT 4000 BR SCT006 BKN080 24/22 Q1011 NOSIG,VLLB,2021-10-04T01:00:00Z,19.9,102.17,24.0,22.0,0,0,,2.49,29.852362,,,,,,TRUE,,,,BR,SCT,600,BKN,8000,,,,,IFR,,,,,,,,,,,,METAR,297.0
VILK 040100Z VRB02KT 2500 BR SCT018 FEW030CB BKN100 24/22 Q1006 NOSIG,VILK,2021-10-04T01:00:00Z,26.75,80.88,24.0,22.0,0,2,,1.55,29.704725,,,,,,TRUE,,,,BR,SCT,1800,FEW,3000,BKN,10000,,,IFR,,,,,,,,,,,,METAR,121.0
VIJP 040100Z 32004KT 2500 HZ SCT100 26/21 Q1008 NOSIG,VIJP,2021-10-04T01:00:00Z,26.82,75.8,26.0,21.0,320,4,,1.55,29.763779,,,,,,TRUE,,,,HZ,SCT,10000,,,,,,,IFR,,,,,,,,,,,,METAR,383.0
VIDP 040100Z 26003KT 4000 BR SCT100 27/26 Q1007 NOSIG,VIDP,2021-10-04T01:00:00Z,28.57,77.12,27.0,26.0,260,3,,2.49,29.734253,,,,,,TRUE,,,,BR,SCT,10000,,,,,,,IFR,,,,,,,,,,,,METAR,236.0
VHHH 040100Z 07013KT 9999 FEW025 31/23 Q1013 NOSIG,VHHH,2021-10-04T01:00:00Z,22.32,113.92,31.0,23.0,70,13,,6.21,29.911417,,,,,,TRUE,,,,,FEW,2500,,,,,,,VFR,,,,,,,,,,,,METAR,9.0
VERP 040100Z 23004KT 1600 BR NSC 25/24 Q1009 NOSIG,VERP,2021-10-04T01:00:00Z,21.18,81.73,25.0,24.0,230,4,,0.99,29.793306,,,,,,TRUE,,,,BR,CLR,,,,,,,,LIFR,,,,,,,,,,,,METAR,318.0
VERC 040100Z 25005KT 2000 BR SCT015 BKN100 23/22 Q1011 NOSIG,VERC,2021-10-04T01:00:00Z,23.32,85.32,23.0,22.0,250,5,,1.24,29.852362,,,,,,TRUE,,,,BR,SCT,1500,BKN,10000,,,,,IFR,,,,,,,,,,,,METAR,646.0
VEPT 040100Z 00000KT 2500 BR FEW020 SCT100 22/21 Q1006 NOSIG,VEPT,2021-10-04T01:00:00Z,25.6,85.08,22.0,21.0,0,0,,1.55,29.704725,,,,,,TRUE,,,,BR,FEW,2000,SCT,10000,,,,,IFR,,,,,,,,,,,,METAR,53.0
VEMN 040100Z 04005KT 3000 BR FEW008 SCT017 FEW025CB BKN100 24/24 Q1009 NOSIG,VEMN,2021-10-04T01:00:00Z,27.47,95.02,24.0,24.0,40,5,,1.86,29.793306,,,,,,TRUE,,,,BR,FEW,800,SCT,1700,FEW,2500,BKN,10000,IFR,,,,,,,,,,,,METAR,111.0
VEJS 040100Z 00000KT 1500 BR SCT015 BKN100 25/24 Q1007,VEJS,2021-10-04T01:00:00Z,22.82,86.17,25.0,24.0,0,0,,0.93,29.734253,,,,,,,,,,BR,SCT,1500,BKN,10000,,,,,LIFR,,,,,,,,,,,,METAR,151.0
VEGY 040100Z 18003KT 2500 BR SCT018 BKN100 25/23 Q1007,VEGY,2021-10-04T01:00:00Z,24.75,84.95,25.0,23.0,180,3,,1.55,29.734253,,,,,,,,,,BR,SCT,1800,BKN,10000,,,,,IFR,,,,,,,,,,,,METAR,115.0
VEGT 040100Z 00000KT 3000 BR SCT018 FEW025CB BKN100 26/24 Q1007 NOSIG,VEGT,2021-10-04T01:00:00Z,26.1,91.58,26.0,24.0,0,0,,1.86,29.734253,,,,,,TRUE,,,,BR,SCT,1800,FEW,2500,BKN,10000,,,IFR,,,,,,,,,,,,METAR,50.0
VECC 040100Z 23004KT 2800 HZ FEW018 BKN100 28/26 Q1006 BECMG 3000 HZ,VECC,2021-10-04T01:00:00Z,22.65,88.43,28.0,26.0,230,4,,1.74,29.704725,,,,,,,,,,HZ,FEW,1800,BKN,10000,,,,,IFR,,,,,,,,,,,,METAR,11.0
VEBS 040100Z 29001KT 5000 HZ FEW018 SCT100 26/25 Q1007 NOSIG,VEBS,2021-10-04T01:00:00Z,20.25,85.82,26.0,25.0,290,1,,3.11,29.734253,,,,,,TRUE,,,,HZ,FEW,1800,SCT,10000,,,,,MVFR,,,,,,,,,,,,METAR,42.0
VEBN 040100Z 21004KT 2500 BR SCT020 FEW030CB BKN090 25/24 Q1006 NOSIG,VEBN,2021-10-04T01:00:00Z,25.45,82.85,25.0,24.0,210,4,,1.55,29.704725,,,,,,TRUE,,,,BR,SCT,2000,FEW,3000,BKN,9000,,,IFR,,,,,,,,,,,,METAR,81.0
VEAT 040100Z 00000KT 4000 BR SCT018 BKN100 27/25 Q1008 NOSIG,VEAT,2021-10-04T01:00:00Z,23.88,91.25,27.0,25.0,0,0,,2.49,29.763779,,,,,,TRUE,,,,BR,SCT,1800,BKN,10000,,,,,IFR,,,,,,,,,,,,METAR,20.0
VDSV 040100Z /////KT 9999 SCT015 SCT040 XX/XX Q////,VDSV,2021-10-04T01:00:00Z,10.58,103.63,,,,,,6.21,,,,,,,,,,,,SCT,1500,SCT,4000,,,,,VFR,,,,,,,,,,,,METAR,1.0
VDSR 040100Z VRB02KT 9999 SCT015 28/25 Q1008,VDSR,2021-10-04T01:00:00Z,13.42,103.8,28.0,25.0,0,2,,6.21,29.763779,,,,,,,,,,,SCT,1500,,,,,,,VFR,,,,,,,,,,,,METAR,16.0
VDPP 040100Z 15002KT 9000 -RA SCT015 SCT040 27/25 Q1009,VDPP,2021-10-04T01:00:00Z,11.55,104.83,27.0,25.0,150,2,,5.59,29.793306,,,,,,,,,,-RA,SCT,1500,SCT,4000,,,,,VFR,,,,,,,,,,,,METAR,10.0
VASU 040100Z 00000KT 5000 BR NSC 26/25 Q1007 NOSIG,VASU,2021-10-04T01:00:00Z,21.12,72.73,26.0,25.0,0,0,,3.11,29.734253,,,,,,TRUE,,,,BR,CLR,,,,,,,,MVFR,,,,,,,,,,,,METAR,6.0
VANP 040100Z 03002KT 2500 BR FEW018 SCT090 25/25 Q1009 NOSIG,VANP,2021-10-04T01:00:00Z,21.08,79.05,25.0,25.0,30,2,,1.55,29.793306,,,,,,TRUE,,,,BR,FEW,1800,SCT,9000,,,,,IFR,,,,,,,,,,,,METAR,309.0
VAID 040100Z 00000KT 1200 FG FEW018 21/21 Q1010 TEMPO 0800 FG,VAID,2021-10-04T01:00:00Z,22.72,75.8,21.0,21.0,0,0,,0.75,29.822834,,,,,,,,,,FG,FEW,1800,,,,,,,LIFR,,,,,,,,,,,,METAR,564.0
VABO 040100Z 17002KT 3000 HZ FEW020 SCT080 25/24 Q1007 TEMPO 2000 HZ,VABO,2021-10-04T01:00:00Z,22.33,73.22,25.0,24.0,170,2,,1.86,29.734253,,,,,,,,,,HZ,FEW,2000,SCT,8000,,,,,IFR,,,,,,,,,,,,METAR,36.0
VABB 040100Z 00000KT 2200 FU SCT020 SCT100 28/28 Q1007 NOSIG,VABB,2021-10-04T01:00:00Z,19.1,72.87,28.0,28.0,0,0,,1.37,29.734253,,,,,,TRUE,,,,FU,SCT,2000,SCT,10000,,,,,IFR,,,,,,,,,,,,METAR,14.0
VAAH 040100Z 28003KT 3000 BR FEW020 SCT080 26/26 Q1007 NOSIG,VAAH,2021-10-04T01:00:00Z,23.07,72.63,26.0,26.0,280,3,,1.86,29.734253,,,,,,TRUE,,,,BR,FEW,2000,SCT,8000,,,,,IFR,,,,,,,,,,,,METAR,52.0
UWWW 040100Z 02002MPS 9999 SCT033 07/04 Q1033 R33/CLRD60 NOSIG RMK QFE764/1019,UWWW,2021-10-04T01:00:00Z,53.5,50.17,7.0,4.0,20,4,,6.21,30.501968,,,,,,TRUE,,,,,SCT,3300,,,,,,,VFR,,,,,,,,,,,,METAR,124.0
UWUU 040100Z 01004MPS CAVOK 00/M03 Q1034 R32L/0///60 NOSIG,UWUU,2021-10-04T01:00:00Z,54.57,55.87,0.0,-3.0,10,8,,6.21,30.531496,,,,,,TRUE,,,,,CAVOK,,,,,,,,VFR,,,,,,,,,,,,METAR,137.0
UWSG 040100Z 29004MPS 9999 BKN040 03/01 Q1032 R26/CLRD70 NOSIG RMK QFE771/1029,UWSG,2021-10-04T01:00:00Z,51.72,46.17,3.0,1.0,290,8,,6.21,30.47244,,,,,,TRUE,,,,,BKN,4000,,,,,,,VFR,,,,,,,,,,,,METAR,31.0
UWPS 040100Z 08003MPS 9999 OVC026 06/04 Q1034 R02/CLRD60 NOSIG RMK QFE755,UWPS,2021-10-04T01:00:00Z,,,6.0,4.0,80,6,,6.21,30.531496,,,,,,TRUE,,,,,OVC,2600,,,,,,,MVFR,,,,,,,,,,,,METAR,
UWOR 040100Z 08005MPS 9999 BKN040 03/M02 Q1032 R07/CLRD65 NOSIG RMK QFE749/0998,UWOR,2021-10-04T01:00:00Z,51.07,58.6,3.0,-2.0,80,10,,6.21,30.47244,,,,,,TRUE,,,,,BKN,4000,,,,,,,VFR,,,,,,,,,,,,METAR,270.0
UWOO 040100Z 06004MPS 9999 BKN049 07/03 Q1032 R08/60D NOSIG RMK QFE763/1017,UWOO,2021-10-04T01:00:00Z,51.8,55.47,7.0,3.0,60,8,,6.21,30.47244,,,,,,TRUE,,,,,BKN,4900,,,,,,,VFR,,,,,,,,,,,,METAR,90.0
UWLW 040100Z 04003MPS 9999 OVC049 07/06 Q1034 R02/190055 NOSIG RMK QFE769,UWLW,2021-10-04T01:00:00Z,54.4,48.8,7.0,6.0,40,6,,6.21,30.531496,,,,,,TRUE,,,,,OVC,4900,,,,,,,VFR,,,,,,,,,,,,METAR,67.0
UWLL 040100Z 34002MPS 8000 BKN015 06/06 Q1034 R02/290150 NOSIG RMK QFE763/1018,UWLL,2021-10-04T01:00:00Z,54.27,48.23,6.0,6.0,340,4,,4.97,30.531496,,,,,,TRUE,,,,,BKN,1500,,,,,,,MVFR,,,,,,,,,,,,METAR,119.0
UWKS 040100Z 00000MPS 9999 OVC017 06/05 Q1036 R06/190060 NOSIG RMK QFE761,UWKS,2021-10-04T01:00:00Z,56.08,47.35,6.0,5.0,0,0,,6.21,30.590551,,,,,,TRUE,,,,,OVC,1700,,,,,,,MVFR,,,,,,,,,,,,METAR,165.0
UWKE 040100Z 06003MPS 9999 BKN046 00/M01 Q1036 R03/210070 NOSIG RMK QFE760/1013,UWKE,2021-10-04T01:00:00Z,55.57,52.08,0.0,-1.0,60,6,,6.21,30.590551,,,,,,TRUE,,,,,BKN,4600,,,,,,,VFR,,,,,,,,,,,,METAR,193.0
UWKD 040100Z 02002MPS 9999 -RA OVC039 05/04 Q1035 R11/290050 NOSIG RMK QFE766/1022,UWKD,2021-10-04T01:00:00Z,55.62,49.28,5.0,4.0,20,4,,6.21,30.561024,,,,,,TRUE,,,,-RA,OVC,3900,,,,,,,VFR,,,,,,,,,,,,METAR,114.0
UWGG 040100Z 00000MPS 9999 BKN040 05/05 Q1036 R36R/090070 NOSIG,UWGG,2021-10-04T01:00:00Z,56.23,43.78,5.0,5.0,0,0,,6.21,30.590551,,,,,,TRUE,,,,,BKN,4000,,,,,,,VFR,,,,,,,,,,,,METAR,73.0
UUYY 040100Z 00000MPS 0650 0150N R18/0550N FZFG BKN002 M05/M05 Q1040 R18/CLRD61 NOSIG RMK QBB060 QFE771/1028,UUYY,2021-10-04T01:00:00Z,61.65,50.83,-5.0,-5.0,0,0,,0.4,30.708662,,,,,,TRUE,,,,FZFG,BKN,200,,,,,,,LIFR,,,,,,,,,,,,METAR,107.0
UUWW 040100Z 14002MPS 5000 BR NSC 03/03 Q1035 R06/000070 TEMPO 1000 BR,UUWW,2021-10-04T01:00:00Z,55.6,37.27,3.0,3.0,140,4,,3.11,30.561024,,,,,,,,,,BR,CLR,,,,,,,,MVFR,,,,,,,,,,,,METAR,195.0
UUOO 040100Z 03002MPS CAVOK 03/02 Q1032 R12/010070 NOSIG RMK QFE760,UUOO,2021-10-04T01:00:00Z,51.82,39.23,3.0,2.0,30,4,,6.21,30.47244,,,,,,TRUE,,,,,CAVOK,,,,,,,,VFR,,,,,,,,,,,,METAR,154.0
UUOL 040100Z 04002MPS 9999 SCT030 03/01 Q1034 R15/090060 NOSIG,UUOL,2021-10-04T01:00:00Z,52.7,39.53,3.0,1.0,40,4,,6.21,30.531496,,,,,,TRUE,,,,,SCT,3000,,,,,,,VFR,,,,,,,,,,,,METAR,176.0
UUOK 040100Z AUTO 10004MPS 9999 // ///035/// 08/05 Q1032 RMK QFE755/1007,UUOK,2021-10-04T01:00:00Z,51.75,36.28,8.0,5.0,100,8,,6.21,30.47244,,,TRUE,,,,,,,,,,,,,,,,,,,,,,,,,,,,METAR,203.0
UUOB 040100Z 04003MPS 8000 NSC 04/04 Q1031 R11/010060 NOSIG,UUOB,2021-10-04T01:00:00Z,50.65,36.58,4.0,4.0,40,6,,4.97,30.442913,,,,,,TRUE,,,,,CLR,,,,,,,,MVFR,,,,,,,,,,,,METAR,218.0
UUMO 040100Z 13002MPS 3800 BR NSC 04/03 Q1035 R25/090060 NOSIG RMK QFE760/1014,UUMO,2021-10-04T01:00:00Z,55.52,37.5,4.0,3.0,130,4,,2.36,30.561024,,,,,,TRUE,,,,BR,CLR,,,,,,,,IFR,,,,,,,,,,,,METAR,167.0
UUEE 040100Z 08002MPS 050V110 3100 0800E R24L/P2000D PRFG NSC 02/02 Q1035 R88/CLRD62 TEMPO 0500 FG SCT002,UUEE,2021-10-04T01:00:00Z,55.97,37.42,2.0,2.0,80,4,,1.93,30.561024,,,,,,,,,,PRFG,CLR,,,,,,,,IFR,,,,,,,,,,,,METAR,186.0
UUDL 040100Z 09001MPS 9999 OVC036 06/04 Q1036 R23/010060 NOSIG RMK QFE768,UUDL,2021-10-04T01:00:00Z,57.57,40.17,6.0,4.0,90,2,,6.21,30.590551,,,,,,TRUE,,,,,OVC,3600,,,,,,,VFR,,,,,,,,,,,,METAR,88.0
UUDD 040100Z 17001MPS 3900 1800S BR NSC 02/01 Q1035 R14R/CLRD60 NOSIG,UUDD,2021-10-04T01:00:00Z,55.4,37.9,2.0,1.0,170,2,,2.42,30.561024,,,,,,TRUE,,,,BR,CLR,,,,,,,,IFR,,,,,,,,,,,,METAR,165.0
UUBW 040100Z 11001MPS 0800 0200SE R30/0200D FG FEW002 01/01 Q1035 R30/010060 NOSIG RMK QBB070,UUBW,2021-10-04T01:00:00Z,55.55,38.15,1.0,1.0,110,2,,0.5,30.561024,,,,,,TRUE,,,,FG,FEW,200,,,,,,,LIFR,,,,,,,,,,,,METAR,111.0
UUBP 040100Z AUTO 07002MPS 7000 NCD 05/05 Q1032 RMK QFE756/1008,UUBP,2021-10-04T01:00:00Z,53.22,34.18,5.0,5.0,70,4,,4.35,30.47244,,,TRUE,,,,,,,,CLR,,,,,,,,MVFR,,,,,,,,,,,,METAR,197.0
UUBC 040100Z AUTO 11001MPS 2300 // NSC 03/03 Q1034 RMK QFE758/1011,UUBC,2021-10-04T01:00:00Z,54.55,36.37,3.0,3.0,110,2,,1.43,30.531496,,,TRUE,,,,,,,,CLR,,,,,,,,IFR,,,,,,,,,,,,METAR,198.0
UTDT 040100Z 15001MPS 9999 SCT100 11/04 Q1021 R35/////// RMK QFE726/0968,UTDT,2021-10-04T01:00:00Z,37.87,68.87,11.0,4.0,150,2,,6.21,30.147638,,,,,,,,,,,SCT,10000,,,,,,,VFR,,,,,,,,,,,,METAR,443.0
UTDL 040100Z 24005MPS 9999 SCT086 09/M00 Q1024 R26/CLRD70 NOSIG RMK QFE730/0973,UTDL,2021-10-04T01:00:00Z,40.22,69.7,9.0,0.0,240,10,,6.21,30.236221,,,,,,TRUE,,,,,SCT,8600,,,,,,,VFR,,,,,,,,,,,,METAR,436.0
UTDK 040100Z 02002MPS 9999 NSC 13/05 Q1023 R01/09//70 RMK QFE709/0945,UTDK,2021-10-04T01:00:00Z,37.98,69.8,13.0,5.0,20,4,,6.21,30.206694,,,,,,,,,,,CLR,,,,,,,,VFR,,,,,,,,,,,,METAR,675.0
UTDD 040100Z 10002MPS 9999 FEW066CB BKN120 12/07 Q1022 R09/D NOSIG RMK QFE698/0931,UTDD,2021-10-04T01:00:00Z,38.53,68.82,12.0,7.0,100,4,,6.21,30.177166,,,,,,TRUE,,,,,FEW,6600,BKN,12000,,,,,VFR,,,,,,,,,,,,METAR,785.0
UTAV 040100Z 01010KT CAVOK 09/M03 Q1022 R31/CLRD70 NOSIG,UTAV,2021-10-04T01:00:00Z,39.08,63.62,9.0,-3.0,10,10,,6.21,30.177166,,,,,,TRUE,,,,,CAVOK,,,,,,,,VFR,,,,,,,,,,,,METAR,187.0
UTAT 040100Z 08004KT CAVOK 05/M03 Q1025 R08/CLRD70 NOSIG,UTAT,2021-10-04T01:00:00Z,41.77,59.83,5.0,-3.0,80,4,,6.21,30.265747,,,,,,TRUE,,,,,CAVOK,,,,,,,,VFR,,,,,,,,,,,,METAR,84.0
UTAM 040100Z 00000KT 6000 NSC 07/01 Q1025 R88/CLRD70 NOSIG,UTAM,2021-10-04T01:00:00Z,37.62,61.9,7.0,1.0,0,0,,3.73,30.265747,,,,,,TRUE,,,,,CLR,,,,,,,,MVFR,,,,,,,,,,,,METAR,218.0
UTAK 040100Z 08008KT CAVOK 14/M07 Q1018 R16R/CLRD70 NOSIG,UTAK,2021-10-04T01:00:00Z,40.05,53.0,14.0,-7.0,80,8,,6.21,30.059055,,,,,,TRUE,,,,,CAVOK,,,,,,,,VFR,,,,,,,,,,,,METAR,83.0
UTAA 040100Z 08004KT 050V110 9999 NSC 12/M05 Q1020 R88/CLRD70 NOSIG,UTAA,2021-10-04T01:00:00Z,37.98,58.37,12.0,-5.0,80,4,,6.21,30.11811,,,,,,TRUE,,,,,CLR,,,,,,,,VFR,,,,,,,,,,,,METAR,207.0
USTR 040100Z 33004MPS 9999 BKN016CB M01/M02 Q1034 R30/290060 R21/290060 TEMPO 2100 -SHSN BKN005 BKN015CB,USTR,2021-10-04T01:00:00Z,57.18,65.32,-1.0,-2.0,330,8,,6.21,30.531496,,,,,,,,,,,BKN,1600,,,,,,,MVFR,,,,,,,,,,,,METAR,93.0
USSS 040100Z 36004MPS 350V050 9999 OVC039 M00/M07 Q1037 R08L/010060 R08R/010060 NOSIG RMK QFE757/1009,USSS,2021-10-04T01:00:00Z,56.75,60.78,0.0,-7.0,360,8,,6.21,30.620079,,,,,,TRUE,,,,,OVC,3900,,,,,,,VFR,,,,,,,,,,,,METAR,222.0
USRR 040100Z 01003MPS 340V040 9999 BKN015 M01/M02 Q1033 R07/19//50 NOSIG RMK QFE769,USRR,2021-10-04T01:00:00Z,61.33,73.42,-1.0,-2.0,10,6,,6.21,30.501968,,,,,,TRUE,,,,,BKN,1500,,,,,,,MVFR,,,,,,,,,,,,METAR,52.0
USPP 040100Z 00000MPS CAVOK M00/M02 Q1038 R21/090060 NOSIG RMK QFE768,USPP,2021-10-04T01:00:00Z,57.92,56.02,0.0,-2.0,0,0,,6.21,30.649607,,,,,,TRUE,,,,,CAVOK,,,,,,,,VFR,,,,,,,,,,,,METAR,120.0
USNN 040100Z 03003MPS 9999 BKN008 00/M00 Q1031 R03/12//65 TEMPO BKN005 RMK QFE769,USNN,2021-10-04T01:00:00Z,60.95,76.48,0.0,0.0,30,6,,6.21,30.442913,,,,,,,,,,,BKN,800,,,,,,,IFR,,,,,,,,,,,,METAR,52.0
USHH 040100Z 36001MPS CAVOK M01/M03 Q1035 R06/010060 NOSIG,USHH,2021-10-04T01:00:00Z,61.03,69.08,-1.0,-3.0,360,2,,6.21,30.561024,,,,,,TRUE,,,,,CAVOK,,,,,,,,VFR,,,,,,,,,,,,METAR,46.0
USDA 040100Z 23008MPS 9000 -RA BKN004 02/02 Q1022 R22/290150 NOSIG RMK QBB140 QFE765/1021,USDA,2021-10-04T01:00:00Z,,,2.0,2.0,230,16,,5.59,30.177166,,,,,,TRUE,,,,-RA,BKN,400,,,,,,,LIFR,,,,,,,,,,,,METAR,
USCM 040100Z 10002MPS 6000 OVC017CB 00/M04 Q1033 R36/090060 NOSIG RMK QFE735,USCM,2021-10-04T01:00:00Z,53.4,58.75,0.0,-4.0,100,4,,3.73,30.501968,,,,,,TRUE,,,,,OVC,1700,,,,,,,MVFR,,,,,,,,,,,,METAR,425.0
USCC 040100Z 35004MPS 9999 -SHSN BKN043CB M00/M07 Q1035 R27/000060 NOSIG RMK QFE755,USCC,2021-10-04T01:00:00Z,55.3,61.5,0.0,-7.0,350,8,,6.21,30.561024,,,,,,TRUE,,,,-SHSN,BKN,4300,,,,,,,VFR,,,,,,,,,,,,METAR,227.0
URWW 040100Z 06005MPS CAVOK 07/05 Q1029 R06/010070 TEMPO BKN004,URWW,2021-10-04T01:00:00Z,48.78,44.33,7.0,5.0,60,10,,6.21,30.383858,,,,,,,,,,,CAVOK,,,,,,,,VFR,,,,,,,,,,,,METAR,131.0
URWI 040100Z AUTO 08005MPS 9999 // NSC 06/M00 Q1025,URWI,2021-10-04T01:00:00Z,46.37,44.33,6.0,0.0,80,10,,6.21,30.265747,,,TRUE,,,,,,,,CLR,,,,,,,,VFR,,,,,,,,,,,,METAR,145.0
URWA 040100Z 07005MPS CAVOK 08/04 Q1026 R09/010070 NOSIG RMK QFE771/1028,URWA,2021-10-04T01:00:00Z,46.28,47.98,8.0,4.0,70,10,,6.21,30.295275,,,,,,TRUE,,,,,CAVOK,,,,,,,,VFR,,,,,,,,,,,,METAR,-19.0
URSS 040100Z 04002MPS 9999 -SHRA BKN060CB OVC080 14/13 Q1017 R02/290060 R06/290060 NOSIG RMK R06/09003MPS QFE761,URSS,2021-10-04T01:00:00Z,43.45,39.92,14.0,13.0,40,4,,6.21,30.029528,,,,,,TRUE,,,,-SHRA,BKN,6000,OVC,8000,,,,,VFR,,,,,,,,,,,,METAR,4.0
URRP 040100Z 05006MPS CAVOK 09/00 Q1026 R05/CLRD70 NOSIG RMK QFE765/1020,URRP,2021-10-04T01:00:00Z,47.5,39.92,9.0,0.0,50,12,,6.21,30.295275,,,,,,TRUE,,,,,CAVOK,,,,,,,,VFR,,,,,,,,,,,,METAR,73.0
URMT 040100Z 08007MPS 6000 -RA SCT012 BKN023 06/05 Q1021 R07/010070 TEMPO 1100 SHRA BKN003 BKN020CB RMK QFE725,URMT,2021-10-04T01:00:00Z,45.12,42.12,6.0,5.0,80,14,,3.73,30.147638,,,,,,,,,,-RA,SCT,1200,BKN,2300,,,,,MVFR,,,,,,,,,,,,METAR,448.0
URMO 040100Z AUTO 25003MPS 4000 // ///002/// 09/09 Q1019 RMK QBB060 QFE720/0960,URMO,2021-10-04T01:00:00Z,43.2,44.6,9.0,9.0,250,6,,2.49,30.088583,,,TRUE,,,,,,,,,,,,,,,,,,,,,,,,,,,,METAR,505.0
URMN 040100Z 31003MPS 2000 -DZ BR OVC005 09/08 Q1018 R24/////// NOSIG RMK MT OBSC OBST OBSC QFE727,URMN,2021-10-04T01:00:00Z,43.52,43.63,9.0,8.0,310,6,,1.24,30.059055,,,,,,TRUE,,,,-DZ BR,OVC,500,,,,,,,IFR,,,,,,,,,,,,METAR,424.0
URMM 040100Z 07002MPS 6000 -RA BKN003 OVC/// 09/08 Q1021 R12/290250 NOSIG RMK MT OBSC OBST OBSC QFE737/0983,URMM,2021-10-04T01:00:00Z,44.22,43.07,9.0,8.0,70,4,,3.73,30.147638,,,,,,TRUE,,,,-RA,BKN,300,,,,,,,LIFR,,,,,,,,,,,,METAR,318.0
URML 040100Z 14003MPS 100V210 9000 SCT006 BKN023CB 15/14 Q1017 RESHRA R14/290060 TEMPO 2500 -TSRA BR SCT008 BKN040CB RMK QBB180 MT OBSC QFE762/1017,URML,2021-10-04T01:00:00Z,42.82,47.65,15.0,14.0,140,6,,5.59,30.029528,,,,,,,,,,,SCT,600,BKN,2300,,,,,MVFR,,,,,,,,,,,,METAR,4.0
URMG 040100Z 30003MPS 2200 -RA BR FEW/// BKN017 11/11 Q1018 R26/290250 NOSIG RMK QFE749/0999,URMG,2021-10-04T01:00:00Z,43.38,45.7,11.0,11.0,300,6,,1.37,30.059055,,,,,,TRUE,,,,-RA BR,BKN,1700,,,,,,,IFR,,,,,,,,,,,,METAR,160.0
URKK 040100Z 04007MPS 9999 -SHRA BKN032CB 10/09 Q1020 R05R/290060 TEMPO -TSRA SCT020CB RMK QFE762,URKK,2021-10-04T01:00:00Z,45.03,39.15,10.0,9.0,40,14,,6.21,30.11811,,,,,,,,,,-SHRA,BKN,3200,,,,,,,VFR,,,,,,,,,,,,METAR,29.0
URKA 040100Z AUTO 06008MPS 9999 -DZ NCD 10/08 Q1020 RMK QFE761/1015,URKA,2021-10-04T01:00:00Z,45.0,37.35,10.0,8.0,60,16,,6.21,30.11811,,,TRUE,,,,,,,-DZ,CLR,,,,,,,,VFR,,,,,,,,,,,,METAR,41.0
URFF 040100Z 03004MPS 9999 OVC031 10/07 Q1023 R01/090095 NOSIG,URFF,2021-10-04T01:00:00Z,45.03,33.98,10.0,7.0,30,8,,6.21,30.206694,,,,,,TRUE,,,,,OVC,3100,,,,,,,VFR,,,,,,,,,,,,METAR,190.0
UOOO 040100Z 18002MPS 0600 0550SE R01/0600N FZFG BKN003 OVC013 M06/M07 Q1026 R01/35//55 NOSIG RMK QFE755/1006,UOOO,2021-10-04T01:00:00Z,69.32,87.33,-6.0,-7.0,180,4,,0.37,30.295275,,,,,,TRUE,,,,FZFG,BKN,300,OVC,1300,,,,,LIFR,,,,,,,,,,,,METAR,177.0
UNWW 040100Z 00000MPS 1600 1300SE R19/1600D SHSN BR BKN005 OVC030CB M01/M01 Q1025 R19/290250 NOSIG RMK QFE741,UNWW,2021-10-04T01:00:00Z,53.82,86.88,-1.0,-1.0,0,0,,0.99,30.265747,,,,,,TRUE,,,,SHSN BR,BKN,500,OVC,3000,,,,,LIFR,,,,,,,,,,,,METAR,307.0
UNTT 040100Z 12002MPS 9999 -SHSN SCT008 BKN027CB 00/00 Q1025 R21/290150 NOSIG RMK QFE754,UNTT,2021-10-04T01:00:00Z,56.38,85.22,0.0,0.0,120,4,,6.21,30.265747,,,,,,TRUE,,,,-SHSN,SCT,800,BKN,2700,,,,,MVFR,,,,,,,,,,,,METAR,179.0
UNOO 040100Z 36005MPS 9999 BKN009 BKN033CB M00/M01 Q1025 R25/290050 NOSIG RMK QFE760,UNOO,2021-10-04T01:00:00Z,54.97,73.32,0.0,-1.0,360,10,,6.21,30.265747,,,,,,TRUE,,,,,BKN,900,BKN,3300,,,,,IFR,,,,,,,,,,,,METAR,85.0
UNNT 040100Z 12003MPS 9999 BKN008 OVC033 01/01 Q1024 R07/290150 R16/////// NOSIG RMK QFE758/1011,UNNT,2021-10-04T01:00:00Z,55.02,82.65,1.0,1.0,120,6,,6.21,30.236221,,,,,,TRUE,,,,,BKN,800,OVC,3300,,,,,IFR,,,,,,,,,,,,METAR,106.0
UNKL 040100Z 00000MPS 0750 0350W R29/1700U FZFG NSC M04/M04 Q1028 R29/190060 NOSIG RMK QFE745,UNKL,2021-10-04T01:00:00Z,56.17,92.48,-4.0,-4.0,0,0,,0.47,30.35433,,,,,,TRUE,,,,FZFG,CLR,,,,,,,,LIFR,,,,,,,,,,,,METAR,278.0
UNEE 040100Z 09001MPS 0250 R23/0375N FZFG VV001 M01/M01 Q1025 R23/290155 NOSIG RMK QBB040 QFE746,UNEE,2021-10-04T01:00:00Z,55.27,86.1,-1.0,-1.0,90,2,,0.16,30.265747,,,,,,TRUE,,,,FZFG,OVX,0,,,,,,,LIFR,,,,,,,,,,,100,METAR,261.0
UNBB 040100Z 15004MPS 9999 SCT002 BKN030CB 01/01 Q1023 R24/290153 NOSIG RMK QFE744,UNBB,2021-10-04T01:00:00Z,53.37,83.53,1.0,1.0,150,8,,6.21,30.206694,,,,,,TRUE,,,,,SCT,200,BKN,3000,,,,,MVFR,,,,,,,,,,,,METAR,249.0
UNAA 040100Z 21001MPS CAVOK M02/M04 Q1027 R20/CLRD65 NOSIG RMK QFE747,UNAA,2021-10-04T01:00:00Z,53.75,91.4,-2.0,-4.0,210,2,,6.21,30.324802,,,,,,TRUE,,,,,CAVOK,,,,,,,,VFR,,,,,,,,,,,,METAR,249.0
UMMS 040100Z 12002MPS 060V170 CAVOK 06/04 Q1027 R13L/CLRD// R13R/////// NOSIG,UMMS,2021-10-04T01:00:00Z,53.88,28.03,6.0,4.0,120,4,,6.21,30.324802,,,,,,TRUE,,,,,CAVOK,,,,,,,,VFR,,,,,,,,,,,,METAR,196.0
UMKK 040100Z 14003MPS 110V170 CAVOK 10/09 Q1016 R24/CLRD95 NOSIG RMK QFE761/1014,UMKK,2021-10-04T01:00:00Z,54.88,20.57,10.0,9.0,140,6,,6.21,30.0,,,,,,TRUE,,,,,CAVOK,,,,,,,,VFR,,,,,,,,,,,,METAR,6.0
UMIO 040100Z 14004MPS CAVOK 07/05 Q1030 R05/////// NOSIG RMK QFE755/1006,UMIO,2021-10-04T01:00:00Z,,,7.0,5.0,140,8,,6.21,30.413385,,,,,,TRUE,,,,,CAVOK,,,,,,,,VFR,,,,,,,,,,,,METAR,
UMGG 040100Z 11004MPS 8000 NSC 05/04 Q1030 R10/D NOSIG,UMGG,2021-10-04T01:00:00Z,52.53,31.02,5.0,4.0,110,8,,4.97,30.413385,,,,,,TRUE,,,,,CLR,,,,,,,,MVFR,,,,,,,,,,,,METAR,135.0
ULPB 040100Z AUTO VRB01MPS 6000 ///////// M00/M00 Q1033 RMK QFE771/1028,ULPB,2021-10-04T01:00:00Z,61.88,34.15,0.0,0.0,0,2,,3.73,30.501968,,,TRUE,,,,,,,,,,,,,,,,,,,,,,,,,,,,METAR,41.0
ULOO 040100Z 12003MPS 080V140 CAVOK 06/05 Q1028 NOSIG RMK QFE767,ULOO,2021-10-04T01:00:00Z,57.78,28.4,6.0,5.0,120,6,,6.21,30.35433,,,,,,TRUE,,,,,CAVOK,,,,,,,,VFR,,,,,,,,,,,,METAR,46.0
ULMM 040100Z 16004MPS CAVOK 09/04 Q1019 R13/090070 NOSIG RMK QFE758,ULMM,2021-10-04T01:00:00Z,68.78,32.75,9.0,4.0,160,8,,6.21,30.088583,,,,,,TRUE,,,,,CAVOK,,,,,,,,VFR,,,,,,,,,,,,METAR,79.0
ULLI 040100Z 12004MPS 090V150 9000 BKN006 06/04 Q1030 R10R/090060 NOSIG RMK OBST OBSC,ULLI,2021-10-04T01:00:00Z,59.8,30.27,6.0,4.0,120,8,,5.59,30.413385,,,,,,TRUE,,,,,BKN,600,,,,,,,IFR,,,,,,,,,,,,METAR,25.0
ULAA 040100Z 18003MPS 140V200 9999 FEW026 05/05 Q1034 R08/CLRD70 NOSIG RMK QFE774/1032,ULAA,2021-10-04T01:00:00Z,64.6,40.72,5.0,5.0,180,6,,6.21,30.531496,,,,,,TRUE,,,,,FEW,2600,,,,,,,VFR,,,,,,,,,,,,METAR,10.0
UKOO 040100Z 03003MPS CAVOK 09/06 Q1026 R34/090095 NOSIG,UKOO,2021-10-04T01:00:00Z,46.42,30.68,9.0,6.0,30,6,,6.21,30.295275,,,,,,TRUE,,,,,CAVOK,,,,,,,,VFR,,,,,,,,,,,,METAR,52.0
UKON 040100Z 36003MPS CAVOK 07/03 Q1026 NOSIG,UKON,2021-10-04T01:00:00Z,47.05,31.92,7.0,3.0,360,6,,6.21,30.295275,,,,,,TRUE,,,,,CAVOK,,,,,,,,VFR,,,,,,,,,,,,METAR,48.0
UKLU 040100Z 00000MPS 9999 NSC 10/07 Q1022 NOSIG,UKLU,2021-10-04T01:00:00Z,48.63,22.27,10.0,7.0,0,0,,6.21,30.177166,,,,,,TRUE,,,,,CLR,,,,,,,,VFR,,,,,,,,,,,,METAR,111.0
UKLL 040100Z 15004MPS CAVOK 10/06 Q1022 R13/CLRD// NOSIG,UKLL,2021-10-04T01:00:00Z,49.82,23.95,10.0,6.0,150,8,,6.21,30.177166,,,,,,TRUE,,,,,CAVOK,,,,,,,,VFR,,,,,,,,,,,,METAR,316.0
UKKM 040100Z AUTO VRB01MPS 6000 // NCD 04/03 Q1028,UKKM,2021-10-04T01:00:00Z,50.6,30.2,4.0,3.0,0,2,,3.73,30.35433,,,TRUE,,,,,,,,CLR,,,,,,,,MVFR,,,,,,,,,,,,METAR,156.0
UKKK 040100Z VRB01MPS CAVOK 04/03 Q1028 R08/70D NOSIG,UKKK,2021-10-04T01:00:00Z,50.4,30.45,4.0,3.0,0,2,,6.21,30.35433,,,,,,TRUE,,,,,CAVOK,,,,,,,,VFR,,,,,,,,,,,,METAR,175.0
UKHH 040100Z 01001MPS CAVOK 04/02 Q1030 R07/0///81 NOSIG,UKHH,2021-10-04T01:00:00Z,49.92,36.28,4.0,2.0,10,2,,6.21,30.413385,,,,,,TRUE,,,,,CAVOK,,,,,,,,VFR,,,,,,,,,,,,METAR,149.0
UKDR 040100Z 04003MPS 360V070 CAVOK 06/00 Q1027 R36/09//70 NOSIG,UKDR,2021-10-04T01:00:00Z,48.05,33.22,6.0,0.0,40,6,,6.21,30.324802,,,,,,TRUE,,,,,CAVOK,,,,,,,,VFR,,,,,,,,,,,,METAR,119.0
UKDE 040100Z 03004MPS 350V060 CAVOK 07/M01 Q1027 R02/090070 NOSIG,UKDE,2021-10-04T01:00:00Z,47.87,35.32,7.0,-1.0,30,8,,6.21,30.324802,,,,,,TRUE,,,,,CAVOK,,,,,,,,VFR,,,,,,,,,,,,METAR,106.0
UKDD 040100Z 02004MPS CAVOK 04/01 Q1028 R08/090070 NOSIG,UKDD,2021-10-04T01:00:00Z,48.37,35.1,4.0,1.0,20,8,,6.21,30.35433,,,,,,TRUE,,,,,CAVOK,,,,,,,,VFR,,,,,,,,,,,,METAR,147.0
UKBB 040100Z VRB01MPS CAVOK 03/02 Q1028 R88/CLRD// NOSIG,UKBB,2021-10-04T01:00:00Z,50.33,30.9,3.0,2.0,0,2,,6.21,30.35433,,,,,,TRUE,,,,,CAVOK,,,,,,,,VFR,,,,,,,,,,,,METAR,125.0
UIUU 040100Z VRB01MPS 9999 BKN036CB 04/02 Q1029 R26/190060 NOSIG RMK MT OBSC QFE727/0970,UIUU,2021-10-04T01:00:00Z,51.8,107.45,4.0,2.0,0,2,,6.21,30.383858,,,,,,TRUE,,,,,BKN,3600,,,,,,,VFR,,,,,,,,,,,,METAR,508.0
UIII 040100Z 09003MPS 0350 0250SE R12/0550D FG VV001 01/01 Q1030 R12/190050 NOSIG RMK QBB050 QFE730/0973,UIII,2021-10-04T01:00:00Z,52.27,104.37,1.0,1.0,90,6,,0.22,30.413385,,,,,,TRUE,,,,FG,OVX,0,,,,,,,LIFR,,,,,,,,,,,100,METAR,480.0
UIBB 040100Z 03004MPS 360V090 9999 SCT030CB 02/M02 Q1029 R30/CLRD60 NOSIG RMK QFE728/0971,UIBB,2021-10-04T01:00:00Z,56.37,101.7,2.0,-2.0,30,8,,6.21,30.383858,,,,,,TRUE,,,,,SCT,3000,,,,,,,VFR,,,,,,,,,,,,METAR,485.0
UIAA 040100Z 20005MPS 9999 SCT050CB 04/M03 Q1026 R29/70D NOSIG RMK QFE710/0947,UIAA,2021-10-04T01:00:00Z,52.02,113.32,4.0,-3.0,200,10,,6.21,30.295275,,,,,,TRUE,,,,,SCT,5000,,,,,,,VFR,,,,,,,,,,,,METAR,650.0
UHWW 040100Z 36004MPS 9999 BKN040CB 15/11 Q1018 R25L/29//60 NOSIG RMK QFE762,UHWW,2021-10-04T01:00:00Z,43.4,132.15,15.0,11.0,360,8,,6.21,30.059055,,,,,,TRUE,,,,,BKN,4000,,,,,,,VFR,,,,,,,,,,,,METAR,11.0
UHSS 040100Z 34007MPS 9999 SCT040CB 11/09 Q1012 R01/290060 NOSIG RMK QFE758/1011,UHSS,2021-10-04T01:00:00Z,46.88,142.72,11.0,9.0,340,14,,6.21,29.88189,,,,,,TRUE,,,,,SCT,4000,,,,,,,VFR,,,,,,,,,,,,METAR,14.0
UHPP 040100Z 29009G15MPS 9999 BKN050 13/01 Q0994 R34L/CLRD70 NOSIG RMK MT OBSC QFE742/0989,UHPP,2021-10-04T01:00:00Z,53.17,158.45,13.0,1.0,290,17,29,6.21,29.350393,,,,,,TRUE,,,,,BKN,5000,,,,,,,VFR,,,,,,,,,,,,METAR,33.0
UHMM 040100Z 35005MPS 9999 FEW040 04/M07 Q1004 WS R10 R10/70D NOSIG RMK QFE738 R28/02004MPS,UHMM,2021-10-04T01:00:00Z,59.92,150.72,4.0,-7.0,350,10,,6.21,29.64567,,,,,,TRUE,,,,,FEW,4000,,,,,,,VFR,,,,,,,,,,,,METAR,175.0
UHMD 040100Z 13006MPS 9999 OVC025 02/M02 Q1018 RMK QBB750 MT OBSC QFE763/1017,UHMD,2021-10-04T01:00:00Z,64.38,-173.23,2.0,-2.0,130,12,,6.21,30.059055,,,,,,,,,,,OVC,2500,,,,,,,MVFR,,,,,,,,,,,,METAR,40.0
UHMA 040100Z 11012MPS 2700 -DZ BR SCT003 BKN015 03/02 Q1006 R01/290155 TEMPO 1000 -RA BR BKN005 RMK TDZ R01/11012G16MPS END R01/10012G15MPS MT OBSC QFE751/1001,UHMA,2021-10-04T01:00:00Z,64.73,177.73,3.0,2.0,110,23,,1.68,29.704725,,,,,,,,,,-DZ BR,SCT,300,BKN,1500,,,,,IFR,,,,,,,,,,,,METAR,53.0
UHHH 040100Z 22003MPS 190V250 9999 SCT023 09/04 Q1018 R23R/090060 NOSIG RMK QFE757/1010,UHHH,2021-10-04T01:00:00Z,48.52,135.18,9.0,4.0,220,6,,6.21,30.059055,,,,,,TRUE,,,,,SCT,2300,,,,,,,VFR,,,,,,,,,,,,METAR,74.0
UHBB 040100Z 36003MPS CAVOK 05/M03 Q1023 R36/090060 NOSIG RMK QFE750/1000,UHBB,2021-10-04T01:00:00Z,50.43,127.42,5.0,-3.0,360,6,,6.21,30.206694,,,,,,TRUE,,,,,CAVOK,,,,,,,,VFR,,,,,,,,,,,,METAR,185.0
UGTB 040100Z 29004KT 6000 -SHRA SCT028CB OVC035 12/11 Q1018 R31L/290055 NOSIG,UGTB,2021-10-04T01:00:00Z,41.67,44.95,12.0,11.0,290,4,,3.73,30.059055,,,,,,TRUE,,,,-SHRA,SCT,2800,OVC,3500,,,,,MVFR,,,,,,,,,,,,METAR,468.0
UGSB 040100Z 22010KT 9999 -SHRA SCT016CB BKN038 16/15 Q1018 R13/29//55 NOSIG,UGSB,2021-10-04T01:00:00Z,41.62,41.6,16.0,15.0,220,10,,6.21,30.059055,,,,,,TRUE,,,,-SHRA,SCT,1600,BKN,3800,,,,,VFR,,,,,,,,,,,,METAR,32.0
UGMS 040100Z AUTO 17003KT //// ////// 08/08 Q1021,UGMS,2021-10-04T01:00:00Z,43.05,42.75,8.0,8.0,170,3,,,30.147638,,,TRUE,,,,,,,,,,,,,,,,,,,,,,,,,,,,METAR,1442.0
UGKO 040100Z 03003KT 9999 -SHRA SCT019CB OVC060 14/13 Q1018 R07/29//50 NOSIG,UGKO,2021-10-04T01:00:00Z,42.18,42.48,14.0,13.0,30,3,,6.21,30.059055,,,,,,TRUE,,,,-SHRA,SCT,1900,OVC,6000,,,,,VFR,,,,,,,,,,,,METAR,44.0
UGAM 040100Z AUTO VRB01KT //// ////// 11/11 Q1019,UGAM,2021-10-04T01:00:00Z,42.53,43.13,11.0,11.0,0,1,,,30.088583,,,TRUE,,,,,,,,,,,,,,,,,,,,,,,,,,,,METAR,544.0
UERR 040100Z 23004MPS 9999 SCT046 00/M04 Q1024 R25/CLRD60 NOSIG RMK QFE736/0982,UERR,2021-10-04T01:00:00Z,62.53,114.05,0.0,-4.0,230,8,,6.21,30.236221,,,,,,TRUE,,,,,SCT,4600,,,,,,,VFR,,,,,,,,,,,,METAR,352.0
UERP 040100Z 34001MPS 4000 BR OVC005 M04/M05 Q1020 R35/090060 NOSIG RMK QBB170 QFE721,UERP,2021-10-04T01:00:00Z,66.4,112.03,-4.0,-5.0,340,2,,2.49,30.11811,,,,,,TRUE,,,,BR,OVC,500,,,,,,,IFR,,,,,,,,,,,,METAR,514.0
UEEE 040100Z 22001MPS 9999 OVC009 M03/M04 Q1024 R23L/09//60 NOSIG RMK QFE759,UEEE,2021-10-04T01:00:00Z,62.08,129.77,-3.0,-4.0,220,2,,6.21,30.236221,,,,,,TRUE,,,,,OVC,900,,,,,,,IFR,,,,,,,,,,,,METAR,106.0
UDYZ 040100Z VRB01KT 9999 FEW043 11/08 Q1013 R09/010070 NOSIG,UDYZ,2021-10-04T01:00:00Z,40.15,44.4,11.0,8.0,0,1,,6.21,29.911417,,,,,,TRUE,,,,,FEW,4300,,,,,,,VFR,,,,,,,,,,,,METAR,851.0
UDSG 040100Z 00000KT 9999 SCT043 07/03 Q1017 RMK R02/CLRD70 NOSIG,UDSG,2021-10-04T01:00:00Z,40.75,43.87,7.0,3.0,0,0,,6.21,30.029528,,,,,,,,,,,SCT,4300,,,,,,,VFR,,,,,,,,,,,,METAR,1515.0
UCFO 040100Z 26004MPS 190V310 9999 SCT050CB BKN100 10/07 Q1023 R12/0///95 NOSIG,UCFO,2021-10-04T01:00:00Z,40.6,72.8,10.0,7.0,260,8,,6.21,30.206694,,,,,,TRUE,,,,,SCT,5000,BKN,10000,,,,,VFR,,,,,,,,,,,,METAR,881.0
UCFM 040100Z 18002MPS 3200 BR FU NSC 07/05 Q1023 R08/0///95 TEMPO 1500 BR FU,UCFM,2021-10-04T01:00:00Z,43.07,74.48,7.0,5.0,180,4,,1.99,30.206694,,,,,,,,,,BR FU,CLR,,,,,,,,IFR,,,,,,,,,,,,METAR,632.0
UCFL 040100Z VRB01MPS 9999 SCT030CB BKN100 06/M04 Q1021 R07/CLRD95,UCFL,2021-10-04T01:00:00Z,42.58,76.7,6.0,-4.0,0,2,,6.21,30.147638,,,,,,,,,,,SCT,3000,BKN,10000,,,,,VFR,,,,,,,,,,,,METAR,1654.0
UBBQ 040100Z 31003KT 9999 OVC055 14/11 Q1017 R34/////// NOSIG RMK MT OBSC,UBBQ,2021-10-04T01:00:00Z,40.82,47.72,14.0,11.0,310,3,,6.21,30.029528,,,,,,TRUE,,,,,OVC,5500,,,,,,,VFR,,,,,,,,,,,,METAR,339.0
UBBN 040100Z 07008KT 9999 FEW046CB SCT100 11/05 Q1013 R88/CLRD// NOSIG RMK MT OP QFE685,UBBN,2021-10-04T01:00:00Z,39.18,45.45,11.0,5.0,70,8,,6.21,29.911417,,,,,,TRUE,,,,,FEW,4600,SCT,10000,,,,,VFR,,,,,,,,,,,,METAR,857.0
UBBL 040100Z VRB03KT 9000 OVC010 15/15 Q1016 R33/CLRD// NOSIG RMK MT OP,UBBL,2021-10-04T01:00:00Z,38.75,48.82,15.0,15.0,0,3,,5.59,30.0,,,,,,TRUE,,,,,OVC,1000,,,,,,,MVFR,,,,,,,,,,,,METAR,-11.0
UBBG 040100Z 34004KT 0800 R12/0800 FG VCTS VV003 13/12 Q1017 R12/CLRD// NOSIG,UBBG,2021-10-04T01:00:00Z,40.73,46.32,13.0,12.0,340,4,,0.5,30.029528,,,,,,TRUE,,,,VCTS GR,OVX,0,,,,,,,LIFR,,,,,,,,,,,300,METAR,333.0
UBBF 040100Z 36004KT 7000 -DZ OVC020 13/12 Q1016 R29/190065 NOSIG,UBBF,2021-10-04T01:00:00Z,,,13.0,12.0,360,4,,4.35,30.0,,,,,,TRUE,,,,-DZ,OVC,2000,,,,,,,MVFR,,,,,,,,,,,,METAR,
UBBB 040100Z VRB02KT 9999 SCT065CB 16/14 Q1016 R88/CLRD// TEMPO -TSRA,UBBB,2021-10-04T01:00:00Z,40.47,50.07,16.0,14.0,0,2,,6.21,30.0,,,,,,,,,,,SCT,6500,,,,,,,VFR,,,,,,,,,,,,METAR,94.0
UAUU 040100Z 36004MPS 9999 OVC026 01/M03 Q1032 R33/CLRD70 NOSIG RMK QFE758/1011,UAUU,2021-10-04T01:00:00Z,53.2,63.55,1.0,-3.0,360,8,,6.21,30.47244,,,,,,TRUE,,,,,OVC,2600,,,,,,,MVFR,,,,,,,,,,,,METAR,177.0
UATT 040100Z 35002MPS CAVOK 08/03 Q1030 R30/70D NOSIG RMK QFE752/1003,UATT,2021-10-04T01:00:00Z,50.25,57.2,8.0,3.0,350,4,,6.21,30.413385,,,,,,TRUE,,,,,CAVOK,,,,,,,,VFR,,,,,,,,,,,,SPECI,217.0
UATG 040100Z 08005MPS CAVOK 04/M03 Q1028 R14/CLRD70 NOSIG RMK QFE773/1031,UATG,2021-10-04T01:00:00Z,47.12,51.83,4.0,-3.0,80,10,,6.21,30.35433,,,,,,TRUE,,,,,CAVOK,,,,,,,,VFR,,,,,,,,,,,,METAR,-23.0
UATE 040100Z 10007MPS 9999 FEW063CB 12/M07 Q1022 R12/0///70 NOSIG RMK QFE764/1019,UATE,2021-10-04T01:00:00Z,43.87,51.1,12.0,-7.0,100,14,,6.21,30.177166,,,,,,TRUE,,,,,FEW,6300,,,,,,,VFR,,,,,,,,,,,,METAR,21.0
UASS 040100Z 11002MPS CAVOK 02/M00 Q1020 NOSIG RMK QFE747/0996,UASS,2021-10-04T01:00:00Z,50.35,80.23,2.0,0.0,110,4,,6.21,30.11811,,,,,,TRUE,,,,,CAVOK,,,,,,,,VFR,,,,,,,,,,,,METAR,215.0
UASK 040100Z 13007MPS 9999 -SHRA BKN036CB OVC053 06/01 Q1022 R12/290155 NOSIG RMK QFE741/0989,UASK,2021-10-04T01:00:00Z,50.03,82.5,6.0,1.0,130,14,,6.21,30.177166,,,,,,TRUE,,,,-SHRA,BKN,3600,OVC,5300,,,,,VFR,,,,,,,,,,,,METAR,285.0
UARR 040100Z 34002MPS CAVOK 08/06 Q1031 R04/CLRD70 NOSIG RMK QFE770/1026,UARR,2021-10-04T01:00:00Z,51.15,51.53,8.0,6.0,340,4,,6.21,30.442913,,,,,,TRUE,,,,,CAVOK,,,,,,,,VFR,,,,,,,,,,,,METAR,33.0
UAOO 040100Z 30002MPS CAVOK M01/M03 Q1026 R05/CLRD70 NOSIG RMK QFE758/1011,UAOO,2021-10-04T01:00:00Z,44.7,65.6,-1.0,-3.0,300,4,,6.21,30.295275,,,,,,TRUE,,,,,CAVOK,,,,,,,,VFR,,,,,,,,,,,,METAR,130.0
UAKK 040100Z 35005MPS 9999 BKN011 BKN016 02/01 Q1018 R23/2///60 NOSIG RMK QFE717/0956,UAKK,2021-10-04T01:00:00Z,49.68,73.35,2.0,1.0,350,10,,6.21,30.059055,,,,,,TRUE,,,,,BKN,1100,BKN,1600,,,,,MVFR,,,,,,,,,,,,METAR,532.0
UAIT 040100Z 07003MPS 060V170 CAVOK 05/M07 Q1024 R05/0///70 NOSIG RMK QFE743/0991,UAIT,2021-10-04T01:00:00Z,,,5.0,-7.0,70,6,,6.21,30.236221,,,,,,TRUE,,,,,CAVOK,,,,,,,,VFR,,,,,,,,,,,,METAR,
UAII 040100Z 16003MPS CAVOK 06/M03 Q1024 R28/0///70 NOSIG RMK QFE730/0974,UAII,2021-10-04T01:00:00Z,42.37,69.48,6.0,-3.0,160,6,,6.21,30.236221,,,,,,TRUE,,,,,CAVOK,,,,,,,,VFR,,,,,,,,,,,,METAR,410.0
UADD 040100Z VRB01MPS 9999 NSC 02/01 Q1024 R13/0///65 NOSIG RMK QFE710/0947,UADD,2021-10-04T01:00:00Z,42.85,71.3,2.0,1.0,0,2,,6.21,30.236221,,,,,,TRUE,,,,,CLR,,,,,,,,VFR,,,,,,,,,,,,METAR,663.0
UACC 040100Z 01007MPS 7000 -SHSNRA BKN008 BKN023CB 00/M01 Q1021 RESHRA RESHSN R04/2///55 NOSIG RMK QFE734/0979,UACC,2021-10-04T01:00:00Z,51.02,71.47,0.0,-1.0,10,14,,4.35,30.147638,,,,,,TRUE,,,,-SHSN -SHRA SHSN,BKN,800,BKN,2300,,,,,IFR,,,,,,,,,,,,METAR,354.0
UAAT 040100Z 00000MPS 9999 BKN100 M00/M03 Q1022 R02/CLRD65 NOSIG RMK QFE715/0954,UAAT,2021-10-04T01:00:00Z,45.12,78.45,0.0,-3.0,0,0,,6.21,30.177166,,,,,,TRUE,,,,,BKN,10000,,,,,,,VFR,,,,,,,,,,,,METAR,588.0
UAAH 040100Z 23005MPS 9999 BKN034CB 07/00 Q1021 R23/0///60 NOSIG RMK QFE727/0969,UAAH,2021-10-04T01:00:00Z,46.9,75.0,7.0,0.0,230,10,,6.21,30.147638,,,,,,TRUE,,,,,BKN,3400,,,,,,,VFR,,,,,,,,,,,,METAR,427.0
UAAA 040100Z 20003MPS 9999 FEW050CB BKN100 07/01 Q1023 R05R/CLRD65 NOSIG,UAAA,2021-10-04T01:00:00Z,43.35,77.03,7.0,1.0,200,6,,6.21,30.206694,,,,,,TRUE,,,,,FEW,5000,BKN,10000,,,,,VFR,,,,,,,,,,,,METAR,673.0
TTPP 040100Z 12003KT 9999 FEW018 26/23 Q1010 NOSIG,TTPP,2021-10-04T01:00:00Z,10.58,-61.35,26.0,23.0,120,3,,6.21,29.822834,,,,,,TRUE,,,,,FEW,1800,,,,,,,VFR,,,,,,,,,,,,METAR,11.0
TTCP 040100Z 07004KT 9999 VCSH BKN020 28/24 Q1010 RESHRA NOSIG RMK VCSH S,TTCP,2021-10-04T01:00:00Z,11.15,-60.85,28.0,24.0,70,4,,6.21,29.822834,,,,,,TRUE,,,,VCSH,BKN,2000,,,,,,,MVFR,,,,,,,,,,,,METAR,13.0
TNCM 040100Z 07011KT 9999 FEW020 29/23 Q1015 ,TNCM,2021-10-04T01:00:00Z,18.05,-63.12,29.0,23.0,70,11,,6.21,29.970472,,,,,,,,,,,FEW,2000,,,,,,,VFR,,,,,,,,,,,,METAR,9.0
TNCC 040100Z 10016KT 9000 FEW018 29/25 Q1009 NOSIG,TNCC,2021-10-04T01:00:00Z,12.2,-68.97,29.0,25.0,100,16,,5.59,29.793306,,,,,,TRUE,,,,,FEW,1800,,,,,,,VFR,,,,,,,,,,,,METAR,10.0
TNCA 040100Z 09022KT 9999 FEW018 29/24 Q1008 NOSIG,TNCA,2021-10-04T01:00:00Z,12.5,-70.0,29.0,24.0,90,22,,6.21,29.763779,,,,,,TRUE,,,,,FEW,1800,,,,,,,VFR,,,,,,,,,,,,METAR,7.0
TLPL 040100Z 09022KT 9999 FEW026 28/22 Q1012 NOSIG,TLPL,2021-10-04T01:00:00Z,13.75,-60.95,28.0,22.0,90,22,,6.21,29.88189,,,,,,TRUE,,,,,FEW,2600,,,,,,,VFR,,,,,,,,,,,,METAR,13.0
TGPY 040100Z 09013KT 9999 FEW015CB 28/25 Q1011 NOSIG CB-SW,TGPY,2021-10-04T01:00:00Z,12.0,-61.78,28.0,25.0,90,13,,6.21,29.852362,,,,,,TRUE,,,,,FEW,1500,,,,,,,VFR,,,,,,,,,,,,METAR,12.0
TFFR 040100Z AUTO 09007KT 9999 FEW035 27/23 Q1014 NOSIG,TFFR,2021-10-04T01:00:00Z,16.27,-61.53,27.0,23.0,90,7,,6.21,29.940945,,,TRUE,,,TRUE,,,,,FEW,3500,,,,,,,VFR,,,,,,,,,,,,METAR,6.0
TFFF 040100Z AUTO 10014KT 9999 BKN029 BKN036 OVC050 27/24 Q1013 NOSIG,TFFF,2021-10-04T01:00:00Z,14.6,-61.0,27.0,24.0,100,14,,6.21,29.911417,,,TRUE,,,TRUE,,,,,BKN,2900,BKN,3600,OVC,5000,,,MVFR,,,,,,,,,,,,METAR,3.0
TBPB 040100Z 10017KT 9999 FEW018 29/23 Q1012 NOSIG,TBPB,2021-10-04T01:00:00Z,13.07,-59.48,29.0,23.0,100,17,,6.21,29.88189,,,,,,TRUE,,,,,FEW,1800,,,,,,,VFR,,,,,,,,,,,,METAR,55.0
TAPA 040100Z 09010KT 050V150 9999 FEW019 28/22 Q1014 NOSIG,TAPA,2021-10-04T01:00:00Z,17.13,-61.78,28.0,22.0,90,10,,6.21,29.940945,,,,,,TRUE,,,,,FEW,1900,,,,,,,VFR,,,,,,,,,,,,METAR,15.0
SYCJ 040100Z 07004KT 9999 TS FEW015CB 26/25 Q1010 NOSIG RMK CB SSW-SW LTNG SSW,SYCJ,2021-10-04T01:00:00Z,6.5,-58.25,26.0,25.0,70,4,,6.21,29.822834,,,,,,TRUE,,,,TS,FEW,1500,,,,,,,VFR,,,,,,,,,,,,METAR,30.0
SUMU 040100Z 22009KT 9999 FEW050 13/02 Q1015 NOSIG,SUMU,2021-10-04T01:00:00Z,-34.83,-56.02,13.0,2.0,220,9,,6.21,29.970472,,,,,,TRUE,,,,,FEW,5000,,,,,,,VFR,,,,,,,,,,,,METAR,32.0
SULS 040100Z 24015KT 9999 SCT040 13/03 Q1014,SULS,2021-10-04T01:00:00Z,-34.87,-55.1,13.0,3.0,240,15,,6.21,29.940945,,,,,,,,,,,SCT,4000,,,,,,,VFR,,,,,,,,,,,,METAR,22.0
SPZO 040100Z 11004KT 9999 SCT046 14/03 Q1029 NOSIG RMK BIRD HAZARD RWY 28 PP000,SPZO,2021-10-04T01:00:00Z,-13.55,-71.93,14.0,3.0,110,4,,6.21,30.383858,,,,,,TRUE,,,,,SCT,4600,,,,,,,VFR,,,,,,,,,,,,METAR,3249.0
SPST 040100Z 36005KT 9999 VCTS FEW020TCU SCT080 30/22 Q1006 RMK BIRD HAZARD RWY 17/35 PP000,SPST,2021-10-04T01:00:00Z,-6.52,-76.37,30.0,22.0,360,5,,6.21,29.704725,,,,,,,,,,VCTS,FEW,2000,SCT,8000,,,,,VFR,,,,,,,,,,,,METAR,282.0
SPSO 040100Z 22013KT 8000 OVC022 16/13 Q1013 RMK PP000,SPSO,2021-10-04T01:00:00Z,-13.73,-76.22,16.0,13.0,220,13,,4.97,29.911417,,,,,,,,,,,OVC,2200,,,,,,,MVFR,,,,,,,,,,,,METAR,8.0
SPRU 040100Z 15010KT 5000 BR FEW040 SCT014 16/14 Q1011 RMK PP000,SPRU,2021-10-04T01:00:00Z,-8.08,-79.12,16.0,14.0,150,10,,3.11,29.852362,,,,,,,,,,BR,FEW,4000,SCT,1400,,,,,MVFR,,,,,,,,,,,,METAR,23.0
SPQU 040100Z 11005KT CAVOK 12/M05 Q1024 RMK PP000,SPQU,2021-10-04T01:00:00Z,-16.33,-71.57,12.0,-5.0,110,5,,6.21,30.236221,,,,,,,,,,,CAVOK,,,,,,,,VFR,,,,,,,,,,,,METAR,2527.0
SPQT 040100Z 33003KT 9999 SCT015 SCT080 26/24 Q1007 NOSIG RMK CB N PP000,SPQT,2021-10-04T01:00:00Z,-3.78,-73.32,26.0,24.0,330,3,,6.21,29.734253,,,,,,TRUE,,,,,SCT,1500,SCT,8000,,,,,VFR,,,,,,,,,,,,METAR,92.0
SPJC 040100Z 16010KT 9999 OVC014 16/13 Q1013 NOSIG RMK PP000,SPJC,2021-10-04T01:00:00Z,-12.02,-77.12,16.0,13.0,160,10,,6.21,29.911417,,,,,,TRUE,,,,,OVC,1400,,,,,,,MVFR,,,,,,,,,,,,METAR,26.0
SPCL 040100Z 05005KT 9000 BKN020 28/22 Q1007 RMK PP000,SPCL,2021-10-04T01:00:00Z,-8.38,-74.58,28.0,22.0,50,5,,5.59,29.734253,,,,,,,,,,,BKN,2000,,,,,,,MVFR,,,,,,,,,,,,METAR,154.0
SOCA 040100Z AUTO 14001KT CAVOK 27/24 Q1011 NOSIG,SOCA,2021-10-04T01:00:00Z,4.82,-52.37,27.0,24.0,140,1,,6.21,29.852362,,,TRUE,,,TRUE,,,,,CAVOK,,,,,,,,VFR,,,,,,,,,,,,METAR,7.0
SMJP 040100Z 02005KT CAVOK 26/24 Q1010 NOSIG,SMJP,2021-10-04T01:00:00Z,5.45,-55.18,26.0,24.0,20,5,,6.21,29.822834,,,,,,TRUE,,,,,CAVOK,,,,,,,,VFR,,,,,,,,,,,,METAR,14.0
SLVR 040100Z 00000KT 7000 NSC 28/23 Q1008,SLVR,2021-10-04T01:00:00Z,-17.63,-63.13,28.0,23.0,0,0,,4.35,29.763779,,,,,,,,,,,CLR,,,,,,,,MVFR,,,,,,,,,,,,METAR,377.0
SLTJ 040100Z 13007KT 9999 BKN025 14/09 Q1016,SLTJ,2021-10-04T01:00:00Z,-21.55,-64.72,14.0,9.0,130,7,,6.21,30.0,,,,,,,,,,,BKN,2500,,,,,,,MVFR,,,,,,,,,,,,METAR,1850.0
SLLP 040100Z 05008KT 9999 FEW015 SCT200 08/01 Q1035,SLLP,2021-10-04T01:00:00Z,-16.52,-68.17,8.0,1.0,50,8,,6.21,30.561024,,,,,,,,,,,FEW,1500,SCT,20000,,,,,VFR,,,,,,,,,,,,METAR,4061.0
SLCB 040100Z 10007KT 050V150 9999 FEW036 SCT200 20/05 Q1020,SLCB,2021-10-04T01:00:00Z,-17.42,-66.18,20.0,5.0,100,7,,6.21,30.11811,,,,,,,,,,,FEW,3600,SCT,20000,,,,,VFR,,,,,,,,,,,,METAR,2560.0
SKSP 040100Z 04004KT 9999 FEW016 SCT200 27/25 Q1008 RMK A2979,SKSP,2021-10-04T01:00:00Z,12.58,-81.72,27.0,25.0,40,4,,6.21,29.763779,,,,,,,,,,,FEW,1600,SCT,20000,,,,,VFR,,,,,,,,,,,,METAR,6.0
SKRG 040100Z 07003KT 9999 BKN015 16/12 Q1022 NOSIG RMK A3019,SKRG,2021-10-04T01:00:00Z,6.17,-75.42,16.0,12.0,70,3,,6.21,30.177166,,,,,,TRUE,,,,,BKN,1500,,,,,,,MVFR,,,,,,,,,,,,METAR,2132.0
SKPE 040100Z 12004KT 9999 FEW016 SCT200 21/18 Q1015 RMK A2997,SKPE,2021-10-04T01:00:00Z,4.82,-75.73,21.0,18.0,120,4,,6.21,29.970472,,,,,,,,,,,FEW,1600,SCT,20000,,,,,VFR,,,,,,,,,,,,METAR,1341.0
SKLT 040100Z VRB02KT 9999 SCT013 BKN080 26/25 Q1006 RMK A2973,SKLT,2021-10-04T01:00:00Z,-4.2,-69.93,26.0,25.0,0,2,,6.21,29.704725,,,,,,,,,,,SCT,1300,BKN,8000,,,,,VFR,,,,,,,,,,,,METAR,78.0
SKCL 040100Z 34006KT 9999 FEW030 BKN120 24/19 Q1012 NOSIG RMK A2989,SKCL,2021-10-04T01:00:00Z,3.53,-76.37,24.0,19.0,340,6,,6.21,29.88189,,,,,,TRUE,,,,,FEW,3000,BKN,12000,,,,,VFR,,,,,,,,,,,,METAR,967.0
SKCG 040100Z 00000KT 9999 FEW020 SCT200 29/25 Q1006 RMK A2973,SKCG,2021-10-04T01:00:00Z,10.43,-75.52,29.0,25.0,0,0,,6.21,29.704725,,,,,,,,,,,FEW,2000,SCT,20000,,,,,VFR,,,,,,,,,,,,METAR,6.0
SKCC 040100Z 33004KT 9999 SCT018 SCT090 28/23 Q1010 RMK A2985,SKCC,2021-10-04T01:00:00Z,7.92,-72.52,28.0,23.0,330,4,,6.21,29.822834,,,,,,,,,,,SCT,1800,SCT,9000,,,,,VFR,,,,,,,,,,,,METAR,308.0
SKBQ 040100Z 01006KT 330V050 9999 FEW015 28/25 Q1007 NOSIG RMK A2975,SKBQ,2021-10-04T01:00:00Z,10.87,-74.77,28.0,25.0,10,6,,6.21,29.734253,,,,,,TRUE,,,,,FEW,1500,,,,,,,VFR,,,,,,,,,,,,METAR,23.0
SKBO 040100Z VRB02KT 9999 SCT020 SCT200 13/11 Q1024 NOSIG RMK A3025,SKBO,2021-10-04T01:00:00Z,4.7,-74.15,13.0,11.0,0,2,,6.21,30.236221,,,,,,TRUE,,,,,SCT,2000,SCT,20000,,,,,VFR,,,,,,,,,,,,METAR,2547.0
SKBG 040100Z 32004KT 9999 SCT017 SCT070 21/21 Q1012 RMK A2990,SKBG,2021-10-04T01:00:00Z,7.13,-73.18,21.0,21.0,320,4,,6.21,29.88189,,,,,,,,,,,SCT,1700,SCT,7000,,,,,VFR,,,,,,,,,,,,METAR,1187.0
SGES 040100Z 18004KT 9999 BKN027 BKN070 20/19 Q1010,SGES,2021-10-04T01:00:00Z,-25.45,-54.85,20.0,19.0,180,4,,6.21,29.822834,,,,,,,,,,,BKN,2700,BKN,7000,,,,,MVFR,,,,,,,,,,,,METAR,256.0
SGAS 040100Z 18013KT 9999 SCT015 OVC030 21/18 Q1011,SGAS,2021-10-04T01:00:00Z,-25.25,-57.52,21.0,18.0,180,13,,6.21,29.852362,,,,,,,,,,,SCT,1500,OVC,3000,,,,,MVFR,,,,,,,,,,,,METAR,83.0
SEQM 040100Z 20004KT 9999 BKN015 OVC100 13/12 Q1024 NOSIG RMK A3024,SEQM,2021-10-04T01:00:00Z,-0.12,-78.35,13.0,12.0,200,4,,6.21,30.236221,,,,,,TRUE,,,,,BKN,1500,OVC,10000,,,,,MVFR,,,,,,,,,,,,METAR,2386.0
SEMT 040100Z 20005KT 9999 FEW020 22/19 Q1010 RMK A2982,SEMT,2021-10-04T01:00:00Z,-0.95,-80.67,22.0,19.0,200,5,,6.21,29.822834,,,,,,,,,,,FEW,2000,,,,,,,VFR,,,,,,,,,,,,METAR,13.0
SELT 040100Z 13002KT 9999 SCT030 11/08 Q1027,SELT,2021-10-04T01:00:00Z,-0.92,-78.62,11.0,8.0,130,2,,6.21,30.324802,,,,,,,,,,,SCT,3000,,,,,,,VFR,,,,,,,,,,,,METAR,2779.0
SEGU 040100Z 22015KT 9999 SCT026 25/18 Q1008 NOSIG RMK A2978,SEGU,2021-10-04T01:00:00Z,-2.15,-79.88,25.0,18.0,220,15,,6.21,29.763779,,,,,,TRUE,,,,,SCT,2600,,,,,,,VFR,,,,,,,,,,,,METAR,6.0
SEGS 040100Z 17015KT 9999 BKN026 22/17 Q1008 RMK A2979,SEGS,2021-10-04T01:00:00Z,-0.45,-90.27,22.0,17.0,170,15,,6.21,29.763779,,,,,,,,,,,BKN,2600,,,,,,,MVFR,,,,,,,,,,,,METAR,51.0
SECU 040100Z 23002KT 9999 FEW033 15/12 Q1023,SECU,2021-10-04T01:00:00Z,-2.88,-78.98,15.0,12.0,230,2,,6.21,30.206694,,,,,,,,,,,FEW,3300,,,,,,,VFR,,,,,,,,,,,,METAR,2516.0
SCVM 040100Z 27004KT CAVOK 13/06 Q1018,SCVM,2021-10-04T01:00:00Z,-32.95,-71.48,13.0,6.0,270,4,,6.21,30.059055,,,,,,,,,,,CAVOK,,,,,,,,VFR,,,,,,,,,,,,METAR,136.0
SCVD 040100Z AUTO 25003KT 210V280 9999 BKN032 BKN037 09/06 Q1025,SCVD,2021-10-04T01:00:00Z,-39.65,-73.08,9.0,6.0,250,3,,6.21,30.265747,,,TRUE,,,,,,,,BKN,3200,BKN,3700,,,,,VFR,,,,,,,,,,,,METAR,19.0
SCTN 040100Z AUTO 30005KT 270V330 9999 FEW043 09/07 Q1024,SCTN,2021-10-04T01:00:00Z,-42.92,-72.7,9.0,7.0,300,5,,6.21,30.236221,,,TRUE,,,,,,,,FEW,4300,,,,,,,VFR,,,,,,,,,,,,METAR,8.0
SCTE 040100Z 33003KT 9999 SCT040 05/05 Q1025 NOSIG,SCTE,2021-10-04T01:00:00Z,-41.43,-73.08,5.0,5.0,330,3,,6.21,30.265747,,,,,,TRUE,,,,,SCT,4000,,,,,,,VFR,,,,,,,,,,,,METAR,85.0
SCSN 040100Z AUTO 22004KT 180V240 9999 NCD 09/07 Q1019,SCSN,2021-10-04T01:00:00Z,-33.65,-71.62,9.0,7.0,220,4,,6.21,30.088583,,,TRUE,,,,,,,,CLR,,,,,,,,VFR,,,,,,,,,,,,METAR,73.0
SCSE 040100Z AUTO VRB01KT CAVOK 11/08 Q1016,SCSE,2021-10-04T01:00:00Z,-29.92,-71.2,11.0,8.0,0,1,,6.21,30.0,,,TRUE,,,,,,,,CAVOK,,,,,,,,VFR,,,,,,,,,,,,METAR,141.0
SCQP 040100Z AUTO 24005KT 9999 FEW049 08/06 Q1024,SCQP,2021-10-04T01:00:00Z,-38.92,-72.65,8.0,6.0,240,5,,6.21,30.236221,,,TRUE,,,,,,,,FEW,4900,,,,,,,VFR,,,,,,,,,,,,METAR,97.0
SCPQ 040100Z AUTO 30006KT 280V340 9999 BKN027 07/04 Q1024,SCPQ,2021-10-04T01:00:00Z,-42.33,-73.72,7.0,4.0,300,6,,6.21,30.236221,,,TRUE,,,,,,,,BKN,2700,,,,,,,MVFR,,,,,,,,,,,,METAR,166.0
SCON 040100Z AUTO 30004KT 270V330 9999 BKN056/// 07/06 Q1024,SCON,2021-10-04T01:00:00Z,-43.13,-73.62,7.0,6.0,300,4,,6.21,30.236221,,,TRUE,,,,,,,,BKN,5600,,,,,,,VFR,,,,,,,,,,,,METAR,11.0
SCMK 040100Z AUTO 27009KT 240V340 //// // SCT019/// OVC077/// 08/07 Q1022,SCMK,2021-10-04T01:00:00Z,-43.9,-73.73,8.0,7.0,270,9,,,30.177166,,,TRUE,,,,,,,,SCT,1900,OVC,7700,,,,,,,,,,,,,,,,,METAR,22.0
SCJO 040100Z AUTO 23004KT 160V280 9999 OVC047/// 09/04 Q1025,SCJO,2021-10-04T01:00:00Z,-40.6,-73.05,9.0,4.0,230,4,,6.21,30.265747,,,TRUE,,,,,,,,OVC,4700,,,,,,,VFR,,,,,,,,,,,,METAR,61.0
SCIP 040100Z 09016G26KT 9999 SCT020 BKN030 BKN050 19/14 Q1026 NOSIG,SCIP,2021-10-04T01:00:00Z,-27.17,-109.43,19.0,14.0,90,16,26,6.21,30.295275,,,,,,TRUE,,,,,SCT,2000,BKN,3000,BKN,5000,,,MVFR,,,,,,,,,,,,METAR,48.0
SCIE 040100Z 21011KT CAVOK 10/07 Q1022,SCIE,2021-10-04T01:00:00Z,-36.77,-73.07,10.0,7.0,210,11,,6.21,30.177166,,,,,,,,,,,CAVOK,,,,,,,,VFR,,,,,,,,,,,,METAR,8.0
SCIC 040100Z AUTO 20004KT 170V230 9999 NCD 13/04 Q1019,SCIC,2021-10-04T01:00:00Z,-34.97,-71.22,13.0,4.0,200,4,,6.21,30.088583,,,TRUE,,,,,,,,CLR,,,,,,,,VFR,,,,,,,,,,,,METAR,230.0
SCGZ 040100Z 29017KT 9999 VCSH SCT015 BKN040 04/00 Q0990,SCGZ,2021-10-04T01:00:00Z,-54.93,-67.63,4.0,0.0,290,17,,6.21,29.232283,,,,,,,,,,VCSH,SCT,1500,BKN,4000,,,,,VFR,,,,,,,,,,,,METAR,21.0
SCFT 040100Z AUTO 25010KT 210V280 9999 OVC049/// 08/01 Q1019,SCFT,2021-10-04T01:00:00Z,-43.18,-71.85,8.0,1.0,250,10,,6.21,30.088583,,,TRUE,,,,,,,,OVC,4900,,,,,,,VFR,,,,,,,,,,,,METAR,345.0
SCFA 040100Z 18009KT 9999 SCT012 BKN017 13/09 Q1015 NOSIG,SCFA,2021-10-04T01:00:00Z,-23.43,-70.43,13.0,9.0,180,9,,6.21,29.970472,,,,,,TRUE,,,,,SCT,1200,BKN,1700,,,,,MVFR,,,,,,,,,,,,METAR,113.0
SCEL 040100Z 18005KT CAVOK 14/03 Q1017 NOSIG,SCEL,2021-10-04T01:00:00Z,-33.38,-70.78,14.0,3.0,180,5,,6.21,30.029528,,,,,,TRUE,,,,,CAVOK,,,,,,,,VFR,,,,,,,,,,,,METAR,478.0
SCDA 040100Z 23005KT 9999 OVC029 16/10 Q1015,SCDA,2021-10-04T01:00:00Z,-20.53,-70.17,16.0,10.0,230,5,,6.21,29.970472,,,,,,,,,,,OVC,2900,,,,,,,MVFR,,,,,,,,,,,,METAR,41.0
SCCY 040100Z AUTO VRB02KT 9999 FEW029 BKN044 06/03 Q1016,SCCY,2021-10-04T01:00:00Z,-45.58,-72.1,6.0,3.0,0,2,,6.21,30.0,,,TRUE,,,,,,,,FEW,2900,BKN,4400,,,,,VFR,,,,,,,,,,,,METAR,301.0
SCCI 040100Z 27027KT CAVOK 04/00 Q0999 NOSIG,SCCI,2021-10-04T01:00:00Z,-53.0,-70.85,4.0,0.0,270,27,,6.21,29.498032,,,,,,TRUE,,,,,CAVOK,,,,,,,,VFR,,,,,,,,,,,,METAR,37.0
SCCH 040100Z AUTO 21009KT //// R/////// NCD 10/05 Q1020,SCCH,2021-10-04T01:00:00Z,-36.57,-72.02,10.0,5.0,210,9,,,30.11811,,,TRUE,,,,,,,,CLR,,,,,,,,,,,,,,,,,,,,METAR,148.0
SCAT 040100Z AUTO 24006KT 7000 OVC008/// 11/09 Q1016,SCAT,2021-10-04T01:00:00Z,-27.27,-70.77,11.0,9.0,240,6,,4.35,30.0,,,TRUE,,,,,,,,OVC,800,,,,,,,IFR,,,,,,,,,,,,METAR,209.0
SCAR 040100Z VRB01KT 9999 OVC031 16/11 Q1015,SCAR,2021-10-04T01:00:00Z,-18.35,-70.33,16.0,11.0,0,1,,6.21,29.970472,,,,,,,,,,,OVC,3100,,,,,,,VFR,,,,,,,,,,,,METAR,57.0
SCAP 040100Z AUTO 21008KT 170V260 9999 -SHRA ////// 07/02 Q1023,SCAP,2021-10-04T01:00:00Z,-43.62,-71.8,7.0,2.0,210,8,,6.21,30.206694,,,TRUE,,,,,,,-SHRA,,,,,,,,,,,,,,,,,,,,,METAR,252.0
SBVT 040100Z 02013KT 9999 OVC020 26/22 Q1014,SBVT,2021-10-04T01:00:00Z,-20.25,-40.28,26.0,22.0,20,13,,6.21,29.940945,,,,,,,,,,,OVC,2000,,,,,,,MVFR,,,,,,,,,,,,METAR,4.0
SBTE 040100Z 01006KT CAVOK 29/19 Q1009,SBTE,2021-10-04T01:00:00Z,-5.05,-42.82,29.0,19.0,10,6,,6.21,29.793306,,,,,,,,,,,CAVOK,,,,,,,,VFR,,,,,,,,,,,,METAR,60.0
SBSV 040100Z 07012KT 9999 SCT020 26/21 Q1015,SBSV,2021-10-04T01:00:00Z,-12.9,-38.32,26.0,21.0,70,12,,6.21,29.970472,,,,,,,,,,,SCT,2000,,,,,,,VFR,,,,,,,,,,,,METAR,9.0
SBSP 040100Z 05008KT CAVOK 18/16 Q1016,SBSP,2021-10-04T01:00:00Z,-23.62,-46.65,18.0,16.0,50,8,,6.21,30.0,,,,,,,,,,,CAVOK,,,,,,,,VFR,,,,,,,,,,,,METAR,802.0
SBSN 040100Z 12007KT CAVOK 29/26 Q1009,SBSN,2021-10-04T01:00:00Z,-2.42,-54.78,29.0,26.0,120,7,,6.21,29.793306,,,,,,,,,,,CAVOK,,,,,,,,VFR,,,,,,,,,,,,METAR,57.0
SBSL 040100Z 06008KT CAVOK 28/22 Q1010,SBSL,2021-10-04T01:00:00Z,-2.58,-44.23,28.0,22.0,60,8,,6.21,29.822834,,,,,,,,,,,CAVOK,,,,,,,,VFR,,,,,,,,,,,,METAR,53.0
SBSJ 040100Z 01003KT 8000 SCT010 BKN100 18/17 Q1016,SBSJ,2021-10-04T01:00:00Z,-23.22,-45.87,18.0,17.0,10,3,,4.97,30.0,,,,,,,,,,,SCT,1000,BKN,10000,,,,,MVFR,,,,,,,,,,,,METAR,640.0
SBSG 040100Z 19003KT 160V230 9999 SCT021 24/22 Q1014,SBSG,2021-10-04T01:00:00Z,-5.77,-35.37,24.0,22.0,190,3,,6.21,29.940945,,,,,,,,,,,SCT,2100,,,,,,,VFR,,,,,,,,,,,,METAR,83.0
SBRP 040100Z 11005KT 9999 SCT035 OVC090 20/18 Q1016,SBRP,2021-10-04T01:00:00Z,-21.13,-47.77,20.0,18.0,110,5,,6.21,30.0,,,,,,,,,,,SCT,3500,OVC,9000,,,,,VFR,,,,,,,,,,,,METAR,550.0
SBRJ 040100Z 26008KT 230V300 9999 SCT015 BKN050 24/21 Q1014,SBRJ,2021-10-04T01:00:00Z,-22.9,-43.17,24.0,21.0,260,8,,6.21,29.940945,,,,,,,,,,,SCT,1500,BKN,5000,,,,,VFR,,,,,,,,,,,,METAR,6.0
SBRF 040100Z 10008KT 9999 FEW023 27/22 Q1014,SBRF,2021-10-04T01:00:00Z,-8.13,-34.92,27.0,22.0,100,8,,6.21,29.940945,,,,,,,,,,,FEW,2300,,,,,,,VFR,,,,,,,,,,,,METAR,10.0
SBRB 040100Z 05006KT 9999 VCTS SCT040 FEW045CB BKN100 26/23 Q1008,SBRB,2021-10-04T01:00:00Z,-9.87,-67.88,26.0,23.0,50,6,,6.21,29.763779,,,,,,,,,,VCTS,SCT,4000,FEW,4500,BKN,10000,,,VFR,,,,,,,,,,,,METAR,190.0
SBPV 040100Z 27003KT CAVOK 26/23 Q1007,SBPV,2021-10-04T01:00:00Z,-8.72,-63.9,26.0,23.0,270,3,,6.21,29.734253,,,,,,,,,,,CAVOK,,,,,,,,VFR,,,,,,,,,,,,METAR,89.0
SBPS 040100Z 04009KT 9999 BKN015 25/22 Q1015,SBPS,2021-10-04T01:00:00Z,-16.43,-39.07,25.0,22.0,40,9,,6.21,29.970472,,,,,,,,,,,BKN,1500,,,,,,,MVFR,,,,,,,,,,,,METAR,44.0
SBPJ 040100Z 00000KT CAVOK 28/23 Q1010,SBPJ,2021-10-04T01:00:00Z,-10.28,-48.37,28.0,23.0,0,0,,6.21,29.822834,,,,,,,,,,,CAVOK,,,,,,,,VFR,,,,,,,,,,,,METAR,226.0
SBPA 040100Z 17010KT 140V200 9999 BKN020 OVC035 17/14 Q1013,SBPA,2021-10-04T01:00:00Z,-30.0,-51.17,17.0,14.0,170,10,,6.21,29.911417,,,,,,,,,,,BKN,2000,OVC,3500,,,,,MVFR,,,,,,,,,,,,METAR,3.0
SBNT 040100Z 14005KT 9999 FEW025 25/22 Q1013,SBNT,2021-10-04T01:00:00Z,-5.92,-35.25,25.0,22.0,140,5,,6.21,29.911417,,,,,,,,,,,FEW,2500,,,,,,,VFR,,,,,,,,,,,,METAR,51.0
SBNF 040100Z 15003KT 9999 FEW023 21/20 Q1009,SBNF,2021-10-04T01:00:00Z,-26.88,-48.65,21.0,20.0,150,3,,6.21,29.793306,,,,,,,,,,,FEW,2300,,,,,,,VFR,,,,,,,,,,,,METAR,5.0
SBMQ 040100Z 04008KT 9999 FEW020 30/25 Q1010,SBMQ,2021-10-04T01:00:00Z,0.05,-51.07,30.0,25.0,40,8,,6.21,29.822834,,,,,,,,,,,FEW,2000,,,,,,,VFR,,,,,,,,,,,,METAR,15.0
SBMO 040100Z 07003KT 9999 FEW020 23/22 Q1015,SBMO,2021-10-04T01:00:00Z,-9.52,-35.78,23.0,22.0,70,3,,6.21,29.970472,,,,,,,,,,,FEW,2000,,,,,,,VFR,,,,,,,,,,,,METAR,116.0
SBMN 040100Z 05004KT CAVOK 27/23 Q1008,SBMN,2021-10-04T01:00:00Z,-3.13,-59.98,27.0,23.0,50,4,,6.21,29.763779,,,,,,,,,,,CAVOK,,,,,,,,VFR,,,,,,,,,,,,METAR,71.0
SBLO 040100Z 07007KT 9999 SCT003 BKN080 18/18 Q1012,SBLO,2021-10-04T01:00:00Z,-23.33,-51.12,18.0,18.0,70,7,,6.21,29.88189,,,,,,,,,,,SCT,300,BKN,8000,,,,,VFR,,,,,,,,,,,,METAR,563.0
SBKP 040100Z 32006KT 6000 -RA SCT030 BKN070 OVC100 19/17 Q1017,SBKP,2021-10-04T01:00:00Z,-23.0,-47.13,19.0,17.0,320,6,,3.73,30.029528,,,,,,,,,,-RA,SCT,3000,BKN,7000,OVC,10000,,,MVFR,,,,,,,,,,,,METAR,659.0
SBJP 040100Z 12006KT 9999 FEW020 24/23 Q1015,SBJP,2021-10-04T01:00:00Z,-7.15,-34.95,24.0,23.0,120,6,,6.21,29.970472,,,,,,,,,,,FEW,2000,,,,,,,VFR,,,,,,,,,,,,METAR,66.0
SBGR 040100Z 08008KT CAVOK 18/16 Q1015,SBGR,2021-10-04T01:00:00Z,-23.42,-46.47,18.0,16.0,80,8,,6.21,29.970472,,,,,,,,,,,CAVOK,,,,,,,,VFR,,,,,,,,,,,,METAR,745.0
SBGO 040100Z 34003KT CAVOK 28/17 Q1015,SBGO,2021-10-04T01:00:00Z,-16.62,-49.22,28.0,17.0,340,3,,6.21,29.970472,,,,,,,,,,,CAVOK,,,,,,,,VFR,,,,,,,,,,,,METAR,740.0
SBGL 040100Z 29010KT 9999 BKN014 BKN020 OVC050 23/20 Q1014,SBGL,2021-10-04T01:00:00Z,-22.82,-43.25,23.0,20.0,290,10,,6.21,29.940945,,,,,,,,,,,BKN,1400,BKN,2000,OVC,5000,,,MVFR,,,,,,,,,,,,METAR,3.0
SBFZ 040100Z 10017KT 9999 FEW020 28/21 Q1012,SBFZ,2021-10-04T01:00:00Z,-3.77,-38.52,28.0,21.0,100,17,,6.21,29.88189,,,,,,,,,,,FEW,2000,,,,,,,VFR,,,,,,,,,,,,METAR,32.0
SBFN 040100Z AUTO 14011KT 100V160 9999 SCT016 SCT030 26/23 Q1014,SBFN,2021-10-04T01:00:00Z,-3.85,-32.42,26.0,23.0,140,11,,6.21,29.940945,,,TRUE,,,,,,,,SCT,1600,SCT,3000,,,,,VFR,,,,,,,,,,,,METAR,52.0
SBFL 040100Z 12007KT 9999 FEW020 22/15 Q1009,SBFL,2021-10-04T01:00:00Z,-27.67,-48.53,22.0,15.0,120,7,,6.21,29.793306,,,,,,,,,,,FEW,2000,,,,,,,VFR,,,,,,,,,,,,METAR,5.0
SBFI 040100Z 11002KT 9000 SCT010 BKN080 19/19 Q1010 RETS,SBFI,2021-10-04T01:00:00Z,-25.6,-54.48,19.0,19.0,110,2,,5.59,29.822834,,,,,,,,,,,SCT,1000,BKN,8000,,,,,VFR,,,,,,,,,,,,METAR,233.0
SBEG 040100Z 34003KT CAVOK 26/23 Q1009,SBEG,2021-10-04T01:00:00Z,-3.03,-60.03,26.0,23.0,340,3,,6.21,29.793306,,,,,,,,,,,CAVOK,,,,,,,,VFR,,,,,,,,,,,,METAR,69.0
SBCY 040100Z 35004KT 9999 FEW020 FEW025TCU SCT100 31/19 Q1008,SBCY,2021-10-04T01:00:00Z,-15.65,-56.12,31.0,19.0,350,4,,6.21,29.763779,,,,,,,,,,,FEW,2000,FEW,2500,SCT,10000,,,VFR,,,,,,,,,,,,METAR,182.0
SBCT 040100Z 27003KT 9999 SCT040 BKN100 16/15 Q1013,SBCT,2021-10-04T01:00:00Z,-25.52,-49.17,16.0,15.0,270,3,,6.21,29.911417,,,,,,,,,,,SCT,4000,BKN,10000,,,,,VFR,,,,,,,,,,,,METAR,914.0
SBCG 040100Z 14012KT 9999 VCTS SCT035 FEW050CB BKN080 24/19 Q1011,SBCG,2021-10-04T01:00:00Z,-20.47,-54.67,24.0,19.0,140,12,,6.21,29.852362,,,,,,,,,,VCTS,SCT,3500,FEW,5000,BKN,8000,,,VFR,,,,,,,,,,,,METAR,556.0
SBCF 040100Z 14003KT CAVOK 25/17 Q1015,SBCF,2021-10-04T01:00:00Z,-19.63,-43.97,25.0,17.0,140,3,,6.21,29.970472,,,,,,,,,,,CAVOK,,,,,,,,VFR,,,,,,,,,,,,METAR,825.0
SBBV 040100Z 14005KT 9999 FEW035 FEW040TCU SCT080 30/22 Q1008,SBBV,2021-10-04T01:00:00Z,2.85,-60.7,30.0,22.0,140,5,,6.21,29.763779,,,,,,,,,,,FEW,3500,FEW,4000,SCT,8000,,,VFR,,,,,,,,,,,,METAR,80.0
SBBR 040100Z 28003KT 9999 FEW030TCU 24/17 Q1017,SBBR,2021-10-04T01:00:00Z,-15.87,-47.92,24.0,17.0,280,3,,6.21,30.029528,,,,,,,,,,,FEW,3000,,,,,,,VFR,,,,,,,,,,,,METAR,1051.0
SBBG 040100Z AUTO 20007KT CAVOK 11/08 Q1014,SBBG,2021-10-04T01:00:00Z,-31.38,-54.12,11.0,8.0,200,7,,6.21,29.940945,,,TRUE,,,,,,,,CAVOK,,,,,,,,VFR,,,,,,,,,,,,METAR,182.0
SBBE 040100Z 06007KT CAVOK 26/23 Q1011,SBBE,2021-10-04T01:00:00Z,-1.37,-48.47,26.0,23.0,60,7,,6.21,29.852362,,,,,,,,,,,CAVOK,,,,,,,,VFR,,,,,,,,,,,,METAR,16.0
SBAR 040100Z 07008KT 9999 FEW019 26/22 Q1014,SBAR,2021-10-04T01:00:00Z,-10.98,-37.07,26.0,22.0,70,8,,6.21,29.940945,,,,,,,,,,,FEW,1900,,,,,,,VFR,,,,,,,,,,,,METAR,4.0
SAZN 040100Z 29007KT CAVOK 15/00 Q1016,SAZN,2021-10-04T01:00:00Z,-38.95,-68.15,15.0,0.0,290,7,,6.21,30.0,,,,,,,,,,,CAVOK,,,,,,,,VFR,,,,,,,,,,,,METAR,273.0
SAZM 040100Z 25004KT CAVOK 07/03 Q1014,SAZM,2021-10-04T01:00:00Z,-37.92,-57.57,7.0,3.0,250,4,,6.21,29.940945,,,,,,,,,,,CAVOK,,,,,,,,VFR,,,,,,,,,,,,METAR,17.0
SAWH 040100Z 27015KT 9999 OVC030 04/M02 Q0991,SAWH,2021-10-04T01:00:00Z,-54.85,-68.3,4.0,-2.0,270,15,,6.21,29.26181,,,,,,,,,,,OVC,3000,,,,,,,MVFR,,,,,,,,,,,,METAR,22.0
SAWG 040100Z 25027G38KT CAVOK 07/M04 Q1002,SAWG,2021-10-04T01:00:00Z,-51.62,-69.27,7.0,-4.0,250,27,38,6.21,29.586615,,,,,,,,,,,CAVOK,,,,,,,,VFR,,,,,,,,,,,,METAR,15.0
SAWE 040100Z 27018G28KT CAVOK 03/00 Q0994,SAWE,2021-10-04T01:00:00Z,-53.78,-67.75,3.0,0.0,270,18,28,6.21,29.350393,,,,,,,,,,,CAVOK,,,,,,,,VFR,,,,,,,,,,,,METAR,22.0
SAVC 040100Z 28019KT CAVOK 12/M00 Q1010,SAVC,2021-10-04T01:00:00Z,-45.78,-67.47,12.0,0.0,280,19,,6.21,29.822834,,,,,,,,,,,CAVOK,,,,,,,,VFR,,,,,,,,,,,,METAR,58.0
SASJ 040100Z 22004KT 170V270 9999 OVC043 13/05 Q1020,SASJ,2021-10-04T01:00:00Z,-24.38,-65.1,13.0,5.0,220,4,,6.21,30.11811,,,,,,,,,,,OVC,4300,,,,,,,VFR,,,,,,,,,,,,METAR,913.0
SASA 040100Z 32002KT 9999 OVC025 11/04 Q1020,SASA,2021-10-04T01:00:00Z,-24.85,-65.48,11.0,4.0,320,2,,6.21,30.11811,,,,,,,,,,,OVC,2500,,,,,,,MVFR,,,,,,,,,,,,METAR,1235.0
SARL 040100Z 20010KT CAVOK 14/07 Q1016,SARL,2021-10-04T01:00:00Z,-29.68,-57.15,14.0,7.0,200,10,,6.21,30.0,,,,,,,,,,,CAVOK,,,,,,,,VFR,,,,,,,,,,,,METAR,70.0
SARI 040100Z 18002KT 8000 SCT010 BKN080 19/19 Q1011,SARI,2021-10-04T01:00:00Z,-25.73,-54.47,19.0,19.0,180,2,,4.97,29.852362,,,,,,,,,,,SCT,1000,BKN,8000,,,,,MVFR,,,,,,,,,,,,METAR,268.0
SARF 040100Z 18013KT CAVOK 18/10 Q1013,SARF,2021-10-04T01:00:00Z,-26.22,-58.22,18.0,10.0,180,13,,6.21,29.911417,,,,,,,,,,,CAVOK,,,,,,,,VFR,,,,,,,,,,,,METAR,65.0
SARE 040100Z 18010KT CAVOK 16/05 Q1015,SARE,2021-10-04T01:00:00Z,-27.43,-59.05,16.0,5.0,180,10,,6.21,29.970472,,,,,,,,,,,CAVOK,,,,,,,,VFR,,,,,,,,,,,,METAR,52.0
SARC 040100Z 18017KT CAVOK 16/06 Q1015,SARC,2021-10-04T01:00:00Z,-27.43,-58.77,16.0,6.0,180,17,,6.21,29.970472,,,,,,,,,,,CAVOK,,,,,,,,VFR,,,,,,,,,,,,METAR,60.0
SANT 040100Z 05002KT 8000 SCT090 14/06 Q1019,SANT,2021-10-04T01:00:00Z,-26.85,-65.1,14.0,6.0,50,2,,4.97,30.088583,,,,,,,,,,,SCT,9000,,,,,,,MVFR,,,,,,,,,,,,METAR,446.0
SAME 040100Z 25003KT CAVOK 13/02 Q1019,SAME,2021-10-04T01:00:00Z,-32.82,-68.78,13.0,2.0,250,3,,6.21,30.088583,,,,,,,,,,,CAVOK,,,,,,,,VFR,,,,,,,,,,,,METAR,709.0
SAEZ 040100Z 30003KT CAVOK 06/03 Q1017 NOSIG,SAEZ,2021-10-04T01:00:00Z,-34.82,-58.53,6.0,3.0,300,3,,6.21,30.029528,,,,,,TRUE,,,,,CAVOK,,,,,,,,VFR,,,,,,,,,,,,METAR,16.0
SADF 040100Z 24002KT CAVOK 09/04 Q1017,SADF,2021-10-04T01:00:00Z,-34.45,-58.58,9.0,4.0,240,2,,6.21,30.029528,,,,,,,,,,,CAVOK,,,,,,,,VFR,,,,,,,,,,,,METAR,4.0
SACO 040100Z 34008KT CAVOK 09/M04 Q1019 NOSIG,SACO,2021-10-04T01:00:00Z,-31.32,-64.22,9.0,-4.0,340,8,,6.21,30.088583,,,,,,TRUE,,,,,CAVOK,,,,,,,,VFR,,,,,,,,,,,,METAR,474.0
SABE 040100Z VRB02KT CAVOK 14/M00 Q1017 NOSIG,SABE,2021-10-04T01:00:00Z,-34.57,-58.42,14.0,0.0,0,2,,6.21,30.029528,,,,,,TRUE,,,,,CAVOK,,,,,,,,VFR,,,,,,,,,,,,METAR,3.0
SAAR 040100Z 28003KT CAVOK 10/02 Q1018,SAAR,2021-10-04T01:00:00Z,-32.92,-60.77,10.0,2.0,280,3,,6.21,30.059055,,,,,,,,,,,CAVOK,,,,,,,,VFR,,,,,,,,,,,,METAR,24.0
ROYN 040100Z AUTO 11011KT 9999 NCD 30/24 Q1015,ROYN,2021-10-04T01:00:00Z,24.47,122.97,30.0,24.0,110,11,,6.21,29.970472,,,TRUE,,,,,,,,CLR,,,,,,,,VFR,,,,,,,,,,,,METAR,21.0
RORY 040100Z AUTO 08012KT 040V100 9999 FEW031 SCT034 30/22 Q1018,RORY,2021-10-04T01:00:00Z,27.05,128.4,30.0,22.0,80,12,,6.21,30.059055,,,TRUE,,,,,,,,FEW,3100,SCT,3400,,,,,VFR,,,,,,,,,,,,METAR,13.0
RORS 040100Z 08018KT 9999 VCSH FEW022 BKN031 29/24 Q1016,RORS,2021-10-04T01:00:00Z,24.82,125.15,29.0,24.0,80,18,,6.21,30.0,,,,,,,,,,VCSH,FEW,2200,BKN,3100,,,,,VFR,,,,,,,,,,,,METAR,13.0
RORK 040100Z AUTO 08018KT 9999 NCD 29/21 Q1017,RORK,2021-10-04T01:00:00Z,25.93,131.32,29.0,21.0,80,18,,6.21,30.029528,,,TRUE,,,,,,,,CLR,,,,,,,,VFR,,,,,,,,,,,,METAR,11.0
ROMY 040100Z 08017G28KT 9999 FEW021 SCT029 29/24 Q1016,ROMY,2021-10-04T01:00:00Z,24.78,125.27,29.0,24.0,80,17,28,6.21,30.0,,,,,,,,,,,FEW,2100,SCT,2900,,,,,VFR,,,,,,,,,,,,METAR,38.0
ROMD 040100Z AUTO 07009KT 010V150 9999 SCT032 29/22 Q1018,ROMD,2021-10-04T01:00:00Z,25.83,131.25,29.0,22.0,70,9,,6.21,30.059055,,,TRUE,,,,,,,,SCT,3200,,,,,,,VFR,,,,,,,,,,,,METAR,45.0
ROIG 040100Z 08014KT 9999 FEW021 30/26 Q1015,ROIG,2021-10-04T01:00:00Z,24.33,124.18,30.0,26.0,80,14,,6.21,29.970472,,,,,,,,,,,FEW,2100,,,,,,,VFR,,,,,,,,,,,,METAR,26.0
ROAH 040100Z 08017G27KT 9999 BKN033 30/22 Q1017 RMK 5CU033 A3005,ROAH,2021-10-04T01:00:00Z,26.18,127.65,30.0,22.0,80,17,27,6.21,30.029528,,,,,,,,,,,BKN,3300,,,,,,,VFR,,,,,,,,,,,,METAR,6.0
RKTU 040100Z 05003KT 9999 SCT040 BKN210 21/19 Q1021,RKTU,2021-10-04T01:00:00Z,36.7,127.5,21.0,19.0,50,3,,6.21,30.147638,,,,,,,,,,,SCT,4000,BKN,21000,,,,,VFR,,,,,,,,,,,,METAR,46.0
RKTN 040100Z 13001KT 9999 FEW040 SCT250 26/19 Q1022,RKTN,2021-10-04T01:00:00Z,35.88,128.65,26.0,19.0,130,1,,6.21,30.177166,,,,,,,,,,,FEW,4000,SCT,25000,,,,,VFR,,,,,,,,,,,,METAR,25.0
RKSS 040100Z 17009KT 9999 BKN030 BKN130 24/19 Q1020 BECMG -RA,RKSS,2021-10-04T01:00:00Z,37.55,126.78,24.0,19.0,170,9,,6.21,30.11811,,,,,,,,,,,BKN,3000,BKN,13000,,,,,MVFR,,,,,,,,,,,,METAR,18.0
RKSI 040100Z 17016KT 9999 BKN020 BKN120 24/19 Q1019 NOSIG,RKSI,2021-10-04T01:00:00Z,37.47,126.45,24.0,19.0,170,16,,6.21,30.088583,,,,,,TRUE,,,,,BKN,2000,BKN,12000,,,,,MVFR,,,,,,,,,,,,METAR,7.0
RKPK 040100Z 20009KT 9999 FEW020 SCT030 SCT200 29/20 Q1023,RKPK,2021-10-04T01:00:00Z,35.17,128.93,29.0,20.0,200,9,,6.21,30.206694,,,,,,,,,,,FEW,2000,SCT,3000,SCT,20000,,,VFR,,,,,,,,,,,,METAR,3.0
RKPC 040100Z 03003KT 330V080 CAVOK 27/21 Q1022 NOSIG,RKPC,2021-10-04T01:00:00Z,33.5,126.48,27.0,21.0,30,3,,6.21,30.177166,,,,,,TRUE,,,,,CAVOK,,,,,,,,VFR,,,,,,,,,,,,METAR,23.0
RKNY 040100Z 25007KT 9999 FEW050 BKN200 25/15 Q1018 NOSIG,RKNY,2021-10-04T01:00:00Z,38.07,128.67,25.0,15.0,250,7,,6.21,30.059055,,,,,,TRUE,,,,,FEW,5000,BKN,20000,,,,,VFR,,,,,,,,,,,,METAR,76.0
RKJB 040100Z 19013KT 9999 SCT030 BKN200 28/22 Q1021 NOSIG,RKJB,2021-10-04T01:00:00Z,34.98,126.38,28.0,22.0,190,13,,6.21,30.147638,,,,,,TRUE,,,,,SCT,3000,BKN,20000,,,,,VFR,,,,,,,,,,,,METAR,16.0
RJTT 040100Z 12008KT 9999 FEW020 24/22 Q1026 BECMG 18012KT RMK 1CU020 A3031,RJTT,2021-10-04T01:00:00Z,35.55,139.77,24.0,22.0,120,8,,6.21,30.295275,,,,,,,,,,,FEW,2000,,,,,,,VFR,,,,,,,,,,,,SPECI,5.0
RJTO 040100Z 21010KT 9999 FEW025 27/21 Q1026,RJTO,2021-10-04T01:00:00Z,34.77,139.37,27.0,21.0,210,10,,6.21,30.295275,,,,,,,,,,,FEW,2500,,,,,,,VFR,,,,,,,,,,,,METAR,37.0
RJTI 040100Z 13007KT 9999 FEW035 24/20 Q1026,RJTI,2021-10-04T01:00:00Z,35.63,139.83,24.0,20.0,130,7,,6.21,30.295275,,,,,,,,,,,FEW,3500,,,,,,,VFR,,,,,,,,,,,,METAR,4.0
RJTF 040100Z 20004KT 110V280 9999 FEW030 26/19 Q1026,RJTF,2021-10-04T01:00:00Z,35.67,139.52,26.0,19.0,200,4,,6.21,30.295275,,,,,,,,,,,FEW,3000,,,,,,,VFR,,,,,,,,,,,,METAR,37.0
RJSY 040100Z VRB02KT CAVOK 25/16 Q1024,RJSY,2021-10-04T01:00:00Z,38.82,139.78,25.0,16.0,0,2,,6.21,30.236221,,,,,,,,,,,CAVOK,,,,,,,,VFR,,,,,,,,,,,,METAR,17.0
RJSS 040100Z 22008KT CAVOK 25/15 Q1024,RJSS,2021-10-04T01:00:00Z,38.13,140.92,25.0,15.0,220,8,,6.21,30.236221,,,,,,,,,,,CAVOK,,,,,,,,VFR,,,,,,,,,,,,METAR,5.0
RJSR 040100Z 23010KT 180V260 9999 FEW030 SCT/// 25/19 Q1023,RJSR,2021-10-04T01:00:00Z,40.18,140.37,25.0,19.0,230,10,,6.21,30.206694,,,,,,,,,,,FEW,3000,,,,,,,VFR,,,,,,,,,,,,METAR,83.0
RJSN 040100Z 20007KT CAVOK 26/16 Q1025,RJSN,2021-10-04T01:00:00Z,37.95,139.12,26.0,16.0,200,7,,6.21,30.265747,,,,,,,,,,,CAVOK,,,,,,,,VFR,,,,,,,,,,,,METAR,4.0
RJSM 040100Z 24015G25KT 9999 FEW040 26/15 Q1020,RJSM,2021-10-04T01:00:00Z,40.7,141.37,26.0,15.0,240,15,25,6.21,30.11811,,,,,,,,,,,FEW,4000,,,,,,,VFR,,,,,,,,,,,,METAR,31.0
RJSK 040100Z VRB02KT 9999 FEW035 23/16 Q1024,RJSK,2021-10-04T01:00:00Z,39.62,140.22,23.0,16.0,0,2,,6.21,30.236221,,,,,,,,,,,FEW,3500,,,,,,,VFR,,,,,,,,,,,,METAR,95.0
RJSI 040100Z VRB02KT 9999 FEW030 SCT/// 20/16 Q1024,RJSI,2021-10-04T01:00:00Z,39.42,141.13,20.0,16.0,0,2,,6.21,30.236221,,,,,,,,,,,FEW,3000,,,,,,,VFR,,,,,,,,,,,,SPECI,89.0
RJSF 040100Z 19008KT 9999 FEW030 23/18 Q1026,RJSF,2021-10-04T01:00:00Z,37.22,140.42,23.0,18.0,190,8,,6.21,30.295275,,,,,,,,,,,FEW,3000,,,,,,,VFR,,,,,,,,,,,,METAR,373.0
RJSC 040100Z 33003KT 260V060 CAVOK 20/15 Q1025,RJSC,2021-10-04T01:00:00Z,38.42,140.37,20.0,15.0,330,3,,6.21,30.265747,,,,,,,,,,,CAVOK,,,,,,,,VFR,,,,,,,,,,,,METAR,104.0
RJSA 040100Z 21021KT 9999 FEW030 BKN/// 25/15 Q1021,RJSA,2021-10-04T01:00:00Z,40.72,140.68,25.0,15.0,210,21,,6.21,30.147638,,,,,,,,,,,FEW,3000,,,,,,,VFR,,,,,,,,,,,,SPECI,196.0
RJOY 040100Z VRB01KT 9999 FEW030 27/16 Q1026,RJOY,2021-10-04T01:00:00Z,34.6,135.6,27.0,16.0,0,1,,6.21,30.295275,,,,,,,,,,,FEW,3000,,,,,,,VFR,,,,,,,,,,,,METAR,10.0
RJOW 040100Z 16013KT 9999 FEW030 27/17 Q1024,RJOW,2021-10-04T01:00:00Z,34.67,131.8,27.0,17.0,160,13,,6.21,30.236221,,,,,,,,,,,FEW,3000,,,,,,,VFR,,,,,,,,,,,,METAR,54.0
RJOT 040100Z 02003KT 280V090 9999 FEW020 25/15 Q1026,RJOT,2021-10-04T01:00:00Z,34.22,134.02,25.0,15.0,20,3,,6.21,30.295275,,,,,,,,,,,FEW,2000,,,,,,,VFR,,,,,,,,,,,,METAR,181.0
RJOS 040100Z 16003KT 120V230 9999 SCT030 25/17 Q1025,RJOS,2021-10-04T01:00:00Z,34.12,134.62,25.0,17.0,160,3,,6.21,30.265747,,,,,,,,,,,SCT,3000,,,,,,,VFR,,,,,,,,,,,,METAR,3.0
RJOR 040100Z 17012KT 9999 FEW040 28/16 Q1024,RJOR,2021-10-04T01:00:00Z,35.52,134.17,28.0,16.0,170,12,,6.21,30.236221,,,,,,,,,,,FEW,4000,,,,,,,VFR,,,,,,,,,,,,METAR,11.0
RJOO 040100Z VRB02KT 9999 FEW025 27/19 Q1025 RMK 1CU025 A3029,RJOO,2021-10-04T01:00:00Z,34.78,135.43,27.0,19.0,0,2,,6.21,30.265747,,,,,,,,,,,FEW,2500,,,,,,,VFR,,,,,,,,,,,,SPECI,11.0
RJOM 040100Z 36009KT 9999 FEW020 25/20 Q1025,RJOM,2021-10-04T01:00:00Z,33.82,132.68,25.0,20.0,360,9,,6.21,30.265747,,,,,,,,,,,FEW,2000,,,,,,,VFR,,,,,,,,,,,,METAR,3.0
RJOK 040100Z VRB03KT 9999 FEW030 28/17 Q1025,RJOK,2021-10-04T01:00:00Z,33.53,133.67,28.0,17.0,0,3,,6.21,30.265747,,,,,,,,,,,FEW,3000,,,,,,,VFR,,,,,,,,,,,,METAR,7.0
RJOH 040100Z 22006KT 9999 FEW250 27/16 Q1023,RJOH,2021-10-04T01:00:00Z,35.48,133.25,27.0,16.0,220,6,,6.21,30.206694,,,,,,,,,,,FEW,25000,,,,,,,VFR,,,,,,,,,,,,METAR,6.0
RJOC 040100Z 29004KT CAVOK 26/16 Q1024,RJOC,2021-10-04T01:00:00Z,35.42,132.88,26.0,16.0,290,4,,6.21,30.236221,,,,,,,,,,,CAVOK,,,,,,,,VFR,,,,,,,,,,,,METAR,2.0
RJOB 040100Z VRB03KT 9999 FEW020 25/17 Q1026,RJOB,2021-10-04T01:00:00Z,34.75,133.85,25.0,17.0,0,3,,6.21,30.295275,,,,,,,,,,,FEW,2000,,,,,,,VFR,,,,,,,,,,,,METAR,242.0
RJOA 040100Z 32006KT 9999 FEW025 23/15 Q1027,RJOA,2021-10-04T01:00:00Z,34.43,132.92,23.0,15.0,320,6,,6.21,30.324802,,,,,,,,,,,FEW,2500,,,,,,,VFR,,,,,,,,,,,,METAR,318.0
RJNW 040100Z 25011KT 220V290 9999 FEW020 25/19 Q1025,RJNW,2021-10-04T01:00:00Z,37.3,136.97,25.0,19.0,250,11,,6.21,30.265747,,,,,,,,,,,FEW,2000,,,,,,,VFR,,,,,,,,,,,,METAR,222.0
RJNT 040100Z 18011KT 150V210 9999 FEW050 28/15 Q1024,RJNT,2021-10-04T01:00:00Z,36.63,137.18,28.0,15.0,180,11,,6.21,30.236221,,,,,,,,,,,FEW,5000,,,,,,,VFR,,,,,,,,,,,,METAR,30.0
RJNS 040100Z 18004KT 110V220 9999 SCT025 26/19 Q1027,RJNS,2021-10-04T01:00:00Z,34.8,138.18,26.0,19.0,180,4,,6.21,30.324802,,,,,,,,,,,SCT,2500,,,,,,,VFR,,,,,,,,,,,,METAR,133.0
RJNK 040100Z VRB02KT 9999 FEW040 27/17 Q1024,RJNK,2021-10-04T01:00:00Z,36.38,136.42,27.0,17.0,0,2,,6.21,30.236221,,,,,,,,,,,FEW,4000,,,,,,,VFR,,,,,,,,,,,,METAR,7.0
RJKI 040100Z AUTO 10013G23KT 9999 FEW030 30/22 Q1020,RJKI,2021-10-04T01:00:00Z,28.32,129.92,30.0,22.0,100,13,23,6.21,30.11811,,,TRUE,,,,,,,,FEW,3000,,,,,,,VFR,,,,,,,,,,,,METAR,6.0
RJKA 040100Z 08016KT 9999 FEW025 SCT030 30/24 Q1020,RJKA,2021-10-04T01:00:00Z,28.42,129.72,30.0,24.0,80,16,,6.21,30.11811,,,,,,,,,,,FEW,2500,SCT,3000,,,,,VFR,,,,,,,,,,,,METAR,7.0
RJGG 040100Z 12007KT 9999 FEW025 26/21 Q1026 NOSIG,RJGG,2021-10-04T01:00:00Z,34.87,136.8,26.0,21.0,120,7,,6.21,30.295275,,,,,,TRUE,,,,,FEW,2500,,,,,,,VFR,,,,,,,,,,,,METAR,5.0
RJFU 040100Z VRB02KT CAVOK 25/18 Q1024,RJFU,2021-10-04T01:00:00Z,32.92,129.92,25.0,18.0,0,2,,6.21,30.236221,,,,,,,,,,,CAVOK,,,,,,,,VFR,,,,,,,,,,,,METAR,2.0
RJFT 040100Z 23004KT 180V270 CAVOK 24/15 Q1025,RJFT,2021-10-04T01:00:00Z,32.83,130.85,24.0,15.0,230,4,,6.21,30.265747,,,,,,,,,,,CAVOK,,,,,,,,VFR,,,,,,,,,,,,METAR,188.0
RJFS 040100Z 02004KT 340V060 CAVOK 25/15 Q1024,RJFS,2021-10-04T01:00:00Z,33.15,130.3,25.0,15.0,20,4,,6.21,30.236221,,,,,,,,,,,CAVOK,,,,,,,,VFR,,,,,,,,,,,,METAR,2.0
RJFR 040100Z 11005KT 080V140 9999 FEW030 26/19 Q1025,RJFR,2021-10-04T01:00:00Z,33.83,131.03,26.0,19.0,110,5,,6.21,30.265747,,,,,,,,,,,FEW,3000,,,,,,,VFR,,,,,,,,,,,,METAR,9.0
RJFO 040100Z 13009KT 9999 FEW015 SCT045 26/21 Q1025,RJFO,2021-10-04T01:00:00Z,33.47,131.73,26.0,21.0,130,9,,6.21,30.265747,,,,,,,,,,,FEW,1500,SCT,4500,,,,,VFR,,,,,,,,,,,,METAR,3.0
RJFM 040100Z 02010KT 9999 FEW040 27/20 Q1025,RJFM,2021-10-04T01:00:00Z,31.87,131.43,27.0,20.0,20,10,,6.21,30.265747,,,,,,,,,,,FEW,4000,,,,,,,VFR,,,,,,,,,,,,METAR,10.0
RJFK 040100Z 10008KT 050V140 9999 FEW035 25/17 Q1025 RMK 1CU035 A3027,RJFK,2021-10-04T01:00:00Z,31.8,130.72,25.0,17.0,100,8,,6.21,30.265747,,,,,,,,,,,FEW,3500,,,,,,,VFR,,,,,,,,,,,,SPECI,271.0
RJFG 040100Z 09009KT 040V130 9999 FEW023 BKN050 25/20 Q1024,RJFG,2021-10-04T01:00:00Z,30.62,130.98,25.0,20.0,90,9,,6.21,30.236221,,,,,,,,,,,FEW,2300,BKN,5000,,,,,VFR,,,,,,,,,,,,METAR,234.0
RJFF 040100Z 17006KT CAVOK 27/11 Q1024 NOSIG RMK A3025,RJFF,2021-10-04T01:00:00Z,33.58,130.45,27.0,11.0,170,6,,6.21,30.236221,,,,,,TRUE,,,,,CAVOK,,,,,,,,VFR,,,,,,,,,,,,METAR,7.0
RJFE 040100Z 15009KT 090V180 9999 FEW020 SCT030 BKN/// 26/22 Q1024,RJFE,2021-10-04T01:00:00Z,32.67,128.82,26.0,22.0,150,9,,6.21,30.236221,,,,,,,,,,,FEW,2000,SCT,3000,,,,,VFR,,,,,,,,,,,,SPECI,80.0
RJEC 040100Z 18012KT 150V210 9999 FEW020 SCT030 BKN050 20/16 Q1013,RJEC,2021-10-04T01:00:00Z,43.67,142.43,20.0,16.0,180,12,,6.21,29.911417,,,,,,,,,,,FEW,2000,SCT,3000,BKN,5000,,,VFR,,,,,,,,,,,,METAR,209.0
RJEB 040100Z 09005KT 060V120 8000 R32/0900VP2000D SHRA FEW004 BKN009 BKN015 17/17 Q1012,RJEB,2021-10-04T01:00:00Z,44.3,143.4,17.0,17.0,90,5,,4.97,29.88189,,,,,,,,,,SHRA,FEW,400,BKN,900,BKN,1500,,,IFR,,,,,,,,,,,,SPECI,24.0
RJDT 040100Z VRB07G17KT 9999 FEW020 BKN/// 26/21 Q1023,RJDT,2021-10-04T01:00:00Z,34.28,129.32,26.0,21.0,0,7,17,6.21,30.206694,,,,,,,,,,,FEW,2000,,,,,,,VFR,,,,,,,,,,,,SPECI,61.0
RJDC 040100Z 11013KT 9999 FEW020 26/22 Q1025,RJDC,2021-10-04T01:00:00Z,33.92,131.27,26.0,22.0,110,13,,6.21,30.265747,,,,,,,,,,,FEW,2000,,,,,,,VFR,,,,,,,,,,,,METAR,5.0
RJDB 040100Z AUTO 19010KT 9999 NCD 26/19 Q1024,RJDB,2021-10-04T01:00:00Z,33.75,129.78,26.0,19.0,190,10,,6.21,30.236221,,,TRUE,,,,,,,,CLR,,,,,,,,VFR,,,,,,,,,,,,METAR,13.0
RJCW 040100Z 35008KT 9999 -SHRA FEW015 SCT020 BKN080 15/14 Q1012,RJCW,2021-10-04T01:00:00Z,45.4,141.8,15.0,14.0,350,8,,6.21,29.88189,,,,,,,,,,-SHRA,FEW,1500,SCT,2000,BKN,8000,,,VFR,,,,,,,,,,,,METAR,11.0
RJCO 040100Z 19005KT 9999 FEW030 SCT050 BKN200 25/17 Q1015,RJCO,2021-10-04T01:00:00Z,43.12,141.37,25.0,17.0,190,5,,6.21,29.970472,,,,,,,,,,,FEW,3000,SCT,5000,BKN,20000,,,VFR,,,,,,,,,,,,METAR,7.0
RJCN 040100Z 24013KT 9999 FEW030 BKN/// 20/15 Q1014,RJCN,2021-10-04T01:00:00Z,43.57,144.97,20.0,15.0,240,13,,6.21,29.940945,,,,,,,,,,,FEW,3000,,,,,,,VFR,,,,,,,,,,,,SPECI,62.0
RJCM 040100Z 36006KT 9999 -SHRA FEW005 SCT060 BKN100 18/16 Q1012,RJCM,2021-10-04T01:00:00Z,43.88,144.17,18.0,16.0,360,6,,6.21,29.88189,,,,,,,,,,-SHRA,FEW,500,SCT,6000,BKN,10000,,,VFR,,,,,,,,,,,,METAR,30.0
RJCK 040100Z 21014KT 9999 FEW030 BKN/// 20/15 Q1015,RJCK,2021-10-04T01:00:00Z,43.03,144.18,20.0,15.0,210,14,,6.21,29.970472,,,,,,,,,,,FEW,3000,,,,,,,VFR,,,,,,,,,,,,SPECI,94.0
RJCH 040100Z 24014KT 9999 FEW020 SCT040 BKN/// 24/19 Q1018,RJCH,2021-10-04T01:00:00Z,41.77,140.82,24.0,19.0,240,14,,6.21,30.059055,,,,,,,,,,,FEW,2000,SCT,4000,,,,,VFR,,,,,,,,,,,,SPECI,36.0
RJCC 040100Z 18017KT 9999 FEW030 BKN/// 24/18 Q1016 RMK 1CU030 A3001,RJCC,2021-10-04T01:00:00Z,42.77,141.68,24.0,18.0,180,17,,6.21,30.0,,,,,,,,,,,FEW,3000,,,,,,,VFR,,,,,,,,,,,,SPECI,19.0
RJCB 040100Z 20009KT 160V240 9999 FEW040 BKN/// 23/15 Q1014,RJCB,2021-10-04T01:00:00Z,42.72,143.22,23.0,15.0,200,9,,6.21,29.940945,,,,,,,,,,,FEW,4000,,,,,,,VFR,,,,,,,,,,,,SPECI,149.0
RJBT 040100Z 17007KT 130V230 9999 FEW035 27/19 Q1025,RJBT,2021-10-04T01:00:00Z,35.5,134.8,27.0,19.0,170,7,,6.21,30.265747,,,,,,,,,,,FEW,3500,,,,,,,VFR,,,,,,,,,,,,METAR,172.0
RJBE 040100Z 11006KT 9999 FEW025 25/20 Q1026,RJBE,2021-10-04T01:00:00Z,34.63,135.23,25.0,20.0,110,6,,6.21,30.295275,,,,,,,,,,,FEW,2500,,,,,,,VFR,,,,,,,,,,,,METAR,5.0
RJBD 040100Z 17006KT 120V220 9999 FEW025 SCT035 27/20 Q1026,RJBD,2021-10-04T01:00:00Z,33.67,135.37,27.0,20.0,170,6,,6.21,30.295275,,,,,,,,,,,FEW,2500,SCT,3500,,,,,VFR,,,,,,,,,,,,METAR,91.0
RJBB 040100Z 02005KT 9999 FEW020 24/17 Q1026 NOSIG,RJBB,2021-10-04T01:00:00Z,34.43,135.25,24.0,17.0,20,5,,6.21,30.295275,,,,,,TRUE,,,,,FEW,2000,,,,,,,VFR,,,,,,,,,,,,METAR,8.0
RJAW 040100Z 10015G25KT 9999 FEW015 BKN/// 29/23 Q1014 RMK 1CU015 A2996,RJAW,2021-10-04T01:00:00Z,24.78,141.32,29.0,23.0,100,15,25,6.21,29.940945,,,,,,,,,,,FEW,1500,,,,,,,VFR,,,,,,,,,,,,SPECI,116.0
RJAH 040100Z 21008KT 190V250 9999 FEW030 26/19 Q1026,RJAH,2021-10-04T01:00:00Z,36.17,140.42,26.0,19.0,210,8,,6.21,30.295275,,,,,,,,,,,FEW,3000,,,,,,,VFR,,,,,,,,,,,,METAR,31.0
RJAF 040100Z 13010KT 090V170 9999 FEW050 23/14 Q1028,RJAF,2021-10-04T01:00:00Z,36.17,137.92,23.0,14.0,130,10,,6.21,30.35433,,,,,,,,,,,FEW,5000,,,,,,,VFR,,,,,,,,,,,,METAR,652.0
RJAA 040100Z 22008KT 180V250 9999 FEW020 26/21 Q1026 NOSIG RMK 1CU020 A3031,RJAA,2021-10-04T01:00:00Z,35.77,140.38,26.0,21.0,220,8,,6.21,30.295275,,,,,,TRUE,,,,,FEW,2000,,,,,,,VFR,,,,,,,,,,,,SPECI,36.0
PLCH 040100Z 09010KT 9999 SCT020 29/22 Q1006,PLCH,2021-10-04T01:00:00Z,1.98,-157.35,29.0,22.0,90,10,,6.21,29.704725,,,,,,,,,,,SCT,2000,,,,,,,VFR,,,,,,,,,,,,METAR,5.0
PKWA 040100Z AUTO 10004KT 4SM -RA SCT024 BKN031 BKN041 30/25 A2970 RMK AO2 T03020250,PKWA,2021-10-04T01:00:00Z,8.72,167.72,30.2,25.0,100,4,,4.0,29.698818,,,TRUE,TRUE,,,,,,-RA,SCT,2400,BKN,3100,BKN,4100,,,MVFR,,,,,,,,,,,,METAR,6.0
ORSU 040100Z 33003KT CAVOK 17/02 Q1014,ORSU,2021-10-04T01:00:00Z,35.57,45.32,17.0,2.0,330,3,,6.21,29.940945,,,,,,,,,,,CAVOK,,,,,,,,VFR,,,,,,,,,,,,METAR,760.0
ORBI 040100Z 32008KT CAVOK 24/08 Q1008,ORBI,2021-10-04T01:00:00Z,33.27,44.23,24.0,8.0,320,8,,6.21,29.763779,,,,,,,,,,,CAVOK,,,,,,,,VFR,,,,,,,,,,,,METAR,37.0
OPST 040100Z 00000KT 4000 TSRA FEW030CB SCT040 BKN100 24/23 Q1005 TEMPO 05010G25KT 3000 TSRA FEW030CB RH91,OPST,2021-10-04T01:00:00Z,32.53,74.37,24.0,23.0,0,0,,2.49,29.675198,,,,,,,,,,TSRA,FEW,3000,SCT,4000,BKN,10000,,,IFR,,,,,,,,,,,,METAR,234.0
OPSK 040100Z 00000KT 3000 HZ NSC 28/24 Q1001 NOSIG,OPSK,2021-10-04T01:00:00Z,27.72,68.8,28.0,24.0,0,0,,1.86,29.557087,,,,,,TRUE,,,,HZ,CLR,,,,,,,,IFR,,,,,,,,,,,,METAR,62.0
OPPS 040100Z 13006KT 4000 HZ SCT040 SCT100 24/19 Q1006,OPPS,2021-10-04T01:00:00Z,33.98,71.52,24.0,19.0,130,6,,2.49,29.704725,,,,,,,,,,HZ,SCT,4000,SCT,10000,,,,,IFR,,,,,,,,,,,,METAR,356.0
OPNH 040100Z 00000KT 4000 HZ NSC 27/21 Q1004 NOSIG,OPNH,2021-10-04T01:00:00Z,26.22,68.38,27.0,21.0,0,0,,2.49,29.64567,,,,,,TRUE,,,,HZ,CLR,,,,,,,,IFR,,,,,,,,,,,,METAR,30.0
OPMT 040100Z 13004KT 4000 FU NSC 29/25 Q1002 NOSIG,OPMT,2021-10-04T01:00:00Z,30.2,71.42,29.0,25.0,130,4,,2.49,29.586615,,,,,,TRUE,,,,FU,CLR,,,,,,,,IFR,,,,,,,,,,,,METAR,122.0
OPKC 040100Z 25010KT 5000 FU BKN020 27/24 Q1006 NOSIG,OPKC,2021-10-04T01:00:00Z,24.9,67.13,27.0,24.0,250,10,,3.11,29.704725,,,,,,TRUE,,,,FU,BKN,2000,,,,,,,MVFR,,,,,,,,,,,,METAR,20.0
OMSJ 040100Z 10006KT CAVOK 30/21 Q1007 NOSIG,OMSJ,2021-10-04T01:00:00Z,25.32,55.52,30.0,21.0,100,6,,6.21,29.734253,,,,,,TRUE,,,,,CAVOK,,,,,,,,VFR,,,,,,,,,,,,METAR,33.0
OMRK 040100Z 10011KT CAVOK 31/22 Q1007 A2975,OMRK,2021-10-04T01:00:00Z,25.62,55.93,31.0,22.0,100,11,,6.21,29.734253,,,,,,,,,,,CAVOK,,,,,,,,VFR,,,,,,,,,,,,METAR,18.0
OMDW 040100Z 05009KT CAVOK 29/22 Q1007 NOSIG,OMDW,2021-10-04T01:00:00Z,24.9,55.17,29.0,22.0,50,9,,6.21,29.734253,,,,,,TRUE,,,,,CAVOK,,,,,,,,VFR,,,,,,,,,,,,METAR,34.0
OMDB 040100Z 08008KT CAVOK 31/22 Q1006 NOSIG,OMDB,2021-10-04T01:00:00Z,25.25,55.37,31.0,22.0,80,8,,6.21,29.704725,,,,,,TRUE,,,,,CAVOK,,,,,,,,VFR,,,,,,,,,,,,METAR,5.0
OMAL 040100Z 05010KT CAVOK 29/20 Q1007 NOSIG,OMAL,2021-10-04T01:00:00Z,24.25,55.6,29.0,20.0,50,10,,6.21,29.734253,,,,,,TRUE,,,,,CAVOK,,,,,,,,VFR,,,,,,,,,,,,METAR,247.0
OMAD 040100Z 08008KT 050V110 CAVOK 30/22 Q1006 NOSIG,OMAD,2021-10-04T01:00:00Z,24.42,54.47,30.0,22.0,80,8,,6.21,29.704725,,,,,,TRUE,,,,,CAVOK,,,,,,,,VFR,,,,,,,,,,,,METAR,9.0
OMAA 040100Z 04006KT CAVOK 29/22 Q1006 NOSIG,OMAA,2021-10-04T01:00:00Z,24.42,54.65,29.0,22.0,40,6,,6.21,29.704725,,,,,,TRUE,,,,,CAVOK,,,,,,,,VFR,,,,,,,,,,,,METAR,13.0
OLBA 040100Z 12004KT 8000 FEW032 24/17 Q1015 NOSIG,OLBA,2021-10-04T01:00:00Z,33.82,35.48,24.0,17.0,120,4,,4.97,29.970472,,,,,,TRUE,,,,,FEW,3200,,,,,,,MVFR,,,,,,,,,,,,METAR,29.0
OKBK 040100Z 18004KT CAVOK 25/M00 Q1006 NOSIG,OKBK,2021-10-04T01:00:00Z,29.22,47.97,25.0,0.0,180,4,,6.21,29.704725,,,,,,TRUE,,,,,CAVOK,,,,,,,,VFR,,,,,,,,,,,,METAR,55.0
OJAQ 040100Z 35014KT CAVOK 24/16 Q1014 NOSIG,OJAQ,2021-10-04T01:00:00Z,29.62,35.02,24.0,16.0,350,14,,6.21,29.940945,,,,,,TRUE,,,,,CAVOK,,,,,,,,VFR,,,,,,,,,,,,METAR,45.0
OJAI 040100Z 32009KT 5000 HZ NSC 13/12 Q1017 NOSIG,OJAI,2021-10-04T01:00:00Z,31.72,36.0,13.0,12.0,320,9,,3.11,30.029528,,,,,,TRUE,,,,HZ,CLR,,,,,,,,MVFR,,,,,,,,,,,,METAR,723.0
OIZH 040100Z 20006KT CAVOK 11/M03 Q1017 A3006,OIZH,2021-10-04T01:00:00Z,29.47,60.92,11.0,-3.0,200,6,,6.21,30.029528,,,,,,,,,,,CAVOK,,,,,,,,VFR,,,,,,,,,,,,METAR,1378.0
OIYY 040100Z 28004KT CAVOK 19/02 Q1020,OIYY,2021-10-04T01:00:00Z,31.9,54.28,19.0,2.0,280,4,,6.21,30.11811,,,,,,,,,,,CAVOK,,,,,,,,VFR,,,,,,,,,,,,METAR,1226.0
OITT 040100Z 31004KT 9999 FEW035 14/03 Q1013 A2994,OITT,2021-10-04T01:00:00Z,38.13,46.23,14.0,3.0,310,4,,6.21,29.911417,,,,,,,,,,,FEW,3500,,,,,,,VFR,,,,,,,,,,,,METAR,1353.0
OITR 040100Z 27004KT CAVOK 14/04 Q1011,OITR,2021-10-04T01:00:00Z,37.67,45.07,14.0,4.0,270,4,,6.21,29.852362,,,,,,,,,,,CAVOK,,,,,,,,VFR,,,,,,,,,,,,METAR,1312.0
OITP 040100Z 32004KT 7000 -DZ BKN020 OVC070 14/14 Q1016,OITP,2021-10-04T01:00:00Z,39.6,47.88,14.0,14.0,320,4,,4.35,30.0,,,,,,,,,,-DZ,BKN,2000,OVC,7000,,,,,MVFR,,,,,,,,,,,,METAR,72.0
OISY 040100Z 00000KT CAVOK 15/01 Q1022,OISY,2021-10-04T01:00:00Z,30.7,51.55,15.0,1.0,0,0,,6.21,30.177166,,,,,,,,,,,CAVOK,,,,,,,,VFR,,,,,,,,,,,,METAR,1800.0
OISS 040100Z 00000KT CAVOK 16/05 Q1018 A3007,OISS,2021-10-04T01:00:00Z,29.53,52.58,16.0,5.0,0,0,,6.21,30.059055,,,,,,,,,,,CAVOK,,,,,,,,VFR,,,,,,,,,,,,METAR,1484.0
OISL 040100Z 00000KT CAVOK 24/14 Q1011 A2986,OISL,2021-10-04T01:00:00Z,27.67,54.37,24.0,14.0,0,0,,6.21,29.852362,,,,,,,,,,,CAVOK,,,,,,,,VFR,,,,,,,,,,,,METAR,804.0
OISF 040100Z 00000KT CAVOK 18/00 Q1014 A2996,OISF,2021-10-04T01:00:00Z,28.9,53.72,18.0,0.0,0,0,,6.21,29.940945,,,,,,,,,,,CAVOK,,,,,,,,VFR,,,,,,,,,,,,METAR,1305.0
OINZ 040100Z 22004KT CAVOK 15/14 Q1014,OINZ,2021-10-04T01:00:00Z,36.63,53.2,15.0,14.0,220,4,,6.21,29.940945,,,,,,,,,,,CAVOK,,,,,,,,VFR,,,,,,,,,,,,METAR,8.0
OINR 040100Z 34004KT 9999 FEW022CB SCT026 BKN080 19/17 Q1013,OINR,2021-10-04T01:00:00Z,36.9,50.67,19.0,17.0,340,4,,6.21,29.911417,,,,,,,,,,,FEW,2200,SCT,2600,BKN,8000,,,VFR,,,,,,,,,,,,METAR,-19.0
OINN 040100Z 18002KT 9999 BKN028 18/16 Q1013,OINN,2021-10-04T01:00:00Z,36.67,51.47,18.0,16.0,180,2,,6.21,29.911417,,,,,,,,,,,BKN,2800,,,,,,,MVFR,,,,,,,,,,,,METAR,-25.0
OING 040100Z 00000KT CAVOK 15/14 Q1014,OING,2021-10-04T01:00:00Z,36.9,54.4,15.0,14.0,0,0,,6.21,29.940945,,,,,,,,,,,CAVOK,,,,,,,,VFR,,,,,,,,,,,,METAR,0.0
OIMQ 040100Z AUTO 12002KT //// // ////// 12/02 Q1021,OIMQ,2021-10-04T01:00:00Z,35.27,58.47,12.0,2.0,120,2,,,30.147638,,,TRUE,,,,,,,,,,,,,,,,,,,,,,,,,,,,METAR,1101.0
OIMN 040100Z 34004KT CAVOK 09/M02 Q1021,OIMN,2021-10-04T01:00:00Z,37.48,57.3,9.0,-2.0,340,4,,6.21,30.147638,,,,,,,,,,,CAVOK,,,,,,,,VFR,,,,,,,,,,,,METAR,1065.0
OIMM 040100Z 17004KT CAVOK 08/M02 Q1023 A3022,OIMM,2021-10-04T01:00:00Z,36.23,59.63,8.0,-2.0,170,4,,6.21,30.206694,,,,,,,,,,,CAVOK,,,,,,,,VFR,,,,,,,,,,,,METAR,995.0
OIMD 040100Z AUTO 21002KT //// // ////// 13/00 Q1018,OIMD,2021-10-04T01:00:00Z,34.38,58.63,13.0,0.0,210,2,,,30.059055,,,TRUE,,,,,,,,,,,,,,,,,,,,,,,,,,,,METAR,1097.0
OIMC 040100Z AUTO 17002KT //// // ////// 09/M04 Q1023,OIMC,2021-10-04T01:00:00Z,36.5,61.07,9.0,-4.0,170,2,,,30.206694,,,TRUE,,,,,,,,,,,,,,,,,,,,,,,,,,,,METAR,287.0
OIMB 040100Z 11006KT CAVOK 07/M05 Q1018 A3008,OIMB,2021-10-04T01:00:00Z,32.9,59.28,7.0,-5.0,110,6,,6.21,30.059055,,,,,,,,,,,CAVOK,,,,,,,,VFR,,,,,,,,,,,,METAR,1512.0
OIKQ 040100Z 05004KT 6000 NSC 30/26 Q1006,OIKQ,2021-10-04T01:00:00Z,26.75,55.9,30.0,26.0,50,4,,3.73,29.704725,,,,,,,,,,,CLR,,,,,,,,MVFR,,,,,,,,,,,,METAR,9.0
OIKK 040100Z 07002KT CAVOK 12/M04 Q1022 A3018,OIKK,2021-10-04T01:00:00Z,30.25,56.97,12.0,-4.0,70,2,,6.21,30.177166,,,,,,,,,,,CAVOK,,,,,,,,VFR,,,,,,,,,,,,METAR,1749.0
OIKB 040100Z 00000KT 5000 NSC 28/24 Q1006 A2973,OIKB,2021-10-04T01:00:00Z,27.22,56.37,28.0,24.0,0,0,,3.11,29.704725,,,,,,,,,,,CLR,,,,,,,,MVFR,,,,,,,,,,,,METAR,6.0
OIIP 040100Z 15008KT CAVOK 18/05 Q1018 A3007,OIIP,2021-10-04T01:00:00Z,35.78,50.83,18.0,5.0,150,8,,6.21,30.059055,,,,,,,,,,,CAVOK,,,,,,,,VFR,,,,,,,,,,,,METAR,1270.0
OIIK 040100Z 09006KT CAVOK 17/06 Q1018,OIIK,2021-10-04T01:00:00Z,36.25,50.05,17.0,6.0,90,6,,6.21,30.059055,,,,,,,,,,,CAVOK,,,,,,,,VFR,,,,,,,,,,,,METAR,1278.0
OIII 040100Z 02004KT CAVOK 18/06 Q1019 A3010 NOSIG,OIII,2021-10-04T01:00:00Z,35.68,51.3,18.0,6.0,20,4,,6.21,30.088583,,,,,,TRUE,,,,,CAVOK,,,,,,,,VFR,,,,,,,,,,,,METAR,1182.0
OIIE 040100Z 33006KT CAVOK 16/05 Q1018,OIIE,2021-10-04T01:00:00Z,35.42,51.15,16.0,5.0,330,6,,6.21,30.059055,,,,,,,,,,,CAVOK,,,,,,,,VFR,,,,,,,,,,,,METAR,993.0
OIFS 040100Z 33006KT CAVOK 09/M03 Q1023,OIFS,2021-10-04T01:00:00Z,32.28,50.85,9.0,-3.0,330,6,,6.21,30.206694,,,,,,,,,,,CAVOK,,,,,,,,VFR,,,,,,,,,,,,METAR,2042.0
OIFM 040100Z 30004KT CAVOK 09/M02 Q1021 A3018,OIFM,2021-10-04T01:00:00Z,32.75,51.87,9.0,-2.0,300,4,,6.21,30.147638,,,,,,,,,,,CAVOK,,,,,,,,VFR,,,,,,,,,,,,METAR,1539.0
OICI 040100Z 11006KT CAVOK 19/M03 Q1018,OICI,2021-10-04T01:00:00Z,33.58,46.4,19.0,-3.0,110,6,,6.21,30.059055,,,,,,,,,,,CAVOK,,,,,,,,VFR,,,,,,,,,,,,METAR,1323.0
OICC 040100Z 12008KT CAVOK 15/M09 Q1017 A3004,OICC,2021-10-04T01:00:00Z,34.35,47.17,15.0,-9.0,120,8,,6.21,30.029528,,,,,,,,,,,CAVOK,,,,,,,,VFR,,,,,,,,,,,,METAR,1310.0
OIBK 040100Z 00000KT 6000 NSC 30/27 Q1006,OIBK,2021-10-04T01:00:00Z,26.53,53.98,30.0,27.0,0,0,,3.73,29.704725,,,,,,,,,,,CLR,,,,,,,,MVFR,,,,,,,,,,,,METAR,27.0
OIBB 040100Z 00000KT 4000 HZ NSC 26/22 Q1006 A2972,OIBB,2021-10-04T01:00:00Z,28.93,50.83,26.0,22.0,0,0,,2.49,29.704725,,,,,,,,,,HZ,CLR,,,,,,,,IFR,,,,,,,,,,,,METAR,15.0
OIAM 040100Z 00000KT 5000 BR NSC 27/25 Q1005,OIAM,2021-10-04T01:00:00Z,30.55,49.15,27.0,25.0,0,0,,3.11,29.675198,,,,,,,,,,BR,CLR,,,,,,,,MVFR,,,,,,,,,,,,METAR,7.0
OIAH 040100Z 00000KT CAVOK 21/07 Q1012,OIAH,2021-10-04T01:00:00Z,30.33,50.83,21.0,7.0,0,0,,6.21,29.88189,,,,,,,,,,,CAVOK,,,,,,,,VFR,,,,,,,,,,,,METAR,730.0
OIAA 040100Z 20002KT CAVOK 25/10 Q1006,OIAA,2021-10-04T01:00:00Z,30.35,48.22,25.0,10.0,200,2,,6.21,29.704725,,,,,,,,,,,CAVOK,,,,,,,,VFR,,,,,,,,,,,,METAR,4.0
OERK 040100Z 30004KT CAVOK 25/03 Q1011 NOSIG,OERK,2021-10-04T01:00:00Z,24.95,46.72,25.0,3.0,300,4,,6.21,29.852362,,,,,,TRUE,,,,,CAVOK,,,,,,,,VFR,,,,,,,,,,,,METAR,618.0
OEMA 040100Z 29008KT CAVOK 32/02 Q1011 NOSIG,OEMA,2021-10-04T01:00:00Z,24.55,39.7,32.0,2.0,290,8,,6.21,29.852362,,,,,,TRUE,,,,,CAVOK,,,,,,,,VFR,,,,,,,,,,,,METAR,639.0
OEJN 040100Z 33005KT CAVOK 28/22 Q1007 NOSIG,OEJN,2021-10-04T01:00:00Z,21.68,39.15,28.0,22.0,330,5,,6.21,29.734253,,,,,,TRUE,,,,,CAVOK,,,,,,,,VFR,,,,,,,,,,,,METAR,8.0
OEDF 040100Z 00000KT CAVOK 27/25 Q1006 NOSIG,OEDF,2021-10-04T01:00:00Z,26.43,49.82,27.0,25.0,0,0,,6.21,29.704725,,,,,,TRUE,,,,,CAVOK,,,,,,,,VFR,,,,,,,,,,,,METAR,15.0
OEAB 040100Z 00000KT CAVOK 16/10 Q1023 NOSIG,OEAB,2021-10-04T01:00:00Z,18.23,42.65,16.0,10.0,0,0,,6.21,30.206694,,,,,,TRUE,,,,,CAVOK,,,,,,,,VFR,,,,,,,,,,,,METAR,2092.0
OBBI 040100Z 12009KT 7000 FEW015 31/28 Q1006 NOSIG,OBBI,2021-10-04T01:00:00Z,26.27,50.63,31.0,28.0,120,9,,4.35,29.704725,,,,,,TRUE,,,,,FEW,1500,,,,,,,MVFR,,,,,,,,,,,,METAR,6.0
NZWN 040100Z AUTO 21009KT 2400 BR BKN013/// 13/12 Q1006 BECMG 9999 TEMPO 3000 RA BKN004,NZWN,2021-10-04T01:00:00Z,-41.32,174.8,13.0,12.0,210,9,,1.49,29.704725,,,TRUE,,,,,,,BR,BKN,1300,,,,,,,IFR,,,,,,,,,,,,METAR,12.0
NZCH 040100Z AUTO 10003KT 9999 -RA SCT009/// BKN015/// BKN021/// 12/11 Q1009 TEMPO 4000 RADZ BNK007,NZCH,2021-10-04T01:00:00Z,-43.48,172.52,12.0,11.0,100,3,,6.21,29.793306,,,TRUE,,,,,,,-RA,SCT,900,BKN,1500,BKN,2100,,,MVFR,,,,,,,,,,,,METAR,36.0
NZAA 040100Z AUTO 22007KT 9999 SCT027/// 20/16 Q1008 TEMPO 6000 SHRA BKN012 FEW020TCU,NZAA,2021-10-04T01:00:00Z,-37.02,174.8,20.0,16.0,220,7,,6.21,29.763779,,,TRUE,,,,,,,,SCT,2700,,,,,,,VFR,,,,,,,,,,,,METAR,7.0
NWWW 040100Z AUTO 16007KT 120V230 9999 BKN032 BKN039 30/22 Q1009 TEMPO FEW025TCU BKN040,NWWW,2021-10-04T01:00:00Z,-22.02,166.22,30.0,22.0,160,7,,6.21,29.793306,,,TRUE,,,,,,,,BKN,3200,BKN,3900,,,,,VFR,,,,,,,,,,,,METAR,16.0
NVVW 040100Z 00000KT 9999 FEW025 30/25 Q1009,NVVW,2021-10-04T01:00:00Z,-19.45,169.22,30.0,25.0,0,0,,6.21,29.793306,,,,,,,,,,,FEW,2500,,,,,,,VFR,,,,,,,,,,,,METAR,5.0
NVVV 040100Z 20006KT 9999 BKN020 28/25 Q1008 RMK RERA,NVVV,2021-10-04T01:00:00Z,-17.68,168.3,28.0,25.0,200,6,,6.21,29.763779,,,,,,,,,,,BKN,2000,,,,,,,MVFR,,,,,,,,,,,,METAR,23.0
NVSS 040100Z 04009KT 9999 SCT020 29/25 Q1008,NVSS,2021-10-04T01:00:00Z,-15.52,167.22,29.0,25.0,40,9,,6.21,29.763779,,,,,,,,,,,SCT,2000,,,,,,,VFR,,,,,,,,,,,,METAR,47.0
NTAA 040100Z 12007KT 050V160 4000 SHRA FEW013 SCT020TCU 23/20 Q1011 WS ALL RWY TEMPO 05016G26KT 2000 SHRA BKN020TCU BKN040,NTAA,2021-10-04T01:00:00Z,-17.55,-149.62,23.0,20.0,120,7,,2.49,29.852362,,,,,,,,,,SHRA,FEW,1300,SCT,2000,,,,,IFR,,,,,,,,,,,,METAR,2.0
NSFA 040100Z 05011KT 9999 FEW020CB SCT022 32/23 Q1009 RMK CB TO SSE,NSFA,2021-10-04T01:00:00Z,-13.83,-172.0,32.0,23.0,50,11,,6.21,29.793306,,,,,,,,,,,FEW,2000,SCT,2200,,,,,VFR,,,,,,,,,,,,METAR,6.0
NIUE 040100Z AUTO 10016KT // 27/22 Q1013,NIUE,2021-10-04T01:00:00Z,-19.07,-169.92,27.0,22.0,100,16,,,29.911417,,,TRUE,,,,,,,,,,,,,,,,,,,,,,,,,,,,METAR,22.0
NGTA 040100Z 06009KT 9999 FEW019 31/23 Q1006,NGTA,2021-10-04T01:00:00Z,1.37,173.13,31.0,23.0,60,9,,6.21,29.704725,,,,,,,,,,,FEW,1900,,,,,,,VFR,,,,,,,,,,,,METAR,8.0
NGFU 040100Z 09007KT 9999 FEW018TCU SCT020 32/26 Q1007,NGFU,2021-10-04T01:00:00Z,-8.52,179.18,32.0,26.0,90,7,,6.21,29.734253,,,,,,,,,,,FEW,1800,SCT,2000,,,,,VFR,,,,,,,,,,,,METAR,2.0
NFTV 040100Z 09008KT 9999 FEW008 SCT016 27/24 Q1014,NFTV,2021-10-04T01:00:00Z,-18.58,-173.97,27.0,24.0,90,8,,6.21,29.940945,,,,,,,,,,,FEW,800,SCT,1600,,,,,VFR,,,,,,,,,,,,METAR,71.0
NFTL 040100Z 09024KT 9999 FEW010 SCT017 BKN040 26/21 Q1013,NFTL,2021-10-04T01:00:00Z,-19.78,-174.33,26.0,21.0,90,24,,6.21,29.911417,,,,,,,,,,,FEW,1000,SCT,1700,BKN,4000,,,VFR,,,,,,,,,,,,METAR,10.0
NFTF 040100Z 09009KT 9999 FEW010 SCT016 BKN110 24/20 Q1015,NFTF,2021-10-04T01:00:00Z,-21.23,-175.15,24.0,20.0,90,9,,6.21,29.970472,,,,,,,,,,,FEW,1000,SCT,1600,BKN,11000,,,VFR,,,,,,,,,,,,METAR,38.0
NFFN 040100Z 05003KT 9999 SCT026TCU BKN120 32/22 Q1009 NOSIG,NFFN,2021-10-04T01:00:00Z,-17.75,177.45,32.0,22.0,50,3,,6.21,29.793306,,,,,,TRUE,,,,,SCT,2600,BKN,12000,,,,,VFR,,,,,,,,,,,,METAR,14.0
NCSW 040100Z AUTO 09006KT //// ////// 29/24 Q1009,NCSW,2021-10-04T01:00:00Z,,,29.0,24.0,90,6,,,29.793306,,,TRUE,,,,,,,,,,,,,,,,,,,,,,,,,,,,METAR,
NCRK 040100Z AUTO 12006KT //// ////// 30/24 Q1008,NCRK,2021-10-04T01:00:00Z,-10.02,-161.1,30.0,24.0,120,6,,,29.763779,,,TRUE,,,,,,,,,,,,,,,,,,,,,,,,,,,,METAR,7.0
NCRG 040100Z AUTO 10014KT 9999 SCT033/// 25/18 Q1014,NCRG,2021-10-04T01:00:00Z,-21.2,-159.82,25.0,18.0,100,14,,6.21,29.940945,,,TRUE,,,,,,,,SCT,3300,,,,,,,VFR,,,,,,,,,,,,METAR,7.0
NCPY 040100Z AUTO 11010KT //// ////// 28/25 Q1007,NCPY,2021-10-04T01:00:00Z,-9.02,-158.03,28.0,25.0,110,10,,,29.734253,,,TRUE,,,,,,,,,,,,,,,,,,,,,,,,,,,,METAR,2.0
NCPL 040100Z AUTO 07006KT //// ////// 29/22 Q1012,NCPL,2021-10-04T01:00:00Z,1.98,-157.48,29.0,22.0,70,6,,,29.88189,,,TRUE,,,,,,,,,,,,,,,,,,,,,,,,,,,,METAR,3.0
NCPK 040100Z AUTO NIL,NCPK,2021-10-04T01:00:00Z,-10.9,-165.83,,,,,,,,,,TRUE,,,,,,,,,,,,,,,,,,,,,,,,,,,,METAR,5.0
NCNS 040100Z AUTO 08006KT //// ////// 31/24 Q1008,NCNS,2021-10-04T01:00:00Z,,,31.0,24.0,80,6,,,29.763779,,,TRUE,,,,,,,,,,,,,,,,,,,,,,,,,,,,METAR,
NCMR 040100Z AUTO NIL,NCMR,2021-10-04T01:00:00Z,-19.85,-157.7,,,,,,,,,,TRUE,,,,,,,,,,,,,,,,,,,,,,,,,,,,METAR,8.0
NCMK 040100Z AUTO 14010KT //// ////// 26/22 Q1012,NCMK,2021-10-04T01:00:00Z,-20.15,-157.33,26.0,22.0,140,10,,,29.88189,,,TRUE,,,,,,,,,,,,,,,,,,,,,,,,,,,,METAR,13.0
NCMH 040100Z AUTO 13006KT //// ////// ///// Q1008,NCMH,2021-10-04T01:00:00Z,-10.38,-161.0,,,130,6,,,29.763779,,,TRUE,,,,,,,,,,,,,,,,,,,,,,,,,,,,METAR,1.0
NCMG 040100Z AUTO 12010KT //// ////// ///// Q////,NCMG,2021-10-04T01:00:00Z,-21.88,-157.9,,,120,10,,,,,,TRUE,,,,,,,,,,,,,,,,,,,,,,,,,,,,METAR,14.0
NCAT 040100Z AUTO 13006KT //// ////// ///// Q////,NCAT,2021-10-04T01:00:00Z,-19.97,-158.12,,,130,6,,,,,,TRUE,,,,,,,,,,,,,,,,,,,,,,,,,,,,METAR,11.0
NCAI 040100Z AUTO NIL,NCAI,2021-10-04T01:00:00Z,-18.82,-159.77,,,,,,,,,,TRUE,,,,,,,,,,,,,,,,,,,,,,,,,,,,METAR,7.0
MYSM 040100Z AUTO 05008KT 9999 VCSH //////CB 24/23 A2995 RESHRA,MYSM,2021-10-04T01:00:00Z,24.05,-74.52,24.0,23.0,50,8,,6.21,29.949802,,,TRUE,,,,,,,VCSH,,,,,,,,,,,,,,,,,,,,,METAR,5.0
MYIG 040100Z AUTO 19004KT 120V250 //// // FEW025/// SCT068/// OVC077/// ///// A////,MYIG,2021-10-04T01:00:00Z,20.93,-73.67,,,190,4,,,,,,TRUE,,,,,,,,FEW,2500,SCT,6800,OVC,7700,,,,,,,,,,,,,,,METAR,4.0
MYGF 040100Z AUTO 06006KT //// R06///// // NCD 25/21 A2999,MYGF,2021-10-04T01:00:00Z,26.55,-78.7,25.0,21.0,60,6,,,29.991142,,,TRUE,,,,,,,,CLR,,,,,,,,,,,,,,,,,,,,METAR,2.0
MWCR 040100Z 10005KT 9999 FEW020 28/25 Q1011,MWCR,2021-10-04T01:00:00Z,19.3,-81.37,28.0,25.0,100,5,,6.21,29.852362,,,,,,,,,,,FEW,2000,,,,,,,VFR,,,,,,,,,,,,METAR,4.0
MROC 040100Z 36003KT 320V030 9999 SCT015 22/22 A2992 NOSIG,MROC,2021-10-04T01:00:00Z,10.0,-84.22,22.0,22.0,360,3,,6.21,29.920275,,,,,,TRUE,,,,,SCT,1500,,,,,,,VFR,,,,,,,,,,,,METAR,900.0
MRLB 040100Z 20004KT CAVOK 26/22 A2975,MRLB,2021-10-04T01:00:00Z,10.6,-85.55,26.0,22.0,200,4,,6.21,29.749016,,,,,,,,,,,CAVOK,,,,,,,,VFR,,,,,,,,,,,,METAR,79.0
MPTO 040100Z 27008KT 9999 SCT018 SCT090 27/24 Q1007 NOSIG,MPTO,2021-10-04T01:00:00Z,9.05,-79.38,27.0,24.0,270,8,,6.21,29.734253,,,,,,TRUE,,,,,SCT,1800,SCT,9000,,,,,VFR,,,,,,,,,,,,METAR,7.0
MPPA 040100Z 00000KT 9999 FEW016 26/24 Q1007,MPPA,2021-10-04T01:00:00Z,8.92,-79.6,26.0,24.0,0,0,,6.21,29.734253,,,,,,,,,,,FEW,1600,,,,,,,VFR,,,,,,,,,,,,METAR,1.0
MPMG 040100Z 34005KT 9999 FEW018 27/24 Q1007 NOSIG,MPMG,2021-10-04T01:00:00Z,8.98,-79.57,27.0,24.0,340,5,,6.21,29.734253,,,,,,TRUE,,,,,FEW,1800,,,,,,,VFR,,,,,,,,,,,,METAR,6.0
MPDA 040100Z VRB02KT 9999 FEW016 25/24 Q1006,MPDA,2021-10-04T01:00:00Z,8.4,-82.43,25.0,24.0,0,2,,6.21,29.704725,,,,,,,,,,,FEW,1600,,,,,,,VFR,,,,,,,,,,,,METAR,15.0
MNMG 040100Z 12006KT 9999 FEW020CB SCT080 27/24 Q1008 A2978 FL CB/NW/W NOSIG,MNMG,2021-10-04T01:00:00Z,12.15,-86.17,27.0,24.0,120,6,,6.21,29.763779,,,,,,TRUE,,,,,FEW,2000,SCT,8000,,,,,VFR,,,,,,,,,,,,METAR,59.0
MKJS 040100Z 17004KT 9999 FEW020 FEW022CB 26/21 Q1011,MKJS,2021-10-04T01:00:00Z,18.5,-77.92,26.0,21.0,170,4,,6.21,29.852362,,,,,,,,,,,FEW,2000,FEW,2200,,,,,VFR,,,,,,,,,,,,METAR,3.0
MKJP 040100Z 01007KT 9999 FEW020CB 26/22 Q1011,MKJP,2021-10-04T01:00:00Z,17.93,-76.78,26.0,22.0,10,7,,6.21,29.852362,,,,,,,,,,,FEW,2000,,,,,,,VFR,,,,,,,,,,,,METAR,3.0
MHTG 040100Z 03003KT 9999 SCT032 FEW034CB SCT250 25/17 Q1015 A2997 NOSIG,MHTG,2021-10-04T01:00:00Z,14.07,-87.22,25.0,17.0,30,3,,6.21,29.970472,,,,,,TRUE,,,,,SCT,3200,FEW,3400,SCT,25000,,,VFR,,,,,,,,,,,,METAR,1001.0
MHRO 040100Z 02003KT 9999 FEW024TCU 28/25 Q1011 A2986 NOSIG,MHRO,2021-10-04T01:00:00Z,16.32,-86.53,28.0,25.0,20,3,,6.21,29.852362,,,,,,TRUE,,,,,FEW,2400,,,,,,,VFR,,,,,,,,,,,,METAR,6.0
MHLM 040100Z 04006KT 9999 FEW026CB 28/23 Q1010 A2983 NOSIG,MHLM,2021-10-04T01:00:00Z,15.45,-87.93,28.0,23.0,40,6,,6.21,29.822834,,,,,,TRUE,,,,,FEW,2600,,,,,,,VFR,,,,,,,,,,,,METAR,32.0
MHLC 040100Z VRB02KT 9999 FEW026 27/24 Q1010 A2983 NOSIG,MHLC,2021-10-04T01:00:00Z,15.75,-86.85,27.0,24.0,0,2,,6.21,29.822834,,,,,,TRUE,,,,,FEW,2600,,,,,,,VFR,,,,,,,,,,,,METAR,13.0
MGPB 040100Z METAR ,MGPB,2021-10-04T01:00:00Z,15.73,-88.58,,,,,,,,,,,,,,,,,,,,,,,,,,,,,,,,,,,,,,METAR,6.0
MGMM 040100Z 00000KT 9999 BKN018 25/24 Q1013 A2991,MGMM,2021-10-04T01:00:00Z,16.9,-89.87,25.0,24.0,0,0,,6.21,29.911417,,,,,,,,,,,BKN,1800,,,,,,,MVFR,,,,,,,,,,,,METAR,105.0
MGHT 040100Z 00000KT CAVOK 18/13,MGHT,2021-10-04T01:00:00Z,15.32,-91.5,18.0,13.0,0,0,,6.21,,,,,,,,,,,,CAVOK,,,,,,,,VFR,,,,,,,,,,,,METAR,1875.0
MGGT 040100Z 02010KT 9999 FEW020 21/16 Q1018 A3006,MGGT,2021-10-04T01:00:00Z,14.58,-90.53,21.0,16.0,20,10,,6.21,30.059055,,,,,,,,,,,FEW,2000,,,,,,,VFR,,,,,,,,,,,,METAR,1497.0
MDST 040100Z 12004KT 090V150 9999 FEW020CB FEW022 BKN300 25/22 Q1014 CB/E/SE/W,MDST,2021-10-04T01:00:00Z,19.4,-70.6,25.0,22.0,120,4,,6.21,29.940945,,,,,,,,,,,FEW,2000,FEW,2200,BKN,30000,,,VFR,,,,,,,,,,,,METAR,175.0
MDSD 040100Z 02004KT 9999 FEW015CB SCT016 BKN070 22/21 Q10112 CB/SE/S/SW,MDSD,2021-10-04T01:00:00Z,18.42,-69.67,22.0,21.0,20,4,,6.21,,,,,,,,,,,,FEW,1500,SCT,1600,BKN,7000,,,VFR,,,,,,,,,,,,METAR,18.0
MDPP 040100Z 00000KT 9999 SCT020 BKN300 27/23 Q1012,MDPP,2021-10-04T01:00:00Z,19.75,-70.57,27.0,23.0,0,0,,6.21,29.88189,,,,,,,,,,,SCT,2000,BKN,30000,,,,,VFR,,,,,,,,,,,,METAR,9.0
MDPC 040100Z VRB03KT 9999 FEW016CB BKN018 26/24 Q1013 CB/SW/N,MDPC,2021-10-04T01:00:00Z,18.57,-68.37,26.0,24.0,0,3,,6.21,29.911417,,,,,,,,,,,FEW,1600,BKN,1800,,,,,MVFR,,,,,,,,,,,,METAR,10.0
MDLR 040100Z 00000KT 9999 FEW015CB SCT016 BKN300 25/24 Q1012 CB/S/SW,MDLR,2021-10-04T01:00:00Z,18.45,-68.92,25.0,24.0,0,0,,6.21,29.88189,,,,,,,,,,,FEW,1500,SCT,1600,BKN,30000,,,VFR,,,,,,,,,,,,METAR,66.0
LZZI 040100Z VRB02KT 9999 SCT059 14/09 Q1017,LZZI,2021-10-04T01:00:00Z,49.23,18.62,14.0,9.0,0,2,,6.21,30.029528,,,,,,,,,,,SCT,5900,,,,,,,VFR,,,,,,,,,,,,METAR,311.0
LZTT 040100Z 19005KT 150V210 9999 BKN050 11/07 Q1020,LZTT,2021-10-04T01:00:00Z,49.07,20.25,11.0,7.0,190,5,,6.21,30.11811,,,,,,,,,,,BKN,5000,,,,,,,VFR,,,,,,,,,,,,METAR,693.0
LZPP 040100Z AUTO 12012KT 9999 NCD 17/09 Q1016,LZPP,2021-10-04T01:00:00Z,48.62,17.83,17.0,9.0,120,12,,6.21,30.0,,,TRUE,,,,,,,,CLR,,,,,,,,VFR,,,,,,,,,,,,METAR,160.0
LZKZ 040100Z VRB01KT CAVOK 11/09 Q1021,LZKZ,2021-10-04T01:00:00Z,48.67,21.23,11.0,9.0,0,1,,6.21,30.147638,,,,,,,,,,,CAVOK,,,,,,,,VFR,,,,,,,,,,,,METAR,227.0
LZIB 040100Z 06005KT CAVOK 12/11 Q1015,LZIB,2021-10-04T01:00:00Z,48.17,17.22,12.0,11.0,60,5,,6.21,29.970472,,,,,,,,,,,CAVOK,,,,,,,,VFR,,,,,,,,,,,,METAR,129.0
LYVR 040100Z AUTO 13025G36KT CAVOK 16/04 Q1020,LYVR,2021-10-04T01:00:00Z,45.13,21.32,16.0,4.0,130,25,36,6.21,30.11811,,,TRUE,,,,,,,,CAVOK,,,,,,,,VFR,,,,,,,,,,,,METAR,82.0
LYUZ 040100Z AUTO VRB02KT CAVOK 12/08 Q////,LYUZ,2021-10-04T01:00:00Z,43.9,19.67,12.0,8.0,0,2,,6.21,,,,TRUE,,,,,,,,CAVOK,,,,,,,,VFR,,,,,,,,,,,,METAR,914.0
LYPG 040100Z VRB02KT CAVOK 14/08 Q1022 NOSIG,LYPG,2021-10-04T01:00:00Z,42.37,19.25,14.0,8.0,0,2,,6.21,30.177166,,,,,,TRUE,,,,,CAVOK,,,,,,,,VFR,,,,,,,,,,,,METAR,32.0
LYNI 040100Z VRB01KT CAVOK 08/05 Q1023 NOSIG,LYNI,2021-10-04T01:00:00Z,43.33,21.85,8.0,5.0,0,1,,6.21,30.206694,,,,,,TRUE,,,,,CAVOK,,,,,,,,VFR,,,,,,,,,,,,METAR,197.0
LYKV 040100Z VRB01KT CAVOK 07/05 Q1022 NOSIG,LYKV,2021-10-04T01:00:00Z,43.82,20.58,7.0,5.0,0,1,,6.21,30.177166,,,,,,TRUE,,,,,CAVOK,,,,,,,,VFR,,,,,,,,,,,,METAR,209.0
LYBT 040100Z 08006KT CAVOK 12/05 Q1021 NOSIG,LYBT,2021-10-04T01:00:00Z,44.93,20.25,12.0,5.0,80,6,,6.21,30.147638,,,,,,TRUE,,,,,CAVOK,,,,,,,,VFR,,,,,,,,,,,,METAR,78.0
LYBE 040100Z ///// CAVOK 13/05 Q1020 NOSIG,LYBE,2021-10-04T01:00:00Z,44.82,20.28,13.0,5.0,,,,6.21,30.11811,,,,,,TRUE,,,,,CAVOK,,,,,,,,VFR,,,,,,,,,,,,METAR,93.0
LWSK 040100Z 00000KT CAVOK 07/06 Q1024 NOSIG,LWSK,2021-10-04T01:00:00Z,41.97,21.63,7.0,6.0,0,0,,6.21,30.236221,,,,,,TRUE,,,,,CAVOK,,,,,,,,VFR,,,,,,,,,,,,METAR,232.0
LUKK 040100Z 29001KT CAVOK 01/00 Q1026 R08/D NOSIG,LUKK,2021-10-04T01:00:00Z,46.93,28.93,1.0,0.0,290,1,,6.21,30.295275,,,,,,TRUE,,,,,CAVOK,,,,,,,,VFR,,,,,,,,,,,,METAR,102.0
LRTR 040100Z 10009KT CAVOK 08/06 Q1021,LRTR,2021-10-04T01:00:00Z,45.82,21.33,8.0,6.0,100,9,,6.21,30.147638,,,,,,,,,,,CAVOK,,,,,,,,VFR,,,,,,,,,,,,METAR,104.0
LRTM 040100Z AUTO 10005KT 9999 NCD 05/05 Q1024,LRTM,2021-10-04T01:00:00Z,46.47,24.42,5.0,5.0,100,5,,6.21,30.236221,,,TRUE,,,,,,,,CLR,,,,,,,,VFR,,,,,,,,,,,,METAR,289.0
LRTC 040100Z AUTO 29004KT 9999 NCD 05/03 Q1025,LRTC,2021-10-04T01:00:00Z,45.07,28.72,5.0,3.0,290,4,,6.21,30.265747,,,TRUE,,,,,,,,CLR,,,,,,,,VFR,,,,,,,,,,,,METAR,52.0
LRSV 040100Z 15007KT CAVOK 08/05 Q1023,LRSV,2021-10-04T01:00:00Z,47.68,26.35,8.0,5.0,150,7,,6.21,30.206694,,,,,,,,,,,CAVOK,,,,,,,,VFR,,,,,,,,,,,,METAR,406.0
LRSM 040100Z AUTO VRB03KT 9999 NCD 06/05 Q1022,LRSM,2021-10-04T01:00:00Z,47.7,22.88,6.0,5.0,0,3,,6.21,30.177166,,,TRUE,,,,,,,,CLR,,,,,,,,VFR,,,,,,,,,,,,METAR,123.0
LRSB 040100Z VRB01KT CAVOK 04/03 Q1023 NOSIG,LRSB,2021-10-04T01:00:00Z,45.78,24.08,4.0,3.0,0,1,,6.21,30.206694,,,,,,TRUE,,,,,CAVOK,,,,,,,,VFR,,,,,,,,,,,,METAR,442.0
LROP 040100Z 01003KT 340V040 CAVOK 07/06 Q1025 NOSIG,LROP,2021-10-04T01:00:00Z,44.57,26.1,7.0,6.0,10,3,,6.21,30.265747,,,,,,TRUE,,,,,CAVOK,,,,,,,,VFR,,,,,,,,,,,,METAR,92.0
LROD 040100Z AUTO 10006KT 9999 NCD 09/07 Q1022,LROD,2021-10-04T01:00:00Z,47.03,21.88,9.0,7.0,100,6,,6.21,30.177166,,,TRUE,,,,,,,,CLR,,,,,,,,VFR,,,,,,,,,,,,METAR,132.0
LRIA 040100Z 08004KT CAVOK 08/03 Q1026,LRIA,2021-10-04T01:00:00Z,47.17,27.62,8.0,3.0,80,4,,6.21,30.295275,,,,,,,,,,,CAVOK,,,,,,,,VFR,,,,,,,,,,,,METAR,71.0
LRCV 040100Z 02004KT CAVOK 07/02 Q1024,LRCV,2021-10-04T01:00:00Z,44.32,23.88,7.0,2.0,20,4,,6.21,30.236221,,,,,,,,,,,CAVOK,,,,,,,,VFR,,,,,,,,,,,,METAR,192.0
LRCL 040100Z 00000KT 4000 MIFG BR NSC 04/04 Q1023,LRCL,2021-10-04T01:00:00Z,46.78,23.68,4.0,4.0,0,0,,2.49,30.206694,,,,,,,,,,MIFG BR,CLR,,,,,,,,IFR,,,,,,,,,,,,METAR,313.0
LRCK 040100Z 35007KT CAVOK 08/08 Q1025 NOSIG,LRCK,2021-10-04T01:00:00Z,44.37,28.48,8.0,8.0,350,7,,6.21,30.265747,,,,,,TRUE,,,,,CAVOK,,,,,,,,VFR,,,,,,,,,,,,METAR,108.0
LRBS 040100Z VRB01KT CAVOK 07/05 Q1025 NOSIG,LRBS,2021-10-04T01:00:00Z,44.5,26.08,7.0,5.0,0,1,,6.21,30.265747,,,,,,TRUE,,,,,CAVOK,,,,,,,,VFR,,,,,,,,,,,,METAR,91.0
LRBM 040100Z AUTO 08006KT 9999 NCD 09/07 Q1023,LRBM,2021-10-04T01:00:00Z,47.67,23.47,9.0,7.0,80,6,,6.21,30.206694,,,TRUE,,,,,,,,CLR,,,,,,,,VFR,,,,,,,,,,,,METAR,180.0
LRBC 040100Z 17005KT CAVOK 06/05 Q1025,LRBC,2021-10-04T01:00:00Z,46.52,26.92,6.0,5.0,170,5,,6.21,30.265747,,,,,,,,,,,CAVOK,,,,,,,,VFR,,,,,,,,,,,,METAR,183.0
LRAR 040100Z 14007KT CAVOK 10/05 Q1021,LRAR,2021-10-04T01:00:00Z,46.18,21.27,10.0,5.0,140,7,,6.21,30.147638,,,,,,,,,,,CAVOK,,,,,,,,VFR,,,,,,,,,,,,METAR,102.0
LQTZ 040100Z VRB01KT 7000 NSC 07/06 Q1020,LQTZ,2021-10-04T01:00:00Z,44.47,18.73,7.0,6.0,0,1,,4.35,30.11811,,,,,,,,,,,CLR,,,,,,,,MVFR,,,,,,,,,,,,METAR,242.0
LQSA 040100Z VRB02KT CAVOK 07/07 Q1022,LQSA,2021-10-04T01:00:00Z,43.82,18.32,7.0,7.0,0,2,,6.21,30.177166,,,,,,,,,,,CAVOK,,,,,,,,VFR,,,,,,,,,,,,METAR,505.0
LQMO 040100Z 15003KT CAVOK 12/11 Q1021,LQMO,2021-10-04T01:00:00Z,43.28,17.83,12.0,11.0,150,3,,6.21,30.147638,,,,,,,,,,,CAVOK,,,,,,,,VFR,,,,,,,,,,,,METAR,49.0
LQBK 040100Z 17006KT CAVOK 11/11 Q1020 NOSIG,LQBK,2021-10-04T01:00:00Z,44.93,17.3,11.0,11.0,170,6,,6.21,30.11811,,,,,,TRUE,,,,,CAVOK,,,,,,,,VFR,,,,,,,,,,,,METAR,114.0
LPPT 040100Z 15003KT 080V230 CAVOK 15/11 Q1022,LPPT,2021-10-04T01:00:00Z,38.77,-9.13,15.0,11.0,150,3,,6.21,30.177166,,,,,,,,,,,CAVOK,,,,,,,,VFR,,,,,,,,,,,,METAR,98.0
LPPS 040100Z 06007KT 030V100 9999 SCT012 SCT030 21/19 Q1023,LPPS,2021-10-04T01:00:00Z,33.07,-16.35,21.0,19.0,60,7,,6.21,30.206694,,,,,,,,,,,SCT,1200,SCT,3000,,,,,VFR,,,,,,,,,,,,METAR,89.0
LPPR 040100Z 13005KT 9999 SCT030 13/12 Q1022,LPPR,2021-10-04T01:00:00Z,41.23,-8.68,13.0,12.0,130,5,,6.21,30.177166,,,,,,,,,,,SCT,3000,,,,,,,VFR,,,,,,,,,,,,METAR,64.0
LPPD 040100Z 14003KT 9999 FEW007 BKN014 21/20 Q1025,LPPD,2021-10-04T01:00:00Z,37.73,-25.68,21.0,20.0,140,3,,6.21,30.265747,,,,,,,,,,,FEW,700,BKN,1400,,,,,MVFR,,,,,,,,,,,,METAR,62.0
LPMT 040100Z 36004KT 310V030 CAVOK 15/11 Q1022,LPMT,2021-10-04T01:00:00Z,38.7,-9.05,15.0,11.0,360,4,,6.21,30.177166,,,,,,,,,,,CAVOK,,,,,,,,VFR,,,,,,,,,,,,METAR,4.0
LPMR 040100Z VRB01KT 9999 FEW015 11/10 Q1022,LPMR,2021-10-04T01:00:00Z,39.82,-8.88,11.0,10.0,0,1,,6.21,30.177166,,,,,,,,,,,FEW,1500,,,,,,,VFR,,,,,,,,,,,,METAR,50.0
LPMA 040100Z 03008KT 330V060 9999 -SHRA BKN015 22/19 Q1023,LPMA,2021-10-04T01:00:00Z,32.7,-16.77,22.0,19.0,30,8,,6.21,30.206694,,,,,,,,,,-SHRA,BKN,1500,,,,,,,MVFR,,,,,,,,,,,,METAR,54.0
LPLA 040100Z /////KT 9999 FEW020 20/17 Q1024,LPLA,2021-10-04T01:00:00Z,38.77,-27.1,20.0,17.0,,,,6.21,30.236221,,,,,,,,,,,FEW,2000,,,,,,,VFR,,,,,,,,,,,,METAR,60.0
LPFR 040100Z 29010KT CAVOK 16/10 Q1021,LPFR,2021-10-04T01:00:00Z,37.02,-7.97,16.0,10.0,290,10,,6.21,30.147638,,,,,,,,,,,CAVOK,,,,,,,,VFR,,,,,,,,,,,,METAR,3.0
LPBJ 040100Z 30009KT CAVOK 11/09 Q1022,LPBJ,2021-10-04T01:00:00Z,38.08,-7.93,11.0,9.0,300,9,,6.21,30.177166,,,,,,,,,,,CAVOK,,,,,,,,VFR,,,,,,,,,,,,METAR,196.0
LPAZ 040100Z 05002KT 9999 FEW018 19/18 Q1025,LPAZ,2021-10-04T01:00:00Z,36.97,-25.17,19.0,18.0,50,2,,6.21,30.265747,,,,,,,,,,,FEW,1800,,,,,,,VFR,,,,,,,,,,,,METAR,96.0
LKTB 040100Z 09006KT CAVOK 14/09 Q1015 NOSIG,LKTB,2021-10-04T01:00:00Z,49.15,16.68,14.0,9.0,90,6,,6.21,29.970472,,,,,,TRUE,,,,,CAVOK,,,,,,,,VFR,,,,,,,,,,,,METAR,233.0
LKPR 040100Z VRB01KT 8000 NSC 08/08 Q1015 NOSIG,LKPR,2021-10-04T01:00:00Z,50.1,14.27,8.0,8.0,0,1,,4.97,29.970472,,,,,,TRUE,,,,,CLR,,,,,,,,MVFR,,,,,,,,,,,,METAR,364.0
LKPD 040100Z 23003KT 8000 NSC 08/07 Q1015 RMK BLU,LKPD,2021-10-04T01:00:00Z,50.02,15.73,8.0,7.0,230,3,,4.97,29.970472,,,,,,,,,,,CLR,,,,,,,,MVFR,,,,,,,,,,,,METAR,226.0
LKNA 040100Z 08005KT CAVOK 12/11 Q1015 RMK BLACK,LKNA,2021-10-04T01:00:00Z,49.17,16.12,12.0,11.0,80,5,,6.21,29.970472,,,,,,,,,,,CAVOK,,,,,,,,VFR,,,,,,,,,,,,METAR,460.0
LKMT 040100Z 21008KT CAVOK 17/10 Q1015 NOSIG,LKMT,2021-10-04T01:00:00Z,49.68,18.12,17.0,10.0,210,8,,6.21,29.970472,,,,,,TRUE,,,,,CAVOK,,,,,,,,VFR,,,,,,,,,,,,METAR,251.0
LKLN 040100Z AUTO VRB02KT 5000 BR OVC190 09/07 Q1015,LKLN,2021-10-04T01:00:00Z,49.68,13.27,9.0,7.0,0,2,,3.11,29.970472,,,TRUE,,,,,,,BR,OVC,19000,,,,,,,MVFR,,,,,,,,,,,,METAR,353.0
LKKV 040100Z 24003KT CAVOK 09/08 Q1015,LKKV,2021-10-04T01:00:00Z,50.2,12.92,9.0,8.0,240,3,,6.21,29.970472,,,,,,,,,,,CAVOK,,,,,,,,VFR,,,,,,,,,,,,METAR,600.0
LKKB 040100Z 00000KT 9000 NSC 10/10 Q1015,LKKB,2021-10-04T01:00:00Z,50.12,14.53,10.0,10.0,0,0,,5.59,29.970472,,,,,,,,,,,CLR,,,,,,,,VFR,,,,,,,,,,,,METAR,281.0
LKCV 040100Z 27004KT 9000 NSC 08/08 Q1015 NOSIG RMK BLU BLU,LKCV,2021-10-04T01:00:00Z,49.93,15.38,8.0,8.0,270,4,,5.59,29.970472,,,,,,TRUE,,,,,CLR,,,,,,,,VFR,,,,,,,,,,,,METAR,234.0
LJPZ 040100Z AUTO 12006KT 9999 FEW060/// 19/17 Q1018,LJPZ,2021-10-04T01:00:00Z,45.47,13.62,19.0,17.0,120,6,,6.21,30.059055,,,TRUE,,,,,,,,FEW,6000,,,,,,,VFR,,,,,,,,,,,,METAR,2.0
LJMB 040100Z AUTO 19008KT 9999 NCD 15/12 Q1017,LJMB,2021-10-04T01:00:00Z,46.47,15.67,15.0,12.0,190,8,,6.21,30.029528,,,TRUE,,,,,,,,CLR,,,,,,,,VFR,,,,,,,,,,,,METAR,263.0
LJLJ 040100Z 28002KT 9999 FEW010 SCT045 BKN060 14/13 Q1019 NOSIG,LJLJ,2021-10-04T01:00:00Z,46.22,14.47,14.0,13.0,280,2,,6.21,30.088583,,,,,,TRUE,,,,,FEW,1000,SCT,4500,BKN,6000,,,VFR,,,,,,,,,,,,METAR,363.0
LJCE 040100Z AUTO VRB01KT 6000 BR NCD 10/10 Q1019,LJCE,2021-10-04T01:00:00Z,45.9,15.52,10.0,10.0,0,1,,3.73,30.088583,,,TRUE,,,,,,,BR,CLR,,,,,,,,MVFR,,,,,,,,,,,,METAR,153.0
LHBP 040100Z 06003KT CAVOK 09/07 Q1019 NOSIG,LHBP,2021-10-04T01:00:00Z,47.43,19.27,9.0,7.0,60,3,,6.21,30.088583,,,,,,TRUE,,,,,CAVOK,,,,,,,,VFR,,,,,,,,,,,,METAR,141.0
LGKP 040100Z AUTO 31022G34KT //// // ////// 20/14 Q1015 RERA,LGKP,2021-10-04T01:00:00Z,35.42,27.15,20.0,14.0,310,22,34,,29.970472,,,TRUE,,,,,,,,,,,,,,,,,,,,,,,,,,,,METAR,20.0
LFYR 040100Z AUTO 00000KT 0650 FG VV/// 08/07 Q1016,LFYR,2021-10-04T01:00:00Z,47.32,1.68,8.0,7.0,0,0,,0.4,30.0,,,TRUE,,,,,,,FG,OVX,0,,,,,,,LIFR,,,,,,,,,,,,METAR,83.0
LFTW 040100Z AUTO 01012KT 9999 -RA FEW010/// OVC060/// ///TCU 13/12 Q1015,LFTW,2021-10-04T01:00:00Z,43.75,4.42,13.0,12.0,10,12,,6.21,29.970472,,,TRUE,,,,,,,-RA,FEW,1000,OVC,6000,,,,,VFR,,,,,,,,,,,,METAR,91.0
LFTH 040100Z AUTO 10011KT 9999 FEW014 BKN027 BKN037 22/19 Q1013 TEMPO 09018G30KT 3000 SHRA BKN010 SCT013TCU,LFTH,2021-10-04T01:00:00Z,43.1,6.15,22.0,19.0,100,11,,6.21,29.911417,,,TRUE,,,,,,,,FEW,1400,BKN,2700,BKN,3700,,,MVFR,,,,,,,,,,,,METAR,3.0
LFSX 040100Z AUTO 18004KT 9999 -RA BKN011/// OVC020/// ///CB 11/11 Q1017,LFSX,2021-10-04T01:00:00Z,47.77,6.35,11.0,11.0,180,4,,6.21,30.029528,,,TRUE,,,,,,,-RA,BKN,1100,OVC,2000,,,,,MVFR,,,,,,,,,,,,METAR,266.0
LFST 040100Z AUTO VRB02KT 9999 RA ///TCU 12/11 Q1017 TEMPO BKN008,LFST,2021-10-04T01:00:00Z,48.53,7.63,12.0,11.0,0,2,,6.21,30.029528,,,TRUE,,,,,,,RA,,,,,,,,,,,,,,,,,,,,,METAR,149.0
LFSO 040100Z AUTO 18006KT 9999 FEW013 OVC110 11/10 Q1016,LFSO,2021-10-04T01:00:00Z,48.57,5.97,11.0,10.0,180,6,,6.21,30.0,,,TRUE,,,,,,,,FEW,1300,OVC,11000,,,,,VFR,,,,,,,,,,,,METAR,328.0
LFSN 040100Z AUTO 13005KT 9999 BKN017 OVC110 12/11 Q1016,LFSN,2021-10-04T01:00:00Z,48.68,6.22,12.0,11.0,130,5,,6.21,30.0,,,TRUE,,,,,,,,BKN,1700,OVC,11000,,,,,MVFR,,,,,,,,,,,,METAR,214.0
LFSL 040100Z AUTO VRB01KT 9999 OVC009 12/12 Q1018,LFSL,2021-10-04T01:00:00Z,45.03,1.48,12.0,12.0,0,1,,6.21,30.059055,,,TRUE,,,,,,,,OVC,900,,,,,,,IFR,,,,,,,,,,,,METAR,300.0
LFSI 040100Z AUTO 20004KT CAVOK 12/11 Q1015,LFSI,2021-10-04T01:00:00Z,48.62,4.9,12.0,11.0,200,4,,6.21,29.970472,,,TRUE,,,,,,,,CAVOK,,,,,,,,VFR,,,,,,,,,,,,METAR,136.0
LFSG 040100Z AUTO 17005KT 9999 FEW026 SCT056 OVC110 11/10 Q1016,LFSG,2021-10-04T01:00:00Z,48.33,6.07,11.0,10.0,170,5,,6.21,30.0,,,TRUE,,,,,,,,FEW,2600,SCT,5600,OVC,11000,,,VFR,,,,,,,,,,,,METAR,320.0
LFSD 040100Z AUTO 18006KT 9999 -RA OVC008/// ///CB 12/11 Q1017,LFSD,2021-10-04T01:00:00Z,47.27,5.08,12.0,11.0,180,6,,6.21,30.029528,,,TRUE,,,,,,,-RA,OVC,800,,,,,,,IFR,,,,,,,,,,,,METAR,218.0
LFSB 040100Z AUTO 35001KT 9999 -RA ///TCU 12/11 Q1017 TEMPO RA BKN013 BKN040,LFSB,2021-10-04T01:00:00Z,47.6,7.52,12.0,11.0,350,1,,6.21,30.029528,,,TRUE,,,,,,,-RA,,,,,,,,,,,,,,,,,,,,,METAR,262.0
LFRZ 040100Z AUTO 23008KT 9999 FEW046 14/11 Q1014 TEMPO 4500 -SHRA BKN030TCU,LFRZ,2021-10-04T01:00:00Z,47.32,-2.17,14.0,11.0,230,8,,6.21,29.940945,,,TRUE,,,,,,,,FEW,4600,,,,,,,VFR,,,,,,,,,,,,METAR,2.0
LFRV 040100Z AUTO 20003KT 150V240 9999 BKN027/// BKN078/// BKN120/// ///CB 13/10 Q1013,LFRV,2021-10-04T01:00:00Z,47.72,-2.72,13.0,10.0,200,3,,6.21,29.911417,,,TRUE,,,,,,,,BKN,2700,BKN,7800,BKN,12000,,,MVFR,,,,,,,,,,,,METAR,132.0
LFRT 040100Z AUTO 19008KT 150V240 9999 -RA FEW034/// BKN064/// OVC110/// ///CB 12/10 Q1011,LFRT,2021-10-04T01:00:00Z,48.53,-2.85,12.0,10.0,190,8,,6.21,29.852362,,,TRUE,,,,,,,-RA,FEW,3400,BKN,6400,OVC,11000,,,VFR,,,,,,,,,,,,METAR,134.0
LFRS 040100Z AUTO 16005KT CAVOK 10/09 Q1014 TEMPO 4500 -SHRA BKN030TCU,LFRS,2021-10-04T01:00:00Z,47.17,-1.6,10.0,9.0,160,5,,6.21,29.940945,,,TRUE,,,,,,,,CAVOK,,,,,,,,VFR,,,,,,,,,,,,METAR,26.0
LFRQ 040100Z AUTO 21006KT 9999 FEW021/// SCT066/// BKN078/// ///CB 13/11 Q1012,LFRQ,2021-10-04T01:00:00Z,47.97,-4.17,13.0,11.0,210,6,,6.21,29.88189,,,TRUE,,,,,,,,FEW,2100,SCT,6600,BKN,7800,,,VFR,,,,,,,,,,,,METAR,94.0
LFRO 040100Z AUTO 20008KT CAVOK 11/09 Q1012,LFRO,2021-10-04T01:00:00Z,48.75,-3.47,11.0,9.0,200,8,,6.21,29.88189,,,TRUE,,,,,,,,CAVOK,,,,,,,,VFR,,,,,,,,,,,,METAR,86.0
LFRN 040100Z AUTO 18006KT 9999 FEW033 SCT170 BKN190 11/10 Q1013 TEMPO 4000 SHRA BKN008 BKN015CB,LFRN,2021-10-04T01:00:00Z,48.07,-1.73,11.0,10.0,180,6,,6.21,29.911417,,,TRUE,,,,,,,,FEW,3300,SCT,17000,BKN,19000,,,VFR,,,,,,,,,,,,METAR,35.0
LFRM 040100Z AUTO VRB03KT CAVOK 09/08 Q1015,LFRM,2021-10-04T01:00:00Z,47.95,0.2,9.0,8.0,0,3,,6.21,29.970472,,,TRUE,,,,,,,,CAVOK,,,,,,,,VFR,,,,,,,,,,,,METAR,51.0
LFRL 040100Z AUTO 22011KT CAVOK 12/10 Q1011,LFRL,2021-10-04T01:00:00Z,48.27,-4.43,12.0,10.0,220,11,,6.21,29.852362,,,TRUE,,,,,,,,CAVOK,,,,,,,,VFR,,,,,,,,,,,,METAR,80.0
LFRK 040100Z AUTO 18009KT CAVOK 10/09 Q1012,LFRK,2021-10-04T01:00:00Z,49.17,-0.45,10.0,9.0,180,9,,6.21,29.88189,,,TRUE,,,,,,,,CAVOK,,,,,,,,VFR,,,,,,,,,,,,METAR,66.0
LFRJ 040100Z AUTO 21009KT 9999 ///CB 11/10 Q1011,LFRJ,2021-10-04T01:00:00Z,48.52,-4.15,11.0,10.0,210,9,,6.21,29.852362,,,TRUE,,,,,,,,,,,,,,,,,,,,,,,,,,,,METAR,109.0
LFRI 040100Z AUTO 16005KT CAVOK 10/10 Q1015,LFRI,2021-10-04T01:00:00Z,46.7,-1.37,10.0,10.0,160,5,,6.21,29.970472,,,TRUE,,,,,,,,CAVOK,,,,,,,,VFR,,,,,,,,,,,,METAR,89.0
LFRH 040100Z AUTO 24015KT 9999 -RA FEW032/// OVC066/// ///CB 13/10 Q1012 TEMPO 26015G25KT 2500 TSRA,LFRH,2021-10-04T01:00:00Z,47.77,-3.45,13.0,10.0,240,15,,6.21,29.88189,,,TRUE,,,,,,,-RA,FEW,3200,OVC,6600,,,,,VFR,,,,,,,,,,,,METAR,46.0
LFRG 040100Z AUTO 19010KT CAVOK 10/09 Q1012,LFRG,2021-10-04T01:00:00Z,49.37,0.15,10.0,9.0,190,10,,6.21,29.88189,,,TRUE,,,,,,,,CAVOK,,,,,,,,VFR,,,,,,,,,,,,METAR,146.0
LFRD 040100Z AUTO 19009KT CAVOK 11/10 Q1012 TEMPO 20015G25KT 2000 TSRA BKN008 BKN015CB,LFRD,2021-10-04T01:00:00Z,48.58,-2.07,11.0,10.0,190,9,,6.21,29.88189,,,TRUE,,,,,,,,CAVOK,,,,,,,,VFR,,,1.5,,,,,,,,,METAR,56.0
LFRC 040100Z AUTO 18008KT 9999 FEW022/// ///TCU 11/10 Q1010,LFRC,2021-10-04T01:00:00Z,49.63,-1.47,11.0,10.0,180,8,,6.21,29.822834,,,TRUE,,,,,,,,FEW,2200,,,,,,,VFR,,,,,,,,,,,,METAR,137.0
LFRB 040100Z AUTO 22012KT 9999 ///CB 13/10 Q1010 TEMPO 23020G35KT 4000 SHRA BKN008 BKN020CB,LFRB,2021-10-04T01:00:00Z,48.45,-4.42,13.0,10.0,220,12,,6.21,29.822834,,,TRUE,,,,,,,,,,,,,,,,,,,,,,,,,,,,METAR,91.0
LFQQ 040100Z AUTO 20008KT CAVOK 11/09 Q1012 NOSIG,LFQQ,2021-10-04T01:00:00Z,50.57,3.1,11.0,9.0,200,8,,6.21,29.88189,,,TRUE,,,TRUE,,,,,CAVOK,,,,,,,,VFR,,,,,,,,,,,,METAR,43.0
LFQB 040100Z AUTO 19007KT CAVOK 11/10 Q1015,LFQB,2021-10-04T01:00:00Z,48.32,4.02,11.0,10.0,190,7,,6.21,29.970472,,,TRUE,,,,,,,,CAVOK,,,,,,,,VFR,,,,,,,,,,,,METAR,107.0
LFQA 040100Z AUTO 23003KT CAVOK 11/09 Q1014,LFQA,2021-10-04T01:00:00Z,49.2,4.15,11.0,9.0,230,3,,6.21,29.940945,,,TRUE,,,,,,,,CAVOK,,,,,,,,VFR,,,,,,,,,,,,METAR,92.0
LFPV 040100Z AUTO 24004KT 200V280 CAVOK 10/08 Q1014 NOSIG,LFPV,2021-10-04T01:00:00Z,48.77,2.2,10.0,8.0,240,4,,6.21,29.940945,,,TRUE,,,TRUE,,,,,CAVOK,,,,,,,,VFR,,,,,,,,,,,,METAR,171.0
LFPT 040100Z AUTO 21007KT CAVOK 09/07 Q1014,LFPT,2021-10-04T01:00:00Z,49.1,2.03,9.0,7.0,210,7,,6.21,29.940945,,,TRUE,,,,,,,,CAVOK,,,,,,,,VFR,,,,,,,,,,,,METAR,91.0
LFPO 040100Z 20006KT CAVOK 10/09 Q1015 NOSIG,LFPO,2021-10-04T01:00:00Z,48.72,2.38,10.0,9.0,200,6,,6.21,29.970472,,,,,,TRUE,,,,,CAVOK,,,,,,,,VFR,,,,,,,,,,,,METAR,88.0
LFPN 040100Z AUTO 21009KT CAVOK 10/08 Q1014,LFPN,2021-10-04T01:00:00Z,48.75,2.12,10.0,8.0,210,9,,6.21,29.940945,,,TRUE,,,,,,,,CAVOK,,,,,,,,VFR,,,,,,,,,,,,METAR,152.0
LFPM 040100Z AUTO 21007KT CAVOK 11/09 Q1015,LFPM,2021-10-04T01:00:00Z,48.62,2.67,11.0,9.0,210,7,,6.21,29.970472,,,TRUE,,,,,,,,CAVOK,,,,,,,,VFR,,,,,,,,,,,,METAR,91.0
LFPG 040100Z 16006KT CAVOK 11/09 Q1014 NOSIG,LFPG,2021-10-04T01:00:00Z,49.02,2.53,11.0,9.0,160,6,,6.21,29.940945,,,,,,TRUE,,,,,CAVOK,,,,,,,,VFR,,,,,,,,,,,,METAR,107.0
LFPB 040100Z AUTO 18007KT CAVOK 11/09 Q1014 NOSIG,LFPB,2021-10-04T01:00:00Z,48.97,2.42,11.0,9.0,180,7,,6.21,29.940945,,,TRUE,,,TRUE,,,,,CAVOK,,,,,,,,VFR,,,,,,,,,,,,METAR,50.0
LFOZ 040100Z AUTO 21005KT CAVOK 09/08 Q1016,LFOZ,2021-10-04T01:00:00Z,47.9,2.17,9.0,8.0,210,5,,6.21,30.0,,,TRUE,,,,,,,,CAVOK,,,,,,,,VFR,,,,,,,,,,,,METAR,121.0
LFOV 040100Z AUTO 17004KT CAVOK 09/08 Q1014,LFOV,2021-10-04T01:00:00Z,48.03,-0.75,9.0,8.0,170,4,,6.21,29.940945,,,TRUE,,,,,,,,CAVOK,,,,,,,,VFR,,,,,,,,,,,,METAR,99.0
LFOT 040100Z AUTO 16005KT CAVOK 09/07 Q1016 NOSIG,LFOT,2021-10-04T01:00:00Z,47.43,0.72,9.0,7.0,160,5,,6.21,30.0,,,TRUE,,,TRUE,,,,,CAVOK,,,,,,,,VFR,,,,,,,,,,,,METAR,107.0
LFOP 040100Z AUTO 19011KT CAVOK 09/07 Q1013,LFOP,2021-10-04T01:00:00Z,49.37,1.17,9.0,7.0,190,11,,6.21,29.911417,,,TRUE,,,,,,,,CAVOK,,,,,,,,VFR,,,,,,,,,,,,METAR,149.0
LFOK 040100Z AUTO 20006KT CAVOK 10/09 Q1015 NOSIG,LFOK,2021-10-04T01:00:00Z,48.78,4.15,10.0,9.0,200,6,,6.21,29.970472,,,TRUE,,,TRUE,,,,,CAVOK,,,,,,,,VFR,,,,,,,,,,,,METAR,166.0
LFOJ 040100Z AUTO 20007KT CAVOK 10/07 Q1015,LFOJ,2021-10-04T01:00:00Z,47.98,1.75,10.0,7.0,200,7,,6.21,29.970472,,,TRUE,,,,,,,,CAVOK,,,,,,,,VFR,,,,,,,,,,,,METAR,122.0
LFOH 040100Z AUTO 21012KT CAVOK 13/10 Q1012,LFOH,2021-10-04T01:00:00Z,49.52,0.08,13.0,10.0,210,12,,6.21,29.88189,,,TRUE,,,,,,,,CAVOK,,,,,,,,VFR,,,,,,,,,,,,METAR,87.0
LFOE 040100Z AUTO 20007KT CAVOK 09/07 Q1013 NOSIG,LFOE,2021-10-04T01:00:00Z,49.02,1.22,9.0,7.0,200,7,,6.21,29.911417,,,TRUE,,,TRUE,,,,,CAVOK,,,,,,,,VFR,,,,,,,,,,,,METAR,132.0
LFOC 040100Z AUTO 19007KT CAVOK 07/07 Q1015,LFOC,2021-10-04T01:00:00Z,48.05,1.37,7.0,7.0,190,7,,6.21,29.970472,,,TRUE,,,,,,,,CAVOK,,,,,,,,VFR,,,,,,,,,,,,METAR,124.0
LFOB 040100Z AUTO VRB02KT CAVOK 10/08 Q1013 NOSIG,LFOB,2021-10-04T01:00:00Z,49.47,2.12,10.0,8.0,0,2,,6.21,29.911417,,,TRUE,,,TRUE,,,,,CAVOK,,,,,,,,VFR,,,,,,,,,,,,METAR,99.0
LFOA 040100Z AUTO 21003KT CAVOK 11/10 Q1016,LFOA,2021-10-04T01:00:00Z,47.05,2.63,11.0,10.0,210,3,,6.21,30.0,,,TRUE,,,,,,,,CAVOK,,,,,,,,VFR,,,,,,,,,,,,METAR,174.0
LFMY 040100Z AUTO 36012KT 9999 OVC021/// ///TCU 14/13 Q1014,LFMY,2021-10-04T01:00:00Z,43.6,5.1,14.0,13.0,360,12,,6.21,29.940945,,,TRUE,,,,,,,,OVC,2100,,,,,,,MVFR,,,,,,,,,,,,METAR,57.0
LFMV 040100Z AUTO 35015KT 9999 FEW015/// OVC047/// ///CB 14/12 Q1015,LFMV,2021-10-04T01:00:00Z,43.9,4.9,14.0,12.0,350,15,,6.21,29.970472,,,TRUE,,,,,,,,FEW,1500,OVC,4700,,,,,VFR,,,,,,,,,,,,METAR,33.0
LFMU 040100Z AUTO 28005KT 250V310 9999 -RA ///TCU 14/13 Q1017,LFMU,2021-10-04T01:00:00Z,43.32,3.35,14.0,13.0,280,5,,6.21,30.029528,,,TRUE,,,,,,,-RA,,,,,,,,,,,,,,,,,,,,,METAR,14.0
LFMT 040100Z AUTO 31005KT 4900 RA BR SCT010 BKN016 BKN025 15/14 Q1015 TEMPO BKN005,LFMT,2021-10-04T01:00:00Z,43.57,3.97,15.0,14.0,310,5,,3.04,29.970472,,,TRUE,,,,,,,RA BR,SCT,1000,BKN,1600,BKN,2500,,,MVFR,,,,,,,,,,,,METAR,1.0
LFMP 040100Z AUTO 30008KT 9999 OVC074/// ///CB 14/09 Q1017,LFMP,2021-10-04T01:00:00Z,42.73,2.87,14.0,9.0,300,8,,6.21,30.029528,,,TRUE,,,,,,,,OVC,7400,,,,,,,VFR,,,,,,,,,,,,METAR,41.0
LFMO 040100Z AUTO 33016KT 300V360 9999 OVC058/// ///CB 13/11 Q1015 BECMG 35015G25KT 4000 RA SCT010 OVC030,LFMO,2021-10-04T01:00:00Z,44.13,4.87,13.0,11.0,330,16,,6.21,29.970472,,,TRUE,,,,,,,,OVC,5800,,,,,,,VFR,,,,,,,,,,,,METAR,56.0
LFMN 040100Z 34008KT 9999 FEW063 SCT093 18/15 Q1015 NOSIG,LFMN,2021-10-04T01:00:00Z,43.65,7.2,18.0,15.0,340,8,,6.21,29.970472,,,,,,TRUE,,,,,FEW,6300,SCT,9300,,,,,VFR,,,,,,,,,,,,METAR,4.0
LFML 040100Z AUTO 35011KT 9999 BKN012/// BKN018/// OVC023/// ///CB 17/16 Q1013 TEMPO VRB15G25KT 1000 TSRA BKN006 BKN020CB,LFML,2021-10-04T01:00:00Z,43.45,5.22,17.0,16.0,350,11,,6.21,29.911417,,,TRUE,,,,,,,,BKN,1200,BKN,1800,OVC,2300,,,MVFR,,,,,,,,,,,,METAR,20.0
LFMK 040100Z AUTO VRB03KT 7000 RA BKN020/// BKN029/// OVC038/// ///CB 12/12 Q1019,LFMK,2021-10-04T01:00:00Z,43.22,2.32,12.0,12.0,0,3,,4.35,30.088583,,,TRUE,,,,,,,RA,BKN,2000,BKN,2900,OVC,3800,,,MVFR,,,,,,,,,,,,METAR,124.0
LFMI 040100Z AUTO 01015KT 9999 OVC021 14/13 Q1013 TEMPO 3000 SHRA BKN010 SCT050TCU BECMG 34020G35KT,LFMI,2021-10-04T01:00:00Z,43.52,4.93,14.0,13.0,10,15,,6.21,29.911417,,,TRUE,,,,,,,,OVC,2100,,,,,,,MVFR,,,,,,,,,,,,METAR,20.0
LFMH 040100Z AUTO 16004KT 9999 -RA ///TCU 10/09 Q1017,LFMH,2021-10-04T01:00:00Z,45.52,4.28,10.0,9.0,160,4,,6.21,30.029528,,,TRUE,,,,,,,-RA,,,,,,,,,,,,,,,,,,,,,METAR,400.0
LFMD 040100Z AUTO VRB03KT 9999 FEW045 BKN052 OVC062 18/16 Q1015,LFMD,2021-10-04T01:00:00Z,43.53,6.95,18.0,16.0,0,3,,6.21,29.970472,,,TRUE,,,,,,,,FEW,4500,BKN,5200,OVC,6200,,,VFR,,,,,,,,,,,,METAR,2.0
LFMC 040100Z AUTO 11005KT 060V200 9999 ////// 21/18 Q1014,LFMC,2021-10-04T01:00:00Z,43.37,6.38,21.0,18.0,110,5,,6.21,29.940945,,,TRUE,,,,,,,,,,,,,,,,,,,,,,,,,,,,METAR,79.0
LFLY 040100Z AUTO 13004KT 9999 -RA FEW018/// OVC100/// ///CB 11/10 Q1018 TEMPO 2000 RA OVC008 FEW030TCU,LFLY,2021-10-04T01:00:00Z,45.72,4.95,11.0,10.0,130,4,,6.21,30.059055,,,TRUE,,,,,,,-RA,FEW,1800,OVC,10000,,,,,VFR,,,,,,,,,,,,METAR,197.0
LFLX 040100Z AUTO 22007KT CAVOK 10/09 Q1017 NOSIG,LFLX,2021-10-04T01:00:00Z,46.87,1.73,10.0,9.0,220,7,,6.21,30.029528,,,TRUE,,,TRUE,,,,,CAVOK,,,,,,,,VFR,,,,,,,,,,,,METAR,157.0
LFLS 040100Z AUTO 10004KT 7000 RA FEW013/// SCT047/// OVC078/// ///CB 10/09 Q1018,LFLS,2021-10-04T01:00:00Z,45.37,5.32,10.0,9.0,100,4,,4.35,30.059055,,,TRUE,,,,,,,RA,FEW,1300,SCT,4700,OVC,7800,,,MVFR,,,,,,,,,,,,METAR,386.0
LFLP 040100Z AUTO 21006KT 5000 -RA BR OVC009 11/10 Q1017,LFLP,2021-10-04T01:00:00Z,45.92,6.1,11.0,10.0,210,6,,3.11,30.029528,,,TRUE,,,,,,,-RA BR,OVC,900,,,,,,,IFR,,,,,,,,,,,,METAR,460.0
LFLN 040100Z AUTO 18006KT 9999 FEW031 BKN040 OVC054 11/11 Q1017,LFLN,2021-10-04T01:00:00Z,46.42,4.02,11.0,11.0,180,6,,6.21,30.029528,,,TRUE,,,,,,,,FEW,3100,BKN,4000,OVC,5400,,,VFR,,,,,,,,,,,,METAR,238.0
LFLL 040100Z 08003KT 9999 -RA FEW021TCU SCT056 BKN090 11/10 Q1018 NOSIG,LFLL,2021-10-04T01:00:00Z,45.72,5.07,11.0,10.0,80,3,,6.21,30.059055,,,,,,TRUE,,,,-RA,FEW,2100,SCT,5600,BKN,9000,,,VFR,,,,,,,,,,,,METAR,234.0
LFLC 040100Z AUTO 18010KT CAVOK 11/09 Q1017 NOSIG,LFLC,2021-10-04T01:00:00Z,45.78,3.17,11.0,9.0,180,10,,6.21,30.029528,,,TRUE,,,TRUE,,,,,CAVOK,,,,,,,,VFR,,,,,,,,,,,,METAR,325.0
LFLB 040100Z AUTO VRB02KT 7000 -RA FEW008/// SCT013/// BKN024/// ///TCU 12/12 Q1018,LFLB,2021-10-04T01:00:00Z,45.63,5.87,12.0,12.0,0,2,,4.35,30.059055,,,TRUE,,,,,,,-RA,FEW,800,SCT,1300,BKN,2400,,,MVFR,,,,,,,,,,,,METAR,234.0
LFKS 040100Z AUTO 30004KT 240V020 7000 +RA FEW009/// SCT013/// BKN020/// ///CB 20/19 Q1015,LFKS,2021-10-04T01:00:00Z,41.92,9.4,20.0,19.0,300,4,,4.35,29.970472,,,TRUE,,,,,,,+RA,FEW,900,SCT,1300,BKN,2000,,,MVFR,,,,,,,,,,,,METAR,22.0
LFKJ 040100Z AUTO 06007KT CAVOK 17/13 Q1014 NOSIG,LFKJ,2021-10-04T01:00:00Z,41.92,8.8,17.0,13.0,60,7,,6.21,29.940945,,,TRUE,,,TRUE,,,,,CAVOK,,,,,,,,VFR,,,,,,,,,,,,METAR,9.0
LFKF 040100Z AUTO 06009KT 9999 BKN017 23/20 Q1015,LFKF,2021-10-04T01:00:00Z,41.5,9.08,23.0,20.0,60,9,,6.21,29.970472,,,TRUE,,,,,,,,BKN,1700,,,,,,,MVFR,,,,,,,,,,,,METAR,15.0
LFKC 040100Z AUTO 20005KT CAVOK 18/14 Q1014,LFKC,2021-10-04T01:00:00Z,42.52,8.8,18.0,14.0,200,5,,6.21,29.940945,,,TRUE,,,,,,,,CAVOK,,,,,,,,VFR,,,,,,,,,,,,METAR,38.0
LFKB 040100Z AUTO 20003KT 150V240 9999 FEW024/// SCT043/// ///CB 20/16 Q1016 TEMPO TS,LFKB,2021-10-04T01:00:00Z,42.55,9.48,20.0,16.0,200,3,,6.21,30.0,,,TRUE,,,,,,,,FEW,2400,SCT,4300,,,,,VFR,,,,,,,,,,,,METAR,7.0
LFJR 040100Z AUTO 17004KT 140V200 CAVOK 09/08 Q1015,LFJR,2021-10-04T01:00:00Z,47.57,-0.32,9.0,8.0,170,4,,6.21,29.970472,,,TRUE,,,,,,,,CAVOK,,,,,,,,VFR,,,,,,,,,,,,METAR,50.0
LFJL 040100Z AUTO 16007KT CAVOK 11/10 Q1016 TEMPO BKN009,LFJL,2021-10-04T01:00:00Z,48.97,6.25,11.0,10.0,160,7,,6.21,30.0,,,TRUE,,,,,,,,CAVOK,,,,,,,,VFR,,,,,,,,,,,,METAR,259.0
LFGJ 040100Z AUTO 17006KT 9999 RA ///CB 11/11 Q1017,LFGJ,2021-10-04T01:00:00Z,47.05,5.43,11.0,11.0,170,6,,6.21,30.029528,,,TRUE,,,,,,,RA,,,,,,,,,,,,,,,,,,,,,METAR,191.0
LFGA 040100Z AUTO 20002KT 9999 -RA FEW029/// BKN090/// OVC100/// ///TCU 12/12 Q1017,LFGA,2021-10-04T01:00:00Z,48.1,7.35,12.0,12.0,200,2,,6.21,30.029528,,,TRUE,,,,,,,-RA,FEW,2900,BKN,9000,OVC,10000,,,VFR,,,,,,,,,,,,METAR,191.0
LFCR 040100Z AUTO 27003KT 9999 -RA SCT003/// BKN014/// BKN029/// ///TCU 10/10 Q1018 TEMPO 2000 BR OVC002,LFCR,2021-10-04T01:00:00Z,44.4,2.47,10.0,10.0,270,3,,6.21,30.059055,,,TRUE,,,,,,,-RA,SCT,300,BKN,1400,BKN,2900,,,MVFR,,,,,,,,,,,,METAR,576.0
LFCK 040100Z AUTO 26006KT 9999 -RA SCT004/// BKN008/// BKN017/// ///TCU 12/11 Q1020,LFCK,2021-10-04T01:00:00Z,43.55,2.28,12.0,11.0,260,6,,6.21,30.11811,,,TRUE,,,,,,,-RA,SCT,400,BKN,800,BKN,1700,,,IFR,,,,,,,,,,,,METAR,223.0
LFBZ 040100Z AUTO 20003KT 9999 SCT029/// BKN041/// BKN062/// ///CB 13/12 Q1019 TEMPO 4000 -SHRA BECMG BKN040,LFBZ,2021-10-04T01:00:00Z,43.47,-1.53,13.0,12.0,200,3,,6.21,30.088583,,,TRUE,,,,,,,,SCT,2900,BKN,4100,BKN,6200,,,VFR,,,,,,,,,,,,METAR,70.0
LFBY 040100Z AUTO 18007KT 8000 // ////// 12/11 Q1018,LFBY,2021-10-04T01:00:00Z,43.68,-1.07,12.0,11.0,180,7,,4.97,30.059055,,,TRUE,,,,,,,,,,,,,,,,,,,,,,,,,,,,METAR,32.0
LFBX 040100Z AUTO 00000KT 0700 R29/1800U FG VV/// 10/10 Q1018,LFBX,2021-10-04T01:00:00Z,45.2,0.82,10.0,10.0,0,0,,0.43,30.059055,,,TRUE,,,,,,,FG,OVX,0,,,,,,,LIFR,,,,,,,,,,,,METAR,97.0
LFBU 040100Z AUTO 14003KT CAVOK 10/08 Q1017,LFBU,2021-10-04T01:00:00Z,45.72,0.22,10.0,8.0,140,3,,6.21,30.029528,,,TRUE,,,,,,,,CAVOK,,,,,,,,VFR,,,,,,,,,,,,METAR,124.0
LFBT 040100Z AUTO 18004KT 9999 SCT100 OVC230 10/09 Q1019 NOSIG,LFBT,2021-10-04T01:00:00Z,43.18,0.0,10.0,9.0,180,4,,6.21,30.088583,,,TRUE,,,TRUE,,,,,SCT,10000,OVC,23000,,,,,VFR,,,,,,,,,,,,METAR,359.0
LFBP 040100Z AUTO 11004KT CAVOK 10/10 Q1019 TEMPO 0500 FG,LFBP,2021-10-04T01:00:00Z,43.38,-0.42,10.0,10.0,110,4,,6.21,30.088583,,,TRUE,,,,,,,,CAVOK,,,,,,,,VFR,,,,,,,,,,,,METAR,182.0
LFBO 040100Z AUTO 20005KT 9999 FEW038 BKN110 BKN140 12/12 Q1019 NOSIG,LFBO,2021-10-04T01:00:00Z,43.62,1.37,12.0,12.0,200,5,,6.21,30.088583,,,TRUE,,,TRUE,,,,,FEW,3800,BKN,11000,BKN,14000,,,VFR,,,,,,,,,,,,METAR,150.0
LFBM 040100Z AUTO VRB02KT CAVOK 11/10 Q1018,LFBM,2021-10-04T01:00:00Z,43.92,-0.5,11.0,10.0,0,2,,6.21,30.059055,,,TRUE,,,,,,,,CAVOK,,,,,,,,VFR,,,,,,,,,,,,METAR,56.0
LFBL 040100Z AUTO 00000KT 1000 0550 R21/0800U R03/1000N BCFG VV/// 10/09 Q1018 TEMPO 0300 FG NSC,LFBL,2021-10-04T01:00:00Z,45.87,1.17,10.0,9.0,0,0,,0.62,30.059055,,,TRUE,,,,,,,BCFG,OVX,0,,,,,,,LIFR,,,,,,,,,,,,METAR,402.0
LFBI 040100Z AUTO 18005KT CAVOK 08/07 Q1016 TEMPO 3000 BR BKN005,LFBI,2021-10-04T01:00:00Z,46.58,0.32,8.0,7.0,180,5,,6.21,30.0,,,TRUE,,,,,,,,CAVOK,,,,,,,,VFR,,,,,,,,,,,,METAR,117.0
LFBH 040100Z AUTO 13003KT 100V180 9999 BKN031 BKN038 12/11 Q1016 BECMG 24010KT,LFBH,2021-10-04T01:00:00Z,46.18,-1.2,12.0,11.0,130,3,,6.21,30.0,,,TRUE,,,,,,,,BKN,3100,BKN,3800,,,,,VFR,,,,,,,,,,,,METAR,18.0
LFBG 040100Z AUTO 00000KT 9999 FEW047 BKN056 BKN110 10/09 Q1017 NOSIG,LFBG,2021-10-04T01:00:00Z,45.67,-0.32,10.0,9.0,0,0,,6.21,30.029528,,,TRUE,,,TRUE,,,,,FEW,4700,BKN,5600,BKN,11000,,,VFR,,,,,,,,,,,,METAR,28.0
LFBE 040100Z AUTO 16002KT 2800 BR FEW009 10/10 Q1018 TEMPO 0300 FG VV///,LFBE,2021-10-04T01:00:00Z,44.82,0.52,10.0,10.0,160,2,,1.74,30.059055,,,TRUE,,,,,,,BR,FEW,900,,,,,,,IFR,,,,,,,,,,,,METAR,49.0
LFBD 040100Z AUTO 19005KT 9999 FEW040/// ///TCU 10/09 Q1018 BECMG SCT030,LFBD,2021-10-04T01:00:00Z,44.82,-0.7,10.0,9.0,190,5,,6.21,30.059055,,,TRUE,,,,,,,,FEW,4000,,,,,,,VFR,,,,,,,,,,,,METAR,48.0
LFBC 040100Z AUTO 19003KT 9999 FEW035 11/11 Q1017,LFBC,2021-10-04T01:00:00Z,44.52,-1.12,11.0,11.0,190,3,,6.21,30.029528,,,TRUE,,,,,,,,FEW,3500,,,,,,,VFR,,,,,,,,,,,,METAR,22.0
LFBA 040100Z AUTO 26003KT 9999 FEW009 BKN230 13/12 Q1018,LFBA,2021-10-04T01:00:00Z,44.17,0.6,13.0,12.0,260,3,,6.21,30.059055,,,TRUE,,,,,,,,FEW,900,BKN,23000,,,,,VFR,,,,,,,,,,,,METAR,68.0
LFAT 040100Z AUTO 14006KT 9999 ///CB 11/10 Q1011,LFAT,2021-10-04T01:00:00Z,50.52,1.62,11.0,10.0,140,6,,6.21,29.852362,,,TRUE,,,,,,,,,,,,,,,,,,,,,,,,,,,,METAR,2.0
LFAQ 040100Z AUTO 22009KT CAVOK 10/08 Q1013,LFAQ,2021-10-04T01:00:00Z,49.97,2.7,10.0,8.0,220,9,,6.21,29.911417,,,TRUE,,,,,,,,CAVOK,,,,,,,,VFR,,,,,,,,,,,,METAR,107.0
LEZL 040100Z AUTO VRB01KT CAVOK 14/10 Q1019,LEZL,2021-10-04T01:00:00Z,37.42,-5.9,14.0,10.0,0,1,,6.21,30.088583,,,TRUE,,,,,,,,CAVOK,,,,,,,,VFR,,,,,,,,,,,,METAR,26.0
LEZG 040100Z 28015KT CAVOK 12/08 Q1016,LEZG,2021-10-04T01:00:00Z,41.67,-1.02,12.0,8.0,280,15,,6.21,30.0,,,,,,,,,,,CAVOK,,,,,,,,VFR,,,,,,,,,,,,METAR,245.0
LEXJ 040100Z AUTO 23008KT CAVOK 13/09 Q1019,LEXJ,2021-10-04T01:00:00Z,43.42,-3.82,13.0,9.0,230,8,,6.21,30.088583,,,TRUE,,,,,,,,CAVOK,,,,,,,,VFR,,,,,,,,,,,,METAR,1.0
LEVT 040100Z 23002KT 9999 FEW050 04/04 Q1020,LEVT,2021-10-04T01:00:00Z,42.87,-2.72,4.0,4.0,230,2,,6.21,30.11811,,,,,,,,,,,FEW,5000,,,,,,,VFR,,,,,,,,,,,,METAR,501.0
LEVS 040100Z AUTO 19003KT 150V210 CAVOK 09/05 Q1020,LEVS,2021-10-04T01:00:00Z,40.37,-3.78,9.0,5.0,190,3,,6.21,30.11811,,,TRUE,,,,,,,,CAVOK,,,,,,,,VFR,,,,,,,,,,,,METAR,683.0
LEVD 040100Z AUTO 35006KT CAVOK 04/02 Q1020,LEVD,2021-10-04T01:00:00Z,41.72,-4.85,4.0,2.0,350,6,,6.21,30.11811,,,TRUE,,,,,,,,CAVOK,,,,,,,,VFR,,,,,,,,,,,,METAR,844.0
LEVC 040100Z 26005KT 230V320 9999 FEW045 17/13 Q1014 NOSIG,LEVC,2021-10-04T01:00:00Z,39.5,-0.47,17.0,13.0,260,5,,6.21,29.940945,,,,,,TRUE,,,,,FEW,4500,,,,,,,VFR,,,,,,,,,,,,METAR,58.0
LETU 040100Z AUTO 29009KT 9999 NCD 11/07 Q1018,LETU,2021-10-04T01:00:00Z,,,11.0,7.0,290,9,,6.21,30.059055,,,TRUE,,,,,,,,CLR,,,,,,,,VFR,,,,,,,,,,,,METAR,
LETO 040100Z 09001KT CAVOK 08/05 Q1019 NOSIG,LETO,2021-10-04T01:00:00Z,40.48,-3.47,8.0,5.0,90,1,,6.21,30.088583,,,,,,TRUE,,,,,CAVOK,,,,,,,,VFR,,,,,,,,,,,,METAR,598.0
LETL 040100Z AUTO 35011KT 9999 FEW024 07/06 Q1018,LETL,2021-10-04T01:00:00Z,40.42,-1.22,7.0,6.0,350,11,,6.21,30.059055,,,TRUE,,,,,,,,FEW,2400,,,,,,,VFR,,,,,,,,,,,,METAR,1024.0
LEST 040100Z 21003KT 160V260 9999 FEW020 11/09 Q1020 NOSIG,LEST,2021-10-04T01:00:00Z,42.88,-8.42,11.0,9.0,210,3,,6.21,30.11811,,,,,,TRUE,,,,,FEW,2000,,,,,,,VFR,,,,,,,,,,,,METAR,363.0
LESO 040100Z AUTO 17005KT 9999 FEW048 SCT060 13/13 Q1019,LESO,2021-10-04T01:00:00Z,43.35,-1.8,13.0,13.0,170,5,,6.21,30.088583,,,TRUE,,,,,,,,FEW,4800,SCT,6000,,,,,VFR,,,,,,,,,,,,METAR,3.0
LESB 040100Z AUTO 32015KT 9999 FEW022/// 21/17 Q1012,LESB,2021-10-04T01:00:00Z,39.6,2.7,21.0,17.0,320,15,,6.21,29.88189,,,TRUE,,,,,,,,FEW,2200,,,,,,,VFR,,,,,,,,,,,,METAR,48.0
LESA 040100Z AUTO 00000KT 8000 NCD 05/04 Q1021,LESA,2021-10-04T01:00:00Z,40.95,-5.5,5.0,4.0,0,0,,4.97,30.147638,,,TRUE,,,,,,,,CLR,,,,,,,,MVFR,,,,,,,,,,,,METAR,788.0
LERT 040100Z 31006KT CAVOK 16/10 Q1019 NOSIG,LERT,2021-10-04T01:00:00Z,36.63,-6.33,16.0,10.0,310,6,,6.21,30.088583,,,,,,TRUE,,,,,CAVOK,,,,,,,,VFR,,,,,,,,,,,,METAR,27.0
LERS 040100Z AUTO VRB04KT CAVOK 15/13 Q1013,LERS,2021-10-04T01:00:00Z,41.13,1.17,15.0,13.0,0,4,,6.21,29.911417,,,TRUE,,,,,,,,CAVOK,,,,,,,,VFR,,,,,,,,,,,,METAR,68.0
LEPP 040100Z AUTO 36005KT CAVOK 09/08 Q1018,LEPP,2021-10-04T01:00:00Z,42.77,-1.65,9.0,8.0,360,5,,6.21,30.059055,,,TRUE,,,,,,,,CAVOK,,,,,,,,VFR,,,,,,,,,,,,METAR,448.0
LEPA 040100Z 31011KT 9999 FEW018 SCT032 22/18 Q1011 NOSIG,LEPA,2021-10-04T01:00:00Z,39.55,2.73,22.0,18.0,310,11,,6.21,29.852362,,,,,,TRUE,,,,,FEW,1800,SCT,3200,,,,,VFR,,,,,,,,,,,,METAR,8.0
LEMO 040100Z VRB01KT CAVOK 13/09 Q1019 NOSIG,LEMO,2021-10-04T01:00:00Z,37.17,-5.62,13.0,9.0,0,1,,6.21,30.088583,,,,,,TRUE,,,,,CAVOK,,,,,,,,VFR,,,,,,,,,,,,METAR,82.0
LEMI 040100Z AUTO 29011KT 250V350 CAVOK 19/11 Q1015,LEMI,2021-10-04T01:00:00Z,37.8,-1.12,19.0,11.0,290,11,,6.21,29.970472,,,TRUE,,,,,,,,CAVOK,,,,,,,,VFR,,,,,,,,,,,,METAR,193.0
LEMH 040100Z AUTO 22010KT 180V250 9999 FEW022/// SCT025/// BKN032/// 23/18 Q1011,LEMH,2021-10-04T01:00:00Z,39.87,4.22,23.0,18.0,220,10,,6.21,29.852362,,,TRUE,,,,,,,,FEW,2200,SCT,2500,BKN,3200,,,VFR,,,,,,,,,,,,METAR,82.0
LEMG 040100Z 28009KT CAVOK 19/07 Q1018 NOSIG,LEMG,2021-10-04T01:00:00Z,36.67,-4.47,19.0,7.0,280,9,,6.21,30.059055,,,,,,TRUE,,,,,CAVOK,,,,,,,,VFR,,,,,,,,,,,,METAR,5.0
LEMD 040100Z 02002KT CAVOK 10/04 Q1019 NOSIG,LEMD,2021-10-04T01:00:00Z,40.45,-3.57,10.0,4.0,20,2,,6.21,30.088583,,,,,,TRUE,,,,,CAVOK,,,,,,,,VFR,,,,,,,,,,,,METAR,589.0
LELO 040100Z AUTO 27003KT 200V330 CAVOK 09/07 Q1019,LELO,2021-10-04T01:00:00Z,42.45,-2.32,9.0,7.0,270,3,,6.21,30.088583,,,TRUE,,,,,,,,CAVOK,,,,,,,,VFR,,,,,,,,,,,,METAR,352.0
LELN 040100Z AUTO 34002KT CAVOK 04/02 Q1020,LELN,2021-10-04T01:00:00Z,42.58,-5.65,4.0,2.0,340,2,,6.21,30.11811,,,TRUE,,,,,,,,CAVOK,,,,,,,,VFR,,,,,,,,,,,,METAR,911.0
LELL 040100Z AUTO VRB02KT 6000 -RA SCT011 SCT027 BKN041 16/16 Q1014,LELL,2021-10-04T01:00:00Z,41.52,2.1,16.0,16.0,0,2,,3.73,29.940945,,,TRUE,,,,,,,-RA,SCT,1100,SCT,2700,BKN,4100,,,MVFR,,,,,,,,,,,,METAR,136.0
LELC 040100Z AUTO 23006KT 200V260 CAVOK 17/16 Q1014,LELC,2021-10-04T01:00:00Z,37.77,-0.8,17.0,16.0,230,6,,6.21,29.940945,,,TRUE,,,,,,,,CAVOK,,,,,,,,VFR,,,,,,,,,,,,METAR,3.0
LEJR 040100Z AUTO 00000KT CAVOK 11/10 Q1020,LEJR,2021-10-04T01:00:00Z,36.75,-6.07,11.0,10.0,0,0,,6.21,30.11811,,,TRUE,,,,,,,,CAVOK,,,,,,,,VFR,,,,,,,,,,,,METAR,25.0
LEIB 040100Z 32019KT 290V350 9999 RA FEW012 SCT020 18/15 Q1013 NOSIG,LEIB,2021-10-04T01:00:00Z,38.87,1.38,18.0,15.0,320,19,,6.21,29.911417,,,,,,TRUE,,,,RA,FEW,1200,SCT,2000,,,,,VFR,,,,,,,,,,,,METAR,4.0
LEHC 040100Z AUTO 28008KT CAVOK 10/07 Q1014,LEHC,2021-10-04T01:00:00Z,42.08,-0.32,10.0,7.0,280,8,,6.21,29.940945,,,TRUE,,,,,,,,CAVOK,,,,,,,,VFR,,,,,,,,,,,,METAR,540.0
LEGR 040100Z AUTO 27005KT CAVOK 11/08 Q1019,LEGR,2021-10-04T01:00:00Z,37.18,-3.78,11.0,8.0,270,5,,6.21,30.088583,,,TRUE,,,,,,,,CAVOK,,,,,,,,VFR,,,,,,,,,,,,METAR,560.0
LEGE 040100Z 02005KT 340V060 9999 RA OVC040 15/11 Q1014,LEGE,2021-10-04T01:00:00Z,41.9,2.77,15.0,11.0,20,5,,6.21,29.940945,,,,,,,,,,RA,OVC,4000,,,,,,,VFR,,,,,,,,,,,,METAR,140.0
LEDA 040100Z AUTO 23007KT 160V270 9999 OVC034 12/10 Q1014,LEDA,2021-10-04T01:00:00Z,41.73,0.53,12.0,10.0,230,7,,6.21,29.940945,,,TRUE,,,,,,,,OVC,3400,,,,,,,VFR,,,,,,,,,,,,METAR,352.0
LECO 040100Z AUTO 20008KT CAVOK 14/13 Q1019,LECO,2021-10-04T01:00:00Z,43.3,-8.37,14.0,13.0,200,8,,6.21,30.088583,,,TRUE,,,,,,,,CAVOK,,,,,,,,VFR,,,,,,,,,,,,METAR,80.0
LECH 040100Z AUTO 36007KT 290V050 9999 FEW067 15/07 Q1014,LECH,2021-10-04T01:00:00Z,40.2,0.07,15.0,7.0,360,7,,6.21,29.940945,,,TRUE,,,,,,,,FEW,6700,,,,,,,VFR,,,,,,,,,,,,METAR,360.0
LEBT 040100Z AUTO 35004KT 290V020 CAVOK 14/13 Q1013,LEBT,2021-10-04T01:00:00Z,39.58,-0.45,14.0,13.0,350,4,,6.21,29.911417,,,TRUE,,,,,,,,CAVOK,,,,,,,,VFR,,,,,,,,,,,,METAR,50.0
LEBR 040100Z AUTO /////KT //// // NCD 11/07 Q1018,LEBR,2021-10-04T01:00:00Z,42.2,-1.43,11.0,7.0,,,,,30.059055,,,TRUE,,,,,,,,CLR,,,,,,,,,,,,,,,,,,,,METAR,347.0
LEBL 040100Z 35007KT 9000 RA FEW022 FEW030TCU SCT036 BKN044 16/16 Q1013 NOSIG,LEBL,2021-10-04T01:00:00Z,41.28,2.07,16.0,16.0,350,7,,5.59,29.911417,,,,,,TRUE,,,,RA,FEW,2200,FEW,3000,SCT,3600,BKN,4400,VFR,,,,,,,,,,,,METAR,2.0
LEBG 040100Z AUTO 00000KT CAVOK 03/02 Q1020,LEBG,2021-10-04T01:00:00Z,42.37,-3.62,3.0,2.0,0,0,,6.21,30.11811,,,TRUE,,,,,,,,CAVOK,,,,,,,,VFR,,,,,,,,,,,,METAR,892.0
LEBB 040100Z AUTO 09003KT 070V140 CAVOK 11/11 Q1019,LEBB,2021-10-04T01:00:00Z,43.28,-2.92,11.0,11.0,90,3,,6.21,30.088583,,,TRUE,,,,,,,,CAVOK,,,,,,,,VFR,,,,,,,,,,,,METAR,38.0
LEBA 040100Z AUTO 20001KT CAVOK 13/09 Q1018,LEBA,2021-10-04T01:00:00Z,37.85,-4.83,13.0,9.0,200,1,,6.21,30.059055,,,TRUE,,,,,,,,CAVOK,,,,,,,,VFR,,,,,,,,,,,,METAR,88.0
LEAS 040100Z AUTO 23009KT CAVOK 13/08 Q1019,LEAS,2021-10-04T01:00:00Z,43.57,-6.03,13.0,8.0,230,9,,6.21,30.088583,,,TRUE,,,,,,,,CAVOK,,,,,,,,VFR,,,,,,,,,,,,METAR,120.0
LEAM 040100Z AUTO 33018G29KT CAVOK 22/06 Q1015,LEAM,2021-10-04T01:00:00Z,36.85,-2.37,22.0,6.0,330,18,29,6.21,29.970472,,,TRUE,,,,,,,,CAVOK,,,,,,,,VFR,,,,,,,,,,,,METAR,16.0
LEAL 040100Z 25004KT 230V290 CAVOK 17/15 Q1013 NOSIG,LEAL,2021-10-04T01:00:00Z,38.27,-0.55,17.0,15.0,250,4,,6.21,29.911417,,,,,,TRUE,,,,,CAVOK,,,,,,,,VFR,,,,,,,,,,,,METAR,26.0
LEAG 040100Z AUTO VRB03KT CAVOK 19/09 Q1019,LEAG,2021-10-04T01:00:00Z,36.12,-5.45,19.0,9.0,0,3,,6.21,30.088583,,,TRUE,,,,,,,,CAVOK,,,,,,,,VFR,,,,,,,,,,,,METAR,4.0
LEAB 040100Z 30009KT CAVOK 11/09 Q1018 NOSIG,LEAB,2021-10-04T01:00:00Z,38.95,-1.85,11.0,9.0,300,9,,6.21,30.059055,,,,,,TRUE,,,,,CAVOK,,,,,,,,VFR,,,,,,,,,,,,METAR,704.0
LDZD 040100Z 13004KT 9999 FEW025 14/12 Q1020,LDZD,2021-10-04T01:00:00Z,44.1,15.33,14.0,12.0,130,4,,6.21,30.11811,,,,,,,,,,,FEW,2500,,,,,,,VFR,,,,,,,,,,,,METAR,82.0
LDZA 040100Z 24005KT CAVOK 13/11 Q1019 NOSIG,LDZA,2021-10-04T01:00:00Z,45.72,16.07,13.0,11.0,240,5,,6.21,30.088583,,,,,,TRUE,,,,,CAVOK,,,,,,,,VFR,,,,,,,,,,,,METAR,103.0
LDSP 040100Z AUTO 02005KT 350V070 CAVOK 16/12 Q1021,LDSP,2021-10-04T01:00:00Z,43.53,16.3,16.0,12.0,20,5,,6.21,30.147638,,,TRUE,,,,,,,,CAVOK,,,,,,,,VFR,,,,,,,,,,,,METAR,16.0
LDRI 040100Z 12005KT 080V150 9999 FEW036 SCT050 18/17 Q1020,LDRI,2021-10-04T01:00:00Z,45.22,14.57,18.0,17.0,120,5,,6.21,30.11811,,,,,,,,,,,FEW,3600,SCT,5000,,,,,VFR,,,,,,,,,,,,METAR,80.0
LDPL 040100Z 11004KT 080V140 9999 FEW015 BKN025 20/18 Q1019,LDPL,2021-10-04T01:00:00Z,44.88,13.92,20.0,18.0,110,4,,6.21,30.088583,,,,,,,,,,,FEW,1500,BKN,2500,,,,,MVFR,,,,,,,,,,,,METAR,63.0
LDOS 040100Z 12002KT CAVOK 10/07 Q1020,LDOS,2021-10-04T01:00:00Z,45.47,18.82,10.0,7.0,120,2,,6.21,30.11811,,,,,,,,,,,CAVOK,,,,,,,,VFR,,,,,,,,,,,,METAR,82.0
LDDU 040100Z 07008KT CAVOK 17/09 Q1022,LDDU,2021-10-04T01:00:00Z,42.57,18.27,17.0,9.0,70,8,,6.21,30.177166,,,,,,,,,,,CAVOK,,,,,,,,VFR,,,,,,,,,,,,METAR,156.0
LCPH 040100Z AUTO 02005KT 9999 NCD 19/13 Q1014,LCPH,2021-10-04T01:00:00Z,34.72,32.47,19.0,13.0,20,5,,6.21,29.940945,,,TRUE,,,,,,,,CLR,,,,,,,,VFR,,,,,,,,,,,,METAR,8.0
LCLK 040100Z 32006KT CAVOK 23/12 Q1013 NOSIG,LCLK,2021-10-04T01:00:00Z,34.87,33.62,23.0,12.0,320,6,,6.21,29.911417,,,,,,TRUE,,,,,CAVOK,,,,,,,,VFR,,,,,,,,,,,,METAR,2.0
LBWN 040100Z VRB02KT CAVOK 09/08 Q1024 NOSIG,LBWN,2021-10-04T01:00:00Z,43.22,27.82,9.0,8.0,0,2,,6.21,30.236221,,,,,,TRUE,,,,,CAVOK,,,,,,,,VFR,,,,,,,,,,,,METAR,74.0
LBSF 040100Z VRB02KT CAVOK 04/03 Q1025 NOSIG,LBSF,2021-10-04T01:00:00Z,42.65,23.37,4.0,3.0,0,2,,6.21,30.265747,,,,,,TRUE,,,,,CAVOK,,,,,,,,VFR,,,,,,,,,,,,METAR,592.0
LBPL 040100Z 03004KT 9999 SKC 06/02 Q1025,LBPL,2021-10-04T01:00:00Z,43.45,24.5,6.0,2.0,30,4,,6.21,30.265747,,,,,,,,,,,SKC,,,,,,,,VFR,,,,,,,,,,,,METAR,93.0
LBPG 040100Z 35004KT 9999 SKC 05/03 Q1025,LBPG,2021-10-04T01:00:00Z,42.28,24.72,5.0,3.0,350,4,,6.21,30.265747,,,,,,,,,,,SKC,,,,,,,,VFR,,,,,,,,,,,,METAR,198.0
LBPD 040100Z AUTO 36006KT 9999 NCD 07/02 Q1025,LBPD,2021-10-04T01:00:00Z,42.05,24.85,7.0,2.0,360,6,,6.21,30.265747,,,TRUE,,,,,,,,CLR,,,,,,,,VFR,,,,,,,,,,,,METAR,182.0
LBGO 040100Z AUTO 00000KT 9999 NCD 03/03 Q1024,LBGO,2021-10-04T01:00:00Z,43.15,25.72,3.0,3.0,0,0,,6.21,30.236221,,,TRUE,,,,,,,,CLR,,,,,,,,VFR,,,,,,,,,,,,METAR,84.0
LBBG 040100Z 34005KT CAVOK 11/11 Q1024 NOSIG,LBBG,2021-10-04T01:00:00Z,42.57,27.52,11.0,11.0,340,5,,6.21,30.236221,,,,,,TRUE,,,,,CAVOK,,,,,,,,VFR,,,,,,,,,,,,METAR,41.0
KWBF 040100Z AUTO 14004KT 10SM SCT004 SCT021 28/23 A2997 RMK A01,KWBF,2021-10-04T01:00:00Z,26.93,-90.5,28.0,23.0,140,4,,10.0,29.970472,,,TRUE,TRUE,,,,,,,SCT,400,SCT,2100,,,,,VFR,,,,,,,,,,,,METAR,40.0
KTIW 040100Z 03007KT 10SM FEW016 BKN033 BKN045 12/08 A3011 RMK AO2 T01170083,KTIW,2021-10-04T01:00:00Z,47.27,-122.58,11.7,8.3,30,7,,10.0,30.109253,,,,TRUE,,,,,,,FEW,1600,BKN,3300,BKN,4500,,,VFR,,,,,,,,,,,,METAR,89.0
KQFX 040100Z AUTO 21002KT 9999 FEW039 BKN200 20/16 A3016 RMK A02 TSNO,KQFX,2021-10-04T01:00:00Z,,,20.0,16.0,210,2,,6.21,30.159449,,,TRUE,TRUE,,,TRUE,,,,FEW,3900,BKN,20000,,,,,VFR,,,,,,,,,,,,METAR,
KQFV 040100Z AUTO 9999 SCT036 BKN180 22/16 A3017 RMK / A02,KQFV,2021-10-04T01:00:00Z,,,22.0,16.0,,,,6.21,30.171259,,,TRUE,TRUE,,,,,,,SCT,3600,BKN,18000,,,,,VFR,,,,,,,,,,,,METAR,
KQFU 040100Z AUTO 14006G11KT 9999 BKN025 BKN110 23/17 A3016 RMK A02 TSNO,KQFU,2021-10-04T01:00:00Z,,,23.0,17.0,140,6,11,6.21,30.159449,,,TRUE,TRUE,,,TRUE,,,,BKN,2500,BKN,11000,,,,,MVFR,,,,,,,,,,,,METAR,
KQFT 040100Z AUTO 21002KT 9999 BKN031 BKN140 BKN170 20/17 A3014 RMK A02 TSNO,KQFT,2021-10-04T01:00:00Z,,,20.0,17.0,210,2,,6.21,30.138779,,,TRUE,TRUE,,,TRUE,,,,BKN,3100,BKN,14000,BKN,17000,,,VFR,,,,,,,,,,,,METAR,
KQFB 040100Z AUTO 13004KT 9999 BKN032 25/20 A3026 RMK A02 TSNO,KQFB,2021-10-04T01:00:00Z,,,25.0,20.0,130,4,,6.21,30.259842,,,TRUE,TRUE,,,TRUE,,,,BKN,3200,,,,,,,VFR,,,,,,,,,,,,METAR,
KQEY 040100Z AUTO 03002KT 9999 BKN210 25/18 A2988 RMK A02 TSNO,KQEY,2021-10-04T01:00:00Z,,,25.0,18.0,30,2,,6.21,29.878937,,,TRUE,TRUE,,,TRUE,,,,BKN,21000,,,,,,,VFR,,,,,,,,,,,,METAR,
KQEX 040100Z AUTO 19005G11KT 9999 FEW018 25/20 A3010 RMK A02 TSNO,KQEX,2021-10-04T01:00:00Z,,,25.0,20.0,190,5,11,6.21,30.100393,,,TRUE,TRUE,,,TRUE,,,,FEW,1800,,,,,,,VFR,,,,,,,,,,,,METAR,
KQEW 040100Z AUTO 34001KT 9000 HZ FEW240 20/17 A3018 RMK A02 TSNO,KQEW,2021-10-04T01:00:00Z,,,20.0,17.0,340,1,,5.59,30.180119,,,TRUE,TRUE,,,TRUE,,,HZ,FEW,24000,,,,,,,VFR,,,,,,,,,,,,METAR,
KQEV 040100Z AUTO 05002KT M0400 -SHRA BKN038 BKN210 22/18 A3013 RMK A02 TSNO,KQEV,2021-10-04T01:00:00Z,,,22.0,18.0,50,2,,0.25,30.129921,,,TRUE,TRUE,,,TRUE,,,-SHRA,BKN,3800,BKN,21000,,,,,LIFR,,,,,,,,,,,,METAR,
KQER 040100Z AUTO 14005G11KT 9999 BKN031 BKN140 23/18 A3008 RMK A02 TSNO,KQER,2021-10-04T01:00:00Z,,,23.0,18.0,140,5,11,6.21,30.079725,,,TRUE,TRUE,,,TRUE,,,,BKN,3100,BKN,14000,,,,,VFR,,,,,,,,,,,,METAR,
KQEQ 040100Z AUTO 18008G12KT 9000 HZ BKN029 BKN110 23/19 A3014 RMK A02 TSNO,KQEQ,2021-10-04T01:00:00Z,,,23.0,19.0,180,8,12,5.59,30.138779,,,TRUE,TRUE,,,TRUE,,,HZ,BKN,2900,BKN,11000,,,,,MVFR,,,,,,,,,,,,METAR,
KQEP 040100Z AUTO 14004G11KT 9999 SCT030 BKN055 BKN140 20/16 A3017 RMK A02 TSNO,KQEP,2021-10-04T01:00:00Z,,,20.0,16.0,140,4,11,6.21,30.171259,,,TRUE,TRUE,,,TRUE,,,,SCT,3000,BKN,5500,BKN,14000,,,VFR,,,,,,,,,,,,METAR,
KQEN 040100Z AUTO 25011G23KT 9999 SCT190 BKN210 18/13 A3021 RMK A02 TSNO,KQEN,2021-10-04T01:00:00Z,,,18.0,13.0,250,11,23,6.21,30.209646,,,TRUE,TRUE,,,TRUE,,,,SCT,19000,BKN,21000,,,,,VFR,,,,,,,,,,,,METAR,
KQEJ 040100Z AUTO 06001KT 9999 BKN031 19/17 A3012 RMK A02 TSNO,KQEJ,2021-10-04T01:00:00Z,,,19.0,17.0,60,1,,6.21,30.121063,,,TRUE,TRUE,,,TRUE,,,,BKN,3100,,,,,,,VFR,,,,,,,,,,,,METAR,
KQEI 040100Z AUTO 21002KT 9999 SCT036 20/15 A3014 RMK A02 TSNO,KQEI,2021-10-04T01:00:00Z,,,20.0,15.0,210,2,,6.21,30.138779,,,TRUE,TRUE,,,TRUE,,,,SCT,3600,,,,,,,VFR,,,,,,,,,,,,METAR,
KPO1 040100Z AUTO 23004KT 10SM 24/M03 A2993 ,KPO1,2021-10-04T01:00:00Z,48.13,-105.17,24.0,-3.0,230,4,,10.0,29.929134,,,TRUE,,,,,,,,,,,,,,,,,,,,,,,,,,,,METAR,621.0
KMTK 040100Z AUTO 19008KT BKN017 BKN027 BKN070 27/24 A2997 RMK A01,KMTK,2021-10-04T01:00:00Z,,,27.0,24.0,190,8,,,29.970472,,,TRUE,TRUE,,,,,,,BKN,1700,BKN,2700,BKN,7000,,,,,,,,,,,,,,,METAR,
KLOM 040100Z AUTO 19003KT 10SM CLR 21/18 A2992 RMK AO2 T02140182,KLOM,2021-10-04T01:00:00Z,40.13,-75.27,21.4,18.2,190,3,,10.0,29.920275,,,TRUE,TRUE,,,,,,,CLR,,,,,,,,VFR,,,,,,,,,,,,METAR,87.0
KLAN 040100Z 36004KT 9SM SCT027 SCT033 19/18 A2982 RMK AO2 T01890178 $,KLAN,2021-10-04T01:00:00Z,42.78,-84.58,18.9,17.8,360,4,,9.0,29.819881,,,,TRUE,TRUE,,,,,,SCT,2700,SCT,3300,,,,,VFR,,,,,,,,,,,,SPECI,261.0
KGRB 040100Z 04006KT 3SM BR OVC003 18/17 A2986 RMK AO2 T01780172,KGRB,2021-10-04T01:00:00Z,44.48,-88.13,17.8,17.2,40,6,,3.0,29.861221,,,,TRUE,,,,,,BR,OVC,300,,,,,,,LIFR,,,,,,,,,,,,METAR,209.0
KFDY 040100Z AUTO 18008KT 10SM SCT025 BKN065 OVC080 21/19 A2984 RMK AO2 LTG DSNT NE T02110189,KFDY,2021-10-04T01:00:00Z,41.02,-83.67,21.1,18.9,180,8,,10.0,29.840551,,,TRUE,TRUE,,,,,,,SCT,2500,BKN,6500,OVC,8000,,,VFR,,,,,,,,,,,,SPECI,247.0
KDSF 040100Z AUTO 13010KT 10SM FEW019 FEW025 FEW030 27/22 A2997 RMK A01,KDSF,2021-10-04T01:00:00Z,28.35,-88.27,27.0,22.0,130,10,,10.0,29.970472,,,TRUE,TRUE,,,,,,,FEW,1900,FEW,2500,FEW,3000,,,VFR,,,,,,,,,,,,METAR,40.0
KBML 040100Z AUTO 00000KT 3SM -RA BR FEW008 BKN027 OVC046 12/11 A3003 RMK AO2 P0000 T01170106,KBML,2021-10-04T01:00:00Z,44.58,-71.18,11.7,10.6,0,0,,3.0,30.029528,,,TRUE,TRUE,,,,,,-RA BR,FEW,800,BKN,2700,OVC,4600,,,MVFR,,,,,,0.005,,,,,,METAR,344.0
KBAF 040100Z 36004KT 4SM -RA BR BKN022 OVC035 17/16 A2996 RMK AO2 P0000 T01670156,KBAF,2021-10-04T01:00:00Z,42.17,-72.72,16.7,15.6,360,4,,4.0,29.958662,,,,TRUE,,,,,,-RA BR,BKN,2200,OVC,3500,,,,,MVFR,,,,,,0.005,,,,,,METAR,80.0
KACP 040100Z AUTO 00000KT 10SM CLR 23/21 A2994 RMK AO2,KACP,2021-10-04T01:00:00Z,30.75,-92.68,23.0,21.0,0,0,,10.0,29.940945,,,TRUE,TRUE,,,,,,,CLR,,,,,,,,VFR,,,,,,,,,,,,METAR,31.0
K3U3 040100Z AUTO 20006KT 10SM 21/M04 A3011 ,K3U3,2021-10-04T01:00:00Z,46.15,-112.87,21.0,-4.0,200,6,,10.0,30.109253,,,TRUE,,,,,,,,,,,,,,,,,,,,,,,,,,,,METAR,1534.0
K38S 040100Z AUTO 28005KT 10SM 18/01 A3012 ,K38S,2021-10-04T01:00:00Z,46.38,-112.77,18.0,1.0,280,5,,10.0,30.121063,,,TRUE,,,,,,,,,,,,,,,,,,,,,,,,,,,,METAR,1430.0
HSSK 040100Z 35012KT CAVOK 30/04 Q1010 NOSIG,HSSK,2021-10-04T01:00:00Z,15.58,32.55,30.0,4.0,350,12,,6.21,29.822834,,,,,,TRUE,,,,,CAVOK,,,,,,,,VFR,,,,,,,,,,,,METAR,380.0
HRYR 040100Z 00000KT 5000 BR SCT026 SCT100 15/15 Q1018 NOSIG,HRYR,2021-10-04T01:00:00Z,-1.97,30.13,15.0,15.0,0,0,,3.11,30.059055,,,,,,TRUE,,,,BR,SCT,2600,SCT,10000,,,,,MVFR,,,,,,,,,,,,METAR,1493.0
HETR 040100Z 33007KT CAVOK 24/16 Q1011,HETR,2021-10-04T01:00:00Z,28.22,33.65,24.0,16.0,330,7,,6.21,29.852362,,,,,,,,,,,CAVOK,,,,,,,,VFR,,,,,,,,,,,,METAR,35.0
HESW 040100Z 04004KT CAVOK 18/12 Q1018,HESW,2021-10-04T01:00:00Z,29.35,25.5,18.0,12.0,40,4,,6.21,30.059055,,,,,,,,,,,CAVOK,,,,,,,,VFR,,,,,,,,,,,,METAR,101.0
HECA 040100Z 36005KT 4000 NSC 21/16 Q1016 NOSIG,HECA,2021-10-04T01:00:00Z,30.12,31.4,21.0,16.0,360,5,,2.49,30.0,,,,,,TRUE,,,,,CLR,,,,,,,,IFR,,,,,,,,,,,,METAR,68.0
GVSV 040100Z 05013KT 9000 NSC 27/23 Q1014 NOSIG,GVSV,2021-10-04T01:00:00Z,16.83,-25.07,27.0,23.0,50,13,,5.59,29.940945,,,,,,TRUE,,,,,CLR,,,,,,,,VFR,,,,,,,,,,,,METAR,16.0
GVNP 040100Z 03010KT 9999 FEW015 26/24 Q1013 NOSIG,GVNP,2021-10-04T01:00:00Z,14.95,-23.48,26.0,24.0,30,10,,6.21,29.911417,,,,,,TRUE,,,,,FEW,1500,,,,,,,VFR,,,,,,,,,,,,METAR,70.0
GVAC 040100Z 05008KT 8000 BKN014 27/25 Q1014 NOSIG,GVAC,2021-10-04T01:00:00Z,16.73,-22.93,27.0,25.0,50,8,,4.97,29.940945,,,,,,TRUE,,,,,BKN,1400,,,,,,,MVFR,,,,,,,,,,,,METAR,54.0
GUCY 040100Z 00000KT 9999 SCT015 27/24 Q1011 NOSIG,GUCY,2021-10-04T01:00:00Z,9.57,-13.62,27.0,24.0,0,0,,6.21,29.852362,,,,,,TRUE,,,,,SCT,1500,,,,,,,VFR,,,,,,,,,,,,METAR,10.0
GQPP 040100Z 35008KT 7000 NSC 24/16 Q1011 NOSIG,GQPP,2021-10-04T01:00:00Z,20.92,-17.02,24.0,16.0,350,8,,4.35,29.852362,,,,,,TRUE,,,,,CLR,,,,,,,,MVFR,,,,,,,,,,,,METAR,5.0
GOBD 040100Z 29004KT 8000 NSC 26/25 Q1012 NOSIG,GOBD,2021-10-04T01:00:00Z,14.67,-17.07,26.0,25.0,290,4,,4.97,29.88189,,,,,,TRUE,,,,,CLR,,,,,,,,MVFR,,,,,,,,,,,,METAR,90.0
GMTT 040100Z 08003KT 8000 FEW033 16/12 Q1019 NOSIG,GMTT,2021-10-04T01:00:00Z,35.72,-5.9,16.0,12.0,80,3,,4.97,30.088583,,,,,,TRUE,,,,,FEW,3300,,,,,,,MVFR,,,,,,,,,,,,METAR,19.0
GMTN 040100Z 26008KT 8000 FEW015 18/14 Q1019 NOSIG,GMTN,2021-10-04T01:00:00Z,35.58,-5.32,18.0,14.0,260,8,,4.97,30.088583,,,,,,TRUE,,,,,FEW,1500,,,,,,,MVFR,,,,,,,,,,,,METAR,10.0
GMTA 040100Z 25005KT 210V310 9999 BKN032 21/15 Q1018 NOSIG,GMTA,2021-10-04T01:00:00Z,35.17,-3.85,21.0,15.0,250,5,,6.21,30.059055,,,,,,TRUE,,,,,BKN,3200,,,,,,,VFR,,,,,,,,,,,,METAR,14.0
GMMZ 040100Z 26006KT CAVOK 22/M05 Q1017 NOSIG,GMMZ,2021-10-04T01:00:00Z,30.93,-6.9,22.0,-5.0,260,6,,6.21,30.029528,,,,,,TRUE,,,,,CAVOK,,,,,,,,VFR,,,,,,,,,,,,METAR,1139.0
GMMX 040100Z 07003KT 030V090 CAVOK 19/13 Q1019 NOSIG,GMMX,2021-10-04T01:00:00Z,31.62,-8.03,19.0,13.0,70,3,,6.21,30.088583,,,,,,TRUE,,,,,CAVOK,,,,,,,,VFR,,,,,,,,,,,,METAR,465.0
GMMW 040100Z 30010KT 270V330 9999 FEW026 20/12 Q1018 NOSIG,GMMW,2021-10-04T01:00:00Z,34.98,-3.02,20.0,12.0,300,10,,6.21,30.059055,,,,,,TRUE,,,,,FEW,2600,,,,,,,VFR,,,,,,,,,,,,METAR,174.0
GMMN 040100Z 02007KT 4000 -RA FEW003 BKN013 19/19 Q1020 NOSIG,GMMN,2021-10-04T01:00:00Z,33.37,-7.58,19.0,19.0,20,7,,2.49,30.11811,,,,,,TRUE,,,,-RA,FEW,300,BKN,1300,,,,,IFR,,,,,,,,,,,,METAR,196.0
GMML 040100Z 02010KT 9999 FEW015 19/18 Q1019 NOSIG,GMML,2021-10-04T01:00:00Z,27.13,-13.23,19.0,18.0,20,10,,6.21,30.088583,,,,,,TRUE,,,,,FEW,1500,,,,,,,VFR,,,,,,,,,,,,METAR,63.0
GMME 040100Z 00000KT 5000 FEW015 OVC020 20/19 Q1019 TEMPO 4000 RA,GMME,2021-10-04T01:00:00Z,34.05,-6.77,20.0,19.0,0,0,,3.11,30.088583,,,,,,,,,,,FEW,1500,OVC,2000,,,,,MVFR,,,,,,,,,,,,METAR,84.0
GMMB 040100Z AUTO 01007KT 1700NDV R32/P2000N ////// 18/18 Q1020 NOSIG,GMMB,2021-10-04T01:00:00Z,33.65,-7.22,18.0,18.0,10,7,,1.24,30.11811,,,TRUE,,,TRUE,,,,,,,,,,,,,,,,,,,,,,,,,METAR,191.0
GMFO 040100Z 21005KT 9999 BKN032/// 16/14 Q1019 NOSIG,GMFO,2021-10-04T01:00:00Z,34.78,-1.92,16.0,14.0,210,5,,6.21,30.088583,,,,,,TRUE,,,,,BKN,3200,,,,,,,VFR,,,,,,,,,,,,METAR,452.0
GMFM 040100Z 15003KT 6000 FEW010 BKN020 17/13 Q1021 NOSIG,GMFM,2021-10-04T01:00:00Z,33.87,-5.52,17.0,13.0,150,3,,3.73,30.147638,,,,,,TRUE,,,,,FEW,1000,BKN,2000,,,,,MVFR,,,,,,,,,,,,METAR,569.0
GMFK 040100Z 35018KT CAVOK 26/M06 Q1018 NOSIG,GMFK,2021-10-04T01:00:00Z,31.95,-4.4,26.0,-6.0,350,18,,6.21,30.059055,,,,,,TRUE,,,,,CAVOK,,,,,,,,VFR,,,,,,,,,,,,METAR,1033.0
GMFF 040100Z VRB02KT 9999 SCT030 SCT200 17/12 Q1021 NOSIG,GMFF,2021-10-04T01:00:00Z,33.92,-4.97,17.0,12.0,0,2,,6.21,30.147638,,,,,,TRUE,,,,,SCT,3000,SCT,20000,,,,,VFR,,,,,,,,,,,,METAR,575.0
GMAD 040100Z 11005KT 060V130 CAVOK 17/15 Q1014 NOSIG,GMAD,2021-10-04T01:00:00Z,30.32,-9.42,17.0,15.0,110,5,,6.21,29.940945,,,,,,TRUE,,,,,CAVOK,,,,,,,,VFR,,,,,,,,,,,,METAR,66.0
GEML 040100Z AUTO 27010KT 210V330 9999 BKN045 OVC050 21/13 Q1018,GEML,2021-10-04T01:00:00Z,35.27,-2.95,21.0,13.0,270,10,,6.21,30.059055,,,TRUE,,,,,,,,BKN,4500,OVC,5000,,,,,VFR,,,,,,,,,,,,METAR,48.0
GCXO 040100Z AUTO 28009KT 250V350 9999 BKN011 17/16 Q1023,GCXO,2021-10-04T01:00:00Z,28.48,-16.35,17.0,16.0,280,9,,6.21,30.206694,,,TRUE,,,,,,,,BKN,1100,,,,,,,MVFR,,,,,,,,,,,,METAR,623.0
GCTS 040100Z 04008KT 010V070 9999 FEW020 22/17 Q1020 NOSIG,GCTS,2021-10-04T01:00:00Z,28.05,-16.57,22.0,17.0,40,8,,6.21,30.11811,,,,,,TRUE,,,,,FEW,2000,,,,,,,VFR,,,,,,,,,,,,METAR,59.0
GCRR 040100Z AUTO 01008KT 340V050 CAVOK 22/19 Q1019,GCRR,2021-10-04T01:00:00Z,28.95,-13.58,22.0,19.0,10,8,,6.21,30.088583,,,TRUE,,,,,,,,CAVOK,,,,,,,,VFR,,,,,,,,,,,,METAR,9.0
GCLP 040100Z 36017KT 9999 BKN025 23/17 Q1020 NOSIG,GCLP,2021-10-04T01:00:00Z,27.92,-15.38,23.0,17.0,360,17,,6.21,30.11811,,,,,,TRUE,,,,,BKN,2500,,,,,,,MVFR,,,,,,,,,,,,METAR,16.0
GCLA 040100Z AUTO 34010KT 310V010 9999 OVC024 23/18 Q1022,GCLA,2021-10-04T01:00:00Z,28.62,-17.75,23.0,18.0,340,10,,6.21,30.177166,,,TRUE,,,,,,,,OVC,2400,,,,,,,MVFR,,,,,,,,,,,,METAR,20.0
GCHI 040100Z AUTO 35018KT 9999 BKN018 22/19 Q1021,GCHI,2021-10-04T01:00:00Z,27.82,-17.88,22.0,19.0,350,18,,6.21,30.147638,,,TRUE,,,,,,,,BKN,1800,,,,,,,MVFR,,,,,,,,,,,,METAR,21.0
GCGM 040100Z AUTO 24007KT 200V280 9999 BKN009 22/20 Q1020 RMK R09/25006KT 220V290 ARP/26007KT,GCGM,2021-10-04T01:00:00Z,28.03,-17.22,22.0,20.0,240,7,,6.21,30.11811,,,TRUE,,,,,,,,BKN,900,,,,,,,IFR,,,,,,,,,,,,METAR,217.0
GCFV 040100Z AUTO 36010KT 9999 ////// 22/18 Q1019,GCFV,2021-10-04T01:00:00Z,28.43,-13.87,22.0,18.0,360,10,,6.21,30.088583,,,TRUE,,,,,,,,,,,,,,,,,,,,,,,,,,,,METAR,11.0
GBYD 040100Z 00000KT 9999 FEW011 BKN110 27/26 Q1012,GBYD,2021-10-04T01:00:00Z,13.33,-16.65,27.0,26.0,0,0,,6.21,29.88189,,,,,,,,,,,FEW,1100,BKN,11000,,,,,VFR,,,,,,,,,,,,METAR,29.0
FYWW 040100Z AUTO 12001KT //// // ////// 15/M11 Q1020,FYWW,2021-10-04T01:00:00Z,-22.57,17.1,15.0,-11.0,120,1,,,30.11811,,,TRUE,,,,,,,,,,,,,,,,,,,,,,,,,,,,METAR,1672.0
FYWB 040100Z AUTO 04011KT //// // ////// 10/09 Q1016,FYWB,2021-10-04T01:00:00Z,-22.98,14.65,10.0,9.0,40,11,,,30.0,,,TRUE,,,,,,,,,,,,,,,,,,,,,,,,,,,,METAR,87.0
FYOA 040100Z AUTO 22007KT //// // ////// 19/M03 Q1014,FYOA,2021-10-04T01:00:00Z,-17.88,15.97,19.0,-3.0,220,7,,,29.940945,,,TRUE,,,,,,,,,,,,,,,,,,,,,,,,,,,,METAR,1099.0
FYLZ 040100Z AUTO 18013KT //// // ////// 13/05 Q1013,FYLZ,2021-10-04T01:00:00Z,-26.68,15.25,13.0,5.0,180,13,,,29.911417,,,TRUE,,,,,,,,,,,,,,,,,,,,,,,,,,,,METAR,129.0
FYKT 040100Z AUTO /////KT //// // ////// 14/M09 Q1020,FYKT,2021-10-04T01:00:00Z,-26.53,18.12,14.0,-9.0,,,,,30.11811,,,TRUE,,,,,,,,,,,,,,,,,,,,,,,,,,,,METAR,1064.0
FYKM 040100Z AUTO 00000KT //// // ////// 21/16 Q1014,FYKM,2021-10-04T01:00:00Z,-17.63,24.18,21.0,16.0,0,0,,,29.940945,,,TRUE,,,,,,,,,,,,,,,,,,,,,,,,,,,,METAR,959.0
FYGF 040100Z AUTO 32002KT //// // ////// 11/M06 Q1019,FYGF,2021-10-04T01:00:00Z,-19.6,18.12,11.0,-6.0,320,2,,,30.088583,,,TRUE,,,,,,,,,,,,,,,,,,,,,,,,,,,,METAR,1407.0
FSIA 040100Z 13011KT 9999 FEW023 SCT030 27/23 Q1010 NOSIG,FSIA,2021-10-04T01:00:00Z,-4.67,55.52,27.0,23.0,130,11,,6.21,29.822834,,,,,,TRUE,,,,,FEW,2300,SCT,3000,,,,,VFR,,,,,,,,,,,,METAR,3.0
FQNP 040100Z 01009KT CAVOK 20/17 Q1014,FQNP,2021-10-04T01:00:00Z,-15.1,39.27,20.0,17.0,10,9,,6.21,29.940945,,,,,,,,,,,CAVOK,,,,,,,,VFR,,,,,,,,,,,,METAR,434.0
FQMA 040100Z 22011KT 9999 BKN020 17/14 Q1020 NOSIG,FQMA,2021-10-04T01:00:00Z,-25.92,32.57,17.0,14.0,220,11,,6.21,30.11811,,,,,,TRUE,,,,,BKN,2000,,,,,,,MVFR,,,,,,,,,,,,METAR,34.0
FQLC 040100Z 04010KT 6000 NSC 19/13 Q1019 RMK FU,FQLC,2021-10-04T01:00:00Z,-13.27,35.25,19.0,13.0,40,10,,3.73,30.088583,,,,,,,,,,,CLR,,,,,,,,MVFR,,,,,,,,,,,,METAR,1362.0
FMNM 040100Z 08002KT 9999 FEW023 20/18 Q1014,FMNM,2021-10-04T01:00:00Z,-15.67,46.35,20.0,18.0,80,2,,6.21,29.940945,,,,,,,,,,,FEW,2300,,,,,,,VFR,,,,,,,,,,,,METAR,18.0
FMMT 040100Z VRB02KT 9999 VCSH SCT017 BKN033 20/19 Q1016 NOSIG,FMMT,2021-10-04T01:00:00Z,-18.12,49.38,20.0,19.0,0,2,,6.21,30.0,,,,,,TRUE,,,,VCSH,SCT,1700,BKN,3300,,,,,VFR,,,,,,,,,,,,METAR,13.0
FMMI 040100Z 12004KT 090V150 9999 FEW010 BKN020 16/13 Q1020 NOSIG,FMMI,2021-10-04T01:00:00Z,-18.8,47.47,16.0,13.0,120,4,,6.21,30.11811,,,,,,TRUE,,,,,FEW,1000,BKN,2000,,,,,MVFR,,,,,,,,,,,,METAR,1269.0
FMEP 040100Z AUTO 03005KT 9999 SCT022 SCT029 BKN037 21/15 Q1018,FMEP,2021-10-04T01:00:00Z,-21.32,55.42,21.0,15.0,30,5,,6.21,30.059055,,,TRUE,,,,,,,,SCT,2200,SCT,2900,BKN,3700,,,VFR,,,,,,,,,,,,METAR,21.0
FMEE 040100Z AUTO 16008KT 9999 FEW024 SCT130 21/18 Q1018 TEMPO 3000 SHRA BKN020TCU,FMEE,2021-10-04T01:00:00Z,-20.88,55.52,21.0,18.0,160,8,,6.21,30.059055,,,TRUE,,,,,,,,FEW,2400,SCT,13000,,,,,VFR,,,,,,,,,,,,SPECI,20.0
FMCZ 040100Z AUTO 05010KT 9999 FEW025 SCT030 26/21 Q1013 NOSIG,FMCZ,2021-10-04T01:00:00Z,-12.8,45.27,26.0,21.0,50,10,,6.21,29.911417,,,TRUE,,,TRUE,,,,,FEW,2500,SCT,3000,,,,,VFR,,,,,,,,,,,,METAR,7.0
FIMP 040100Z 09011KT 9999 VCSH BKN016 SCT050 21/19 Q1019,FIMP,2021-10-04T01:00:00Z,-20.43,57.68,21.0,19.0,90,11,,6.21,30.088583,,,,,,,,,,VCSH,BKN,1600,SCT,5000,,,,,MVFR,,,,,,,,,,,,METAR,57.0
FBSK 040100Z 05008KT CAVOK 09/M06 Q1019 NOSIG,FBSK,2021-10-04T01:00:00Z,-24.55,25.92,9.0,-6.0,50,8,,6.21,30.088583,,,,,,TRUE,,,,,CAVOK,,,,,,,,VFR,,,,,,,,,,,,METAR,1007.0
FAWB 040100Z AUTO 13007KT //// // ////// 12/10 Q1020,FAWB,2021-10-04T01:00:00Z,-25.65,28.22,12.0,10.0,130,7,,,30.11811,,,TRUE,,,,,,,,,,,,,,,,,,,,,,,,,,,,METAR,1245.0
FAUT 040100Z AUTO 11004KT //// // ////// 09/08 Q1024,FAUT,2021-10-04T01:00:00Z,-31.53,28.67,9.0,8.0,110,4,,,30.236221,,,TRUE,,,,,,,,,,,,,,,,,,,,,,,,,,,,METAR,735.0
FAUP 040100Z 23003KT CAVOK 08/M08 Q1019 NOSIG,FAUP,2021-10-04T01:00:00Z,-28.38,21.27,8.0,-8.0,230,3,,6.21,30.088583,,,,,,TRUE,,,,,CAVOK,,,,,,,,VFR,,,,,,,,,,,,METAR,845.0
FASI 040100Z AUTO 14005KT //// // ////// 11/10 Q1017,FASI,2021-10-04T01:00:00Z,-26.25,28.4,11.0,10.0,140,5,,,30.029528,,,TRUE,,,,,,,,,,,,,,,,,,,,,,,,,,,,METAR,1627.0
FAPP 040100Z AUTO 04007KT //// // ////// 12/11 Q1020,FAPP,2021-10-04T01:00:00Z,-23.83,29.45,12.0,11.0,40,7,,,30.11811,,,TRUE,,,,,,,,,,,,,,,,,,,,,,,,,,,,METAR,1238.0
FAPE 040100Z 28008KT CAVOK 11/08 Q1024 NOSIG,FAPE,2021-10-04T01:00:00Z,-33.98,25.6,11.0,8.0,280,8,,6.21,30.236221,,,,,,TRUE,,,,,CAVOK,,,,,,,,VFR,,,,,,,,,,,,METAR,58.0
FAOR 040100Z 08007KT 3300 BR BKN002 11/10 Q1022 NOSIG,FAOR,2021-10-04T01:00:00Z,-26.13,28.23,11.0,10.0,80,7,,2.05,30.177166,,,,,,TRUE,,,,BR,BKN,200,,,,,,,LIFR,,,,,,,,,,,,METAR,1684.0
FAMM 040100Z AUTO 13005KT //// // ////// 09/01 Q1020,FAMM,2021-10-04T01:00:00Z,-25.8,25.53,9.0,1.0,130,5,,,30.11811,,,TRUE,,,,,,,,,,,,,,,,,,,,,,,,,,,,METAR,1280.0
FALE 040100Z 17006KT 9999 BKN040 14/11 Q1023 NOSIG,FALE,2021-10-04T01:00:00Z,-29.62,31.12,14.0,11.0,170,6,,6.21,30.206694,,,,,,TRUE,,,,,BKN,4000,,,,,,,VFR,,,,,,,,,,,,METAR,109.0
FAKN 040100Z AUTO 06002KT //// // ////// 12/11 Q1023,FAKN,2021-10-04T01:00:00Z,-25.38,31.1,12.0,11.0,60,2,,,30.206694,,,TRUE,,,,,,,,,,,,,,,,,,,,,,,,,,,,METAR,864.0
FAKM 040100Z AUTO 32002KT //// // ////// 03/M01 Q1019,FAKM,2021-10-04T01:00:00Z,-28.8,24.77,3.0,-1.0,320,2,,,30.088583,,,TRUE,,,,,,,,,,,,,,,,,,,,,,,,,,,,METAR,1203.0
FAHS 040100Z AUTO 17011KT //// // ////// 15/12 Q1021,FAHS,2021-10-04T01:00:00Z,-24.37,31.03,15.0,12.0,170,11,,,30.147638,,,TRUE,,,,,,,,,,,,,,,,,,,,,,,,,,,,SPECI,532.0
FAGG 040100Z AUTO 31004KT 9999 FEW018/// SCT038/// BKN048/// 10/08 Q1025,FAGG,2021-10-04T01:00:00Z,-34.0,22.37,10.0,8.0,310,4,,6.21,30.265747,,,TRUE,,,,,,,,FEW,1800,SCT,3800,BKN,4800,,,VFR,,,,,,,,,,,,METAR,196.0
FACT 040100Z 14009KT 9999 FEW030 11/06 Q1024 NOSIG,FACT,2021-10-04T01:00:00Z,-33.97,18.6,11.0,6.0,140,9,,6.21,30.236221,,,,,,TRUE,,,,,FEW,3000,,,,,,,VFR,,,,,,,,,,,,METAR,48.0
FABL 040100Z AUTO 20001KT 9999 ///////// 03/02 Q1020,FABL,2021-10-04T01:00:00Z,-29.1,26.3,3.0,2.0,200,1,,6.21,30.11811,,,TRUE,,,,,,,,,,,,,,,,,,,,,,,,,,,,METAR,1348.0
EPWR 040100Z 08001KT 9999 MIFG NSC 09/08 Q1014,EPWR,2021-10-04T01:00:00Z,51.1,16.88,9.0,8.0,80,1,,6.21,29.940945,,,,,,,,,,MIFG,CLR,,,,,,,,VFR,,,,,,,,,,,,METAR,118.0
EPWA 040100Z 13009KT CAVOK 11/09 Q1017 NOSIG,EPWA,2021-10-04T01:00:00Z,52.17,20.97,11.0,9.0,130,9,,6.21,30.029528,,,,,,TRUE,,,,,CAVOK,,,,,,,,VFR,,,,,,,,,,,,METAR,107.0
EPSY 040100Z 13004KT 090V160 CAVOK 10/09 Q1017,EPSY,2021-10-04T01:00:00Z,53.47,20.93,10.0,9.0,130,4,,6.21,30.029528,,,,,,,,,,,CAVOK,,,,,,,,VFR,,,,,,,,,,,,METAR,136.0
EPSC 040100Z 15007KT CAVOK 16/11 Q1012,EPSC,2021-10-04T01:00:00Z,53.58,14.9,16.0,11.0,150,7,,6.21,29.88189,,,,,,,,,,,CAVOK,,,,,,,,VFR,,,,,,,,,,,,METAR,47.0
EPRZ 040100Z 10007KT CAVOK 08/07 Q1020,EPRZ,2021-10-04T01:00:00Z,50.1,22.02,8.0,7.0,100,7,,6.21,30.11811,,,,,,,,,,,CAVOK,,,,,,,,VFR,,,,,,,,,,,,METAR,206.0
EPPO 040100Z 14003KT CAVOK 11/09 Q1013,EPPO,2021-10-04T01:00:00Z,52.42,16.83,11.0,9.0,140,3,,6.21,29.911417,,,,,,,,,,,CAVOK,,,,,,,,VFR,,,,,,,,,,,,METAR,87.0
EPMO 040100Z 12006KT CAVOK 11/10 Q1017,EPMO,2021-10-04T01:00:00Z,52.45,20.65,11.0,10.0,120,6,,6.21,30.029528,,,,,,,,,,,CAVOK,,,,,,,,VFR,,,,,,,,,,,,METAR,102.0
EPLL 040100Z 10004KT CAVOK 10/08 Q1016,EPLL,2021-10-04T01:00:00Z,51.72,19.4,10.0,8.0,100,4,,6.21,30.0,,,,,,,,,,,CAVOK,,,,,,,,VFR,,,,,,,,,,,,METAR,176.0
EPLB 040100Z 11005KT CAVOK 08/07 Q1020,EPLB,2021-10-04T01:00:00Z,51.23,22.72,8.0,7.0,110,5,,6.21,30.11811,,,,,,,,,,,CAVOK,,,,,,,,VFR,,,,,,,,,,,,METAR,206.0
EPKT 040100Z 13007KT CAVOK 12/08 Q1016,EPKT,2021-10-04T01:00:00Z,50.47,19.08,12.0,8.0,130,7,,6.21,30.0,,,,,,,,,,,CAVOK,,,,,,,,VFR,,,,,,,,,,,,METAR,296.0
EPKK 040100Z 05004KT CAVOK 08/07 Q1017,EPKK,2021-10-04T01:00:00Z,50.07,19.8,8.0,7.0,50,4,,6.21,30.029528,,,,,,,,,,,CAVOK,,,,,,,,VFR,,,,,,,,,,,,METAR,237.0
EPGD 040100Z 18007KT CAVOK 13/10 Q1014,EPGD,2021-10-04T01:00:00Z,54.37,18.47,13.0,10.0,180,7,,6.21,29.940945,,,,,,,,,,,CAVOK,,,,,,,,VFR,,,,,,,,,,,,METAR,136.0
EPBY 040100Z 16008KT CAVOK 13/09 Q1014,EPBY,2021-10-04T01:00:00Z,53.1,18.0,13.0,9.0,160,8,,6.21,29.940945,,,,,,,,,,,CAVOK,,,,,,,,VFR,,,,,,,,,,,,METAR,66.0
EINN 040100Z 20009KT 9999 FEW018CB SCT024 10/08 Q1001 NOSIG,EINN,2021-10-04T01:00:00Z,52.7,-8.92,10.0,8.0,200,9,,6.21,29.557087,,,,,,TRUE,,,,,FEW,1800,SCT,2400,,,,,VFR,,,,,,,,,,,,METAR,20.0
EIME 040100Z 22013KT 9999 FEW012 08/07 Q1000,EIME,2021-10-04T01:00:00Z,53.3,-6.45,8.0,7.0,220,13,,6.21,29.52756,,,,,,,,,,,FEW,1200,,,,,,,VFR,,,,,,,,,,,,METAR,90.0
EIDW 040100Z 23009KT 190V270 CAVOK 09/07 Q1000 NOSIG,EIDW,2021-10-04T01:00:00Z,53.42,-6.28,9.0,7.0,230,9,,6.21,29.52756,,,,,,TRUE,,,,,CAVOK,,,,,,,,VFR,,,,,,,,,,,,METAR,75.0
EICK 040100Z 23005KT 9999 FEW017 SCT045 06/05 Q1003 NOSIG,EICK,2021-10-04T01:00:00Z,51.85,-8.47,6.0,5.0,230,5,,6.21,29.616142,,,,,,TRUE,,,,,FEW,1700,SCT,4500,,,,,VFR,,,,,,,,,,,,METAR,158.0
EHVL 040100Z AUTO 22022KT 9999 FEW022 SCT026 14/11 Q1007 BLU,EHVL,2021-10-04T01:00:00Z,53.28,5.08,14.0,11.0,220,22,,6.21,29.734253,,,TRUE,,,,,,,,FEW,2200,SCT,2600,,,,,VFR,,,,,,,,,,,,SPECI,2.0
DTTZ 040100Z 09014KT 8000 NSC 26/15 Q1014,DTTZ,2021-10-04T01:00:00Z,33.93,8.1,26.0,15.0,90,14,,4.97,29.940945,,,,,,,,,,,CLR,,,,,,,,MVFR,,,,,,,,,,,,METAR,87.0
DTTX 040100Z 15009KT 9999 FEW030 26/23 Q1016,DTTX,2021-10-04T01:00:00Z,34.72,10.68,26.0,23.0,150,9,,6.21,30.0,,,,,,,,,,,FEW,3000,,,,,,,VFR,,,,,,,,,,,,METAR,17.0
DTTR 040100Z AUTO 10006KT NCD 24/07 Q1017,DTTR,2021-10-04T01:00:00Z,31.7,9.27,24.0,7.0,100,6,,,30.029528,,,TRUE,,,,,,,,CLR,,,,,,,,,,,,,,,,,,,,METAR,253.0
DTTN 040100Z 00000KT 8000 SCT020 22/08 Q1014,DTTN,2021-10-04T01:00:00Z,36.47,8.8,22.0,8.0,0,0,,4.97,29.940945,,,,,,,,,,,SCT,2000,,,,,,,MVFR,,,,,,,,,,,,METAR,145.0
DTTL 040100Z 15007KT 110V210 9999 FEW020 25/23 Q1016,DTTL,2021-10-04T01:00:00Z,36.85,11.07,25.0,23.0,150,7,,6.21,30.0,,,,,,,,,,,FEW,2000,,,,,,,VFR,,,,,,,,,,,,METAR,18.0
DTTK 040100Z VRB01KT 8000 FEW023 23/20 Q1017,DTTK,2021-10-04T01:00:00Z,35.67,10.08,23.0,20.0,0,1,,4.97,30.029528,,,,,,,,,,,FEW,2300,,,,,,,MVFR,,,,,,,,,,,,METAR,65.0
DTTJ 040100Z /////KT CAVOK 24/21 Q1016 NOSIG,DTTJ,2021-10-04T01:00:00Z,33.87,10.77,24.0,21.0,,,,6.21,30.0,,,,,,TRUE,,,,,CAVOK,,,,,,,,VFR,,,,,,,,,,,,METAR,3.0
DTTG 040100Z 06004KT 8000 FEW030 22/14 Q1016 NOSIG,DTTG,2021-10-04T01:00:00Z,33.73,9.92,22.0,14.0,60,4,,4.97,30.0,,,,,,TRUE,,,,,FEW,3000,,,,,,,MVFR,,,,,,,,,,,,METAR,120.0
DTTD 040100Z AUTO VRB02KT NCD 23/13 Q1018,DTTD,2021-10-04T01:00:00Z,32.32,10.4,23.0,13.0,0,2,,,30.059055,,,TRUE,,,,,,,,CLR,,,,,,,,,,,,,,,,,,,,METAR,306.0
DTTB 040100Z 14011KT 9999 FEW020 25/20 Q1014,DTTB,2021-10-04T01:00:00Z,37.25,9.8,25.0,20.0,140,11,,6.21,29.940945,,,,,,,,,,,FEW,2000,,,,,,,VFR,,,,,,,,,,,,METAR,4.0
DTTA 040100Z 15011KT 9999 FEW030 25/20 Q1015,DTTA,2021-10-04T01:00:00Z,36.85,10.22,25.0,20.0,150,11,,6.21,29.970472,,,,,,,,,,,FEW,3000,,,,,,,VFR,,,,,,,,,,,,METAR,4.0
DTNH 040100Z 20002KT CAVOK 22/20 Q1016 NOSIG,DTNH,2021-10-04T01:00:00Z,36.07,10.43,22.0,20.0,200,2,,6.21,30.0,,,,,,TRUE,,,,,CAVOK,,,,,,,,VFR,,,,,,,,,,,,METAR,1.0
DTMB 040100Z 17006KT 8000 FEW026 24/21 Q1016,DTMB,2021-10-04T01:00:00Z,35.77,10.75,24.0,21.0,170,6,,4.97,30.0,,,,,,,,,,,FEW,2600,,,,,,,MVFR,,,,,,,,,,,,METAR,1.0
DTKA 040100Z 32004KT 220V360 9999 SCT020 25/11 Q1013 NOSIG,DTKA,2021-10-04T01:00:00Z,36.98,8.88,25.0,11.0,320,4,,6.21,29.911417,,,,,,TRUE,,,,,SCT,2000,,,,,,,VFR,,,,,,,,,,,,METAR,70.0
DAUZ 040100Z 08010KT CAVOK 22/05 Q1017,DAUZ,2021-10-04T01:00:00Z,28.05,9.63,22.0,5.0,80,10,,6.21,30.029528,,,,,,,,,,,CAVOK,,,,,,,,VFR,,,,,,,,,,,,METAR,567.0
DAUU 040100Z 00000KT CAVOK 24/04 Q1012,DAUU,2021-10-04T01:00:00Z,31.92,5.4,24.0,4.0,0,0,,6.21,29.88189,,,,,,,,,,,CAVOK,,,,,,,,VFR,,,,,,,,,,,,METAR,147.0
DAUT 040100Z 13012KT CAVOK 27/M06 Q1012,DAUT,2021-10-04T01:00:00Z,29.25,0.27,27.0,-6.0,130,12,,6.21,29.88189,,,,,,,,,,,CAVOK,,,,,,,,VFR,,,,,,,,,,,,METAR,307.0
DAUO 040100Z 16006KT CAVOK 28/06 Q1013,DAUO,2021-10-04T01:00:00Z,33.5,6.78,28.0,6.0,160,6,,6.21,29.911417,,,,,,,,,,,CAVOK,,,,,,,,VFR,,,,,,,,,,,,METAR,55.0
DAUK 040100Z 15008KT CAVOK 29/04 Q1013,DAUK,2021-10-04T01:00:00Z,33.08,6.08,29.0,4.0,150,8,,6.21,29.911417,,,,,,,,,,,CAVOK,,,,,,,,VFR,,,,,,,,,,,,METAR,83.0
DAUI 040100Z 07010KT CAVOK 28/M06 Q1012,DAUI,2021-10-04T01:00:00Z,27.25,2.52,28.0,-6.0,70,10,,6.21,29.88189,,,,,,,,,,,CAVOK,,,,,,,,VFR,,,,,,,,,,,,METAR,271.0
DAUH 040100Z 15003KT CAVOK 26/04 Q1013,DAUH,2021-10-04T01:00:00Z,31.67,6.15,26.0,4.0,150,3,,6.21,29.911417,,,,,,,,,,,CAVOK,,,,,,,,VFR,,,,,,,,,,,,METAR,141.0
DAUG 040100Z 31002KT CAVOK 25/05 Q1016,DAUG,2021-10-04T01:00:00Z,32.38,3.78,25.0,5.0,310,2,,6.21,30.0,,,,,,,,,,,CAVOK,,,,,,,,VFR,,,,,,,,,,,,METAR,444.0
DAUE 040100Z 31003KT CAVOK 20/M00 Q1015,DAUE,2021-10-04T01:00:00Z,30.57,2.87,20.0,0.0,310,3,,6.21,29.970472,,,,,,,,,,,CAVOK,,,,,,,,VFR,,,,,,,,,,,,METAR,396.0
DAUB 040100Z 10016KT CAVOK 29/09 Q1013,DAUB,2021-10-04T01:00:00Z,34.78,5.73,29.0,9.0,100,16,,6.21,29.911417,,,,,,,,,,,CAVOK,,,,,,,,VFR,,,,,,,,,,,,METAR,75.0
DAUA 040100Z 12007KT CAVOK 25/// Q1013,DAUA,2021-10-04T01:00:00Z,27.83,-0.18,,,120,7,,6.21,29.911417,,,,,,,,,,,CAVOK,,,,,,,,VFR,,,,,,,,,,,,METAR,278.0
DAOY 040100Z VRB01KT CAVOK 14/M09 Q1021,DAOY,2021-10-04T01:00:00Z,33.72,1.08,14.0,-9.0,0,1,,6.21,30.147638,,,,,,,,,,,CAVOK,,,,,,,,VFR,,,,,,,,,,,,METAR,1340.0
DAOV 040100Z 22004KT 9999 FEW026 17/12 Q1019,DAOV,2021-10-04T01:00:00Z,35.2,0.15,17.0,12.0,220,4,,6.21,30.088583,,,,,,,,,,,FEW,2600,,,,,,,VFR,,,,,,,,,,,,METAR,506.0
DAOR 040100Z 35006KT CAVOK 23/M03 Q1016,DAOR,2021-10-04T01:00:00Z,31.65,-2.27,23.0,-3.0,350,6,,6.21,30.0,,,,,,,,,,,CAVOK,,,,,,,,VFR,,,,,,,,,,,,METAR,809.0
DAOO 040100Z 24009KT CAVOK 22/16 Q1017,DAOO,2021-10-04T01:00:00Z,35.62,-0.62,22.0,16.0,240,9,,6.21,30.029528,,,,,,,,,,,CAVOK,,,,,,,,VFR,,,,,,,,,,,,METAR,87.0
DAON 040100Z 24004KT 9999 SCT026 19/14 Q1018,DAON,2021-10-04T01:00:00Z,35.02,-1.47,19.0,14.0,240,4,,6.21,30.059055,,,,,,,,,,,SCT,2600,,,,,,,VFR,,,,,,,,,,,,METAR,245.0
DAOI 040100Z 23007KT 9999 BKN026 22/14 Q1016,DAOI,2021-10-04T01:00:00Z,36.22,1.32,22.0,14.0,230,7,,6.21,30.0,,,,,,,,,,,BKN,2600,,,,,,,MVFR,,,,,,,,,,,,METAR,141.0
DAOF 040100Z 28016KT CAVOK 21/06 Q1013,DAOF,2021-10-04T01:00:00Z,27.7,-8.17,21.0,6.0,280,16,,6.21,29.911417,,,,,,,,,,,CAVOK,,,,,,,,VFR,,,,,,,,,,,,METAR,441.0
DAOB 040100Z 27007KT CAVOK 16/10 Q1021,DAOB,2021-10-04T01:00:00Z,35.33,1.47,16.0,10.0,270,7,,6.21,30.147638,,,,,,,,,,,CAVOK,,,,,,,,VFR,,,,,,,,,,,,METAR,984.0
DABT 040100Z 21007KT CAVOK 24/00 Q1017,DABT,2021-10-04T01:00:00Z,35.75,6.32,24.0,0.0,210,7,,6.21,30.029528,,,,,,,,,,,CAVOK,,,,,,,,VFR,,,,,,,,,,,,METAR,813.0
DABS 040100Z 09010KT CAVOK 21/10 Q1019,DABS,2021-10-04T01:00:00Z,35.43,8.12,21.0,10.0,90,10,,6.21,30.088583,,,,,,,,,,,CAVOK,,,,,,,,VFR,,,,,,,,,,,,METAR,806.0
DABC 040100Z 33003KT CAVOK 17/09 Q1017,DABC,2021-10-04T01:00:00Z,36.27,6.62,17.0,9.0,330,3,,6.21,30.029528,,,,,,,,,,,CAVOK,,,,,,,,VFR,,,,,,,,,,,,METAR,700.0
DABB 040100Z 24003KT CAVOK 21/15 Q1012,DABB,2021-10-04T01:00:00Z,36.82,7.82,21.0,15.0,240,3,,6.21,29.88189,,,,,,,,,,,CAVOK,,,,,,,,VFR,,,,,,,,,,,,METAR,3.0
DAAY 040100Z 02016KT CAVOK 19/00 Q1023,DAAY,2021-10-04T01:00:00Z,33.53,-0.25,19.0,0.0,20,16,,6.21,30.206694,,,,,,,,,,,CAVOK,,,,,,,,VFR,,,,,,,,,,,,METAR,1116.0
DAAV 040100Z 16003KT CAVOK 19/14 Q1014,DAAV,2021-10-04T01:00:00Z,36.8,5.88,19.0,14.0,160,3,,6.21,29.940945,,,,,,,,,,,CAVOK,,,,,,,,VFR,,,,,,,,,,,,METAR,11.0
DAAT 040100Z 10006KT CAVOK 19/M03 Q1022,DAAT,2021-10-04T01:00:00Z,22.82,5.47,19.0,-3.0,100,6,,6.21,30.177166,,,,,,,,,,,CAVOK,,,,,,,,VFR,,,,,,,,,,,,METAR,1372.0
DAAS 040100Z 28004KT 9999 BKN030 20/05 Q1019,DAAS,2021-10-04T01:00:00Z,36.18,5.33,20.0,5.0,280,4,,6.21,30.088583,,,,,,,,,,,BKN,3000,,,,,,,MVFR,,,,,,,,,,,,METAR,1012.0
DAAP 040100Z 10004KT CAVOK 23/M00 Q1015,DAAP,2021-10-04T01:00:00Z,26.72,8.62,23.0,0.0,100,4,,6.21,29.970472,,,,,,,,,,,CAVOK,,,,,,,,VFR,,,,,,,,,,,,METAR,542.0
DAAG 040100Z 18005KT 8000 FEW023 20/16 Q1015,DAAG,2021-10-04T01:00:00Z,36.68,3.22,20.0,16.0,180,5,,4.97,29.970472,,,,,,,,,,,FEW,2300,,,,,,,MVFR,,,,,,,,,,,,METAR,18.0
DAAE 040100Z 22004KT CAVOK 20/13 Q1014,DAAE,2021-10-04T01:00:00Z,36.72,5.07,20.0,13.0,220,4,,6.21,29.940945,,,,,,,,,,,CAVOK,,,,,,,,VFR,,,,,,,,,,,,METAR,1.0
CZZJ 040100Z AUTO 33007KT 09/M05 RMK AO1 SLP164 T00881052 53008,CZZJ,2021-10-04T01:00:00Z,53.58,-116.47,8.8,-5.2,330,7,,,,1016.4,,TRUE,TRUE,,,,,,,,,,,,,,,,0.8,,,,,,,,,,,METAR,927.0
CZVL 040100Z AUTO 30004KT 9SM BKN110 09/M06 A2993 RMK SLP157,CZVL,2021-10-04T01:00:00Z,53.67,-113.85,9.0,-6.0,300,4,,9.0,29.929134,1015.7,,TRUE,,,,,,,,BKN,11000,,,,,,,VFR,,,,,,,,,,,,METAR,685.0
CZUM 040100Z AUTO 34004KT 9SM CLR 04/00 A3008 RMK SLP208,CZUM,2021-10-04T01:00:00Z,53.55,-64.1,4.0,0.0,340,4,,9.0,30.079725,1020.8,,TRUE,,,,,,,,CLR,,,,,,,,VFR,,,,,,,,,,,,METAR,431.0
CZTB 040100Z AUTO 05002KT 15/12 RMK AO1 SLP163 T01490115 53015,CZTB,2021-10-04T01:00:00Z,48.37,-89.32,14.9,11.5,50,2,,,,1016.3,,TRUE,TRUE,,,,,,,,,,,,,,,,1.5,,,,,,,,,,,METAR,197.0
CZST 040100Z 22003KT 190V360 12SM SCT030 OVC060 04/03 A3005 RMK SC3SC5 LAST STFD OBS/NEXT 041300Z/ SLP177,CZST,2021-10-04T01:00:00Z,55.93,-129.98,4.0,3.0,220,3,,12.0,30.050198,1017.7,,,,,,,,,,SCT,3000,OVC,6000,,,,,VFR,,,,,,,,,,,,METAR,10.0
CZSP 040100Z AUTO 33004KT 09/06 RMK AO1 SLP165 T00920056 53006,CZSP,2021-10-04T01:00:00Z,46.45,-62.58,9.2,5.6,330,4,,,,1016.5,,TRUE,TRUE,,,,,,,,,,,,,,,,0.6,,,,,,,,,,,METAR,31.0
CZSM 040100Z AUTO 22009KT 08/01 RMK AO1 PK WND 25019/0009 SLP007 T00820009 53014,CZSM,2021-10-04T01:00:00Z,60.03,-111.93,8.2,0.9,220,9,,,,1000.7,,TRUE,TRUE,,,,,,,,,,,,,,,,1.4,,,,,,,,,,,METAR,203.0
CZPC 040100Z AUTO 28007KT 9SM CLR 12/M00 A2998 RMK SLP157 DENSITY ALT 4500FT,CZPC,2021-10-04T01:00:00Z,49.52,-114.0,12.0,0.0,280,7,,9.0,29.97933,1015.7,,TRUE,,,,,,,,CLR,,,,,,,,VFR,,,,,,,,,,,,METAR,1187.0
CZOL 040100Z AUTO 31001KT 09/M04 RMK AO1 T00891041,CZOL,2021-10-04T01:00:00Z,53.65,-113.35,8.9,-4.1,310,1,,,,,,TRUE,TRUE,,,,,,,,,,,,,,,,,,,,,,,,,,,METAR,645.0
CZMT 040100Z 24007KT 190V290 10SM -SHRA BKN025TCU 06/03 A3003 RMK TCU8 LAST OBS/NEXT 041400 UTC SLP171,CZMT,2021-10-04T01:00:00Z,54.03,-132.13,6.0,3.0,240,7,,10.0,30.029528,1017.1,,,,,,,,,-SHRA,BKN,2500,,,,,,,MVFR,,,,,,,,,,,,METAR,11.0
CZMJ 040100Z AUTO 14006KT 13/02 RMK AO1 SLP138 T01250019 53007,CZMJ,2021-10-04T01:00:00Z,50.33,-105.53,12.5,1.9,140,6,,,,1013.8,,TRUE,TRUE,,,,,,,,,,,,,,,,0.7,,,,,,,,,,,METAR,571.0
CZMD 040100Z AUTO 15003KT 9SM CLR 13/09 A2991 RMK SLP139,CZMD,2021-10-04T01:00:00Z,53.43,-91.77,13.0,9.0,150,3,,9.0,29.911417,1013.9,,TRUE,,,,,,,,CLR,,,,,,,,VFR,,,,,,,,,,,,METAR,276.0
CZKD 040100Z AUTO 15004KT 15/09 RMK AO1 SLP081 T01480090 55000,CZKD,2021-10-04T01:00:00Z,56.03,-96.52,14.8,9.0,150,4,,,,1008.1,,TRUE,TRUE,,,,,,,,,,,,,,,,0.0,,,,,,,,,,,METAR,190.0
CZHY 040100Z AUTO 24009KT 10/M06 RMK AO1 PK WND 25019/0002 SLP989 T00961055 53013,CZHY,2021-10-04T01:00:00Z,60.83,-115.78,9.6,-5.5,240,9,,,,998.9,,TRUE,TRUE,,,,,,,,,,,,,,,,1.3,,,,,,,,,,,METAR,159.0
CZFS 040100Z AUTO 26006KT 04/03 RMK AO1 5PAST HR 1020 SLP989 P0002 T00380026 50005,CZFS,2021-10-04T01:00:00Z,61.77,-121.23,3.8,2.6,260,6,,,,998.9,,TRUE,TRUE,,,,,,,,,,,,,,,,0.5,,,,,0.02,,,,,,METAR,174.0
CZEV 040100Z AUTO 34011G17KT M00/M00 RMK AO1 PK WND 32019/0006 SLP151 T10021004 53019,CZEV,2021-10-04T01:00:00Z,68.32,-133.48,-0.2,-0.4,340,11,17,,,1015.1,,TRUE,TRUE,,,,,,,,,,,,,,,,1.9,,,,,,,,,,,METAR,92.0
CZEL 040100Z AUTO 10006KT 18/17 RMK AO1 0PAST HR 1008 SLP121 P0004 T01780171 50010,CZEL,2021-10-04T01:00:00Z,43.65,-80.42,17.8,17.1,100,6,,,,1012.1,,TRUE,TRUE,,,,,,,,,,,,,,,,1.0,,,,,0.04,,,,,,METAR,370.0
CZDB 040100Z AUTO 34004KT 11/07 RMK AO1 SLP167 T01070073 51007,CZDB,2021-10-04T01:00:00Z,45.42,-63.47,10.7,7.3,340,4,,,,1016.7,,TRUE,TRUE,,,,,,,,,,,,,,,,0.7,,,,,,,,,,,METAR,38.0
CZCR 040100Z AUTO 27005KT 09/06 RMK AO1 SLP184 T00870064 51014,CZCR,2021-10-04T01:00:00Z,47.98,-66.33,8.7,6.4,270,5,,,,1018.4,,TRUE,TRUE,,,,,,,,,,,,,,,,1.4,,,,,,,,,,,METAR,39.0
CZCP 040100Z AUTO 05025G33KT ////SM //// OVC009 M00/M02 A2977,CZCP,2021-10-04T01:00:00Z,70.17,-124.68,0.0,-2.0,50,25,33,,29.769686,,,TRUE,,,,,,,,OVC,900,,,,,,,,,,,,,,,,,,,METAR,23.0
CZBF 040100Z AUTO 32003KT 260V020 9SM FEW018 BKN028 BKN038 OVC060 10/08 A3008 RMK SLP188,CZBF,2021-10-04T01:00:00Z,47.62,-65.75,10.0,8.0,320,3,,9.0,30.079725,1018.8,,TRUE,,,,,,,,FEW,1800,BKN,2800,BKN,3800,OVC,6000,MVFR,,,,,,,,,,,,SPECI,60.0
CYZY 040100Z AUTO VRB02KT 9SM FEW049 SCT076 BKN095 04/M02 A2995 RMK SLP168,CYZY,2021-10-04T01:00:00Z,55.3,-123.13,4.0,-2.0,0,2,,9.0,29.949802,1016.8,,TRUE,,,,,,,,FEW,4900,SCT,7600,BKN,9500,,,VFR,,,,,,,,,,,,SPECI,694.0
CYZX 040100Z 25003KT 15SM OVC065 11/09 A3003 RMK SC8 SLP171,CYZX,2021-10-04T01:00:00Z,44.98,-64.92,11.0,9.0,250,3,,15.0,30.029528,1017.1,,,,,,,,,,OVC,6500,,,,,,,VFR,,,,,,,,,,,,SPECI,28.0
CYZV 040100Z 34004KT 15SM SKC 03/02 A3009 RMK SLP194,CYZV,2021-10-04T01:00:00Z,50.22,-66.27,3.0,2.0,340,4,,15.0,30.088583,1019.4,,,,,,,,,,SKC,,,,,,,,VFR,,,,,,,,,,,,SPECI,43.0
CYZU 040100Z 31010G17KT 15SM FEW072 SCT110 09/M08 A2993 RMK AC2AC2 SLP159,CYZU,2021-10-04T01:00:00Z,54.15,-115.78,9.0,-8.0,310,10,17,15.0,29.929134,1015.9,,,,,,,,,,FEW,7200,SCT,11000,,,,,VFR,,,,,,,,,,,,METAR,785.0
CYZT 040100Z 00000KT 20SM FEW030 BKN043 BKN210 09/08 A3016 RMK CU1SC5CI1 SLP214,CYZT,2021-10-04T01:00:00Z,50.68,-127.37,9.0,8.0,0,0,,20.0,30.159449,1021.4,,,,,,,,,,FEW,3000,BKN,4300,BKN,21000,,,VFR,,,,,,,,,,,,METAR,13.0
CYZS 040100Z 15007KT 1/4SM -DZ FG VV003 03/02 A2993 RMK FG8 SLP143,CYZS,2021-10-04T01:00:00Z,64.2,-83.35,3.0,2.0,150,7,,0.25,29.929134,1014.3,,,,,,,,,-DZ FG,OVX,0,,,,,,,LIFR,,,,,,,,,,,300,METAR,60.0
CYZR 040100Z AUTO 35003KT 300V360 5/8SM BR VV002 18/18 A2982 RMK VIS VRB 3/8-2 SLP100 DENSITY ALT 1300FT,CYZR,2021-10-04T01:00:00Z,43.0,-82.3,18.0,18.0,350,3,,0.63,29.819881,1010.0,,TRUE,,,,,,,BR,OVX,0,,,,,,,LIFR,,,,,,,,,,,200,METAR,181.0
CYZP 040100Z AUTO 17006KT 9SM -RA FEW039 BKN055 BKN069 BKN110 07/05 A3003 RMK SLP171,CYZP,2021-10-04T01:00:00Z,53.25,-131.82,7.0,5.0,170,6,,9.0,30.029528,1017.1,,TRUE,,,,,,,-RA,FEW,3900,BKN,5500,BKN,6900,BKN,11000,VFR,,,,,,,,,,,,METAR,7.0
CYZH 040100Z AUTO 28016KT 9SM CLR 10/M09 A2987 RMK SLP136,CYZH,2021-10-04T01:00:00Z,55.28,-114.77,10.0,-9.0,280,16,,9.0,29.870079,1013.6,,TRUE,,,,,,,,CLR,,,,,,,,VFR,,,,,,,,,,,,METAR,583.0
CYZF 040100Z 20003KT 15SM FEW060 FEW180 08/M01 A2939 RMK SC1AC2 SC TR SLP966,CYZF,2021-10-04T01:00:00Z,62.47,-114.45,8.0,-1.0,200,3,,15.0,29.388779,996.6,,,,,,,,,,FEW,6000,FEW,18000,,,,,VFR,,,,,,,,,,,,SPECI,202.0
CYYZ 040100Z 09011KT 4SM -DZ BR OVC004 17/17 A2987 RMK ST8 CIG VRB 3-5 SLP116 DENSITY ALT 1000FT,CYYZ,2021-10-04T01:00:00Z,43.67,-79.62,17.0,17.0,90,11,,4.0,29.870079,1011.6,,,,,,,,,-DZ BR,OVC,400,,,,,,,LIFR,,,,,,,,,,,,SPECI,171.0
CYYY 040100Z 18003KT 15SM FEW030 06/05 A3012 RMK SC2 SLP204,CYYY,2021-10-04T01:00:00Z,48.6,-68.22,6.0,5.0,180,3,,15.0,30.121063,1020.4,,,,,,,,,,FEW,3000,,,,,,,VFR,,,,,,,,,,,,METAR,43.0
CYYW 040100Z AUTO 00000KT 9SM OVC041 11/09 A3000 RMK SLP164,CYYW,2021-10-04T01:00:00Z,50.3,-88.9,11.0,9.0,0,0,,9.0,30.0,1016.4,,TRUE,,,,,,,,OVC,4100,,,,,,,VFR,,,,,,,,,,,,METAR,320.0
CYYU 040100Z 34003KT 330V040 15SM SKC 09/08 A3000 RMK SLP168,CYYU,2021-10-04T01:00:00Z,49.42,-82.47,9.0,8.0,340,3,,15.0,30.0,1016.8,,,,,,,,,,SKC,,,,,,,,VFR,,,,,,,,,,,,METAR,228.0
CYYT 040100Z 04007KT 10SM BKN003 OVC062 11/11 A2985 RMK SF6SC2 SLP112,CYYT,2021-10-04T01:00:00Z,47.62,-52.73,11.0,11.0,40,7,,10.0,29.84941,1011.2,,,,,,,,,,BKN,300,OVC,6200,,,,,LIFR,,,,,,,,,,,,SPECI,128.0
CYYR 040100Z 30007KT 15SM OVC026 05/02 A3005 RMK SC8 SLP177,CYYR,2021-10-04T01:00:00Z,53.32,-60.42,5.0,2.0,300,7,,15.0,30.050198,1017.7,,,,,,,,,,OVC,2600,,,,,,,MVFR,,,,,,,,,,,,SPECI,42.0
CYYQ 040100Z 19008KT 15SM BKN160 10/09 A2975 RMK AC5 SLP077,CYYQ,2021-10-04T01:00:00Z,58.75,-94.07,10.0,9.0,190,8,,15.0,29.749016,1007.7,,,,,,,,,,BKN,16000,,,,,,,VFR,,,,,,,,,,,,SPECI,20.0
CYYN 040100Z AUTO 27008KT 8SM CLR 16/M02 A2990 RMK SLP132 DENSITY ALT 3500FT,CYYN,2021-10-04T01:00:00Z,50.28,-107.68,16.0,-2.0,270,8,,8.0,29.899607,1013.2,,TRUE,,,,,,,,CLR,,,,,,,,VFR,,,,,,,,,,,,METAR,814.0
CYYL 040100Z AUTO 28004KT 1 1/4SM HZ CLR 11/07 A2971 RMK SLP076 DENSITY ALT 1300FT,CYYL,2021-10-04T01:00:00Z,56.87,-101.07,11.0,7.0,280,4,,1.25,29.71063,1007.6,,TRUE,,,,,,,HZ,CLR,,,,,,,,IFR,,,,,,,,,,,,METAR,351.0
CYYJ 040100Z 10004KT 30SM FEW028 FEW046 FEW170 BKN200 13/08 A3011 RMK SC1SC1AC1CI4 SC TR SLP197,CYYJ,2021-10-04T01:00:00Z,48.63,-123.42,13.0,8.0,100,4,,30.0,30.109253,1019.7,,,,,,,,,,FEW,2800,FEW,4600,FEW,17000,BKN,20000,VFR,,,,,,,,,,,,SPECI,16.0
CYYH 040100Z 09009KT 10SM -SHRA FEW009 BKN012 OVC100 02/01 A2970 RMK ST1SC5AC2 SLP061,CYYH,2021-10-04T01:00:00Z,69.53,-93.57,2.0,1.0,90,9,,10.0,29.698818,1006.1,,,,,,,,,-SHRA,FEW,900,BKN,1200,OVC,10000,,,MVFR,,,,,,,,,,,,METAR,19.0
CYYG 040100Z 31003KT 15SM FEW026 SCT036 09/07 A3001 RMK SC2SC2 SLP164,CYYG,2021-10-04T01:00:00Z,46.28,-63.12,9.0,7.0,310,3,,15.0,30.008858,1016.4,,,,,,,,,,FEW,2600,SCT,3600,,,,,VFR,,,,,,,,,,,,METAR,48.0
CYYF 040100Z 20005KT 150V220 15SM FEW070 BKN250 18/08 A2994 RMK CF1CI6 CF TR SLP140 DENSITY ALT 1800FT,CYYF,2021-10-04T01:00:00Z,49.47,-119.6,18.0,8.0,200,5,,15.0,29.940945,1014.0,,,,,,,,,,FEW,7000,BKN,25000,,,,,VFR,,,,,,,,,,,,METAR,342.0
CYYE 040100Z 25012G17KT 30SM FEW100 09/M12 A2965 RMK CU2 SLP055,CYYE,2021-10-04T01:00:00Z,58.83,-122.58,9.0,-12.0,250,12,17,30.0,29.648623,1005.5,,,,,,,,,,FEW,10000,,,,,,,VFR,,,,,,,,,,,,METAR,379.0
CYYD 040100Z 15003KT 080V210 25SM FEW060 06/M02 A2997 RMK CU2 SLP167,CYYD,2021-10-04T01:00:00Z,54.82,-127.18,6.0,-2.0,150,3,,25.0,29.970472,1016.7,,,,,,,,,,FEW,6000,,,,,,,VFR,,,,,,,,,,,,METAR,527.0
CYYC 040100Z 28008KT 40SM FEW030 FEW300 17/M05 A2988 RMK SC1CI1 SC TR CI TR SLP133 DENSITY ALT 4800FT,CYYC,2021-10-04T01:00:00Z,51.12,-114.02,17.0,-5.0,280,8,,40.0,29.878937,1013.3,,,,,,,,,,FEW,3000,FEW,30000,,,,,VFR,,,,,,,,,,,,SPECI,1085.0
CYYB 040100Z 07008KT 8SM -DZ OVC003 12/12 A2997 RMK ST8 SLP155,CYYB,2021-10-04T01:00:00Z,46.35,-79.42,12.0,12.0,70,8,,8.0,29.970472,1015.5,,,,,,,,,-DZ,OVC,300,,,,,,,LIFR,,,,,,,,,,,,METAR,360.0
CYXY 040100Z 36003KT 320V070 40SM FEW020 SCT033 BKN075 02/M01 A2976 RMK SF1SC4AC3 SF TR SLP116,CYXY,2021-10-04T01:00:00Z,60.72,-135.07,2.0,-1.0,360,3,,40.0,29.760826,1011.6,,,,,,,,,,FEW,2000,SCT,3300,BKN,7500,,,VFR,,,,,,,,,,,,SPECI,677.0
CYXX 040100Z 19005KT 15SM BKN045 BKN100 14/10 A3011 RMK SC6AC1 SLP197,CYXX,2021-10-04T01:00:00Z,49.03,-122.38,14.0,10.0,190,5,,15.0,30.109253,1019.7,,,,,,,,,,BKN,4500,BKN,10000,,,,,VFR,,,,,,,,,,,,SPECI,54.0
CYXU 040100Z 18004KT 2SM BR OVC002 19/19 A2983 RMK FG2SF6 SLP102 DENSITY ALT 1800FT,CYXU,2021-10-04T01:00:00Z,43.03,-81.15,19.0,19.0,180,4,,2.0,29.828741,1010.2,,,,,,,,,BR,OVC,200,,,,,,,LIFR,,,,,,,,,,,,SPECI,278.0
CYXT 040100Z 18014G19KT 20SM FEW012 BKN040 BKN120 BKN210 05/03 A3005 RMK SF1SC4AC1CI1 SLP185,CYXT,2021-10-04T01:00:00Z,54.47,-128.57,5.0,3.0,180,14,19,20.0,30.050198,1018.5,,,,,,,,,,FEW,1200,BKN,4000,BKN,12000,BKN,21000,VFR,,,,,,,,,,,,METAR,213.0
CYXS 040100Z AUTO 25006KT 9SM BKN100 08/M05 A2999 RMK SLP182,CYXS,2021-10-04T01:00:00Z,53.88,-122.68,8.0,-5.0,250,6,,9.0,29.991142,1018.2,,TRUE,,,,,,,,BKN,10000,,,,,,,VFR,,,,,,,,,,,,METAR,685.0
CYXR 040100Z AUTO 13002KT 9SM CLR 11/10 A3001 RMK SLP171,CYXR,2021-10-04T01:00:00Z,47.7,-79.85,11.0,10.0,130,2,,9.0,30.008858,1017.1,,TRUE,,,,,,,,CLR,,,,,,,,VFR,,,,,,,,,,,,METAR,244.0
CYXP 040100Z 00000KT 15SM SKC M01/M02 A3007 RMK CALL OUT SLP188,CYXP,2021-10-04T01:00:00Z,66.15,-65.72,-1.0,-2.0,0,0,,15.0,30.070866,1018.8,,,,,,,,,,SKC,,,,,,,,VFR,,,,,,,,,,,,METAR,29.0
CYXL 040100Z 11002KT 15SM SCT250 13/09 A2998 RMK CS3 SLP162 DENSITY ALT 1300FT,CYXL,2021-10-04T01:00:00Z,50.12,-91.9,13.0,9.0,110,2,,15.0,29.97933,1016.2,,,,,,,,,,SCT,25000,,,,,,,VFR,,,,,,,,,,,,METAR,381.0
CYXJ 040100Z 22023G29KT 50SM FEW060 FEW100 06/M06 A2986 RMK CU1AC1 SLP136,CYXJ,2021-10-04T01:00:00Z,56.25,-120.73,6.0,-6.0,220,23,29,50.0,29.861221,1013.6,,,,,,,,,,FEW,6000,FEW,10000,,,,,VFR,,,,,,,,,,,,METAR,700.0
CYXH 040100Z 23007KT 30SM FEW270 19/01 A2990 RMK CI1 SLP129 DENSITY ALT 3400FT,CYXH,2021-10-04T01:00:00Z,50.02,-110.72,19.0,1.0,230,7,,30.0,29.899607,1012.9,,,,,,,,,,FEW,27000,,,,,,,VFR,,,,,,,,,,,,METAR,717.0
CYXE 040100Z 17003KT 150V230 15SM SKC 17/M01 A2982 RMK SLP113 DENSITY ALT 2400FT,CYXE,2021-10-04T01:00:00Z,52.17,-106.7,17.0,-1.0,170,3,,15.0,29.819881,1011.3,,,,,,,,,,SKC,,,,,,,,VFR,,,,,,,,,,,,METAR,504.0
CYXC 040100Z 20008KT 25SM FEW065 FEW250 15/03 A3001 RMK CU1CI1 CU TR SLP163 DENSITY ALT 3800FT,CYXC,2021-10-04T01:00:00Z,49.6,-115.78,15.0,3.0,200,8,,25.0,30.008858,1016.3,,,,,,,,,,FEW,6500,FEW,25000,,,,,VFR,,,,,,,,,,,,METAR,928.0
CYWL 040100Z 01002KT 15SM BKN120 BKN220 10/M04 A2997 RMK AC5CI1 SLP172 DENSITY ALT 3200FT,CYWL,2021-10-04T01:00:00Z,52.18,-122.07,10.0,-4.0,10,2,,15.0,29.970472,1017.2,,,,,,,,,,BKN,12000,BKN,22000,,,,,VFR,,,,,,,,,,,,METAR,942.0
CYWK 040100Z VRB02KT 15SM SKC 02/M02 A3010 RMK SLP220,CYWK,2021-10-04T01:00:00Z,52.92,-66.87,2.0,-2.0,0,2,,15.0,30.100393,1022.0,,,,,,,,,,SKC,,,,,,,,VFR,,,,,,,,,,,,SPECI,547.0
CYWH 040100Z 21006KT 15SM FEW050 SCT170 BKN230 13/08 A3012 RMK SC1AC2CI4 SLP200,CYWH,2021-10-04T01:00:00Z,48.42,-123.38,13.0,8.0,210,6,,15.0,30.121063,1020.0,,,,,,,,,,FEW,5000,SCT,17000,BKN,23000,,,VFR,,,,,,,,,,,,METAR,4.0
CYWG 040100Z 17009KT 12SM FEW250 17/05 A2986 RMK CI1 CI TR FU SLP120 DENSITY ALT 1300FT,CYWG,2021-10-04T01:00:00Z,49.9,-97.23,17.0,5.0,170,9,,12.0,29.861221,1012.0,,,,,,,,,,FEW,25000,,,,,,,VFR,,,,,,,,,,,,SPECI,238.0
CYWE 040100Z AUTO 22009KT 9SM OVC038 07/01 A2930 RMK SLP941 DENSITY ALT 1300FT,CYWE,2021-10-04T01:00:00Z,64.18,-114.08,7.0,1.0,220,9,,9.0,29.300198,994.1,,TRUE,,,,,,,,OVC,3800,,,,,,,VFR,,,,,,,,,,,,METAR,374.0
CYWA 040100Z AUTO 10004KT 070V160 9SM FEW009 OVC032 OVC053 13/13 A3000 RMK SLP162,CYWA,2021-10-04T01:00:00Z,45.95,-77.32,13.0,13.0,100,4,,9.0,30.0,1016.2,,TRUE,,,,,,,,FEW,900,OVC,3200,OVC,5300,,,VFR,,,,,,,,,,,,METAR,121.0
CYVV 040100Z 09008KT 6SM BR SCT012 OVC050 17/17 A2986 RMK SF3SC5 SLP114 DENSITY ALT 1300FT,CYVV,2021-10-04T01:00:00Z,44.75,-81.1,17.0,17.0,90,8,,6.0,29.861221,1011.4,,,,,,,,,BR,SCT,1200,OVC,5000,,,,,VFR,,,,,,,,,,,,METAR,221.0
CYVT 040100Z AUTO 24005KT 9SM CLR 09/02 A2984 RMK SLP122,CYVT,2021-10-04T01:00:00Z,55.83,-108.42,9.0,2.0,240,5,,9.0,29.840551,1012.2,,TRUE,,,,,,,,CLR,,,,,,,,VFR,,,,,,,,,,,,METAR,438.0
CYVR 040100Z 30006KT 25SM FEW045 SCT210 SCT220 BKN230 BKN240 11/08 A3011 RMK SC1CC2CC1CI2CS1 CC TR SLP196,CYVR,2021-10-04T01:00:00Z,49.17,-123.17,11.0,8.0,300,6,,25.0,30.109253,1019.6,,,,,,,,,,FEW,4500,SCT,21000,SCT,22000,BKN,23000,VFR,,,,,,,,,,,,SPECI,2.0
CYVQ 040100Z 29018G28KT 3SM -SNRA BR BKN007 OVC015 01/00 A2961 RMK ST5SC3 SLP033,CYVQ,2021-10-04T01:00:00Z,65.27,-126.78,1.0,0.0,290,18,28,3.0,29.610237,1003.3,,,,,,,,,-SN -RA BR,BKN,700,OVC,1500,,,,,IFR,,,,,,,,,,,,METAR,63.0
CYVP 040100Z 00000KT 15SM FEW240 03/M01 A3021 RMK CI1 SLP233,CYVP,2021-10-04T01:00:00Z,58.12,-68.42,3.0,-1.0,0,0,,15.0,30.209646,1023.3,,,,,,,,,,FEW,24000,,,,,,,VFR,,,,,,,,,,,,SPECI,28.0
CYVO 040100Z 18003KT 110V190 15SM SKC 08/06 A3002 RMK SLP182,CYVO,2021-10-04T01:00:00Z,48.07,-77.77,8.0,6.0,180,3,,15.0,30.02067,1018.2,,,,,,,,,,SKC,,,,,,,,VFR,,,,,,,,,,,,METAR,329.0
CYVL 040100Z AUTO 36022G31KT 3SM -SN BKN010 OVC015 01/ A2956 RMK TD MISG SLP030,CYVL,2021-10-04T01:00:00Z,67.02,-126.13,1.0,,360,22,31,3.0,29.56004,1003.0,,TRUE,,,,,,,-SN,BKN,1000,OVC,1500,,,,,MVFR,,,,,,,,,,,,METAR,261.0
CYVC 040100Z 34006KT 15SM SCT100 12/00 A2983 RMK AC3 SLP117 DENSITY ALT 1300FT,CYVC,2021-10-04T01:00:00Z,55.15,-105.27,12.0,0.0,340,6,,15.0,29.828741,1011.7,,,,,,,,,,SCT,10000,,,,,,,VFR,,,,,,,,,,,,METAR,378.0
CYUY 040100Z 08002KT 15SM SKC 07/06 RMK A3003 DENSITY ALT MISG,CYUY,2021-10-04T01:00:00Z,48.2,-78.82,7.0,6.0,80,2,,15.0,,,,,,,,,,,,SKC,,,,,,,,VFR,,,,,,,,,,,,SPECI,304.0
CYUS 040100Z AUTO 12008KT ////SM //// OVC007 03/03 A2965,CYUS,2021-10-04T01:00:00Z,68.78,-93.42,3.0,3.0,120,8,,,29.648623,,,TRUE,,,,,,,,OVC,700,,,,,,,,,,,,,,,,,,,METAR,30.0
CYUL 040100Z 05009KT 15SM FEW058 13/07 A3000 RMK SC1 SC TR SLP160,CYUL,2021-10-04T01:00:00Z,45.47,-73.73,13.0,7.0,50,9,,15.0,30.0,1016.0,,,,,,,,,,FEW,5800,,,,,,,VFR,,,,,,,,,,,,SPECI,31.0
CYUB 040100Z 03011KT 6SM -DZ BKN008 OVC018 01/01 A2996 RMK ST7SC1 SLP146,CYUB,2021-10-04T01:00:00Z,69.43,-133.02,1.0,1.0,30,11,,6.0,29.958662,1014.6,,,,,,,,,-DZ,BKN,800,OVC,1800,,,,,IFR,,,,,,,,,,,,METAR,5.0
CYUA 040100Z AUTO 32014G23KT 300V360 ////SM SCT009 BKN018 OVC023 M01/M02 A3005,CYUA,2021-10-04T01:00:00Z,68.92,-137.23,-1.0,-2.0,320,14,23,,30.050198,,,TRUE,,,,,,,,SCT,900,BKN,1800,OVC,2300,,,,,,,,,,,,,,,METAR,25.0
CYTZ 040100Z AUTO 06015G21KT 2SM -RA BR OVC002 16/16 A2987 RMK SLP116 DENSITY ALT 500FT,CYTZ,2021-10-04T01:00:00Z,43.63,-79.4,16.0,16.0,60,15,21,2.0,29.870079,1011.6,,TRUE,,,,,,,-RA BR,OVC,200,,,,,,,LIFR,,,,,,,,,,,,METAR,76.0
CYTS 040100Z 08002KT 15SM SCT038 BKN065 09/08 A3001 RMK SC4SC1 SLP172,CYTS,2021-10-04T01:00:00Z,48.57,-81.37,9.0,8.0,80,2,,15.0,30.008858,1017.2,,,,,,,,,,SCT,3800,BKN,6500,,,,,VFR,,,,,,,,,,,,METAR,290.0
CYTR 040100Z 05011KT 7SM BKN004 BKN022 OVC042 14/14 A2991 RMK SF5SC2SC1 SLP131,CYTR,2021-10-04T01:00:00Z,44.12,-77.52,14.0,14.0,50,11,,7.0,29.911417,1013.1,,,,,,,,,,BKN,400,BKN,2200,OVC,4200,,,LIFR,,,,,,,,,,,,SPECI,80.0
CYTL 040100Z AUTO 17010KT 9SM 12/10 A2995 RMK CLD MISG SLP152,CYTL,2021-10-04T01:00:00Z,53.82,-89.88,12.0,10.0,170,10,,9.0,29.949802,1015.2,,TRUE,,,,,,,,,,,,,,,,,,,,,,,,,,,,SPECI,218.0
CYTH 040100Z VRB02KT 15SM SCT095 OVC140 15/08 A2974 RMK AC3AC5 SLP079 DENSITY ALT 1100FT,CYTH,2021-10-04T01:00:00Z,55.8,-97.83,15.0,8.0,0,2,,15.0,29.740158,1007.9,,,,,,,,,,SCT,9500,OVC,14000,,,,,VFR,,,,,,,,,,,,METAR,212.0
CYSN 040100Z 03003KT 2SM -RA BR BKN005 OVC014 19/19 A2984 RMK SF6SC2 LAST STFD OBS/NEXT 041100Z SLP105 DENSITY ALT 1000FT,CYSN,2021-10-04T01:00:00Z,43.2,-79.17,19.0,19.0,30,3,,2.0,29.840551,1010.5,,,,,,,,,-RA BR,BKN,500,OVC,1400,,,,,IFR,,,,,,,,,,,,METAR,96.0
CYSM 040100Z 23010G16KT 15SM FEW032 SCT050 BKN120 08/01 A2952 RMK CU1SC3AC4 CU TR SLP008,CYSM,2021-10-04T01:00:00Z,60.03,-111.92,8.0,1.0,230,10,16,15.0,29.518702,1000.8,,,,,,,,,,FEW,3200,SCT,5000,BKN,12000,,,VFR,,,,,,,,,,,,METAR,203.0
CYSJ 040100Z 36005KT 15SM SCT030 BKN060 BKN200 11/09 A3004 RMK SC3SC3CI1 SLP178,CYSJ,2021-10-04T01:00:00Z,45.32,-65.88,11.0,9.0,360,5,,15.0,30.041338,1017.8,,,,,,,,,,SCT,3000,BKN,6000,BKN,20000,,,VFR,,,,,,,,,,,,SPECI,89.0
CYSF 040100Z AUTO 19006KT 9SM OVC096 11/M00 A2960 RMK SLP037 DENSITY ALT 1000FT,CYSF,2021-10-04T01:00:00Z,59.25,-105.83,11.0,0.0,190,6,,9.0,29.601377,1003.7,,TRUE,,,,,,,,OVC,9600,,,,,,,VFR,,,,,,,,,,,,METAR,238.0
CYSC 040100Z AUTO 07005KT 9SM FEW042 10/08 A3001 RMK SLP171,CYSC,2021-10-04T01:00:00Z,45.43,-71.68,10.0,8.0,70,5,,9.0,30.008858,1017.1,,TRUE,,,,,,,,FEW,4200,,,,,,,VFR,,,,,,,,,,,,METAR,236.0
CYSB 040100Z 07010KT 15SM OVC007 13/13 A2997 RMK SC8 SLP154 DENSITY ALT 1200FT,CYSB,2021-10-04T01:00:00Z,46.63,-80.8,13.0,13.0,70,10,,15.0,29.970472,1015.4,,,,,,,,,,OVC,700,,,,,,,IFR,,,,,,,,,,,,METAR,349.0
CYRV 040100Z AUTO VRB03KT 9SM BKN230 11/09 A2997 RMK SLP158,CYRV,2021-10-04T01:00:00Z,50.97,-118.17,11.0,9.0,0,3,,9.0,29.970472,1015.8,,TRUE,,,,,,,,BKN,23000,,,,,,,VFR,,,,,,,,,,,,METAR,456.0
CYRT 040100Z 17011KT 1/4SM FG VV002 05/05 A2972 RMK FG8 SLP066,CYRT,2021-10-04T01:00:00Z,62.82,-92.12,5.0,5.0,170,11,,0.25,29.719488,1006.6,,,,,,,,,FG,OVX,0,,,,,,,LIFR,,,,,,,,,,,200,METAR,29.0
CYRQ 040100Z AUTO 06011KT 9SM CLR 10/07 A3006 RMK SLP182,CYRQ,2021-10-04T01:00:00Z,46.35,-72.68,10.0,7.0,60,11,,9.0,30.059055,1018.2,,TRUE,,,,,,,,CLR,,,,,,,,VFR,,,,,,,,,,,,METAR,58.0
CYRL 040100Z 15003KT 15SM FEW240 12/09 A2993 RMK CI2 SLP149,CYRL,2021-10-04T01:00:00Z,51.07,-93.78,12.0,9.0,150,3,,15.0,29.929134,1014.9,,,,,,,,,,FEW,24000,,,,,,,VFR,,,,,,,,,,,,METAR,370.0
CYRJ 040100Z 00000KT 25SM FEW020 04/03 A3011 RMK SC1 SC TR SLP206,CYRJ,2021-10-04T01:00:00Z,48.52,-72.27,4.0,3.0,0,0,,25.0,30.109253,1020.6,,,,,,,,,,FEW,2000,,,,,,,VFR,,,,,,,,,,,,METAR,173.0
CYRB 040100Z 07011KT 3SM -SN BR OVC008 00/M00 A2981 RMK ST8 SLP103,CYRB,2021-10-04T01:00:00Z,74.72,-94.97,0.0,0.0,70,11,,3.0,29.811024,1010.3,,,,,,,,,-SN BR,OVC,800,,,,,,,IFR,,,,,,,,,,,,SPECI,59.0
CYQZ 040100Z AUTO VRB02KT 8SM CLR 10/M01 A2998 RMK SLP173,CYQZ,2021-10-04T01:00:00Z,53.02,-122.52,10.0,-1.0,0,2,,8.0,29.97933,1017.3,,TRUE,,,,,,,,CLR,,,,,,,,VFR,,,,,,,,,,,,METAR,548.0
CYQY 040100Z 29006KT 15SM OVC069 10/09 A2995 RMK AC8 SLP143,CYQY,2021-10-04T01:00:00Z,46.17,-60.03,10.0,9.0,290,6,,15.0,29.949802,1014.3,,,,,,,,,,OVC,6900,,,,,,,VFR,,,,,,,,,,,,SPECI,58.0
CYQX 040100Z 04006KT 4SM BR OVC004 06/06 A2990 RMK ST8 SLP133,CYQX,2021-10-04T01:00:00Z,48.95,-54.58,6.0,6.0,40,6,,4.0,29.899607,1013.3,,,,,,,,,BR,OVC,400,,,,,,,LIFR,,,,,,,,,,,,SPECI,144.0
CYQW 040100Z AUTO 32012G17KT 9SM CLR 17/00 A2985 RMK SLP124 DENSITY ALT 2500FT,CYQW,2021-10-04T01:00:00Z,52.77,-108.25,17.0,0.0,320,12,17,9.0,29.84941,1012.4,,TRUE,,,,,,,,CLR,,,,,,,,VFR,,,,,,,,,,,,METAR,545.0
CYQV 040100Z AUTO 24007KT 9SM CLR 16/M02 A2987 RMK SLP128 DENSITY ALT 2300FT,CYQV,2021-10-04T01:00:00Z,51.27,-102.47,16.0,-2.0,240,7,,9.0,29.870079,1012.8,,TRUE,,,,,,,,CLR,,,,,,,,VFR,,,,,,,,,,,,METAR,493.0
CYQU 040100Z 25011KT 25SM FEW090 FEW220 06/M06 A2993 RMK AC1CI1 SLP162,CYQU,2021-10-04T01:00:00Z,55.18,-118.88,6.0,-6.0,250,11,,25.0,29.929134,1016.2,,,,,,,,,,FEW,9000,FEW,22000,,,,,VFR,,,,,,,,,,,,METAR,668.0
CYQT 040100Z 00000KT 15SM OVC031 14/14 A2999 RMK SC8 SLP160 DENSITY ALT 700FT,CYQT,2021-10-04T01:00:00Z,48.37,-89.32,14.0,14.0,0,0,,15.0,29.991142,1016.0,,,,,,,,,,OVC,3100,,,,,,,VFR,,,,,,,,,,,,METAR,197.0
CYQR 040100Z 10002KT 15SM SCT190 18/02 A2989 RMK AC3 SLP135 DENSITY ALT 2700FT,CYQR,2021-10-04T01:00:00Z,50.43,-104.67,18.0,2.0,100,2,,15.0,29.890747,1013.5,,,,,,,,,,SCT,19000,,,,,,,VFR,,,,,,,,,,,,METAR,576.0
CYQQ 040100Z 29004KT 20SM FEW040 FEW075 BKN210 13/03 A3013 RMK SC1AC1CI5 SLP202,CYQQ,2021-10-04T01:00:00Z,49.72,-124.9,13.0,3.0,290,4,,20.0,30.129921,1020.2,,,,,,,,,,FEW,4000,FEW,7500,BKN,21000,,,VFR,,,,,,,,,,,,SPECI,24.0
CYQM 040100Z 29004KT 15SM BKN058 09/06 A3002 RMK SC6 SLP170,CYQM,2021-10-04T01:00:00Z,46.12,-64.67,9.0,6.0,290,4,,15.0,30.02067,1017.0,,,,,,,,,,BKN,5800,,,,,,,VFR,,,,,,,,,,,,SPECI,67.0
CYQL 040100Z 22012KT 60SM FEW080 BKN270 17/M01 A2993 RMK AC1CI5 AC TR SLP137 DENSITY ALT 4000FT,CYQL,2021-10-04T01:00:00Z,49.63,-112.8,17.0,-1.0,220,12,,60.0,29.929134,1013.7,,,,,,,,,,FEW,8000,BKN,27000,,,,,VFR,,,,,,,,,,,,METAR,923.0
CYQK 040100Z 17004KT 20SM SCT270 14/10 A2995 RMK CI4 SLP152 DENSITY ALT 1500FT,CYQK,2021-10-04T01:00:00Z,49.78,-94.37,14.0,10.0,170,4,,20.0,29.949802,1015.2,,,,,,,,,,SCT,27000,,,,,,,VFR,,,,,,,,,,,,METAR,413.0
CYQI 040100Z 01005KT 15SM FEW036 09/07 A3001 RMK SC1 SC TR SLP166,CYQI,2021-10-04T01:00:00Z,43.83,-66.08,9.0,7.0,10,5,,15.0,30.008858,1016.6,,,,,,,,,,FEW,3600,,,,,,,VFR,,,,,,,,,,,,METAR,37.0
CYQH 040100Z 28013KT 30SM BKN055 BKN086 05/M07 A2970 RMK SC5AC2 SLP092,CYQH,2021-10-04T01:00:00Z,60.12,-128.82,5.0,-7.0,280,13,,30.0,29.698818,1009.2,,,,,,,,,,BKN,5500,BKN,8600,,,,,VFR,,,,,,,,,,,,METAR,692.0
CYQG 040100Z AUTO 15002KT 9SM CLR 19/18 A2983 RMK LTNG DIST SW NW SLP100 DENSITY ALT 1400FT,CYQG,2021-10-04T01:00:00Z,42.27,-82.97,19.0,18.0,150,2,,9.0,29.828741,1010.0,,TRUE,,,,,,,,CLR,,,,,,,,VFR,,,,,,,,,,,,SPECI,189.0
CYQF 040100Z AUTO 03009KT 9SM CLR 09/00 A2993 RMK SLP166 DENSITY ALT 3000FT,CYQF,2021-10-04T01:00:00Z,52.17,-113.9,9.0,0.0,30,9,,9.0,29.929134,1016.6,,TRUE,,,,,,,,CLR,,,,,,,,VFR,,,,,,,,,,,,METAR,912.0
CYQD 040100Z AUTO 22005KT 9SM CLR 11/04 A2978 RMK SLP095 DENSITY ALT 900FT,CYQD,2021-10-04T01:00:00Z,53.97,-101.08,11.0,4.0,220,5,,9.0,29.778543,1009.5,,TRUE,,,,,,,,CLR,,,,,,,,VFR,,,,,,,,,,,,METAR,268.0
CYQB 040100Z 06011KT 15SM FEW062 09/06 A3009 RMK SC2 SLP194,CYQB,2021-10-04T01:00:00Z,46.78,-71.38,9.0,6.0,60,11,,15.0,30.088583,1019.4,,,,,,,,,,FEW,6200,,,,,,,VFR,,,,,,,,,,,,SPECI,73.0
CYQA 040100Z AUTO 09003KT 040V130 9SM OVC007 15/14 A2992 RMK SLP135 DENSITY ALT 1200FT,CYQA,2021-10-04T01:00:00Z,44.97,-79.3,15.0,14.0,90,3,,9.0,29.920275,1013.5,,TRUE,,,,,,,,OVC,700,,,,,,,IFR,,,,,,,,,,,,METAR,277.0
CYPY 040100Z AUTO 27018G29KT 9SM FEW055 BKN079 OVC100 09/00 A2962 RMK PRESRR SLP041,CYPY,2021-10-04T01:00:00Z,58.77,-111.12,9.0,0.0,270,18,29,9.0,29.619095,1004.1,,TRUE,,,,,,,,FEW,5500,BKN,7900,OVC,10000,,,VFR,,,,,,,,,,,,METAR,225.0
CYPX 040100Z AUTO 13003KT 9SM CLR 05/02 A3013 RMK SLP205,CYPX,2021-10-04T01:00:00Z,60.03,-77.27,5.0,2.0,130,3,,9.0,30.129921,1020.5,,TRUE,,,,,,,,CLR,,,,,,,,VFR,,,,,,,,,,,,METAR,10.0
CYPW 040100Z 25004KT 170V320 25SM FEW017 FEW060 FEW150 BKN250 12/07 A3012 RMK CU1SC1AC1CI4 CU TR SLP203,CYPW,2021-10-04T01:00:00Z,49.83,-124.5,12.0,7.0,250,4,,25.0,30.121063,1020.3,,,,,,,,,,FEW,1700,FEW,6000,FEW,15000,BKN,25000,VFR,,,,,,,,,,,,METAR,122.0
CYPR 040100Z AUTO 21010G19KT 170V240 9SM SCT031 BKN046 BKN076 OVC091 09/04 A3003 RMK SLP171,CYPR,2021-10-04T01:00:00Z,54.28,-130.45,9.0,4.0,210,10,19,9.0,30.029528,1017.1,,TRUE,,,,,,,,SCT,3100,BKN,4600,BKN,7600,OVC,9100,VFR,,,,,,,,,,,,METAR,30.0
CYPQ 040100Z AUTO 19009KT 9SM OVC005 15/14 A2991 RMK SLP131 DENSITY ALT 800FT,CYPQ,2021-10-04T01:00:00Z,44.22,-78.37,15.0,14.0,190,9,,9.0,29.911417,1013.1,,TRUE,,,,,,,,OVC,500,,,,,,,IFR,,,,,,,,,,,,METAR,190.0
CYPO 040100Z AUTO 16005KT 9SM OVC066 10/06 A3002 RMK SLP169,CYPO,2021-10-04T01:00:00Z,54.98,-85.43,10.0,6.0,160,5,,9.0,30.02067,1016.9,,TRUE,,,,,,,,OVC,6600,,,,,,,VFR,,,,,,,,,,,,METAR,49.0
CYPL 040100Z AUTO 12003KT 9SM BKN031 11/08 A2999 RMK SLP168,CYPL,2021-10-04T01:00:00Z,51.43,-90.22,11.0,8.0,120,3,,9.0,29.991142,1016.8,,TRUE,,,,,,,,BKN,3100,,,,,,,VFR,,,,,,,,,,,,SPECI,390.0
CYPH 040100Z AUTO VRB02KT 9SM FEW220 SCT240 06/02 A3013 RMK SLP208,CYPH,2021-10-04T01:00:00Z,58.47,-78.08,6.0,2.0,0,2,,9.0,30.129921,1020.8,,TRUE,,,,,,,,FEW,22000,SCT,24000,,,,,VFR,,,,,,,,,,,,METAR,24.0
CYPE 040100Z 26021G29KT 15SM FEW075 08/M10 A2984 RMK CU1 CU TR SH DIST N SLP128,CYPE,2021-10-04T01:00:00Z,56.22,-117.45,8.0,-10.0,260,21,29,15.0,29.840551,1012.8,,,,,,,,,,FEW,7500,,,,,,,VFR,,,,,,,,,,,,METAR,572.0
CYPD 040100Z AUTO VRB02KT 9SM SCT028 BKN034 OVC043 10/09 A2997 RMK SLP153,CYPD,2021-10-04T01:00:00Z,45.67,-61.37,10.0,9.0,0,2,,9.0,29.970472,1015.3,,TRUE,,,,,,,,SCT,2800,BKN,3400,OVC,4300,,,VFR,,,,,,,,,,,,METAR,106.0
CYPA 040100Z 26004KT 15SM FEW100 18/M00 A2983 RMK AC1 AC TR SLP115 DENSITY ALT 2200FT,CYPA,2021-10-04T01:00:00Z,53.22,-105.67,18.0,0.0,260,4,,15.0,29.828741,1011.5,,,,,,,,,,FEW,10000,,,,,,,VFR,,,,,,,,,,,,METAR,428.0
CYOY 040100Z AUTO 11005KT 9SM BKN042 BKN057 09/05 A3008 RMK SLP193,CYOY,2021-10-04T01:00:00Z,46.88,-71.5,9.0,5.0,110,5,,9.0,30.079725,1019.3,,TRUE,,,,,,,,BKN,4200,BKN,5700,,,,,VFR,,,,,,,,,,,,METAR,167.0
CYOW 040100Z 04006KT 15SM OVC036 12/11 A2999 RMK SC8 SLP159,CYOW,2021-10-04T01:00:00Z,45.32,-75.67,12.0,11.0,40,6,,15.0,29.991142,1015.9,,,,,,,,,,OVC,3600,,,,,,,VFR,,,,,,,,,,,,SPECI,111.0
CYOO 040100Z AUTO 09009KT 9SM OVC006 17/16 A2988 RMK SLP121 DENSITY ALT 900FT,CYOO,2021-10-04T01:00:00Z,43.92,-78.9,17.0,16.0,90,9,,9.0,29.878937,1012.1,,TRUE,,,,,,,,OVC,600,,,,,,,IFR,,,,,,,,,,,,METAR,136.0
CYOJ 040100Z 29011G22KT 260V330 15SM VCSH SCT050CB BKN200 07/M01 A2967 RMK CB3CI2 SLP065,CYOJ,2021-10-04T01:00:00Z,58.62,-117.17,7.0,-1.0,290,11,22,15.0,29.66929,1006.5,,,,,,,,,VCSH,SCT,5000,BKN,20000,,,,,VFR,,,,,,,,,,,,METAR,339.0
CYOD 040100Z 26004KT 15SM FEW090 10/M00 A2990 RMK AC1 DA1680FT SLP146,CYOD,2021-10-04T01:00:00Z,54.4,-110.28,10.0,0.0,260,4,,15.0,29.899607,1014.6,,,,,,,,,,FEW,9000,,,,,,,VFR,,,,,,,,,,,,METAR,540.0
CYNM 040100Z AUTO 12003KT 9SM CLR 05/05 A3005 RMK SLP191,CYNM,2021-10-04T01:00:00Z,49.77,-77.78,5.0,5.0,120,3,,9.0,30.050198,1019.1,,TRUE,,,,,,,,CLR,,,,,,,,VFR,,,,,,,,,,,,METAR,276.0
CYNE 040100Z AUTO 21007G15KT 160V230 9SM CLR 15/08 A2977 RMK SLP090 DENSITY ALT 1200FT,CYNE,2021-10-04T01:00:00Z,53.97,-97.83,15.0,8.0,210,7,15,9.0,29.769686,1009.0,,TRUE,,,,,,,,CLR,,,,,,,,VFR,,,,,,,,,,,,METAR,220.0
CYND 040100Z 03006KT 15SM BKN040 13/11 A2999 RMK SC7 LAST STFD OBS/NXT 041100Z SLP159,CYND,2021-10-04T01:00:00Z,45.52,-75.57,13.0,11.0,30,6,,15.0,29.991142,1015.9,,,,,,,,,,BKN,4000,,,,,,,VFR,,,,,,,,,,,,METAR,57.0
CYNA 040100Z AUTO 02004KT 9SM BKN086 OVC150 06/04 A3002 RMK SLP169,CYNA,2021-10-04T01:00:00Z,50.18,-61.78,6.0,4.0,20,4,,9.0,30.02067,1016.9,,TRUE,,,,,,,,BKN,8600,OVC,15000,,,,,VFR,,,,,,,,,,,,METAR,9.0
CYMX 040100Z VRB02KT 25SM FEW100 BKN250 09/07 A3001 RMK AC1CI4 SLP165,CYMX,2021-10-04T01:00:00Z,45.67,-74.03,9.0,7.0,0,2,,25.0,30.008858,1016.5,,,,,,,,,,FEW,10000,BKN,25000,,,,,VFR,,,,,,,,,,,,SPECI,78.0
CYMT 040100Z AUTO 07005KT 9SM CLR 06/03 A3010 RMK SLP207,CYMT,2021-10-04T01:00:00Z,49.77,-74.52,6.0,3.0,70,5,,9.0,30.100393,1020.7,,TRUE,,,,,,,,CLR,,,,,,,,VFR,,,,,,,,,,,,METAR,388.0
CYMO 040100Z AUTO 05004KT 9SM CLR 10/08 A3005 RMK SLP177,CYMO,2021-10-04T01:00:00Z,51.28,-80.62,10.0,8.0,50,4,,9.0,30.050198,1017.7,,TRUE,,,,,,,,CLR,,,,,,,,VFR,,,,,,,,,,,,METAR,8.0
CYMM 040100Z AUTO 24012G17KT 9SM FEW091 10/M07 A2977 RMK SLP097,CYMM,2021-10-04T01:00:00Z,56.65,-111.22,10.0,-7.0,240,12,17,9.0,29.769686,1009.7,,TRUE,,,,,,,,FEW,9100,,,,,,,VFR,,,,,,,,,,,,METAR,371.0
CYMH 040100Z AUTO 26003KT 9SM BKN019 OVC041 04/04 A2995 RMK SLP143,CYMH,2021-10-04T01:00:00Z,52.3,-55.82,4.0,4.0,260,3,,9.0,29.949802,1014.3,,TRUE,,,,,,,,BKN,1900,OVC,4100,,,,,MVFR,,,,,,,,,,,,SPECI,18.0
CYMA 040100Z 22003KT 20SM FEW029 BKN049 BKN059 OVC079 04/01 A2975 RMK SC2SC4SC1AC1 SLP104,CYMA,2021-10-04T01:00:00Z,63.62,-135.87,4.0,1.0,220,3,,20.0,29.749016,1010.4,,,,,,,,,,FEW,2900,BKN,4900,BKN,5900,OVC,7900,VFR,,,,,,,,,,,,METAR,519.0
CYLW 040100Z AUTO 21003KT 160V240 9SM CLR 19/05 A2995 RMK SLP144 DENSITY ALT 2300FT,CYLW,2021-10-04T01:00:00Z,49.95,-119.37,19.0,5.0,210,3,,9.0,29.949802,1014.4,,TRUE,,,,,,,,CLR,,,,,,,,VFR,,,,,,,,,,,,METAR,420.0
CYLL 040100Z 34011G16KT 15SM SKC 11/01 A2989 RMK SLP146 DENSITY ALT 2300FT,CYLL,2021-10-04T01:00:00Z,53.32,-110.07,11.0,1.0,340,11,16,15.0,29.890747,1014.6,,,,,,,,,,SKC,,,,,,,,VFR,,,,,,,,,,,,METAR,664.0
CYLH 040100Z AUTO 00000KT 9SM OVC042 11/10 A3000 RMK SLP170,CYLH,2021-10-04T01:00:00Z,52.2,-87.93,11.0,10.0,0,0,,9.0,30.0,1017.0,,TRUE,,,,,,,,OVC,4200,,,,,,,VFR,,,,,,,,,,,,METAR,245.0
CYLD 040100Z 08005KT 15SM OVC005 12/12 A2999 RMK SC8 LAST STFD OBS/NEXT 041000UTC SLP167,CYLD,2021-10-04T01:00:00Z,47.82,-83.35,12.0,12.0,80,5,,15.0,29.991142,1016.7,,,,,,,,,,OVC,500,,,,,,,IFR,,,,,,,,,,,,METAR,449.0
CYKY 040100Z 28003KT 15SM FEW240 18/M03 A2984 RMK CI1 CI TR SLP117 DENSITY ALT 3200FT,CYKY,2021-10-04T01:00:00Z,51.52,-109.17,18.0,-3.0,280,3,,15.0,29.840551,1011.7,,,,,,,,,,FEW,24000,,,,,,,VFR,,,,,,,,,,,,METAR,692.0
CYKP 040100Z AUTO 07003KT 030V110 9SM OVC050 13/08 A3001 RMK SLP166,CYKP,2021-10-04T01:00:00Z,51.67,-85.9,13.0,8.0,70,3,,9.0,30.008858,1016.6,,TRUE,,,,,,,,OVC,5000,,,,,,,VFR,,,,,,,,,,,,METAR,181.0
CYKL 040100Z AUTO 31003KT 9SM CLR 03/M01 A3014 RMK SLP234,CYKL,2021-10-04T01:00:00Z,54.8,-66.8,3.0,-1.0,310,3,,9.0,30.138779,1023.4,,TRUE,,,,,,,,CLR,,,,,,,,VFR,,,,,,,,,,,,SPECI,507.0
CYKJ 040100Z AUTO 23009KT 9SM FEW110 09/M00 A2974 RMK SLP090,CYKJ,2021-10-04T01:00:00Z,57.25,-105.62,9.0,0.0,230,9,,9.0,29.740158,1009.0,,TRUE,,,,,,,,FEW,11000,,,,,,,VFR,,,,,,,,,,,,METAR,519.0
CYKA 040100Z 21010G18KT 40SM SCT230 19/M02 A2994 RMK CC4 SLP142 DENSITY ALT 1900FT,CYKA,2021-10-04T01:00:00Z,50.7,-120.45,19.0,-2.0,210,10,18,40.0,29.940945,1014.2,,,,,,,,,,SCT,23000,,,,,,,VFR,,,,,,,,,,,,METAR,344.0
CYJT 040100Z 02003KT 360V070 15SM SCT028 08/06 A2993 RMK SC4 SLP137,CYJT,2021-10-04T01:00:00Z,48.55,-58.57,8.0,6.0,20,3,,15.0,29.929134,1013.7,,,,,,,,,,SCT,2800,,,,,,,VFR,,,,,,,,,,,,SPECI,7.0
CYIV 040100Z AUTO 15007KT 9SM BKN210 BKN230 16/10 A2983 RMK SLP110 DENSITY ALT 1200FT,CYIV,2021-10-04T01:00:00Z,53.85,-94.65,16.0,10.0,150,7,,9.0,29.828741,1011.0,,TRUE,,,,,,,,BKN,21000,BKN,23000,,,,,VFR,,,,,,,,,,,,METAR,234.0
CYIO 040100Z AUTO 16003KT 9SM BKN030 OVC044 02/01 A2995 RMK SLP150,CYIO,2021-10-04T01:00:00Z,72.68,-77.97,2.0,1.0,160,3,,9.0,29.949802,1015.0,,TRUE,,,,,,,,BKN,3000,OVC,4400,,,,,MVFR,,,,,,,,,,,,METAR,61.0
CYIN 040100Z AUTO 21005KT 9SM CLR 11/M06 A2997 RMK SLP167 DENSITY ALT 4100FT,CYIN,2021-10-04T01:00:00Z,51.27,-121.68,11.0,-6.0,210,5,,9.0,29.970472,1016.7,,TRUE,,,,,,,,CLR,,,,,,,,VFR,,,,,,,,,,,,METAR,1127.0
CYHZ 040100Z 01007KT 15SM SCT007 BKN052 10/09 A3001 RMK SF3SC4 SLP166,CYHZ,2021-10-04T01:00:00Z,44.87,-63.5,10.0,9.0,10,7,,15.0,30.008858,1016.6,,,,,,,,,,SCT,700,BKN,5200,,,,,VFR,,,,,,,,,,,,SPECI,136.0
CYHY 040100Z 24009G15KT 15SM SCT150 BKN230 09/M05 A2949 RMK AC3CI2 SLP995,CYHY,2021-10-04T01:00:00Z,60.83,-115.77,9.0,-5.0,240,9,15,15.0,29.489174,999.5,,,,,,,,,,SCT,15000,BKN,23000,,,,,VFR,,,,,,,,,,,,METAR,159.0
CYHU 040100Z AUTO 03005KT 9SM CLR 10/07 A3000 RMK SLP161,CYHU,2021-10-04T01:00:00Z,45.52,-73.42,10.0,7.0,30,5,,9.0,30.0,1016.1,,TRUE,,,,,,,,CLR,,,,,,,,VFR,,,,,,,,,,,,METAR,26.0
CYHM 040100Z 02007KT 1 3/4SM -RA BR BKN003 OVC009 17/17 A2986 RMK ST6SC2 SLP112 DENSITY ALT 1400FT,CYHM,2021-10-04T01:00:00Z,43.17,-79.93,17.0,17.0,20,7,,1.75,29.861221,1011.2,,,,,,,,,-RA BR,BKN,300,OVC,900,,,,,LIFR,,,,,,,,,,,,METAR,237.0
CYHK 040100Z AUTO 11008KT 3/8SM FG VV003 03/03 A2962 RMK SLP037,CYHK,2021-10-04T01:00:00Z,68.62,-95.85,3.0,3.0,110,8,,0.38,29.619095,1003.7,,TRUE,,,,,,,FG,OVX,0,,,,,,,LIFR,,,,,,,,,,,300,METAR,36.0
CYHE 040100Z AUTO 29007KT 270V340 9SM 13/10 A3008 RMK CLD MISG SLP189,CYHE,2021-10-04T01:00:00Z,49.37,-121.5,13.0,10.0,290,7,,9.0,30.079725,1018.9,,TRUE,,,,,,,,,,,,,,,,,,,,,,,,,,,,METAR,43.0
CYHD 040100Z AUTO 16005KT 9SM CLR 13/11 A2997 RMK SLP161 DENSITY ALT 1500FT,CYHD,2021-10-04T01:00:00Z,49.82,-92.75,13.0,11.0,160,5,,9.0,29.970472,1016.1,,TRUE,,,,,,,,CLR,,,,,,,,VFR,,,,,,,,,,,,METAR,414.0
CYGX 040100Z 16006KT 15SM OVC035 13/10 A2979 RMK SC8 SLP097 DENSITY ALT 600FT,CYGX,2021-10-04T01:00:00Z,56.35,-94.7,13.0,10.0,160,6,,15.0,29.790354,1009.7,,,,,,,,,,OVC,3500,,,,,,,VFR,,,,,,,,,,,,METAR,145.0
CYGW 040100Z AUTO 14004KT 9SM CLR 08/03 A3014 RMK SLP208,CYGW,2021-10-04T01:00:00Z,55.27,-77.77,8.0,3.0,140,4,,9.0,30.138779,1020.8,,TRUE,,,,,,,,CLR,,,,,,,,VFR,,,,,,,,,,,,METAR,13.0
CYGV 040100Z AUTO 33005KT 9SM OVC100 07/05 A3003 RMK SLP173,CYGV,2021-10-04T01:00:00Z,50.28,-63.62,7.0,5.0,330,5,,9.0,30.029528,1017.3,,TRUE,,,,,,,,OVC,10000,,,,,,,VFR,,,,,,,,,,,,METAR,32.0
CYGR 040100Z 04009KT 15SM -RA OVC017 10/10 A2998 RMK SC8 SLP152,CYGR,2021-10-04T01:00:00Z,47.42,-61.77,10.0,10.0,40,9,,15.0,29.97933,1015.2,,,,,,,,,-RA,OVC,1700,,,,,,,MVFR,,,,,,,,,,,,METAR,4.0
CYGQ 040100Z 09005KT 15SM OVC050 12/10 A3001 RMK SC8 WND ESTD SLP174,CYGQ,2021-10-04T01:00:00Z,49.77,-86.92,12.0,10.0,90,5,,15.0,30.008858,1017.4,,,,,,,,,,OVC,5000,,,,,,,VFR,,,,,,,,,,,,METAR,340.0
CYGP 040100Z 31005KT 15SM BKN050 08/07 A3006 RMK SC5 SLP182,CYGP,2021-10-04T01:00:00Z,48.77,-64.47,8.0,7.0,310,5,,15.0,30.059055,1018.2,,,,,,,,,,BKN,5000,,,,,,,VFR,,,,,,,,,,,,METAR,31.0
CYGL 040100Z 10005KT 15SM FEW240 07/04 A3014 RMK CI1 CI TR SLP216,CYGL,2021-10-04T01:00:00Z,53.62,-77.7,7.0,4.0,100,5,,15.0,30.138779,1021.6,,,,,,,,,,FEW,24000,,,,,,,VFR,,,,,,,,,,,,SPECI,192.0
CYGK 040100Z 04007KT 4SM BR OVC004 14/14 A2993 RMK ST8 SLP139,CYGK,2021-10-04T01:00:00Z,44.22,-76.58,14.0,14.0,40,7,,4.0,29.929134,1013.9,,,,,,,,,BR,OVC,400,,,,,,,LIFR,,,,,,,,,,,,METAR,91.0
CYFS 040100Z 28005KT 10SM -RA FEW012 BKN024 OVC032 04/03 A2947 RMK SF1SC6SC1 SLP990,CYFS,2021-10-04T01:00:00Z,61.75,-121.22,4.0,3.0,280,5,,10.0,29.471457,999.0,,,,,,,,,-RA,FEW,1200,BKN,2400,OVC,3200,,,MVFR,,,,,,,,,,,,METAR,174.0
CYFC 040100Z AUTO 32004KT 9SM CLR 08/06 A3006 RMK SLP182,CYFC,2021-10-04T01:00:00Z,45.87,-66.53,8.0,6.0,320,4,,9.0,30.059055,1018.2,,TRUE,,,,,,,,CLR,,,,,,,,VFR,,,,,,,,,,,,SPECI,16.0
CYFB 040100Z 34004KT 15SM FEW280 00/M04 A3013 RMK CI1 AURBO SLP206,CYFB,2021-10-04T01:00:00Z,63.75,-68.55,0.0,-4.0,340,4,,15.0,30.129921,1020.6,,,,,,,,,,FEW,28000,,,,,,,VFR,,,,,,,,,,,,SPECI,23.0
CYEV 040100Z 33014G20KT 3SM BR BKN007 OVC017 01/00 A2995 RMK SF7SC1 VIS W QUAD 11/2 SLP150,CYEV,2021-10-04T01:00:00Z,68.32,-133.5,1.0,0.0,330,14,20,3.0,29.949802,1015.0,,,,,,,,,BR,BKN,700,OVC,1700,,,,,IFR,,,,,,,,,,,,METAR,74.0
CYET 040100Z AUTO 33007KT 9SM BKN100 09/M05 A2993 RMK SLP166 DENSITY ALT 3100FT,CYET,2021-10-04T01:00:00Z,53.57,-116.47,9.0,-5.0,330,7,,9.0,29.929134,1016.6,,TRUE,,,,,,,,BKN,10000,,,,,,,VFR,,,,,,,,,,,,METAR,925.0
CYER 040100Z AUTO 16006KT 9SM CLR 11/09 A2995 RMK SLP143,CYER,2021-10-04T01:00:00Z,56.02,-87.68,11.0,9.0,160,6,,9.0,29.949802,1014.3,,TRUE,,,,,,,,CLR,,,,,,,,VFR,,,,,,,,,,,,METAR,11.0
CYEN 040100Z AUTO 34006KT 9SM CLR 16/M01 A2991 RMK SLP141 DENSITY ALT 2500FT,CYEN,2021-10-04T01:00:00Z,49.22,-102.97,16.0,-1.0,340,6,,9.0,29.911417,1014.1,,TRUE,,,,,,,,CLR,,,,,,,,VFR,,,,,,,,,,,,SPECI,580.0
CYEK 040100Z AUTO 19011KT 9SM OVC002 06/06 A2970 RMK SLP059,CYEK,2021-10-04T01:00:00Z,61.1,-94.07,6.0,6.0,190,11,,9.0,29.698818,1005.9,,TRUE,,,,,,,,OVC,200,,,,,,,LIFR,,,,,,,,,,,,SPECI,7.0
CYEG 040100Z 35005KT 20SM FEW120 FEW160 FEW240 08/M02 A2994 RMK AC1AS1CI1 AC TR AS TR CI TR SLP166,CYEG,2021-10-04T01:00:00Z,53.3,-113.58,8.0,-2.0,350,5,,20.0,29.940945,1016.6,,,,,,,,,,FEW,12000,FEW,16000,FEW,24000,,,VFR,,,,,,,,,,,,SPECI,710.0
CYED 040100Z AUTO 31002KT 9SM FEW092 08/M05 A2993 RMK SLP159,CYED,2021-10-04T01:00:00Z,53.67,-113.47,8.0,-5.0,310,2,,9.0,29.929134,1015.9,,TRUE,,,,,,,,FEW,9200,,,,,,,VFR,,,,,,,,,,,,SPECI,688.0
CYDQ 040100Z AUTO 24018KT 9SM CLR 06/M04 A2990 RMK SLP148,CYDQ,2021-10-04T01:00:00Z,55.75,-120.18,6.0,-4.0,240,18,,9.0,29.899607,1014.8,,TRUE,,,,,,,,CLR,,,,,,,,VFR,,,,,,,,,,,,SPECI,658.0
CYDN 040100Z AUTO 26006KT 8SM CLR 15/02 A2983 RMK SLP112 DENSITY ALT 1300FT,CYDN,2021-10-04T01:00:00Z,51.1,-100.05,15.0,2.0,260,6,,8.0,29.828741,1011.2,,TRUE,,,,,,,,CLR,,,,,,,,VFR,,,,,,,,,,,,SPECI,302.0
CYDL 040100Z AUTO 26006KT 200V290 9SM BKN032 02/M05 A2980 RMK SLP116,CYDL,2021-10-04T01:00:00Z,58.42,-130.02,2.0,-5.0,260,6,,9.0,29.799213,1011.6,,TRUE,,,,,,,,BKN,3200,,,,,,,VFR,,,,,,,,,,,,METAR,804.0
CYDF 040100Z 01005KT 15SM BKN010 08/08 A2992 RMK SC7 SLP136,CYDF,2021-10-04T01:00:00Z,49.22,-57.4,8.0,8.0,10,5,,15.0,29.920275,1013.6,,,,,,,,,,BKN,1000,,,,,,,MVFR,,,,,,,,,,,,SPECI,15.0
CYDC 040100Z 36002KT 25SM FEW069 FEW088 FEW170 SCT220 BKN260 15/04 A3002 RMK CU1AC1AC1CC3CI3 CU TR AC TR CONTRAILS/LAST STFD OBS/NEXT 04 1300UTC SLP172 DENSITY ALT 2800FT,CYDC,2021-10-04T01:00:00Z,49.47,-120.52,15.0,4.0,360,2,,25.0,30.02067,1017.2,,,,,,,,,,FEW,6900,FEW,8800,FEW,17000,SCT,22000,VFR,,,,,,,,,,,,SPECI,703.0
CYCX 040100Z AUTO 35004KT 9SM 08/07 A3006 RMK SLP181,CYCX,2021-10-04T01:00:00Z,45.83,-66.45,8.0,7.0,350,4,,9.0,30.059055,1018.1,,TRUE,,,,,,,,,,,,,,,,,,,,,,,,,,,,SPECI,46.0
CYCQ 040100Z 23023G32KT 180V300 8SM -SHRA BKN025CB OVC030TCU 05/M02 A2992 RMK CB7TCU1 CB OVRHD MOVG E MAMMA LAST STFD OBS/NEXT 041300Z SLP154,CYCQ,2021-10-04T01:00:00Z,55.7,-121.62,5.0,-2.0,230,23,32,8.0,29.920275,1015.4,,,,,,,,,-SHRA,BKN,2500,OVC,3000,,,,,MVFR,,,,,,,,,,,,SPECI,614.0
CYCP 040100Z VRB02KT 15SM -SHRA BKN070TCU BKN100 10/07 A2997 RMK TCU5AC1 LAST STFD OBS/NEXT 041300Z SLP168,CYCP,2021-10-04T01:00:00Z,52.13,-119.28,10.0,7.0,0,2,,15.0,29.970472,1016.8,,,,,,,,,-SHRA,BKN,7000,BKN,10000,,,,,VFR,,,,,,,,,,,,SPECI,677.0
CYCO 040100Z 02009KT 1/4SM FG VV002 03/03 A2936 RMK FG8 SLP946,CYCO,2021-10-04T01:00:00Z,67.82,-115.15,3.0,3.0,20,9,,0.25,29.359253,994.6,,,,,,,,,FG,OVX,0,,,,,,,LIFR,,,,,,,,,,,200,SPECI,20.0
CYCK 040100Z AUTO 20004KT 9SM BKN170 19/18 A2983 RMK SLP100 DENSITY ALT 1400FT,CYCK,2021-10-04T01:00:00Z,42.3,-82.08,19.0,18.0,200,4,,9.0,29.828741,1010.0,,TRUE,,,,,,,,BKN,17000,,,,,,,VFR,,,,,,,,,,,,METAR,196.0
CYCG 040100Z 13003KT 110V170 15SM FEW070 SCT250 18/06 A2998 RMK CU1CI3 CU TR SLP155 DENSITY ALT 2300FT,CYCG,2021-10-04T01:00:00Z,49.28,-117.63,18.0,6.0,130,3,,15.0,29.97933,1015.5,,,,,,,,,,FEW,7000,SCT,25000,,,,,VFR,,,,,,,,,,,,SPECI,487.0
CYCD 040100Z 04002KT 30SM SCT047 BKN130 BKN210 15/04 A3011 RMK SC4AC1CI2 SLP197,CYCD,2021-10-04T01:00:00Z,49.05,-123.87,15.0,4.0,40,2,,30.0,30.109253,1019.7,,,,,,,,,,SCT,4700,BKN,13000,BKN,21000,,,VFR,,,,,,,,,,,,SPECI,30.0
CYCB 040100Z 08019G25KT 5SM BR BKN005 OVC011 02/01 A2952 RMK SF7SC1 VIS NE 2 SLP002,CYCB,2021-10-04T01:00:00Z,69.1,-105.12,2.0,1.0,80,19,25,5.0,29.518702,1000.2,,,,,,,,,BR,BKN,500,OVC,1100,,,,,IFR,,,,,,,,,,,,SPECI,19.0
CYBX 040100Z 01006KT 15SM OVC038 05/02 A2996 RMK SC8 SLP149,CYBX,2021-10-04T01:00:00Z,51.45,-57.18,5.0,2.0,10,6,,15.0,29.958662,1014.9,,,,,,,,,,OVC,3800,,,,,,,VFR,,,,,,,,,,,,SPECI,32.0
CYBW 040100Z AUTO 28010KT 9SM CLR 11/M04 A2990 RMK SLP156 DENSITY ALT 4400FT,CYBW,2021-10-04T01:00:00Z,51.1,-114.37,11.0,-4.0,280,10,,9.0,29.899607,1015.6,,TRUE,,,,,,,,CLR,,,,,,,,VFR,,,,,,,,,,,,SPECI,1197.0
CYBU 040100Z AUTO 19005KT 9SM CLR 15/02 A2981 RMK SLP108 DENSITY ALT 1700FT,CYBU,2021-10-04T01:00:00Z,53.32,-104.0,15.0,2.0,190,5,,9.0,29.811024,1010.8,,TRUE,,,,,,,,CLR,,,,,,,,VFR,,,,,,,,,,,,SPECI,369.0
CYBR 040100Z 29006KT 15SM FEW100 14/02 A2986 RMK AC1 SLP126 DENSITY ALT 1700FT,CYBR,2021-10-04T01:00:00Z,49.92,-99.95,14.0,2.0,290,6,,15.0,29.861221,1012.6,,,,,,,,,,FEW,10000,,,,,,,VFR,,,,,,,,,,,,SPECI,405.0
CYBQ 040100Z AUTO 20006KT 2 1/2SM HZ FEW100 12/07 A2968 RMK SLP063 DENSITY ALT 1100FT,CYBQ,2021-10-04T01:00:00Z,58.7,-98.5,12.0,7.0,200,6,,2.5,29.681103,1006.3,,TRUE,,,,,,,HZ,FEW,10000,,,,,,,IFR,,,,,,,,,,,,METAR,272.0
CYBN 040100Z AUTO 07005KT 2SM OVC002 17/17 A2988 RMK SLP118,CYBN,2021-10-04T01:00:00Z,44.27,-79.92,17.0,17.0,70,5,,2.0,29.878937,1011.8,,TRUE,,,,,,,,OVC,200,,,,,,,LIFR,,,,,,,,,,,,SPECI,223.0
CYBL 040100Z 22003KT 30SM FEW040 SCT070 BKN250 10/08 A3013 RMK CU1AC2CI2 SLP207,CYBL,2021-10-04T01:00:00Z,49.95,-125.27,10.0,8.0,220,3,,30.0,30.129921,1020.7,,,,,,,,,,FEW,4000,SCT,7000,BKN,25000,,,VFR,,,,,,,,,,,,SPECI,94.0
CYBK 040100Z 15005KT 15SM OVC007 07/06 A2963 RMK SC8 SLP037,CYBK,2021-10-04T01:00:00Z,64.3,-96.07,7.0,6.0,150,5,,15.0,29.630905,1003.7,,,,,,,,,,OVC,700,,,,,,,IFR,,,,,,,,,,,,SPECI,14.0
CYBG 040100Z 08002KT 25SM SCT040 08/06 A3012 RMK SC3 SLP205,CYBG,2021-10-04T01:00:00Z,48.33,-70.98,8.0,6.0,80,2,,25.0,30.121063,1020.5,,,,,,,,,,SCT,4000,,,,,,,VFR,,,,,,,,,,,,SPECI,151.0
CYBD 040100Z 33008KT 260V360 15SM FEW070 BKN110 09/04 A3012 RMK AC2AC5 LAST STFD OBS/NXT 041300Z SLP201,CYBD,2021-10-04T01:00:00Z,52.38,-126.58,9.0,4.0,330,8,,15.0,30.121063,1020.1,,,,,,,,,,FEW,7000,BKN,11000,,,,,VFR,,,,,,,,,,,,SPECI,40.0
CYBC 040100Z AUTO 27005KT 9SM SCT047 06/06 A3011 RMK SLP200,CYBC,2021-10-04T01:00:00Z,49.13,-68.2,6.0,6.0,270,5,,9.0,30.109253,1020.0,,TRUE,,,,,,,,SCT,4700,,,,,,,VFR,,,,,,,,,,,,SPECI,20.0
CYAZ 040100Z 30010KT 15SM SCT190 BKN230 12/07 A3012 RMK AC3CI2 LAST STFD OBS/NXT 041300UTC SLP202,CYAZ,2021-10-04T01:00:00Z,49.08,-125.77,12.0,7.0,300,10,,15.0,30.121063,1020.2,,,,,,,,,,SCT,19000,BKN,23000,,,,,VFR,,,,,,,,,,,,SPECI,26.0
CYAY 040100Z AUTO 34005KT 9SM BKN019 OVC027 06/05 A2995 RMK SLP146,CYAY,2021-10-04T01:00:00Z,51.38,-56.07,6.0,5.0,340,5,,9.0,29.949802,1014.6,,TRUE,,,,,,,,BKN,1900,OVC,2700,,,,,MVFR,,,,,,,,,,,,SPECI,23.0
CYAT 040100Z AUTO 12004KT 9SM CLR 08/07 A3007 RMK SLP186,CYAT,2021-10-04T01:00:00Z,52.93,-82.43,8.0,7.0,120,4,,9.0,30.070866,1018.6,,TRUE,,,,,,,,CLR,,,,,,,,VFR,,,,,,,,,,,,METAR,4.0
CYAM 040100Z 08004KT 10SM FEW009 OVC019 17/16 A2991 RMK SF1SC8 SF TR SLP130 DENSITY ALT 1000FT,CYAM,2021-10-04T01:00:00Z,46.48,-84.52,17.0,16.0,80,4,,10.0,29.911417,1013.0,,,,,,,,,,FEW,900,OVC,1900,,,,,MVFR,,,,,,,,,,,,SPECI,186.0
CYAH 040100Z AUTO VRB03KT 9SM CLR 02/M00 A3016 RMK SLP234,CYAH,2021-10-04T01:00:00Z,53.75,-73.67,2.0,0.0,0,3,,9.0,30.159449,1023.4,,TRUE,,,,,,,,CLR,,,,,,,,VFR,,,,,,,,,,,,SPECI,298.0
CXZV 040100Z AUTO 34004KT 05/02 RMK AO1 SLP193 T00530015 51008,CXZV,2021-10-04T01:00:00Z,50.22,-66.25,5.3,1.5,340,4,,,,1019.3,,TRUE,TRUE,,,,,,,,,,,,,,,,0.8,,,,,,,,,,,METAR,43.0
CXZC 040100Z AUTO 35002KT 08/07 RMK AO1 SLP178 T00830068 53007,CXZC,2021-10-04T01:00:00Z,51.3,-80.62,8.3,6.8,350,2,,,,1017.8,,TRUE,TRUE,,,,,,,,,,,,,,,,0.7,,,,,,,,,,,METAR,8.0
CXWN 040100Z AUTO 00000KT 20/04 RMK AO1 SLP116 T01980040 55000,CXWN,2021-10-04T01:00:00Z,49.88,-97.13,19.8,4.0,0,0,,,,1011.6,,TRUE,TRUE,,,,,,,,,,,,,,,,0.0,,,,,,,,,,,METAR,232.0
CXWM 040100Z AUTO 25015KT 18/M01 RMK AO1 PK WND 25026/0001 T01811006,CXWM,2021-10-04T01:00:00Z,49.5,-112.12,18.1,-0.6,250,15,,,,,,TRUE,TRUE,,,,,,,,,,,,,,,,,,,,,,,,,,,METAR,947.0
CXVW 040100Z AUTO 25014KT 08/M09 RMK AO1 PK WND 24024/0005 SLP147 T00781091 51014,CXVW,2021-10-04T01:00:00Z,55.1,-117.2,7.8,-9.1,250,14,,,,1014.7,,TRUE,TRUE,,,,,,,,,,,,,,,,1.4,,,,,,,,,,,METAR,696.0
CXVN 040100Z AUTO 06004KT 19/18 RMK AO1 8PAST HR 1006 SLP101 P0007 T01880183 50018,CXVN,2021-10-04T01:00:00Z,43.18,-79.4,18.8,18.3,60,4,,,,1010.1,,TRUE,TRUE,,,,,,,,,,,,,,,,1.8,,,,,0.07,,,,,,METAR,86.0
CXVM 040100Z AUTO 36006KT 10/01 RMK AO1 T01020011,CXVM,2021-10-04T01:00:00Z,53.35,-110.88,10.2,1.1,360,6,,,,,,TRUE,TRUE,,,,,,,,,,,,,,,,,,,,,,,,,,,METAR,622.0
CXTP 040100Z AUTO 02003KT 08/08 RMK AO1 6PAST HR 0002 SLP119 P0002 T00780076 50006,CXTP,2021-10-04T01:00:00Z,48.55,-53.97,7.8,7.6,20,3,,,,1011.9,,TRUE,TRUE,,,,,,,,,,,,,,,,0.6,,,,,0.02,,,,,,METAR,104.0
CXTO 040100Z AUTO 17/16 RMK AO1 SLP119 T01650159 53010,CXTO,2021-10-04T01:00:00Z,43.67,-79.4,16.5,15.9,,,,,,1011.9,,TRUE,TRUE,,,,,,,,,,,,,,,,1.0,,,,,,,,,,,METAR,115.0
CXTH 040100Z AUTO 32007KT 08/M04 RMK AO1 T00821036,CXTH,2021-10-04T01:00:00Z,53.63,-111.68,8.2,-3.6,320,7,,,,,,TRUE,TRUE,,,,,,,,,,,,,,,,,,,,,,,,,,,METAR,679.0
CXTD 040100Z AUTO 26006KT 11/10 RMK AO1 SOG 09 3004 SLP164 T01070097,CXTD,2021-10-04T01:00:00Z,45.62,-61.68,10.7,9.7,260,6,,,,1016.4,,TRUE,TRUE,,,,,,,,,,,,,,,,,,,,,,,,,,,METAR,58.0
CXSP 040100Z AUTO 27003KT 09/M03 RMK AO1 T00871028,CXSP,2021-10-04T01:00:00Z,54.02,-111.27,8.7,-2.8,270,3,,,,,,TRUE,TRUE,,,,,,,,,,,,,,,,,,,,,,,,,,,METAR,652.0
CXSL 040100Z AUTO 27004KT 09/M04 RMK AO1 T00901040,CXSL,2021-10-04T01:00:00Z,54.28,-112.5,9.0,-4.0,270,4,,,,,,TRUE,TRUE,,,,,,,,,,,,,,,,,,,,,,,,,,,METAR,680.0
CXSH 040100Z AUTO 06004KT 09/07 RMK AO1 SLP187 T00930069 53025,CXSH,2021-10-04T01:00:00Z,46.55,-72.73,9.3,6.9,60,4,,,,1018.7,,TRUE,TRUE,,,,,,,,,,,,,,,,2.5,,,,,,,,,,,METAR,106.0
CXSC 040100Z AUTO 24008KT 17/M03 RMK AO1 PK WND 24017/0015 T01651031,CXSC,2021-10-04T01:00:00Z,50.3,-110.08,16.5,-3.1,240,8,,,,,,TRUE,TRUE,,,,,,,,,,,,,,,,,,,,,,,,,,,METAR,809.0
CXRL 040100Z AUTO 25005KT 08/M06 RMK AO1 T00771056,CXRL,2021-10-04T01:00:00Z,54.5,-111.7,7.7,-5.6,250,5,,,,,,TRUE,TRUE,,,,,,,,,,,,,,,,,,,,,,,,,,,METAR,585.0
CXRB 040100Z AUTO 09009KT M00/01 RMK AO1 SOG 02 8005 SLP099 T10020005,CXRB,2021-10-04T01:00:00Z,74.72,-94.98,-0.2,0.5,90,9,,,,1009.9,,TRUE,TRUE,,,,,,,,,,,,,,,,,,,,,,,,,,,METAR,30.0
CXPL 040100Z AUTO 29007KT 16/M06 RMK AO1 T01621062,CXPL,2021-10-04T01:00:00Z,51.13,-111.7,16.2,-6.2,290,7,,,,,,TRUE,TRUE,,,,,,,,,,,,,,,,,,,,,,,,,,,METAR,735.0
CXPC 040100Z AUTO 17/14 RMK AO1 SLP119 T01710142 53012,CXPC,2021-10-04T01:00:00Z,45.35,-80.05,17.1,14.2,,,,,,1011.9,,TRUE,TRUE,,,,,,,,,,,,,,,,1.2,,,,,,,,,,,METAR,176.0
CXPA 040100Z AUTO 24011KT 08/M08 RMK AO1 PK WND 23029/0006 T00771077,CXPA,2021-10-04T01:00:00Z,55.62,-118.3,7.7,-7.7,240,11,,,,,,TRUE,TRUE,,,,,,,,,,,,,,,,,,,,,,,,,,,METAR,628.0
CXOY 040100Z AUTO 30004KT 14/M05 RMK AO1 T01431046,CXOY,2021-10-04T01:00:00Z,51.35,-110.35,14.3,-4.6,300,4,,,,,,TRUE,TRUE,,,,,,,,,,,,,,,,,,,,,,,,,,,METAR,784.0
CXOX 040100Z AUTO 35006KT 12/M01 RMK AO1 SLP108 T01201013 53021,CXOX,2021-10-04T01:00:00Z,55.15,-105.27,12.0,-1.3,350,6,,,,1010.8,,TRUE,TRUE,,,,,,,,,,,,,,,,2.1,,,,,,,,,,,METAR,381.0
CXOL 040100Z AUTO 02010KT 10/00 RMK AO1 T01030000,CXOL,2021-10-04T01:00:00Z,51.77,-114.08,10.3,0.0,20,10,,,,,,TRUE,TRUE,,,,,,,,,,,,,,,,,,,,,,,,,,,METAR,1026.0
CXNP 040100Z AUTO 36003KT 10/08 RMK AO1 SLP170 T01000076 51010,CXNP,2021-10-04T01:00:00Z,45.75,-64.23,10.0,7.6,360,3,,,,1017.0,,TRUE,TRUE,,,,,,,,,,,,,,,,1.0,,,,,,,,,,,METAR,19.0
CXNM 040100Z AUTO 28004KT 07/06 RMK AO1 2PAST HR SOG 26 M P0005 T00650055 50012,CXNM,2021-10-04T01:00:00Z,46.82,-60.67,6.5,5.5,280,4,,,,,,TRUE,TRUE,,,,,,,,,,,,,,,,1.2,,,,,0.05,,,,,,METAR,452.0
CXMY 040100Z AUTO 12/09 RMK AO1 T01200086,CXMY,2021-10-04T01:00:00Z,44.98,-62.48,12.0,8.6,,,,,,,,TRUE,TRUE,,,,,,,,,,,,,,,,,,,,,,,,,,,METAR,37.0
CXMO 040100Z AUTO 03009KT 13/02 RMK AO1 PK WND 06020/0000 T01260015,CXMO,2021-10-04T01:00:00Z,51.67,-112.68,12.6,1.5,30,9,,,,,,TRUE,TRUE,,,,,,,,,,,,,,,,,,,,,,,,,,,METAR,837.0
CXMM 040100Z AUTO 00025KT 11/M08 RMK AO1 SLP090 T01071076 52019,CXMM,2021-10-04T01:00:00Z,56.65,-111.22,10.7,-7.6,0,25,,,,1009.0,,TRUE,TRUE,,,,,,,,,,,,,,,,1.9,,,,,,,,,,,METAR,372.0
CXMI 040100Z AUTO 32002KT 12/09 RMK AO1 SLP155 T01170090 53008,CXMI,2021-10-04T01:00:00Z,44.6,-63.53,11.7,9.0,320,2,,,,1015.5,,TRUE,TRUE,,,,,,,,,,,,,,,,0.8,,,,,,,,,,,METAR,15.0
CXMG 040100Z AUTO 24016KT 09/M08 RMK AO1 PK WND 24026/0059 T00921082,CXMG,2021-10-04T01:00:00Z,56.97,-117.45,9.2,-8.2,240,16,,,,,,TRUE,TRUE,,,,,,,,,,,,,,,,,,,,,,,,,,,METAR,467.0
CXMD 040100Z AUTO 19002KT 17/06 RMK AO1 SLP119 T01720057 53001,CXMD,2021-10-04T01:00:00Z,49.18,-98.08,17.2,5.7,190,2,,,,1011.9,,TRUE,TRUE,,,,,,,,,,,,,,,,0.1,,,,,,,,,,,METAR,297.0
CXLB 040100Z AUTO 27006KT 13/10 RMK AO1 SLP156 T01250101 53007,CXLB,2021-10-04T01:00:00Z,44.37,-64.3,12.5,10.1,270,6,,,,1015.6,,TRUE,TRUE,,,,,,,,,,,,,,,,0.7,,,,,,,,,,,METAR,4.0
CXKT 040100Z AUTO 03003KT 11/10 RMK AO1 SLP168 T01100095 53014,CXKT,2021-10-04T01:00:00Z,45.07,-64.48,11.0,9.5,30,3,,,,1016.8,,TRUE,TRUE,,,,,,,,,,,,,,,,1.4,,,,,,,,,,,METAR,48.0
CXKM 040100Z AUTO 01009KT 10/01 RMK AO1 PK WND 35022/0000 T01000010,CXKM,2021-10-04T01:00:00Z,52.83,-111.87,10.0,1.0,10,9,,,,,,TRUE,TRUE,,,,,,,,,,,,,,,,,,,,,,,,,,,METAR,679.0
CXKI 040100Z AUTO 09/09 RMK AO1 SLP174 T00940088 53014,CXKI,2021-10-04T01:00:00Z,48.13,-80.0,9.4,8.8,,,,,,1017.4,,TRUE,TRUE,,,,,,,,,,,,,,,,1.4,,,,,,,,,,,METAR,328.0
CXKE 040100Z AUTO 06003KT 12/11 RMK AO1 SLP151 T01210111 51006,CXKE,2021-10-04T01:00:00Z,45.0,-75.63,12.1,11.1,60,3,,,,1015.1,,TRUE,TRUE,,,,,,,,,,,,,,,,0.6,,,,,,,,,,,METAR,99.0
CXKA 040100Z AUTO 00000KT 09/08 RMK AO1 SLP164 T00850079 53009,CXKA,2021-10-04T01:00:00Z,49.4,-82.45,8.5,7.9,0,0,,,,1016.4,,TRUE,TRUE,,,,,,,,,,,,,,,,0.9,,,,,,,,,,,METAR,221.0
CXIB 040100Z AUTO 00000KT 10/09 RMK AO1 SLP141 T00960088 50001,CXIB,2021-10-04T01:00:00Z,46.67,-60.4,9.6,8.8,0,0,,,,1014.1,,TRUE,TRUE,,,,,,,,,,,,,,,,0.1,,,,,,,,,,,METAR,6.0
CXHR 040100Z AUTO 30004KT 14/M06 RMK AO1 T01351055,CXHR,2021-10-04T01:00:00Z,51.18,-112.5,13.5,-5.5,300,4,,,,,,TRUE,TRUE,,,,,,,,,,,,,,,,,,,,,,,,,,,METAR,975.0
CXHP 040100Z AUTO 25009KT 08/M08 RMK AO1 PK WND 25028/0013 T00751079,CXHP,2021-10-04T01:00:00Z,55.4,-116.48,7.5,-7.9,250,9,,,,,,TRUE,TRUE,,,,,,,,,,,,,,,,,,,,,,,,,,,METAR,601.0
CXHM 040100Z AUTO 06005KT 18/17 RMK AO1 0PAST HR 1008 SLP111 P0055 T01760169 50140,CXHM,2021-10-04T01:00:00Z,43.28,-79.9,17.6,16.9,60,5,,,,1011.1,,TRUE,TRUE,,,,,,,,,,,,,,,,0.0,,,,,0.55,,,,,,METAR,105.0
CXHF 040100Z AUTO 12/12 RMK AO1 T01200119,CXHF,2021-10-04T01:00:00Z,45.83,-75.65,12.0,11.9,,,,,,,,TRUE,TRUE,,,,,,,,,,,,,,,,,,,,,,,,,,,METAR,185.0
CXHD 040100Z AUTO 36006KT 07/M03 RMK AO1 T00661030,CXHD,2021-10-04T01:00:00Z,53.18,-112.25,6.6,-3.0,360,6,,,,,,TRUE,TRUE,,,,,,,,,,,,,,,,,,,,,,,,,,,METAR,688.0
CXHA 040100Z AUTO 20003KT 20/19 RMK AO1 SLP093 T02040187 52008,CXHA,2021-10-04T01:00:00Z,42.03,-82.9,20.4,18.7,200,3,,,,1009.3,,TRUE,TRUE,,,,,,,,,,,,,,,,0.8,,,,,,,,,,,METAR,193.0
CXGH 040100Z AUTO 17010KT 18/13 RMK AO1 SLP107 T01800128 56002,CXGH,2021-10-04T01:00:00Z,50.63,-97.0,18.0,12.8,170,10,,,,1010.7,,TRUE,TRUE,,,,,,,,,,,,,,,,-0.2,,,,,,,,,,,METAR,217.0
CXFR 040100Z AUTO 25017KT 08/M10 RMK AO1 PK WND 24033/0001 T00751098,CXFR,2021-10-04T01:00:00Z,56.08,-118.43,7.5,-9.8,250,17,,,,,,TRUE,TRUE,,,,,,,,,,,,,,,,,,,,,,,,,,,METAR,657.0
CXFM 040100Z AUTO 26012KT 19/M01 RMK AO1 PK WND 26029/0003 T01911009,CXFM,2021-10-04T01:00:00Z,49.48,-111.48,19.1,-0.9,260,12,,,,,,TRUE,TRUE,,,,,,,,,,,,,,,,,,,,,,,,,,,METAR,884.0
CXET 040100Z AUTO 08007KT 17/16 RMK AO1 SLP119 T01670163 53007,CXET,2021-10-04T01:00:00Z,44.23,-79.78,16.7,16.3,80,7,,,,1011.9,,TRUE,TRUE,,,,,,,,,,,,,,,,0.7,,,,,,,,,,,METAR,250.0
CXEG 040100Z AUTO 35004KT 07/M03 RMK AO1 SLP166 T00721029 53011,CXEG,2021-10-04T01:00:00Z,53.3,-113.6,7.2,-2.9,350,4,,,,1016.6,,TRUE,TRUE,,,,,,,,,,,,,,,,1.1,,,,,,,,,,,METAR,706.0
CXEC 040100Z AUTO 33001KT 10/M04 RMK AO1 SLP160 T01011035 53009,CXEC,2021-10-04T01:00:00Z,53.57,-113.52,10.1,-3.5,330,1,,,,1016.0,,TRUE,TRUE,,,,,,,,,,,,,,,,0.9,,,,,,,,,,,METAR,666.0
CXEA 040100Z AUTO 13003KT 14/10 RMK AO1 SLP140 T01400100 53003,CXEA,2021-10-04T01:00:00Z,50.63,-93.22,14.0,10.0,130,3,,,,1014.0,,TRUE,TRUE,,,,,,,,,,,,,,,,0.3,,,,,,,,,,,METAR,351.0
CXDW 040100Z AUTO 23005KT 17/08 RMK AO1 SLP123 T01660079 53001,CXDW,2021-10-04T01:00:00Z,49.4,-98.32,16.6,7.9,230,5,,,,1012.3,,TRUE,TRUE,,,,,,,,,,,,,,,,0.1,,,,,,,,,,,METAR,341.0
CXDI 040100Z AUTO 20002KT 20/19 RMK AO1 SLP106 T01950190 52006,CXDI,2021-10-04T01:00:00Z,42.87,-80.55,19.5,19.0,200,2,,,,1010.6,,TRUE,TRUE,,,,,,,,,,,,,,,,0.6,,,,,,,,,,,METAR,234.0
CXDE 040100Z AUTO 34014G21KT 01/M00 RMK AO1 3PAST HR 3022 PK WND 34022/0034 SLP969 P0001 T00101003 50003,CXDE,2021-10-04T01:00:00Z,65.22,-123.43,1.0,-0.3,340,14,21,,,996.9,,TRUE,TRUE,,,,,,,,,,,,,,,,0.3,,,,,0.01,,,,,,METAR,208.0
CXDB 040100Z AUTO 22009KT 14/M02 RMK AO1 PK WND 23020/0001 T01411015,CXDB,2021-10-04T01:00:00Z,49.05,-112.82,14.1,-1.5,220,9,,,,,,TRUE,TRUE,,,,,,,,,,,,,,,,,,,,,,,,,,,METAR,1311.0
CXCS 040100Z AUTO 34011KT 15/M02 RMK AO1 T01451016,CXCS,2021-10-04T01:00:00Z,51.93,-110.72,14.5,-1.6,340,11,,,,,,TRUE,TRUE,,,,,,,,,,,,,,,,,,,,,,,,,,,METAR,771.0
CXCP 040100Z AUTO 14007KT 15/M02 RMK AO1 PK WND 22018/0014 T01521017,CXCP,2021-10-04T01:00:00Z,50.28,-113.35,15.2,-1.7,140,7,,,,,,TRUE,TRUE,,,,,,,,,,,,,,,,,,,,,,,,,,,METAR,999.0
CXCK 040100Z AUTO 31001KT 01/00 RMK AO1 2PAST HR 2016 SLP113 P0001 T00140000 50002,CXCK,2021-10-04T01:00:00Z,62.12,-136.2,1.4,0.0,310,1,,,,1011.3,,TRUE,TRUE,,,,,,,,,,,,,,,,0.2,,,,,0.01,,,,,,METAR,526.0
CXCD 040100Z AUTO 27013KT 07/M08 RMK AO1 PK WND 28027/0020 T00731079,CXCD,2021-10-04T01:00:00Z,56.32,-119.75,7.3,-7.9,270,13,,,,,,TRUE,TRUE,,,,,,,,,,,,,,,,,,,,,,,,,,,METAR,628.0
CXCA 040100Z AUTO 35004KT 13/11 RMK AO1 SLP153 T01250108 53010,CXCA,2021-10-04T01:00:00Z,49.15,-88.35,12.5,10.8,350,4,,,,1015.3,,TRUE,TRUE,,,,,,,,,,,,,,,,1.0,,,,,,,,,,,METAR,228.0
CXBW 040100Z AUTO 24012KT 18/00 RMK AO1 PK WND 23021/0000 T01770000,CXBW,2021-10-04T01:00:00Z,49.8,-112.3,17.7,0.0,240,12,,,,,,TRUE,TRUE,,,,,,,,,,,,,,,,,,,,,,,,,,,METAR,823.0
CXBR 040100Z AUTO 25004KT 15/M02 RMK AO1 PK WND 26022/0019 T01521019,CXBR,2021-10-04T01:00:00Z,49.62,-113.82,15.2,-1.9,250,4,,,,,,TRUE,TRUE,,,,,,,,,,,,,,,,,,,,,,,,,,,METAR,1137.0
CXBO 040100Z AUTO 05009G16KT 10/07 RMK AO1 PK WND 06018/0019 T01040070,CXBO,2021-10-04T01:00:00Z,46.83,-71.2,10.4,7.0,50,9,16,,,,,TRUE,TRUE,,,,,,,,,,,,,,,,,,,,,,,,,,,METAR,8.0
CXBK 040100Z AUTO 05005KT 14/M03 RMK AO1 SLP126 T01411034 53004,CXBK,2021-10-04T01:00:00Z,50.2,-104.7,14.1,-3.4,50,5,,,,1012.6,,TRUE,TRUE,,,,,,,,,,,,,,,,0.4,,,,,,,,,,,METAR,585.0
CXBI 040100Z AUTO 09010KT 16/15 RMK AO1 SLP134 T01570146 53009,CXBI,2021-10-04T01:00:00Z,44.48,-79.55,15.7,14.6,90,10,,,,1013.4,,TRUE,TRUE,,,,,,,,,,,,,,,,0.9,,,,,,,,,,,METAR,287.0
CXBA 040100Z AUTO 36007KT 17/02 RMK AO1 T01740016,CXBA,2021-10-04T01:00:00Z,52.12,-110.1,17.4,1.6,360,7,,,,,,TRUE,TRUE,,,,,,,,,,,,,,,,,,,,,,,,,,,METAR,696.0
CXAT 040100Z AUTO 32004KT 02/01 RMK AO1 SOG 01 8003 SLP126 T00220007,CXAT,2021-10-04T01:00:00Z,73.0,-85.03,2.2,0.7,320,4,,,,1012.6,,TRUE,TRUE,,,,,,,,,,,,,,,,,,,,,,,,,,,METAR,10.0
CXAK 040100Z AUTO 36010KT 10/02 RMK AO1 PK WND 00021/0010 T00950022,CXAK,2021-10-04T01:00:00Z,52.35,-112.6,9.5,2.2,360,10,,,,,,TRUE,TRUE,,,,,,,,,,,,,,,,,,,,,,,,,,,METAR,799.0
CXAJ 040100Z AUTO 28007KT 08/M13 RMK AO1 PK WND 28019/0011 T00831133,CXAJ,2021-10-04T01:00:00Z,54.78,-112.82,8.3,-13.3,280,7,,,,,,TRUE,TRUE,,,,,,,,,,,,,,,,,,,,,,,,,,,METAR,586.0
CXAG 040100Z AUTO 29004KT 08/M02 RMK AO1 T00791024,CXAG,2021-10-04T01:00:00Z,53.92,-112.28,7.9,-2.4,290,4,,,,,,TRUE,TRUE,,,,,,,,,,,,,,,,,,,,,,,,,,,METAR,632.0
CXAF 040100Z AUTO 28005KT 09/M06 RMK AO1 T00861059,CXAF,2021-10-04T01:00:00Z,54.28,-112.97,8.6,-5.9,280,5,,,,,,TRUE,TRUE,,,,,,,,,,,,,,,,,,,,,,,,,,,METAR,667.0
CWZZ 040100Z AUTO VRB05KT ////SM NCD ///// A3007,CWZZ,2021-10-04T01:00:00Z,58.47,-62.65,,,0,5,,,30.070866,,,TRUE,,,,,,,,CLR,,,,,,,,,,,,,,,,,,,,SPECI,50.0
CWZQ 040100Z AUTO 32007KT 11/09 RMK AO1 SLP152 T01060087 52005,CWZQ,2021-10-04T01:00:00Z,46.53,-61.05,10.6,8.7,320,7,,,,1015.2,,TRUE,TRUE,,,,,,,,,,,,,,,,0.5,,,,,,,,,,,METAR,13.0
CWZO 040100Z AUTO 17006KT RMK AO1,CWZO,2021-10-04T01:00:00Z,48.57,-123.25,,,170,6,,,,,,TRUE,TRUE,,,,,,,,,,,,,,,,,,,,,,,,,,,METAR,5.0
CWZN 040100Z AUTO 33008KT 12/08 RMK AO1 SLP112 T01220083 55002,CWZN,2021-10-04T01:00:00Z,47.37,-55.8,12.2,8.3,330,8,,,,1011.2,,TRUE,TRUE,,,,,,,,,,,,,,,,-0.2,,,,,,,,,,,METAR,63.0
CWZG 040100Z AUTO 26005KT 13/M05 RMK AO1 SLP136 T01311054 53005,CWZG,2021-10-04T01:00:00Z,51.2,-115.55,13.1,-5.4,260,5,,,,1013.6,,TRUE,TRUE,,,,,,,,,,,,,,,,0.5,,,,,,,,,,,METAR,1402.0
CWZA 040100Z AUTO 35002KT 13/11 RMK AO1 SLP190 T01300111 58012,CWZA,2021-10-04T01:00:00Z,49.25,-121.77,13.0,11.1,350,2,,,,1019.0,,TRUE,TRUE,,,,,,,,,,,,,,,,-1.2,,,,,,,,,,,METAR,18.0
CWYY 040100Z AUTO 06001KT 19/08 RMK AO1 SLP140 T01910075 56012,CWYY,2021-10-04T01:00:00Z,49.03,-119.43,19.1,7.5,60,1,,,,1014.0,,TRUE,TRUE,,,,,,,,,,,,,,,,-1.2,,,,,,,,,,,METAR,284.0
CWYL 040100Z AUTO 25010KT 06/M01 RMK AO1 PK WND 27024/0001 SLP149 T00641009 53008,CWYL,2021-10-04T01:00:00Z,51.45,-116.33,6.4,-0.9,250,10,,,,1014.9,,TRUE,TRUE,,,,,,,,,,,,,,,,0.8,,,,,,,,,,,METAR,1602.0
CWYJ 040100Z AUTO 00000KT 13/07 RMK AO1 SLP200 T01270069 58013,CWYJ,2021-10-04T01:00:00Z,48.45,-123.3,12.7,6.9,0,0,,,,1020.0,,TRUE,TRUE,,,,,,,,,,,,,,,,-1.3,,,,,,,,,,,METAR,59.0
CWXR 040100Z AUTO 01019KT ////SM NCD M00/M00 A2958,CWXR,2021-10-04T01:00:00Z,69.27,-119.22,0.0,0.0,10,19,,,29.58071,,,TRUE,,,,,,,,CLR,,,,,,,,,,,,,,,,,,,,SPECI,69.0
CWXL 040100Z AUTO 26011KT 19/M00 RMK AO1 SLP131 T01861001 50005,CWXL,2021-10-04T01:00:00Z,49.73,-111.45,18.6,-0.1,260,11,,,,1013.1,,TRUE,TRUE,,,,,,,,,,,,,,,,0.5,,,,,,,,,,,METAR,815.0
CWXI 040100Z AUTO 06005KT 06/04 RMK AO1 SLP138 T00610044 51003,CWXI,2021-10-04T01:00:00Z,51.02,-57.1,6.1,4.4,60,5,,,,1013.8,,TRUE,TRUE,,,,,,,,,,,,,,,,0.3,,,,,,,,,,,METAR,15.0
CWXA 040100Z AUTO 25004KT 13/M06 RMK AO1 PK WND 27017/0001 SLP149 T01311063 53007,CWXA,2021-10-04T01:00:00Z,51.07,-115.07,13.1,-6.3,250,4,,,,1014.9,,TRUE,TRUE,,,,,,,,,,,,,,,,0.7,,,,,,,,,,,METAR,1303.0
CWWZ 040100Z AUTO 06012KT 19/18 RMK AO1 7PAST HR 2005 SLP112 P0003 T01870184 50007,CWWZ,2021-10-04T01:00:00Z,43.25,-79.22,18.7,18.4,60,12,,,,1011.2,,TRUE,TRUE,,,,,,,,,,,,,,,,0.7,,,,,0.03,,,,,,METAR,75.0
CWWF 040100Z AUTO 05005KT 14/M03 RMK AO1 SLP143 T01431026 53005,CWWF,2021-10-04T01:00:00Z,49.7,-103.8,14.3,-2.6,50,5,,,,1014.3,,TRUE,TRUE,,,,,,,,,,,,,,,,0.5,,,,,,,,,,,METAR,583.0
CWWE 040100Z AUTO 33005KT 11/09 RMK AO1 SLP162 T01140093 53007,CWWE,2021-10-04T01:00:00Z,43.98,-64.67,11.4,9.3,330,5,,,,1016.2,,TRUE,TRUE,,,,,,,,,,,,,,,,0.7,,,,,,,,,,,METAR,4.0
CWWB 040100Z AUTO 03013KT 17/17 RMK AO1 SLP110 T01720170 51007,CWWB,2021-10-04T01:00:00Z,43.3,-79.78,17.2,17.0,30,13,,,,1011.0,,TRUE,TRUE,,,,,,,,,,,,,,,,0.7,,,,,,,,,,,METAR,77.0
CWWA 040100Z AUTO 00000KT 12/09 RMK AO1 SLP197 T01190087 57010,CWWA,2021-10-04T01:00:00Z,49.35,-123.18,11.9,8.7,0,0,,,,1019.7,,TRUE,TRUE,,,,,,,,,,,,,,,,-1.0,,,,,,,,,,,METAR,172.0
CWVU 040100Z AUTO 34006KT 12/09 RMK AO1 SOG 13 2009 SLP169 T01210094,CWVU,2021-10-04T01:00:00Z,44.28,-66.33,12.1,9.4,340,6,,,,1016.9,,TRUE,TRUE,,,,,,,,,,,,,,,,,,,,,,,,,,,METAR,4.0
CWVT 040100Z AUTO 24002KT 08/02 RMK AO1 SLP132 T00840021 53012,CWVT,2021-10-04T01:00:00Z,55.83,-108.42,8.4,2.1,240,2,,,,1013.2,,TRUE,TRUE,,,,,,,,,,,,,,,,1.2,,,,,,,,,,,METAR,431.0
CWVQ 040100Z AUTO 04004KT 13/08 RMK AO1 SLP160 T01330076 51009,CWVQ,2021-10-04T01:00:00Z,45.42,-73.92,13.3,7.6,40,4,,,,1016.0,,TRUE,TRUE,,,,,,,,,,,,,,,,0.9,,,,,,,,,,,METAR,38.0
CWVP 040100Z AUTO 28007KT 16/M03 RMK AO1 PK WND 26017/0016 SLP142 T01611029 53009,CWVP,2021-10-04T01:00:00Z,49.63,-109.52,16.1,-2.9,280,7,,,,1014.2,,TRUE,TRUE,,,,,,,,,,,,,,,,0.9,,,,,,,,,,,METAR,1269.0
CWVN 040100Z AUTO 31005KT 16/M08 RMK AO1 SLP145 T01621078 53011,CWVN,2021-10-04T01:00:00Z,49.07,-107.58,16.2,-7.8,310,5,,,,1014.5,,TRUE,TRUE,,,,,,,,,,,,,,,,1.1,,,,,,,,,,,METAR,792.0
CWVI 040100Z AUTO 34006KT 08/M04 RMK AO1 SLP160 T00751044 52013,CWVI,2021-10-04T01:00:00Z,53.52,-112.1,7.5,-4.4,340,6,,,,1016.0,,TRUE,TRUE,,,,,,,,,,,,,,,,1.3,,,,,,,,,,,METAR,640.0
CWVH 040100Z AUTO 33021G30KT ////SM OVC002 M01/M01 A2993,CWVH,2021-10-04T01:00:00Z,68.9,-133.93,-1.0,-1.0,330,21,30,,29.929134,,,TRUE,,,,,,,,OVC,200,,,,,,,,,,,,,,,,,,,SPECI,246.0
CWVF 040100Z AUTO 30009KT 13/08 RMK AO1 T01260077,CWVF,2021-10-04T01:00:00Z,49.1,-123.3,12.6,7.7,300,9,,,,,,TRUE,TRUE,,,,,,,,,,,,,,,,,,,,,,,,,,,METAR,13.0
CWVD 040100Z AUTO 02010KT ////SM OVC110 04/M05 A2996,CWVD,2021-10-04T01:00:00Z,67.53,-63.78,4.0,-5.0,20,10,,,29.958662,,,TRUE,,,,,,,,OVC,11000,,,,,,,,,,,,,,,,,,,SPECI,584.0
CWUX 040100Z AUTO 22002KT 06/05 RMK AO1 SLP202 T00600050 51015,CWUX,2021-10-04T01:00:00Z,48.3,-70.93,6.0,5.0,220,2,,,,1020.2,,TRUE,TRUE,,,,,,,,,,,,,,,,1.5,,,,,,,,,,,METAR,150.0
CWUW 040100Z AUTO 14012KT ////SM OVC002 M01/// A2997,CWUW,2021-10-04T01:00:00Z,68.62,-71.12,,,140,12,,,29.970472,,,TRUE,,,,,,,,OVC,200,,,,,,,,,,,,,,,,,,,SPECI,173.0
CWUS 040100Z AUTO 31004KT 19/02 RMK AO1 SLP151 T01900022 55005,CWUS,2021-10-04T01:00:00Z,49.57,-119.65,19.0,2.2,310,4,,,,1015.1,,TRUE,TRUE,,,,,,,,,,,,,,,,-0.5,,,,,,,,,,,METAR,455.0
CWUP 040100Z AUTO 22017KT ////SM SCT050 OVC120 02/00 A2993,CWUP,2021-10-04T01:00:00Z,68.47,-66.83,2.0,0.0,220,17,,,29.929134,,,TRUE,,,,,,,,SCT,5000,OVC,12000,,,,,,,,,,,,,,,,,SPECI,13.0
CWTY 040100Z AUTO 06015G20KT 12/08 RMK AO1 PK WND 06021/0045 SLP182 T01160076 53023,CWTY,2021-10-04T01:00:00Z,46.35,-72.52,11.6,7.6,60,15,20,,,1018.2,,TRUE,TRUE,,,,,,,,,,,,,,,,2.3,,,,,,,,,,,METAR,8.0
CWTT 040100Z AUTO 04003KT 10/10 RMK AO1 T01020097,CWTT,2021-10-04T01:00:00Z,45.27,-72.17,10.2,9.7,40,3,,,,,,TRUE,TRUE,,,,,,,,,,,,,,,,,,,,,,,,,,,METAR,210.0
CWTN 040100Z AUTO 05007KT 09/05 RMK AO1 SLP199 T00900048 51017,CWTN,2021-10-04T01:00:00Z,47.07,-70.78,9.0,4.8,50,7,,,,1019.9,,TRUE,TRUE,,,,,,,,,,,,,,,,1.7,,,,,,,,,,,METAR,5.0
CWTG 040100Z AUTO 36003KT 08/07 RMK AO1 SLP198 T00810072 53012,CWTG,2021-10-04T01:00:00Z,49.32,-67.37,8.1,7.2,360,3,,,,1019.8,,TRUE,TRUE,,,,,,,,,,,,,,,,1.2,,,,,,,,,,,METAR,6.0
CWTA 040100Z AUTO 01003KT 14/07 RMK AO1 SLP162 T01390068 51013,CWTA,2021-10-04T01:00:00Z,45.5,-73.58,13.9,6.8,10,3,,,,1016.2,,TRUE,TRUE,,,,,,,,,,,,,,,,1.3,,,,,,,,,,,METAR,71.0
CWSW 040100Z 16006KT 120V200 20SM FEW060 FEW090 14/02 A3000 RMK CF1AC1 CF TR AC TR LAST STFD OBS/NXT 041300Z SLP161 DENSITY ALT 4500FT,CWSW,2021-10-04T01:00:00Z,49.83,-114.87,14.0,2.0,160,6,,20.0,30.0,1016.1,,,,,,,,,,FEW,6000,FEW,9000,,,,,VFR,,,,,,,,,,,,SPECI,1173.0
CWST 040100Z AUTO 10002KT 04/04 RMK AO1 SLP200 T00420035 53015,CWST,2021-10-04T01:00:00Z,47.35,-70.02,4.2,3.5,100,2,,,,1020.0,,TRUE,TRUE,,,,,,,,,,,,,,,,1.5,,,,,,,,,,,METAR,31.0
CWSR 040100Z AUTO 27005KT 13/M02 RMK AO1 SLP110 T01301024 53016,CWSR,2021-10-04T01:00:00Z,53.37,-107.55,13.0,-2.4,270,5,,,,1011.0,,TRUE,TRUE,,,,,,,,,,,,,,,,1.6,,,,,,,,,,,METAR,589.0
CWSP 040100Z AUTO 29015KT 11/08 RMK AO1 PK WND 28020/0051 SLP198 T01130082 58013,CWSP,2021-10-04T01:00:00Z,48.38,-123.92,11.3,8.2,290,15,,,,1019.8,,TRUE,TRUE,,,,,,,,,,,,,,,,-1.3,,,,,,,,,,,METAR,2.0
CWSK 040100Z AUTO 00000KT 11/10 RMK AO1 SLP189 T01050104 56009,CWSK,2021-10-04T01:00:00Z,49.78,-123.17,10.5,10.4,0,0,,,,1018.9,,TRUE,TRUE,,,,,,,,,,,,,,,,-0.9,,,,,,,,,,,METAR,59.0
CWSG 040100Z AUTO 19004KT 06/06 RMK AO1 T00630057,CWSG,2021-10-04T01:00:00Z,49.12,-66.65,6.3,5.7,190,4,,,,,,TRUE,TRUE,,,,,,,,,,,,,,,,,,,,,,,,,,,METAR,5.0
CWSF 040100Z AUTO 28009KT 09/07 RMK AO1 SLP189 T00860069 53009,CWSF,2021-10-04T01:00:00Z,49.25,-65.32,8.6,6.9,280,9,,,,1018.9,,TRUE,TRUE,,,,,,,,,,,,,,,,0.9,,,,,,,,,,,METAR,15.0
CWSD 040100Z AUTO 31004KT 09/07 RMK AO1 SLP168 T00850072 51006,CWSD,2021-10-04T01:00:00Z,46.43,-63.85,8.5,7.2,310,4,,,,1016.8,,TRUE,TRUE,,,,,,,,,,,,,,,,0.6,,,,,,,,,,,METAR,12.0
CWSA 040100Z AUTO 33007KT A2994 RMK WND MISG CLD MISG WX MISG VIS MISG PCPN MISG T MISG TD MISG DENSITY ALT MISG,CWSA,2021-10-04T01:00:00Z,43.93,-60.0,,,330,7,,,29.940945,,,TRUE,,,,,,,,,,,,,,,,,,,,,,,,,,,,SPECI,4.0
CWRZ 040100Z AUTO 35007KT 09/07 RMK AO1 SLP173 T00920069 51011,CWRZ,2021-10-04T01:00:00Z,48.42,-64.32,9.2,6.9,350,7,,,,1017.3,,TRUE,TRUE,,,,,,,,,,,,,,,,1.1,,,,,,,,,,,METAR,16.0
CWRY 040100Z AUTO 27015KT 19/M01 RMK AO1 SOG 01 3008 PK WND 27022/0003 SLP136 T01861013,CWRY,2021-10-04T01:00:00Z,49.12,-112.05,18.6,-1.3,270,15,,,,1013.6,,TRUE,TRUE,,,,,,,,,,,,,,,,,,,,,,,,,,,METAR,1048.0
CWRX 040100Z AUTO ///// ////SM OVC002 01/01 A2990,CWRX,2021-10-04T01:00:00Z,69.07,-79.07,1.0,1.0,,,,,29.899607,,,TRUE,,,,,,,,OVC,200,,,,,,,,,,,,,,,,,,,SPECI,39.0
CWRT 040100Z AUTO 24002KT 13/M01 RMK AO1 SLP148 T01271008 53001,CWRT,2021-10-04T01:00:00Z,49.62,-114.47,12.7,-0.8,240,2,,,,1014.8,,TRUE,TRUE,,,,,,,,,,,,,,,,0.1,,,,,,,,,,,METAR,1311.0
CWRO 040100Z AUTO 20007KT 07/ RMK AO1 SLP160 T0072 58005,CWRO,2021-10-04T01:00:00Z,54.17,-131.67,7.2,,200,7,,,,1016.0,,TRUE,TRUE,,,,,,,,,,,,,,,,-0.5,,,,,,,,,,,METAR,7.0
CWRN 040100Z AUTO 32009KT 13/09 RMK AO1 SLP150 T01330093 52003,CWRN,2021-10-04T01:00:00Z,45.35,-60.98,13.3,9.3,320,9,,,,1015.0,,TRUE,TRUE,,,,,,,,,,,,,,,,0.3,,,,,,,,,,,METAR,8.0
CWRM 040100Z AUTO 07003KT 09/01 RMK AO1 SLP139 T00910012 52017,CWRM,2021-10-04T01:00:00Z,52.42,-114.92,9.1,1.2,70,3,,,,1013.9,,TRUE,TRUE,,,,,,,,,,,,,,,,1.7,,,,,,,,,,,METAR,986.0
CWRK 040100Z AUTO 05002KT 12/12 RMK AO1 SLP149 T01180116 51009,CWRK,2021-10-04T01:00:00Z,45.07,-77.87,11.8,11.6,50,2,,,,1014.9,,TRUE,TRUE,,,,,,,,,,,,,,,,0.9,,,,,,,,,,,METAR,328.0
CWRJ 040100Z AUTO 22008KT 12/M05 RMK AO1 SLP116 T01221054 53008,CWRJ,2021-10-04T01:00:00Z,51.57,-107.92,12.2,-5.4,220,8,,,,1011.6,,TRUE,TRUE,,,,,,,,,,,,,,,,0.8,,,,,,,,,,,METAR,586.0
CWRH 040100Z AUTO 30016KT ////SM BKN190 BKN220 05/05 A3011,CWRH,2021-10-04T01:00:00Z,61.58,-64.65,5.0,5.0,300,16,,,30.109253,,,TRUE,,,,,,,,BKN,19000,BKN,22000,,,,,,,,,,,,,,,,,SPECI,343.0
CWRF 040100Z AUTO 18011G16KT ////SM FEW009 SCT016 BKN033 02/02 A2969,CWRF,2021-10-04T01:00:00Z,69.43,-89.72,2.0,2.0,180,11,16,,29.68996,,,TRUE,,,,,,,,FEW,900,SCT,1600,BKN,3300,,,,,,,,,,,,,,,METAR,312.0
CWRA 040100Z AUTO 02009KT 12/11 RMK AO1 SLP098 T01160113 58002,CWRA,2021-10-04T01:00:00Z,46.65,-53.07,11.6,11.3,20,9,,,,1009.8,,TRUE,TRUE,,,,,,,,,,,,,,,,-0.2,,,,,,,,,,,METAR,4.0
CWQV 040100Z AUTO 06005KT 08/06 RMK AO1 T00830058,CWQV,2021-10-04T01:00:00Z,48.27,-70.12,8.3,5.8,60,5,,,,,,TRUE,TRUE,,,,,,,,,,,,,,,,,,,,,,,,,,,METAR,4.0
CWQR 040100Z AUTO 31007KT 10/07 RMK AO1 T00970070,CWQR,2021-10-04T01:00:00Z,50.22,-64.22,9.7,7.0,310,7,,,,,,TRUE,TRUE,,,,,,,,,,,,,,,,,,,,,,,,,,,METAR,9.0
CWQP 040100Z AUTO 06014G19KT 16/15 RMK AO1 PK WND 05019/0059 SLP127 T01630152 51007,CWQP,2021-10-04T01:00:00Z,43.83,-77.15,16.3,15.2,60,14,19,,,1012.7,,TRUE,TRUE,,,,,,,,,,,,,,,,0.7,,,,,,,,,,,METAR,77.0
CWQO 040100Z AUTO 29005KT 07/06 RMK AO1 T00740058,CWQO,2021-10-04T01:00:00Z,48.42,-68.9,7.4,5.8,290,5,,,,,,TRUE,TRUE,,,,,,,,,,,,,,,,,,,,,,,,,,,METAR,7.0
CWQK 040100Z AUTO 25014KT 11/08 RMK AO1 SLP199 T01090075 56011,CWQK,2021-10-04T01:00:00Z,48.3,-123.53,10.9,7.5,250,14,,,,1019.9,,TRUE,TRUE,,,,,,,,,,,,,,,,-1.1,,,,,,,,,,,METAR,5.0
CWQH 040100Z AUTO 04004KT 10/09 RMK AO1 SLP162 T00960088 52013,CWQH,2021-10-04T01:00:00Z,45.37,-71.82,9.6,8.8,40,4,,,,1016.2,,TRUE,TRUE,,,,,,,,,,,,,,,,1.3,,,,,,,,,,,METAR,181.0
CWPZ 040100Z AUTO 26005KT 07/M05 RMK AO1 PK WND 29017/0013 SLP176 T00721052 52005,CWPZ,2021-10-04T01:00:00Z,54.38,-125.97,7.2,-5.2,260,5,,,,1017.6,,TRUE,TRUE,,,,,,,,,,,,,,,,0.5,,,,,,,,,,,METAR,715.0
CWPX 040100Z AUTO 07024G30KT ////SM //// OVC003 01/01 A2943,CWPX,2021-10-04T01:00:00Z,69.03,-107.82,1.0,1.0,70,24,30,,29.430119,,,TRUE,,,,,,,,OVC,300,,,,,,,,,,,,,,,,,,,METAR,163.0
CWPR 040100Z AUTO 33002KT 15/04 RMK AO1 SLP168 T01510038 52001,CWPR,2021-10-04T01:00:00Z,49.47,-120.52,15.1,3.8,330,2,,,,1016.8,,TRUE,TRUE,,,,,,,,,,,,,,,,0.1,,,,,,,,,,,METAR,703.0
CWPO 040100Z AUTO 30005KT 18/04 RMK AO1 SLP143 T01840041 53004,CWPO,2021-10-04T01:00:00Z,49.2,-98.9,18.4,4.1,300,5,,,,1014.3,,TRUE,TRUE,,,,,,,,,,,,,,,,0.4,,,,,,,,,,,METAR,471.0
CWPK 040100Z AUTO 08002KT 08/05 RMK AO1 SLP197 T00750050 53019,CWPK,2021-10-04T01:00:00Z,47.92,-74.62,7.5,5.0,80,2,,,,1019.7,,TRUE,TRUE,,,,,,,,,,,,,,,,1.9,,,,,,,,,,,METAR,443.0
CWPE 040100Z AUTO 35003KT 11/09 RMK AO1 SLP173 T01050091 53012,CWPE,2021-10-04T01:00:00Z,45.07,-66.47,10.5,9.1,350,3,,,,1017.3,,TRUE,TRUE,,,,,,,,,,,,,,,,1.2,,,,,,,,,,,METAR,9.0
CWPD 040100Z AUTO 02002KT 04/02 RMK AO1 SLP187 T00350024 51016,CWPD,2021-10-04T01:00:00Z,47.57,-71.22,3.5,2.4,20,2,,,,1018.7,,TRUE,TRUE,,,,,,,,,,,,,,,,1.6,,,,,,,,,,,METAR,795.0
CWPC 040100Z AUTO 18001KT 19/19 RMK AO1 SLP117 T01910188 51003,CWPC,2021-10-04T01:00:00Z,42.87,-79.25,19.1,18.8,180,1,,,,1011.7,,TRUE,TRUE,,,,,,,,,,,,,,,,0.3,,,,,,,,,,,METAR,174.0
CWOY 040100Z AUTO 19004KT 09/M02 RMK AO1 SLP132 T00931019 53011,CWOY,2021-10-04T01:00:00Z,51.77,-104.2,9.3,-1.9,190,4,,,,1013.2,,TRUE,TRUE,,,,,,,,,,,,,,,,1.1,,,,,,,,,,,METAR,557.0
CWOE 040100Z AUTO 30012KT 19/M04 RMK AO1 SLP138 T01861035 53009,CWOE,2021-10-04T01:00:00Z,49.12,-110.47,18.6,-3.5,300,12,,,,1013.8,,TRUE,TRUE,,,,,,,,,,,,,,,,0.9,,,,,,,,,,,METAR,931.0
CWOD 040100Z AUTO 34003KT 04/03 RMK AO1 SLP210 T00380026 53014,CWOD,2021-10-04T01:00:00Z,48.85,-72.55,3.8,2.6,340,3,,,,1021.0,,TRUE,TRUE,,,,,,,,,,,,,,,,1.4,,,,,,,,,,,METAR,150.0
CWOC 040100Z AUTO 36004KT 07/06 RMK AO1 SLP179 T00730062 52013,CWOC,2021-10-04T01:00:00Z,48.02,-65.32,7.3,6.2,360,4,,,,1017.9,,TRUE,TRUE,,,,,,,,,,,,,,,,1.3,,,,,,,,,,,METAR,42.0
CWOB 040100Z AUTO 33004KT ////SM FEW170 BKN290 BKN310 06/M11 A3005,CWOB,2021-10-04T01:00:00Z,63.33,-64.15,6.0,-11.0,330,4,,,30.050198,,,TRUE,,,,,,,,FEW,17000,BKN,29000,BKN,31000,,,,,,,,,,,,,,,SPECI,369.0
CWNZ 040100Z AUTO 22001KT 09/08 RMK AO1 SLP174 T00890082 53009,CWNZ,2021-10-04T01:00:00Z,49.75,-84.17,8.9,8.2,220,1,,,,1017.4,,TRUE,TRUE,,,,,,,,,,,,,,,,0.9,,,,,,,,,,,METAR,261.0
CWNQ 040100Z AUTO 05006KT 10/08 RMK AO1 SLP177 T01030078 53018,CWNQ,2021-10-04T01:00:00Z,46.22,-72.65,10.3,7.8,50,6,,,,1017.7,,TRUE,TRUE,,,,,,,,,,,,,,,,1.8,,,,,,,,,,,METAR,9.0
CWNP 040100Z AUTO 00000KT 13/10 RMK AO1 SLP154 T01300101 55003,CWNP,2021-10-04T01:00:00Z,50.27,-117.82,13.0,10.1,0,0,,,,1015.4,,TRUE,TRUE,,,,,,,,,,,,,,,,-0.3,,,,,,,,,,,METAR,517.0
CWNM 040100Z AUTO 03001KT 15/10 RMK AO1 SLP162 T01510098 55001,CWNM,2021-10-04T01:00:00Z,49.5,-117.3,15.1,9.8,30,1,,,,1016.2,,TRUE,TRUE,,,,,,,,,,,,,,,,-0.1,,,,,,,,,,,METAR,533.0
CWNK 040100Z AUTO 15004KT 15/05 RMK AO1 SLP119 T01530048 55000,CWNK,2021-10-04T01:00:00Z,49.5,-98.03,15.3,4.8,150,4,,,,1011.9,,TRUE,TRUE,,,,,,,,,,,,,,,,0.0,,,,,,,,,,,METAR,271.0
CWNH 040100Z AUTO 36005KT 06/05 RMK AO1 SLP206 T00580049 53014,CWNH,2021-10-04T01:00:00Z,47.8,-69.53,5.8,4.9,360,5,,,,1020.6,,TRUE,TRUE,,,,,,,,,,,,,,,,1.4,,,,,,,,,,,METAR,147.0
CWNE 040100Z AUTO 01010KT 11/08 RMK AO1 SLP163 T01120082 51010,CWNE,2021-10-04T01:00:00Z,47.07,-64.0,11.2,8.2,10,10,,,,1016.3,,TRUE,TRUE,,,,,,,,,,,,,,,,1.0,,,,,,,,,,,METAR,5.0
CWNC 040100Z AUTO 07005KT 16/15 RMK AO1 2PAST HR 1009 SLP125 P0001 T01590147 50002,CWNC,2021-10-04T01:00:00Z,43.95,-78.17,15.9,14.7,70,5,,,,1012.5,,TRUE,TRUE,,,,,,,,,,,,,,,,0.2,,,,,0.01,,,,,,METAR,71.0
CWMT 040100Z AUTO 24011G18KT 04/02 RMK AO1 PK WND 25018/0047 SLP949 T00440018 53012,CWMT,2021-10-04T01:00:00Z,63.13,-117.25,4.4,1.8,240,11,18,,,994.9,,TRUE,TRUE,,,,,,,,,,,,,,,,1.2,,,,,,,,,,,METAR,274.0
CWMQ 040100Z AUTO 27007KT 20/M01 RMK AO1 SLP138 T01971012 53014,CWMQ,2021-10-04T01:00:00Z,49.9,-109.47,19.7,-1.2,270,7,,,,1013.8,,TRUE,TRUE,,,,,,,,,,,,,,,,1.4,,,,,,,,,,,METAR,767.0
CWMM 040100Z AUTO 20002KT 14/10 RMK AO1 SLP199 T01420095 58009,CWMM,2021-10-04T01:00:00Z,49.22,-122.68,14.2,9.5,200,2,,,,1019.9,,TRUE,TRUE,,,,,,,,,,,,,,,,-0.9,,,,,,,,,,,METAR,2.0
CWMJ 040100Z AUTO 00000KT 10/10 RMK AO1 SLP166 T00990097 51011,CWMJ,2021-10-04T01:00:00Z,46.27,-76.0,9.9,9.7,0,0,,,,1016.6,,TRUE,TRUE,,,,,,,,,,,,,,,,1.1,,,,,,,,,,,METAR,198.0
CWLX 040100Z AUTO ///// ////SM OVC002 M01/M01 A2998,CWLX,2021-10-04T01:00:00Z,68.9,-75.15,-1.0,-1.0,,,,,29.97933,,,TRUE,,,,,,,,OVC,200,,,,,,,,,,,,,,,,,,,SPECI,129.0
CWLS 040100Z AUTO 11003KT 18/17 RMK AO1 SLP112 T01800169 53008,CWLS,2021-10-04T01:00:00Z,43.97,-80.75,18.0,16.9,110,3,,,,1011.2,,TRUE,TRUE,,,,,,,,,,,,,,,,0.8,,,,,,,,,,,METAR,413.0
CWLP 040100Z AUTO 15004KT 10/06 RMK AO1 SLP211 T00990057 56016,CWLP,2021-10-04T01:00:00Z,50.93,-127.63,9.9,5.7,150,4,,,,1021.1,,TRUE,TRUE,,,,,,,,,,,,,,,,-1.6,,,,,,,,,,,METAR,15.0
CWLM 040100Z AUTO 25002KT 11/08 RMK AO1 SLP199 T01130083 58013,CWLM,2021-10-04T01:00:00Z,48.42,-123.32,11.3,8.3,250,2,,,,1019.9,,TRUE,TRUE,,,,,,,,,,,,,,,,-1.3,,,,,,,,,,,METAR,62.0
CWLI 040100Z AUTO 01016KT ////SM OVC004 M01/M01 A2990,CWLI,2021-10-04T01:00:00Z,69.6,-130.9,-1.0,-1.0,10,16,,,29.899607,,,TRUE,,,,,,,,OVC,400,,,,,,,,,,,,,,,,,,,SPECI,92.0
CWLE 040100Z AUTO 25006KT 12/M06 RMK AO1 SLP131 T01191055 53011,CWLE,2021-10-04T01:00:00Z,50.95,-107.15,11.9,-5.5,250,6,,,,1013.1,,TRUE,TRUE,,,,,,,,,,,,,,,,1.1,,,,,,,,,,,METAR,666.0
CWLC 040100Z AUTO 27005KT 07/03 RMK AO1 PK WND 17024/0013 T00700029,CWLC,2021-10-04T01:00:00Z,54.3,-130.62,7.0,2.9,270,5,,,,,,TRUE,TRUE,,,,,,,,,,,,,,,,,,,,,,,,,,,METAR,27.0
CWLB 040100Z AUTO 26005KT 09/M05 RMK AO1 SLP141 T00881049 53008,CWLB,2021-10-04T01:00:00Z,54.77,-112.02,8.8,-4.9,260,5,,,,1014.1,,TRUE,TRUE,,,,,,,,,,,,,,,,0.8,,,,,,,,,,,METAR,561.0
CWKX 040100Z AUTO 24005KT 02/M05 RMK AO1 SLP133 T00231048 52011,CWKX,2021-10-04T01:00:00Z,58.43,-130.02,2.3,-4.8,240,5,,,,1013.3,,TRUE,TRUE,,,,,,,,,,,,,,,,1.1,,,,,,,,,,,METAR,807.0
CWKP 040100Z AUTO 03019G28KT ////SM OVC002 ///// A////,CWKP,2021-10-04T01:00:00Z,69.67,-121.67,,,30,19,28,,,,,TRUE,,,,,,,,OVC,200,,,,,,,,,,,,,,,,,,,METAR,322.0
CWKO 040100Z AUTO 22006KT 16/M07 RMK AO1 SLP156 T01561068 53005,CWKO,2021-10-04T01:00:00Z,49.17,-105.97,15.6,-6.8,220,6,,,,1015.6,,TRUE,TRUE,,,,,,,,,,,,,,,,0.5,,,,,,,,,,,METAR,914.0
CWKM 040100Z AUTO 33010KT ////SM BKN005 BKN008 M01/M02 A3015,CWKM,2021-10-04T01:00:00Z,69.6,-140.17,-1.0,-2.0,330,10,,,30.15059,,,TRUE,,,,,,,,BKN,500,BKN,800,,,,,,,,,,,,,,,,,SPECI,8.0
CWKK 040100Z AUTO 34005KT 14/12 RMK AO1 SLP164 T01410117 51009,CWKK,2021-10-04T01:00:00Z,49.72,-88.33,14.1,11.7,340,5,,,,1016.4,,TRUE,TRUE,,,,,,,,,,,,,,,,0.9,,,,,,,,,,,METAR,259.0
CWKH 040100Z AUTO 10/08 RMK AO1 SLP192 T01030076 58012,CWKH,2021-10-04T01:00:00Z,48.57,-123.55,10.3,7.6,,,,,,1019.2,,TRUE,TRUE,,,,,,,,,,,,,,,,-1.2,,,,,,,,,,,METAR,327.0
CWKG 040100Z AUTO 04002KT 09/08 RMK AO1 SLP167 T00890079 52010,CWKG,2021-10-04T01:00:00Z,44.43,-65.2,8.9,7.9,40,2,,,,1016.7,,TRUE,TRUE,,,,,,,,,,,,,,,,1.0,,,,,,,,,,,METAR,154.0
CWJX 040100Z AUTO 22007KT 15/M05 RMK AO1 SLP120 T01541053 53010,CWJX,2021-10-04T01:00:00Z,50.88,-109.5,15.4,-5.3,220,7,,,,1012.0,,TRUE,TRUE,,,,,,,,,,,,,,,,1.0,,,,,,,,,,,METAR,671.0
CWJW 040100Z AUTO 10004KT 08/02 RMK AO1 SLP161 T00840018 53004,CWJW,2021-10-04T01:00:00Z,52.93,-118.03,8.4,1.8,100,4,,,,1016.1,,TRUE,TRUE,,,,,,,,,,,,,,,,0.4,,,,,,,,,,,METAR,1022.0
CWJV 040100Z AUTO 00000KT 17/01 RMK AO1 SLP150 T01710008 55003,CWJV,2021-10-04T01:00:00Z,50.22,-119.18,17.1,0.8,0,0,,,,1015.0,,TRUE,TRUE,,,,,,,,,,,,,,,,-0.3,,,,,,,,,,,METAR,487.0
CWJT 040100Z AUTO 00000KT 09/08 RMK AO1 SLP169 T00890075 51018,CWJT,2021-10-04T01:00:00Z,46.07,-74.57,8.9,7.5,0,0,,,,1016.9,,TRUE,TRUE,,,,,,,,,,,,,,,,1.8,,,,,,,,,,,METAR,236.0
CWJR 040100Z AUTO 16004KT 17/06 RMK AO1 SLP173 T01730063 55005,CWJR,2021-10-04T01:00:00Z,49.03,-116.5,17.3,6.3,160,4,,,,1017.3,,TRUE,TRUE,,,,,,,,,,,,,,,,-0.5,,,,,,,,,,,METAR,642.0
CWJI 040100Z AUTO 04008KT 15/M04 RMK AO1 SLP138 T01511036 53009,CWJI,2021-10-04T01:00:00Z,49.72,-105.93,15.1,-3.6,40,8,,,,1013.8,,TRUE,TRUE,,,,,,,,,,,,,,,,0.9,,,,,,,,,,,METAR,724.0
CWJH 040100Z AUTO 28006KT 14/01 RMK AO1 SLP097 T01360005 53025,CWJH,2021-10-04T01:00:00Z,56.32,-103.27,13.6,0.5,280,6,,,,1009.7,,TRUE,TRUE,,,,,,,,,,,,,,,,2.5,,,,,,,,,,,METAR,345.0
CWJD 040100Z AUTO 22004KT 13/06 RMK AO1 SLP089 T01320061 53013,CWJD,2021-10-04T01:00:00Z,53.18,-99.27,13.2,6.1,220,4,,,,1008.9,,TRUE,TRUE,,,,,,,,,,,,,,,,1.3,,,,,,,,,,,METAR,222.0
CWJC 040100Z AUTO 12002KT 10/01 RMK AO1 SLP046 T01040006 58001,CWJC,2021-10-04T01:00:00Z,61.13,-100.9,10.4,0.6,120,2,,,,1004.6,,TRUE,TRUE,,,,,,,,,,,,,,,,-0.1,,,,,,,,,,,METAR,340.0
CWJB 040100Z AUTO 06008KT 09/ RMK AO1 PK WND 04018/0002 T0094,CWJB,2021-10-04T01:00:00Z,46.78,-71.28,9.4,,60,8,,,,,,TRUE,TRUE,,,,,,,,,,,,,,,,,,,,,,,,,,,METAR,90.0
CWIZ 040100Z AUTO 04004KT 14/09 RMK AO1 T01390089,CWIZ,2021-10-04T01:00:00Z,45.28,-73.33,13.9,8.9,40,4,,,,,,TRUE,TRUE,,,,,,,,,,,,,,,,,,,,,,,,,,,METAR,45.0
CWIW 040100Z AUTO 12003KT 14/M01 RMK AO1 SLP127 T01391009 53009,CWIW,2021-10-04T01:00:00Z,51.67,-105.4,13.9,-0.9,120,3,,,,1012.7,,TRUE,TRUE,,,,,,,,,,,,,,,,0.9,,,,,,,,,,,METAR,524.0
CWIT 040100Z AUTO 04001KT 13/12 RMK AO1 SLP154 T01270123 51008,CWIT,2021-10-04T01:00:00Z,45.17,-73.67,12.7,12.3,40,1,,,,1015.4,,TRUE,TRUE,,,,,,,,,,,,,,,,0.8,,,,,,,,,,,METAR,53.0
CWIS 040100Z AUTO 04005KT 03/03 RMK AO1 SLP202 T00330032 52012,CWIS,2021-10-04T01:00:00Z,47.28,-70.63,3.3,3.2,40,5,,,,1020.2,,TRUE,TRUE,,,,,,,,,,,,,,,,1.2,,,,,,,,,,,METAR,720.0
CWIL 040100Z AUTO 11013KT ////SM OVC002 02/02 A2954,CWIL,2021-10-04T01:00:00Z,68.32,-100.07,2.0,2.0,110,13,,,29.53937,,,TRUE,,,,,,,,OVC,200,,,,,,,,,,,,,,,,,,,SPECI,28.0
CWIK 040100Z AUTO 30003KT 17/M01 RMK AO1 SLP136 T01651013 53016,CWIK,2021-10-04T01:00:00Z,50.37,-102.58,16.5,-1.3,300,3,,,,1013.6,,TRUE,TRUE,,,,,,,,,,,,,,,,1.6,,,,,,,,,,,METAR,597.0
CWIJ 040100Z AUTO 22011KT 04/01 RMK AO1 SLP944 T00380006,CWIJ,2021-10-04T01:00:00Z,65.77,-111.23,3.8,0.6,220,11,,,,994.4,,TRUE,TRUE,,,,,,,,,,,,,,,,,,,,,,,,,,,METAR,490.0
CWII 040100Z AUTO 12006KT 17/09 RMK AO1 SLP120 T01680091 56002,CWII,2021-10-04T01:00:00Z,50.7,-96.57,16.8,9.1,120,6,,,,1012.0,,TRUE,TRUE,,,,,,,,,,,,,,,,-0.2,,,,,,,,,,,METAR,216.0
CWIG 040100Z AUTO 04010G16KT RMK AO1 PK WND 05017/0007,CWIG,2021-10-04T01:00:00Z,47.07,-70.53,,,40,10,16,,,,,TRUE,TRUE,,,,,,,,,,,,,,,,,,,,,,,,,,,METAR,12.0
CWID 040100Z AUTO 25007KT 09/M04 RMK AO1 PK WND 22018/0013 SLP977 T00921035 51010,CWID,2021-10-04T01:00:00Z,61.32,-117.6,9.2,-3.5,250,7,,,,997.7,,TRUE,TRUE,,,,,,,,,,,,,,,,1.0,,,,,,,,,,,METAR,160.0
CWHV 040100Z AUTO 36002KT 09/06 RMK AO1 SLP184 T00930055 51020,CWHV,2021-10-04T01:00:00Z,46.2,-70.78,9.3,5.5,360,2,,,,1018.4,,TRUE,TRUE,,,,,,,,,,,,,,,,2.0,,,,,,,,,,,METAR,227.0
CWHT 040100Z AUTO 29008G16KT 03/M04 RMK AO1 PK WND 29018/0030 SLP131 T00311043 53017,CWHT,2021-10-04T01:00:00Z,60.77,-137.58,3.1,-4.3,290,8,16,,,1013.1,,TRUE,TRUE,,,,,,,,,,,,,,,,1.7,,,,,,,,,,,METAR,601.0
CWHQ 040100Z AUTO 08004KT 09/05 RMK AO1 T00910050,CWHQ,2021-10-04T01:00:00Z,46.68,-71.97,9.1,5.0,80,4,,,,,,TRUE,TRUE,,,,,,,,,,,,,,,,,,,,,,,,,,,METAR,56.0
CWHO 040100Z AUTO 05/01 RMK AO1 17 0020Z 8002 SLP186 T00460011,CWHO,2021-10-04T01:00:00Z,55.45,-60.22,4.6,1.1,,,,,,1018.6,,TRUE,TRUE,,,,,,,,,,,,,,,,,,,,,,,,,,,METAR,16.0
CWHN 040100Z AUTO 27004KT 240V310 9SM FEW094 10/M03 A2987 RMK SLP137,CWHN,2021-10-04T01:00:00Z,54.9,-109.97,10.0,-3.0,270,4,,9.0,29.870079,1013.7,,TRUE,,,,,,,,FEW,9400,,,,,,,VFR,,,,,,,,,,,,METAR,635.0
CWHL 040100Z AUTO 15018KT 09/06 RMK AO1 PK WND 15023/0036 SLP169 T00860056 58004,CWHL,2021-10-04T01:00:00Z,54.17,-130.35,8.6,5.6,150,18,,,,1016.9,,TRUE,TRUE,,,,,,,,,,,,,,,,-0.4,,,,,,,,,,,METAR,5.0
CWHI 040100Z AUTO 01009KT 11/M00 RMK AO1 PK WND 02019/0007 T01061002,CWHI,2021-10-04T01:00:00Z,51.7,-113.22,10.6,-0.2,10,9,,,,,,TRUE,TRUE,,,,,,,,,,,,,,,,,,,,,,,,,,,METAR,906.0
CWGY 040100Z AUTO 32003KT 15/M01 RMK AO1 SLP128 T01511013 53013,CWGY,2021-10-04T01:00:00Z,51.67,-110.2,15.1,-1.3,320,3,,,,1012.8,,TRUE,TRUE,,,,,,,,,,,,,,,,1.3,,,,,,,,,,,METAR,709.0
CWGW 040100Z AUTO 16006KT 14/01 RMK AO1 SLP160 T01390009 55000,CWGW,2021-10-04T01:00:00Z,49.75,-114.9,13.9,0.9,160,6,,,,1016.0,,TRUE,TRUE,,,,,,,,,,,,,,,,0.0,,,,,,,,,,,METAR,1137.0
CWGT 040100Z AUTO 29009KT 12/06 RMK AO1 SLP198 T01150063 58012,CWGT,2021-10-04T01:00:00Z,49.48,-124.43,11.5,6.3,290,9,,,,1019.8,,TRUE,TRUE,,,,,,,,,,,,,,,,-1.2,,,,,,,,,,,METAR,5.0
CWGR 040100Z AUTO 03010KT 10/10 RMK AO1 SLP150 T01040095 51003,CWGR,2021-10-04T01:00:00Z,47.42,-61.77,10.4,9.5,30,10,,,,1015.0,,TRUE,TRUE,,,,,,,,,,,,,,,,0.3,,,,,,,,,,,METAR,4.0
CWGM 040100Z AUTO 22009G16KT 15/M01 RMK AO1 PK WND 24025/0026 T01471009,CWGM,2021-10-04T01:00:00Z,49.13,-113.8,14.7,-0.9,220,9,16,,,,,TRUE,TRUE,,,,,,,,,,,,,,,,,,,,,,,,,,,METAR,1292.0
CWGL 040100Z AUTO 09008KT 16/15 RMK AO1 SLP115 T01570148 53010,CWGL,2021-10-04T01:00:00Z,44.53,-79.22,15.7,14.8,90,8,,,,1011.5,,TRUE,TRUE,,,,,,,,,,,,,,,,1.0,,,,,,,,,,,METAR,220.0
CWGH 040100Z AUTO 04003KT 14/13 RMK AO1 SLP148 T01370130 51008,CWGH,2021-10-04T01:00:00Z,44.42,-75.85,13.7,13.0,40,3,,,,1014.8,,TRUE,TRUE,,,,,,,,,,,,,,,,0.8,,,,,,,,,,,METAR,76.0
CWGD 040100Z AUTO 07003KT 19/18 RMK AO1 1PAST HR 0008 SLP108 P0043 T01920179 50111,CWGD,2021-10-04T01:00:00Z,43.77,-81.72,19.2,17.9,70,3,,,,1010.8,,TRUE,TRUE,,,,,,,,,,,,,,,,0.0,,,,,0.43,,,,,,METAR,214.0
CWGB 040100Z AUTO 28011KT 13/ RMK AO1 SLP197 T0127 58010,CWGB,2021-10-04T01:00:00Z,49.35,-124.13,12.7,,280,11,,,,1019.7,,TRUE,TRUE,,,,,,,,,,,,,,,,-1.0,,,,,,,,,,,METAR,6.0
CWFQ 040100Z AUTO 00000KT 13/13 RMK AO1 SLP156 T01310129 51008,CWFQ,2021-10-04T01:00:00Z,45.03,-72.85,13.1,12.9,0,0,,,,1015.6,,TRUE,TRUE,,,,,,,,,,,,,,,,0.8,,,,,,,,,,,METAR,190.0
CWFJ 040100Z AUTO 26004KT 17/01 RMK AO1 T01670005,CWFJ,2021-10-04T01:00:00Z,49.2,-113.27,16.7,0.5,260,4,,,,,,TRUE,TRUE,,,,,,,,,,,,,,,,,,,,,,,,,,,METAR,1142.0
CWFF 040100Z AUTO 20007KT 12/M03 RMK AO1 SLP115 T01161032 53011,CWFF,2021-10-04T01:00:00Z,52.82,-104.6,11.6,-3.2,200,7,,,,1011.5,,TRUE,TRUE,,,,,,,,,,,,,,,,1.1,,,,,,,,,,,METAR,482.0
CWFD 040100Z AUTO ///// ////SM FEW240 02/M04 A2996,CWFD,2021-10-04T01:00:00Z,66.58,-61.58,2.0,-4.0,,,,,29.958662,,,TRUE,,,,,,,,FEW,24000,,,,,,,,,,,,,,,,,,,SPECI,375.0
CWEZ 040100Z AUTO 32003KT 11/08 RMK AO1 SLP196 T01110078 58012,CWEZ,2021-10-04T01:00:00Z,48.78,-123.05,11.1,7.8,320,3,,,,1019.6,,TRUE,TRUE,,,,,,,,,,,,,,,,-1.2,,,,,,,,,,,METAR,23.0
CWEW 040100Z AUTO 01002KT 09/07 RMK AO1 SLP173 T00890073 51014,CWEW,2021-10-04T01:00:00Z,45.82,-73.43,8.9,7.3,10,2,,,,1017.3,,TRUE,TRUE,,,,,,,,,,,,,,,,1.4,,,,,,,,,,,METAR,17.0
CWEU 040100Z 35007KT 2 1/2SM BR OVC032 M04/M04 A2998 RMK FG2SC6 SLP163,CWEU,2021-10-04T01:00:00Z,80.0,-85.93,-4.0,-4.0,350,7,,2.5,29.97933,1016.3,,,,,,,,,BR,OVC,3200,,,,,,,IFR,,,,,,,,,,,,SPECI,2.0
CWER 040100Z AUTO 05020KT RMK AO1 PK WND 05025/0013,CWER,2021-10-04T01:00:00Z,47.0,-70.82,,,50,20,,,,,,TRUE,TRUE,,,,,,,,,,,,,,,,,,,,,,,,,,,METAR,4.0
CWEQ 040100Z AUTO 22007KT 15/M02 RMK AO1 SLP111 T01501017 53016,CWEQ,2021-10-04T01:00:00Z,52.12,-101.22,15.0,-1.7,220,7,,,,1011.1,,TRUE,TRUE,,,,,,,,,,,,,,,,1.6,,,,,,,,,,,METAR,331.0
CWEP 040100Z AUTO 31010KT 11/06 RMK AO1 SLP151 T01080064 51003,CWEP,2021-10-04T01:00:00Z,46.45,-61.98,10.8,6.4,310,10,,,,1015.1,,TRUE,TRUE,,,,,,,,,,,,,,,,0.3,,,,,,,,,,,METAR,9.0
CWEL 040100Z AUTO 31010KT 12/08 RMK AO1 SLP196 T01220078 58013,CWEL,2021-10-04T01:00:00Z,49.22,-123.8,12.2,7.8,310,10,,,,1019.6,,TRUE,TRUE,,,,,,,,,,,,,,,,-1.3,,,,,,,,,,,METAR,0.0
CWEK 040100Z AUTO 04003KT 06/04 RMK AO1 8PAST HR 3002 PK WND 28023/0003 SLP182 P0003 T00580040 50008,CWEK,2021-10-04T01:00:00Z,54.58,-130.7,5.8,4.0,40,3,,,,1018.2,,TRUE,TRUE,,,,,,,,,,,,,,,,0.8,,,,,0.03,,,,,,METAR,8.0
CWEH 040100Z AUTO 28006KT 16/M03 RMK AO1 PK WND 26018/0007 SLP144 T01591029 53011,CWEH,2021-10-04T01:00:00Z,49.43,-108.98,15.9,-2.9,280,6,,,,1014.4,,TRUE,TRUE,,,,,,,,,,,,,,,,1.1,,,,,,,,,,,METAR,1077.0
CWEB 040100Z AUTO 32017KT 11/08 RMK AO1 PK WND 32022/0001 SLP207 T01140076 56013,CWEB,2021-10-04T01:00:00Z,49.38,-126.55,11.4,7.6,320,17,,,,1020.7,,TRUE,TRUE,,,,,,,,,,,,,,,,-1.3,,,,,,,,,,,METAR,1.0
CWDZ 040100Z AUTO 04016G21KT 16/01 RMK AO1 PK WND 05032/0002 SLP114 T01620008 53014,CWDZ,2021-10-04T01:00:00Z,51.43,-112.67,16.2,0.8,40,16,21,,,1011.4,,TRUE,TRUE,,,,,,,,,,,,,,,,1.4,,,,,,,,,,,METAR,689.0
CWDV 040100Z AUTO 00000KT 14/10 RMK AO1 SLP162 T01390095 51010,CWDV,2021-10-04T01:00:00Z,49.02,-90.47,13.9,9.5,0,0,,,,1016.2,,TRUE,TRUE,,,,,,,,,,,,,,,,1.0,,,,,,,,,,,METAR,487.0
CWDQ 040100Z AUTO 34006KT 09/04 RMK AO1 SLP198 T00860036 53021,CWDQ,2021-10-04T01:00:00Z,47.42,-72.78,8.6,3.6,340,6,,,,1019.8,,TRUE,TRUE,,,,,,,,,,,,,,,,2.1,,,,,,,,,,,METAR,174.0
CWDK 040100Z AUTO 24017KT 16/M02 RMK AO1 PK WND 22022/0019 SLP136 T01601018 51006,CWDK,2021-10-04T01:00:00Z,50.02,-113.62,16.0,-1.8,240,17,,,,1013.6,,TRUE,TRUE,,,,,,,,,,,,,,,,0.6,,,,,,,,,,,METAR,1014.0
CWDJ 040100Z AUTO 10002KT 17/00 RMK AO1 SLP132 T01710000 53005,CWDJ,2021-10-04T01:00:00Z,50.4,-104.58,17.1,0.0,100,2,,,,1013.2,,TRUE,TRUE,,,,,,,,,,,,,,,,0.5,,,,,,,,,,,METAR,576.0
CWDA 040100Z AUTO 35001KT 06/ RMK AO1 T0061,CWDA,2021-10-04T01:00:00Z,50.72,-56.12,6.1,,350,1,,,,,,TRUE,TRUE,,,,,,,,,,,,,,,,,,,,,,,,,,,METAR,30.0
CWCT 040100Z AUTO 35013KT 12/M00 RMK AO1 PK WND 00019/0000 SLP141 T01231001 53020,CWCT,2021-10-04T01:00:00Z,52.07,-111.43,12.3,-0.1,350,13,,,,1014.1,,TRUE,TRUE,,,,,,,,,,,,,,,,2.0,,,,,,,,,,,METAR,793.0
CWCO 040100Z AUTO 11001KT 17/16 RMK AO1 SLP113 T01650162 52011,CWCO,2021-10-04T01:00:00Z,44.5,-80.22,16.5,16.2,110,1,,,,1011.3,,TRUE,TRUE,,,,,,,,,,,,,,,,1.1,,,,,,,,,,,METAR,182.0
CWCJ 040100Z AUTO 04006KT 13/12 RMK AO1 SLP153 T01320117 51013,CWCJ,2021-10-04T01:00:00Z,48.6,-86.28,13.2,11.7,40,6,,,,1015.3,,TRUE,TRUE,,,,,,,,,,,,,,,,1.3,,,,,,,,,,,METAR,207.0
CWCF 040100Z AUTO 14005KT 15/07 RMK AO1 SLP103 T01520073 54000,CWCF,2021-10-04T01:00:00Z,52.35,-97.03,15.2,7.3,140,5,,,,1010.3,,TRUE,TRUE,,,,,,,,,,,,,,,,,,,,,,,,,,,METAR,219.0
CWBZ 040100Z AUTO 04002KT 13/12 RMK AO1 SLP153 T01270122 53009,CWBZ,2021-10-04T01:00:00Z,45.12,-74.28,12.7,12.2,40,2,,,,1015.3,,TRUE,TRUE,,,,,,,,,,,,,,,,0.9,,,,,,,,,,,METAR,49.0
CWBY 040100Z AUTO 30002KT 06/05 RMK AO1 SLP181 T00550054 51006,CWBY,2021-10-04T01:00:00Z,49.83,-64.28,5.5,5.4,300,2,,,,1018.1,,TRUE,TRUE,,,,,,,,,,,,,,,,0.6,,,,,,,,,,,METAR,56.0
CWBV 040100Z AUTO 33009KT 14/09 RMK AO1 T01350094,CWBV,2021-10-04T01:00:00Z,44.82,-62.33,13.5,9.4,330,9,,,,,,TRUE,TRUE,,,,,,,,,,,,,,,,,,,,,,,,,,,METAR,16.0
CWBU 040100Z AUTO 22005KT 14/M00 RMK AO1 SLP103 T01351003 53013,CWBU,2021-10-04T01:00:00Z,53.33,-104.02,13.5,-0.3,220,5,,,,1010.3,,TRUE,TRUE,,,,,,,,,,,,,,,,1.3,,,,,,,,,,,METAR,369.0
CWBT 040100Z AUTO 34002KT 06/05 RMK AO1 SLP178 T00610053 51007,CWBT,2021-10-04T01:00:00Z,50.27,-64.23,6.1,5.3,340,2,,,,1017.8,,TRUE,TRUE,,,,,,,,,,,,,,,,0.7,,,,,,,,,,,METAR,12.0
CWBS 040100Z AUTO 06019KT 13/09 RMK AO1 PK WND 06024/0047 T01320094,CWBS,2021-10-04T01:00:00Z,46.18,-72.92,13.2,9.4,60,19,,,,,,TRUE,TRUE,,,,,,,,,,,,,,,,,,,,,,,,,,,METAR,3.0
CWBO 040100Z AUTO 24010G17KT 19/M00 RMK AO1 PK WND 21021/0017 SLP116 T01871002 53003,CWBO,2021-10-04T01:00:00Z,50.53,-111.83,18.7,-0.2,240,10,17,,,1011.6,,TRUE,TRUE,,,,,,,,,,,,,,,,0.3,,,,,,,,,,,METAR,752.0
CWBK 040100Z AUTO 34012KT 12/08 RMK AO1 SLP163 T01200079 51008,CWBK,2021-10-04T01:00:00Z,45.77,-62.67,12.0,7.9,340,12,,,,1016.3,,TRUE,TRUE,,,,,,,,,,,,,,,,0.8,,,,,,,,,,,METAR,2.0
CWBE 040100Z AUTO 07010G15KT 15/13 RMK AO1 SLP135 T01490131 51011,CWBE,2021-10-04T01:00:00Z,45.98,-81.48,14.9,13.1,70,10,15,,,1013.5,,TRUE,TRUE,,,,,,,,,,,,,,,,1.1,,,,,,,,,,,METAR,188.0
CWBA 040100Z AUTO 15002KT 14/12 RMK AO1 T01390115,CWBA,2021-10-04T01:00:00Z,46.72,-79.1,13.9,11.5,150,2,,,,,,TRUE,TRUE,,,,,,,,,,,,,,,,,,,,,,,,,,,METAR,181.0
CWAV 040100Z AUTO 05007KT 11/02 RMK AO1 SLP151 T01060016 53022,CWAV,2021-10-04T01:00:00Z,51.77,-114.67,10.6,1.6,50,7,,,,1015.1,,TRUE,TRUE,,,,,,,,,,,,,,,,2.2,,,,,,,,,,,METAR,1115.0
CWAQ 040100Z AUTO 22008KT 17/M05 RMK AO1 SLP135 T01741047 53002,CWAQ,2021-10-04T01:00:00Z,49.05,-105.48,17.4,-4.7,220,8,,,,1013.5,,TRUE,TRUE,,,,,,,,,,,,,,,,0.2,,,,,,,,,,,METAR,761.0
CWAJ 040100Z AUTO 20003KT 20/19 RMK AO1 SLP098 T01980188 51009,CWAJ,2021-10-04T01:00:00Z,42.25,-81.9,19.8,18.8,200,3,,,,1009.8,,TRUE,TRUE,,,,,,,,,,,,,,,,0.9,,,,,,,,,,,METAR,177.0
CWAF 040100Z AUTO 35006KT 08/06 RMK AO1 T00830060,CWAF,2021-10-04T01:00:00Z,48.07,-69.55,8.3,6.0,350,6,,,,,,TRUE,TRUE,,,,,,,,,,,,,,,,,,,,,,,,,,,METAR,6.0
CWAE 040100Z 00000KT 15SM SCT038 10/05 A3007 RMK CU4 LAST OBS/NEXT 041300UTC SLP188,CWAE,2021-10-04T01:00:00Z,50.13,-122.95,10.0,5.0,0,0,,15.0,30.070866,1018.8,,,,,,,,,,SCT,3800,,,,,,,VFR,,,,,,,,,,,,SPECI,658.0
CTNK 040100Z AUTO 09002KT 11/10 RMK AO1 SLP156 T01080095 51010,CTNK,2021-10-04T01:00:00Z,45.53,-78.27,10.8,9.5,90,2,,,,1015.6,,TRUE,TRUE,,,,,,,,,,,,,,,,1.0,,,,,,,,,,,METAR,405.0
CTCK 040100Z AUTO 06003KT 13/11 RMK AO1 SLP153 T01270111 53007,CTCK,2021-10-04T01:00:00Z,45.25,-74.97,12.7,11.1,60,3,,,,1015.3,,TRUE,TRUE,,,,,,,,,,,,,,,,0.7,,,,,,,,,,,METAR,84.0
CPXL 040100Z AUTO 24007KT 19/M02 RMK AO1 PK WND 25017/0004 T01911017,CPXL,2021-10-04T01:00:00Z,49.87,-111.38,19.1,-1.7,240,7,,,,,,TRUE,TRUE,,,,,,,,,,,,,,,,,,,,,,,,,,,METAR,801.0
CPSV 040100Z AUTO 23006KT 17/M02 RMK AO1 PK WND 24018/0005 T01731017,CPSV,2021-10-04T01:00:00Z,49.92,-110.92,17.3,-1.7,230,6,,,,,,TRUE,TRUE,,,,,,,,,,,,,,,,,,,,,,,,,,,METAR,766.0
CPST 040100Z AUTO 34002KT 17/M05 RMK AO1 T01691052,CPST,2021-10-04T01:00:00Z,51.03,-113.28,16.9,-5.2,340,2,,,,,,TRUE,TRUE,,,,,,,,,,,,,,,,,,,,,,,,,,,METAR,1005.0
CPRY 040100Z AUTO 30005KT 16/M01 RMK AO1 PK WND 02022/0003 T01611011,CPRY,2021-10-04T01:00:00Z,49.48,-112.68,16.1,-1.1,300,5,,,,,,TRUE,TRUE,,,,,,,,,,,,,,,,,,,,,,,,,,,METAR,947.0
CPRO 040100Z AUTO 19003KT 16/02 RMK AO1 T01590016,CPRO,2021-10-04T01:00:00Z,50.83,-112.05,15.9,1.6,190,3,,,,,,TRUE,TRUE,,,,,,,,,,,,,,,,,,,,,,,,,,,METAR,733.0
CPIR 040100Z AUTO 24015KT 17/01 RMK AO1 PK WND 25024/0024 T01660007,CPIR,2021-10-04T01:00:00Z,49.9,-112.73,16.6,0.7,240,15,,,,,,TRUE,TRUE,,,,,,,,,,,,,,,,,,,,,,,,,,,METAR,895.0
CPIN 040100Z AUTO 05013KT ////SM OVC003 03/02 A2943,CPIN,2021-10-04T01:00:00Z,,,3.0,2.0,50,13,,,29.430119,,,TRUE,,,,,,,,OVC,300,,,,,,,,,,,,,,,,,,,METAR,
CPFI 040100Z AUTO 26017KT 19/M00 RMK AO1 PK WND 27029/0004 T01891002,CPFI,2021-10-04T01:00:00Z,49.8,-112.03,18.9,-0.2,260,17,,,,,,TRUE,TRUE,,,,,,,,,,,,,,,,,,,,,,,,,,,METAR,804.0
CPEH 040100Z AUTO 25015KT 18/M01 RMK AO1 PK WND 25028/0018 T01791008,CPEH,2021-10-04T01:00:00Z,50.18,-112.43,17.9,-0.8,250,15,,,,,,TRUE,TRUE,,,,,,,,,,,,,,,,,,,,,,,,,,,METAR,814.0
CPBT 040100Z AUTO 25013KT 16/M02 RMK AO1 PK WND 24024/0015 T01621023,CPBT,2021-10-04T01:00:00Z,49.53,-113.05,16.2,-2.3,250,13,,,,,,TRUE,TRUE,,,,,,,,,,,,,,,,,,,,,,,,,,,METAR,998.0
CMGB 040100Z AUTO 01001KT 11/09 RMK AO1 SLP158 T01090089 51009,CMGB,2021-10-04T01:00:00Z,45.37,-72.77,10.9,8.9,10,1,,,,1015.8,,TRUE,TRUE,,,,,,,,,,,,,,,,0.9,,,,,,,,,,,METAR,87.0
CMFM 040100Z AUTO 00000KT 04/02 RMK AO1 SLP199 T00380023 51015,CMFM,2021-10-04T01:00:00Z,47.32,-71.15,3.8,2.3,0,0,,,,1019.9,,TRUE,TRUE,,,,,,,,,,,,,,,,1.5,,,,,,,,,,,METAR,663.0
CERM 040100Z AUTO 30001KT 08/05 RMK AO1 SLP195 T00820054 52016,CERM,2021-10-04T01:00:00Z,47.42,-68.32,8.2,5.4,300,1,,,,1019.5,,TRUE,TRUE,,,,,,,,,,,,,,,,1.6,,,,,,,,,,,METAR,151.0
CBBC 040100Z AUTO 15004KT 9SM OVC096 08/07 A3014 RMK SLP208,CBBC,2021-10-04T01:00:00Z,52.18,-128.15,8.0,7.0,150,4,,9.0,30.138779,1020.8,,TRUE,,,,,,,,OVC,9600,,,,,,,VFR,,,,,,,,,,,,METAR,36.0
CBAR 040100Z AUTO 02019KT ////SM OVC007 M01/M01 A2986,CBAR,2021-10-04T01:00:00Z,,,-1.0,-1.0,20,19,,,29.861221,,,TRUE,,,,,,,,OVC,700,,,,,,,,,,,,,,,,,,,METAR,
CAHR 040100Z AUTO 34001KT 09/06 RMK AO1 SLP163 T00930057 52007,CAHR,2021-10-04T01:00:00Z,46.35,-63.17,9.3,5.7,340,1,,,,1016.3,,TRUE,TRUE,,,,,,,,,,,,,,,,0.7,,,,,,,,,,,METAR,52.0
BKPR 040100Z 00000KT 8000 NSC 06/05 Q1024 NOSIG,BKPR,2021-10-04T01:00:00Z,42.58,21.03,6.0,5.0,0,0,,4.97,30.236221,,,,,,TRUE,,,,,CLR,,,,,,,,MVFR,,,,,,,,,,,,METAR,545.0
BIRK 040100Z 36009KT 310V010 CAVOK 08/02 Q0997,BIRK,2021-10-04T01:00:00Z,64.13,-21.93,8.0,2.0,360,9,,6.21,29.438976,,,,,,,,,,,CAVOK,,,,,,,,VFR,,,,,,,,,,,,METAR,12.0
BIKF 040100Z 02015KT CAVOK 06/04 Q0997,BIKF,2021-10-04T01:00:00Z,63.98,-22.6,6.0,4.0,20,15,,6.21,29.438976,,,,,,,,,,,CAVOK,,,,,,,,VFR,,,,,,,,,,,,METAR,49.0
BIEG 040100Z 36019KT 9999 OVC012 06/05 Q0992,BIEG,2021-10-04T01:00:00Z,65.27,-14.4,6.0,5.0,360,19,,6.21,29.291338,,,,,,,,,,,OVC,1200,,,,,,,MVFR,,,,,,,,,,,,METAR,20.0
BIAR 040100Z 33011KT 9999 -RA FEW012 OVC016 05/03 Q0999,BIAR,2021-10-04T01:00:00Z,65.67,-18.07,5.0,3.0,330,11,,6.21,29.498032,,,,,,,,,,-RA,FEW,1200,OVC,1600,,,,,MVFR,,,,,,,,,,,,METAR,1.0
AYPY 040100Z VRB05KT 9999 FEW025 SCT030 SCT040 32/25 Q1008,AYPY,2021-10-04T01:00:00Z,-9.43,147.22,32.0,25.0,0,5,,6.21,29.763779,,,,,,,,,,,FEW,2500,SCT,3000,SCT,4000,,,VFR,,,,,,,,,,,,METAR,44.0
AYNZ 040100Z VRB03KT 9999 HZ SCT035 SCT060 29/25 Q1008,AYNZ,2021-10-04T01:00:00Z,-6.57,146.72,29.0,25.0,0,3,,6.21,29.763779,,,,,,,,,,HZ,SCT,3500,SCT,6000,,,,,VFR,,,,,,,,,,,,METAR,74.0
AYMH 040100Z VRB03KT 9999 HZ SCT030 22/15 Q1019,AYMH,2021-10-04T01:00:00Z,-5.83,144.3,22.0,15.0,0,3,,6.21,30.088583,,,,,,,,,,HZ,SCT,3000,,,,,,,VFR,,,,,,,,,,,,METAR,1634.0
ANYN 040100Z 04010KT 9999 FEW020 30/24 Q1007,ANYN,2021-10-04T01:00:00Z,-0.55,166.92,30.0,24.0,40,10,,6.21,29.734253,,,,,,,,,,,FEW,2000,,,,,,,VFR,,,,,,,,,,,,METAR,7.0
AGGH 040100Z 02008KT 9999 FEW020 FEW021CB SCT300 31/26 Q1006,AGGH,2021-10-04T01:00:00Z,-9.42,160.05,31.0,26.0,20,8,,6.21,29.704725,,,,,,,,,,,FEW,2000,FEW,2100,SCT,30000,,,VFR,,,,,,,,,,,,METAR,6.0
RODE 040059Z AUTO 07016G21KT 8SM CLR 30/21 A3009 RMK AO2 SLP231 T03000211,RODE,2021-10-04T00:59:00Z,26.72,127.77,30.0,21.1,70,16,21,8.0,30.088583,1023.1,,TRUE,TRUE,,,,,,,CLR,,,,,,,,VFR,,,,,,,,,,,,METAR,73.0
MTPP 040059Z AUTO 13007KT 9000 ////// 25/21 Q1012 A2988 NOSIG,MTPP,2021-10-04T00:59:00Z,18.57,-72.3,25.0,21.0,130,7,,5.59,29.88189,,,TRUE,,,TRUE,,,,,,,,,,,,,,,,,,,,,,,,,METAR,36.0
KPHD 040059Z AUTO 00000KT 2 1/2SM -TSRA BR BKN008 BKN013 OVC021 20/20 A2990 RMK AO2 VIS 1 1/4V5 TSB54 P0001 T02000200,KPHD,2021-10-04T00:59:00Z,40.47,-81.42,20.0,20.0,0,0,,2.5,29.899607,,,TRUE,TRUE,,,,,,-TSRA BR,BKN,800,BKN,1300,OVC,2100,,,IFR,,,,,,0.01,,,,,,METAR,272.0
KP92 040059Z AUTO VRB03KT 27/24 A2993 RMK AO1 SLP135 T02670244 $,KP92,2021-10-04T00:59:00Z,29.57,-91.53,26.7,24.4,0,3,,,29.929134,1013.5,,TRUE,TRUE,TRUE,,,,,,,,,,,,,,,,,,,,,,,,,,METAR,1.0
KNOZ 040059Z AUTO 29008KT 10SM CLR 34/02 A2984 RMK AO2 SLP053 T03440022 ,KNOZ,2021-10-04T00:59:00Z,32.53,-114.5,34.4,2.2,290,8,,10.0,29.840551,1005.3,,TRUE,TRUE,,,,,,,CLR,,,,,,,,VFR,,,,,,,,,,,,METAR,78.0
KNGU 040059Z 19008KT 10SM BKN240 25/17 A3000 RMK AO2 SLP159 T02500167 $,KNGU,2021-10-04T00:59:00Z,36.93,-76.27,25.0,16.7,190,8,,10.0,30.0,1015.9,,,TRUE,TRUE,,,,,,BKN,24000,,,,,,,VFR,,,,,,,,,,,,SPECI,3.0
KDLH 040059Z 00000KT 1SM R09/4000VP6000FT BR SCT002 BKN010 13/13 A2998 RMK AO2 T01330128 $,KDLH,2021-10-04T00:59:00Z,46.85,-92.2,13.3,12.8,0,0,,1.0,29.97933,,,,TRUE,TRUE,,,,,BR,SCT,200,BKN,1000,,,,,IFR,,,,,,,,,,,,METAR,434.0
RKSY 040058Z AUTO 00000KT 9000 HZ BKN028 BKN046 OVC140 M A3012 RMK AO2 SLPNO $,RKSY,2021-10-04T00:58:00Z,37.52,126.97,,,0,0,,5.59,30.121063,,,TRUE,TRUE,TRUE,,,,,HZ,BKN,2800,BKN,4600,OVC,14000,,,MVFR,,,,,,,,,,,,METAR,16.0
RKSO 040058Z 14004KT 6SM HZ SCT035 BKN047 BKN190 23/21 A3013 RMK AO2A SLP206 T02300209 TSNO $,RKSO,2021-10-04T00:58:00Z,37.08,127.02,23.0,20.9,140,4,,6.0,30.129921,1020.6,,,TRUE,TRUE,,TRUE,,,HZ,SCT,3500,BKN,4700,BKN,19000,,,VFR,,,,,,,,,,,,METAR,10.0
PAFB 040058Z AUTO 22007KT 7SM -SN OVC005 00/M00 A3003 RMK AO2 SNE18SNB19E29SNB38 SLP177 P0000 T00021003 $,PAFB,2021-10-04T00:58:00Z,64.83,-147.62,0.2,-0.3,220,7,,7.0,30.029528,1017.7,,TRUE,TRUE,TRUE,,,,,-SN,OVC,500,,,,,,,IFR,,,,,,0.005,,,,,,METAR,137.0
OKAS 040058Z AUTO 30006KT 9999 CLR 27/M04 A2971 RMK AO2 SLP055 T02651042 $,OKAS,2021-10-04T00:58:00Z,29.35,47.52,26.5,-4.2,300,6,,6.21,29.71063,1005.5,,TRUE,TRUE,TRUE,,,,,,CLR,,,,,,,,VFR,,,,,,,,,,,,METAR,144.0
MHSC 040058Z AUTO 36014G24KT 9999 FEW110 SCT130 26/22 M RMK AO2 SLPNO T02580223 PNO FZRANO TSNO $,MHSC,2021-10-04T00:58:00Z,14.37,-87.62,25.8,22.3,360,14,24,6.21,,,,TRUE,TRUE,TRUE,,TRUE,TRUE,,,FEW,11000,SCT,13000,,,,,VFR,,,,,,,,,,,,METAR,628.0
KVBG 040058Z AUTO 33007KT 10SM CLR 17/12 A2991 RMK AO2 VIS 1 1/2 RWY12 CIG 001 RWY12 SLP132 T01650123 $,KVBG,2021-10-04T00:58:00Z,34.73,-120.58,16.5,12.3,330,7,,10.0,29.911417,1013.2,,TRUE,TRUE,TRUE,,,,,,CLR,,,,,,,,VFR,,,,,,,,,,,,METAR,96.0
KTCM 040058Z AUTO 03007KT 10SM SCT013 OVC030 14/11 A3010 RMK AO2 SLP197 T01350110 $,KTCM,2021-10-04T00:58:00Z,47.13,-122.47,13.5,11.0,30,7,,10.0,30.100393,1019.7,,TRUE,TRUE,TRUE,,,,,,SCT,1300,OVC,3000,,,,,MVFR,,,,,,,,,,,,METAR,87.0
KT70 040058Z AUTO 09005KT 10SM BKN100 OVC250 27/21 A2993 RMK AO2 SLP124 T02650212,KT70,2021-10-04T00:58:00Z,29.12,-100.48,26.5,21.2,90,5,,10.0,29.929134,1012.4,,TRUE,TRUE,,,,,,,BKN,10000,OVC,25000,,,,,VFR,,,,,,,,,,,,METAR,296.0
KSXS 040058Z AUTO 29003KT 10SM SCT085 SCT150 23/20 A3000 RMK AO2 SLP158 T02320202,KSXS,2021-10-04T00:58:00Z,31.37,-85.85,23.2,20.2,290,3,,10.0,30.0,1015.8,,TRUE,TRUE,,,,,,,SCT,8500,SCT,15000,,,,,VFR,,,,,,,,,,,,METAR,120.0
KSUU 040058Z AUTO 08004KT 10SM CLR 32/06 A2988 RMK AO2 SLP125 T03200062 $,KSUU,2021-10-04T00:58:00Z,38.27,-121.93,32.0,6.2,80,4,,10.0,29.878937,1012.5,,TRUE,TRUE,TRUE,,,,,,CLR,,,,,,,,VFR,,,,,,,,,,,,METAR,9.0
KSLI 040058Z AUTO 30006KT 10SM CLR 29/06 A2986 RMK AO2 SLP114 T02890057 $,KSLI,2021-10-04T00:58:00Z,33.78,-118.03,28.9,5.7,300,6,,10.0,29.861221,1011.4,,TRUE,TRUE,TRUE,,,,,,CLR,,,,,,,,VFR,,,,,,,,,,,,METAR,8.0
KSKA 040058Z AUTO 17005KT 10SM CLR 18/05 A3001 RMK AO2 SLP167 T01830048 $,KSKA,2021-10-04T00:58:00Z,47.62,-117.67,18.3,4.8,170,5,,10.0,30.008858,1016.7,,TRUE,TRUE,TRUE,,,,,,CLR,,,,,,,,VFR,,,,,,,,,,,,METAR,754.0
KSEQ 040058Z AUTO 06005KT 10SM OVC240 26/19 A3001 RMK AO2 SLP159 T02590189,KSEQ,2021-10-04T00:58:00Z,29.57,-97.9,25.9,18.9,60,5,,10.0,30.008858,1015.9,,TRUE,TRUE,,,,,,,OVC,24000,,,,,,,VFR,,,,,,,,,,,,METAR,160.0
KROG 040058Z AUTO 00000KT 10SM SCT055 20/16 A3003 RMK AO2 SLP159 T02000156,KROG,2021-10-04T00:58:00Z,36.37,-94.1,20.0,15.6,0,0,,10.0,30.029528,1015.9,,TRUE,TRUE,,,,,,,SCT,5500,,,,,,,VFR,,,,,,,,,,,,METAR,407.0
KRIV 040058Z 29008KT 10SM FEW200 FEW300 31/06 A2990 RMK AO2A SLPNO ALSTG ESTMD,KRIV,2021-10-04T00:58:00Z,33.87,-117.23,31.0,6.0,290,8,,10.0,29.899607,,,,TRUE,,,,,,,FEW,20000,FEW,30000,,,,,VFR,,,,,,,,,,,,SPECI,454.0
KPOE 040058Z AUTO 00000KT 10SM CLR 24/23 A2994 RMK AO2 SLP138 T02400231,KPOE,2021-10-04T00:58:00Z,31.05,-93.2,24.0,23.1,0,0,,10.0,29.940945,1013.8,,TRUE,TRUE,,,,,,,CLR,,,,,,,,VFR,,,,,,,,,,,,METAR,98.0
KMUO 040058Z AUTO 16003KT 10SM CLR 25/M04 A3002 RMK AO2 SLP156 T02481036 RVRNO VISNO RWY30 $,KMUO,2021-10-04T00:58:00Z,43.03,-115.87,24.8,-3.6,160,3,,10.0,30.02067,1015.6,,TRUE,TRUE,TRUE,,,,,,CLR,,,,,,,,VFR,,,,,,,,,,,,METAR,915.0
KMUI 040058Z AUTO 00000KT 10SM SCT055 OVC090 21/19 A2991 RMK AO2 DZE58 SLP130 $,KMUI,2021-10-04T00:58:00Z,40.43,-76.57,21.0,19.0,0,0,,10.0,29.911417,1013.0,,TRUE,TRUE,TRUE,,,,,,SCT,5500,OVC,9000,,,,,VFR,,,,,,,,,,,,METAR,146.0
KMRH 040058Z AUTO 19007KT 10SM CLR 24/16 A3005 RMK AO2 SLP174 T02390156,KMRH,2021-10-04T00:58:00Z,34.73,-76.65,23.9,15.6,190,7,,10.0,30.050198,1017.4,,TRUE,TRUE,,,,,,,CLR,,,,,,,,VFR,,,,,,,,,,,,METAR,2.0
KMNE 040058Z AUTO 00000KT 10SM SCT055 22/21 A2996 RMK AO2,KMNE,2021-10-04T00:58:00Z,32.65,-93.3,22.0,21.0,0,0,,10.0,29.958662,,,TRUE,TRUE,,,,,,,SCT,5500,,,,,,,VFR,,,,,,,,,,,,METAR,84.0
KMEI 040058Z 23003KT 10SM OVC015 23/22 A2998 RMK AO2 PRESRR SLP148 T02330217,KMEI,2021-10-04T00:58:00Z,32.33,-88.75,23.3,21.7,230,3,,10.0,29.97933,1014.8,,,TRUE,,,,,,,OVC,1500,,,,,,,MVFR,,,,,,,,,,,,METAR,90.0
KLUF 040058Z AUTO 00000KT 10SM CLR 33/07 A2986 RMK AO2 SLP100 T03330065 $,KLUF,2021-10-04T00:58:00Z,33.53,-112.37,33.3,6.5,0,0,,10.0,29.861221,1010.0,,TRUE,TRUE,TRUE,,,,,,CLR,,,,,,,,VFR,,,,,,,,,,,,METAR,333.0
KLSV 040058Z AUTO 00000KT 10SM FEW160 33/M02 A2993 RMK AO2 SLP116 T03251018 $,KLSV,2021-10-04T00:58:00Z,36.23,-115.05,32.5,-1.8,0,0,,10.0,29.929134,1011.6,,TRUE,TRUE,TRUE,,,,,,FEW,16000,,,,,,,VFR,,,,,,,,,,,,METAR,563.0
KLOR 040058Z AUTO 00000KT 10SM SCT080 BKN150 22/20 A3001 RMK AO2 SLP144 T02160200,KLOR,2021-10-04T00:58:00Z,31.35,-85.75,21.6,20.0,0,0,,10.0,30.008858,1014.4,,TRUE,TRUE,,,,,,,SCT,8000,BKN,15000,,,,,VFR,,,,,,,,,,,,METAR,92.0
KLGF 040058Z AUTO 24007KT 9SM CLR 35/02 A2983 RMK AO2 SLP098 T03450016 $,KLGF,2021-10-04T00:58:00Z,32.87,-114.4,34.5,1.6,240,7,,9.0,29.828741,1009.8,,TRUE,TRUE,TRUE,,,,,,CLR,,,,,,,,VFR,,,,,,,,,,,,METAR,118.0
KINS 040058Z AUTO 12006KT 10SM CLR 29/M04 A3000 RMK AO2 SLP123 T02921043 $,KINS,2021-10-04T00:58:00Z,36.58,-115.68,29.2,-4.3,120,6,,10.0,30.0,1012.3,,TRUE,TRUE,TRUE,,,,,,CLR,,,,,,,,VFR,,,,,,,,,,,,METAR,954.0
KHUA 040058Z AUTO 00000KT 10SM OVC035 21/21 A2997 RMK AO2 LTG DSNT SW SLP145 T02120207,KHUA,2021-10-04T00:58:00Z,34.68,-86.68,21.2,20.7,0,0,,10.0,29.970472,1014.5,,TRUE,TRUE,,,,,,,OVC,3500,,,,,,,VFR,,,,,,,,,,,,METAR,200.0
KHMN 040058Z AUTO 04003KT 10SM CLR 24/08 A3016 RMK AO2 SLP165 T02410077 $,KHMN,2021-10-04T00:58:00Z,32.85,-106.1,24.1,7.7,40,3,,10.0,30.159449,1016.5,,TRUE,TRUE,TRUE,,,,,,CLR,,,,,,,,VFR,,,,,,,,,,,,METAR,1240.0
KHLR 040058Z AUTO 03003KT 10SM CLR 25/16 A3000 RMK AO2 SLP150 T02470164 $,KHLR,2021-10-04T00:58:00Z,31.13,-97.72,24.7,16.4,30,3,,10.0,30.0,1015.0,,TRUE,TRUE,TRUE,,,,,,CLR,,,,,,,,VFR,,,,,,,,,,,,METAR,271.0
KHIF 040058Z AUTO 34004KT 10SM CLR 22/00 A3017 RMK AO2 SLP180 T02150001,KHIF,2021-10-04T00:58:00Z,41.12,-111.97,21.5,0.1,340,4,,10.0,30.171259,1018.0,,TRUE,TRUE,,,,,,,CLR,,,,,,,,VFR,,,,,,,,,,,,METAR,1461.0
KHEY 040058Z AUTO 09003KT 10SM CLR 23/20 A2999 RMK AO2 SLP155 T02330201,KHEY,2021-10-04T00:58:00Z,31.35,-85.65,23.3,20.1,90,3,,10.0,29.991142,1015.5,,TRUE,TRUE,,,,,,,CLR,,,,,,,,VFR,,,,,,,,,,,,METAR,95.0
KGXF 040058Z AUTO 28005KT 9SM CLR 34/05 A2984 RMK AO2 SLP094 T03360052,KGXF,2021-10-04T00:58:00Z,32.88,-112.72,33.6,5.2,280,5,,9.0,29.840551,1009.4,,TRUE,TRUE,,,,,,,CLR,,,,,,,,VFR,,,,,,,,,,,,METAR,261.0
KGXA 040058Z AUTO 36005KT 10SM CLR 29/M03 A2996 RMK AO2 SLP120 WND DATA ESTMD T02941027,KGXA,2021-10-04T00:58:00Z,34.57,-117.67,29.4,-2.7,360,5,,10.0,29.958662,1012.0,,TRUE,TRUE,,,,,,,CLR,,,,,,,,VFR,,,,,,,,,,,,METAR,927.0
KGUR 040058Z AUTO 34003KT 5SM HZ CLR 19/M06 A3011 RMK AO2 SLP187 T01851058,KGUR,2021-10-04T00:58:00Z,42.25,-104.72,18.5,-5.8,340,3,,5.0,30.109253,1018.7,,TRUE,TRUE,,,,,,HZ,CLR,,,,,,,,MVFR,,,,,,,,,,,,METAR,1341.0
KGRF 040058Z AUTO 36004KT 10SM BKN013 BKN023 OVC032 14/11 A3009 RMK AO2 CIG 013V023 SLP193 T01400108 $,KGRF,2021-10-04T00:58:00Z,47.07,-122.57,14.0,10.8,360,4,,10.0,30.088583,1019.3,,TRUE,TRUE,TRUE,,,,,,BKN,1300,BKN,2300,OVC,3200,,,MVFR,,,,,,,,,,,,METAR,91.0
KGOV 040058Z AUTO 00000KT 10SM FEW016 BKN028 OVC037 18/18 A2986 RMK AO2 SLP115 T01840178 $,KGOV,2021-10-04T00:58:00Z,44.68,-84.73,18.4,17.8,0,0,,10.0,29.861221,1011.5,,TRUE,TRUE,TRUE,,,,,,FEW,1600,BKN,2800,OVC,3700,,,MVFR,,,,,,,,,,,,METAR,350.0
KGFL 040058Z AUTO 31003KT 2 1/2SM -RA BR BKN009 OVC028 16/15 A2996 RMK AO2 CIG 008V015 P0000 T01560150,KGFL,2021-10-04T00:58:00Z,43.33,-73.62,15.6,15.0,310,3,,2.5,29.958662,,,TRUE,TRUE,,,,,,-RA BR,BKN,900,OVC,2800,,,,,IFR,,,,,,0.005,,,,,,METAR,99.0
KFHU 040058Z AUTO 22005KT 10SM CLR 25/05 A3012 RMK AO2 SLP136 T02480049,KFHU,2021-10-04T00:58:00Z,31.58,-110.35,24.8,4.9,220,5,,10.0,30.121063,1013.6,,TRUE,TRUE,,,,,,,CLR,,,,,,,,VFR,,,,,,,,,,,,METAR,1424.0
KFEW 040058Z AUTO 32004KT 10SM BKN120 17/M08 A3024 RMK AO2 SLP208 T01651082 $,KFEW,2021-10-04T00:58:00Z,41.13,-104.87,16.5,-8.2,320,4,,10.0,30.239174,1020.8,,TRUE,TRUE,TRUE,,,,,,BKN,12000,,,,,,,VFR,,,,,,,,,,,,METAR,1877.0
KEUF 040058Z AUTO VRB03KT 9SM -RA FEW038 OVC075 22/19 A3002 RMK AO2 SLP162 P0019 T02170194,KEUF,2021-10-04T00:58:00Z,31.95,-85.13,21.7,19.4,0,3,,9.0,30.02067,1016.2,,TRUE,TRUE,,,,,,-RA,FEW,3800,OVC,7500,,,,,VFR,,,,,,0.19,,,,,,METAR,87.0
KEDW 040058Z AUTO 00000KT 10SM CLR 31/M03 A2993 RMK AO2 SLP117 T03111029,KEDW,2021-10-04T00:58:00Z,34.9,-117.87,31.1,-2.9,0,0,,10.0,29.929134,1011.7,,TRUE,TRUE,,,,,,,CLR,,,,,,,,VFR,,,,,,,,,,,,METAR,698.0
KDMA 040058Z AUTO 33003KT 10SM CLR 29/07 A2996 RMK AO2 SLP107 T02880074 $,KDMA,2021-10-04T00:58:00Z,32.17,-110.88,28.8,7.4,330,3,,10.0,29.958662,1010.7,,TRUE,TRUE,TRUE,,,,,,CLR,,,,,,,,VFR,,,,,,,,,,,,METAR,804.0
KCWN 040058Z AUTO 16004KT 10SM CLR 17/M01 M RMK AO2 SLPNO T01731009 $,KCWN,2021-10-04T00:58:00Z,38.75,-104.85,17.3,-0.9,160,4,,10.0,,,,TRUE,TRUE,TRUE,,,,,,CLR,,,,,,,,VFR,,,,,,,,,,,,METAR,2040.0
KCVS 040058Z 00000KT 10SM CLR 22/04 A3017 RMK AO2A SLP182 T02210037 $,KCVS,2021-10-04T00:58:00Z,34.37,-103.32,22.1,3.7,0,0,,10.0,30.171259,1018.2,,,TRUE,TRUE,,,,,,CLR,,,,,,,,VFR,,,,,,,,,,,,METAR,1305.0
KCMY 040058Z AUTO 31006KT 10SM FEW020 OVC027 18/16 A2992 RMK AO2 LTG DSNT SE SLP133 T01830159,KCMY,2021-10-04T00:58:00Z,43.97,-90.73,18.3,15.9,310,6,,10.0,29.920275,1013.3,,TRUE,TRUE,,,,,,,FEW,2000,OVC,2700,,,,,MVFR,,,,,,,,,,,,METAR,253.0
KBYS 040058Z AUTO 16009KT 9SM CLR 30/M04 A2996 RMK AO2 SLP123 T03001039 $,KBYS,2021-10-04T00:58:00Z,35.28,-116.63,30.0,-3.9,160,9,,9.0,29.958662,1012.3,,TRUE,TRUE,TRUE,,,,,,CLR,,,,,,,,VFR,,,,,,,,,,,,METAR,717.0
KBKF 040058Z 08006KT 10SM FEW100 19/M05 A3020 RMK AO2A SLP183 T01871047,KBKF,2021-10-04T00:58:00Z,39.72,-104.75,18.7,-4.7,80,6,,10.0,30.200787,1018.3,,,TRUE,,,,,,,FEW,10000,,,,,,,VFR,,,,,,,,,,,,METAR,1703.0
KBIF 040058Z AUTO 00000KT 10SM CLR 26/06 A3010 RMK AO2 SLP140 T02640059 $,KBIF,2021-10-04T00:58:00Z,31.85,-106.38,26.4,5.9,0,0,,10.0,30.100393,1014.0,,TRUE,TRUE,TRUE,,,,,,CLR,,,,,,,,VFR,,,,,,,,,,,,METAR,1201.0
KAPG 040058Z AUTO 00000KT 1/2SM R22/1200FT FG SCT190 19/18 A2990 RMK AO2 SLP128 T01910182 $,KAPG,2021-10-04T00:58:00Z,39.47,-76.17,19.1,18.2,0,0,,0.5,29.899607,1012.8,,TRUE,TRUE,TRUE,,,,,FG,SCT,19000,,,,,,,LIFR,,,,,,,,,,,,METAR,18.0
KAFF 040058Z AUTO 05004KT 10SM CLR 17/M02 A3024 RMK AO2 SLP201 T01681023,KAFF,2021-10-04T00:58:00Z,38.97,-104.82,16.8,-2.3,50,4,,10.0,30.239174,1020.1,,TRUE,TRUE,,,,,,,CLR,,,,,,,,VFR,,,,,,,,,,,,METAR,2003.0
KABH 040058Z AUTO 07009KT 9SM CLR 17/M07 A3024 RMK AO2 SLP208 T01661071,KABH,2021-10-04T00:58:00Z,38.75,-104.3,16.6,-7.1,70,9,,9.0,30.239174,1020.8,,TRUE,TRUE,,,,,,,CLR,,,,,,,,VFR,,,,,,,,,,,,METAR,1838.0
K9L2 040058Z AUTO 00000KT 7SM CLR 31/M06 A2994 RMK AO2 SLP121 T03091057 $,K9L2,2021-10-04T00:58:00Z,34.98,-117.87,30.9,-5.7,0,0,,7.0,29.940945,1012.1,,TRUE,TRUE,TRUE,,,,,,CLR,,,,,,,,VFR,,,,,,,,,,,,METAR,697.0
K1YT 040058Z AUTO 19003KT 10SM CLR 22/04 A2996 RMK AO2 SLPNO T02210041 $,K1YT,2021-10-04T00:58:00Z,46.67,-120.45,22.1,4.1,190,3,,10.0,29.958662,,,TRUE,TRUE,TRUE,,,,,,CLR,,,,,,,,VFR,,,,,,,,,,,,METAR,423.0
K1OW 040058Z AUTO 01007KT 10SM CLR 17/M08 A3018 RMK AO2 SLP187 T01701078 $,K1OW,2021-10-04T00:58:00Z,40.88,-104.0,17.0,-7.8,10,7,,10.0,30.180119,1018.7,,TRUE,TRUE,TRUE,,,,,,CLR,,,,,,,,VFR,,,,,,,,,,,,METAR,1650.0
K1OM 040058Z AUTO 27003KT 10SM CLR 22/01 A3000 RMK AO2 SLP141 T02160013 $,K1OM,2021-10-04T00:58:00Z,47.33,-108.93,21.6,1.3,270,3,,10.0,30.0,1014.1,,TRUE,TRUE,TRUE,,,,,,CLR,,,,,,,,VFR,,,,,,,,,,,,METAR,1088.0
K1NW 040058Z AUTO 04006KT 10SM CLR 16/M06 A3013 RMK AO2 SLP179 T01611059 $,K1NW,2021-10-04T00:58:00Z,40.63,-103.83,16.1,-5.9,40,6,,10.0,30.129921,1017.9,,TRUE,TRUE,TRUE,,,,,,CLR,,,,,,,,VFR,,,,,,,,,,,,METAR,1461.0
K1MW 040058Z AUTO 04009KT 10SM CLR 17/M08 A3012 RMK AO2 SLP190 T01721078 $,K1MW,2021-10-04T00:58:00Z,40.7,-103.48,17.2,-7.8,40,9,,10.0,30.121063,1019.0,,TRUE,TRUE,TRUE,,,,,,CLR,,,,,,,,VFR,,,,,,,,,,,,METAR,1338.0
K1MM 040058Z AUTO 00000KT 10SM FEW140 17/M03 A3005 RMK AO2 SLP169 T01721031 $,K1MM,2021-10-04T00:58:00Z,47.02,-109.63,17.2,-3.1,0,0,,10.0,30.050198,1016.9,,TRUE,TRUE,TRUE,,,,,,FEW,14000,,,,,,,VFR,,,,,,,,,,,,METAR,1256.0
K1KM 040058Z AUTO 27005KT 10SM CLR 20/M09 A3007 RMK AO2 SLP166 T02041088 $,K1KM,2021-10-04T00:58:00Z,46.45,-109.8,20.4,-8.8,270,5,,10.0,30.070866,1016.6,,TRUE,TRUE,TRUE,,,,,,CLR,,,,,,,,VFR,,,,,,,,,,,,METAR,1332.0
K1J0 040058Z AUTO 00000KT 10SM FEW120 23/20 A3000 RMK AO2 SLP117 T02280200,K1J0,2021-10-04T00:58:00Z,30.85,-85.6,22.8,20.0,0,0,,10.0,30.0,1011.7,,TRUE,TRUE,,,,,,,FEW,12000,,,,,,,VFR,,,,,,,,,,,,METAR,26.0
K1HW 040058Z AUTO 36006KT 10SM CLR 18/M04 A3011 RMK AO2 SLP185 T01821044 $,K1HW,2021-10-04T00:58:00Z,41.32,-102.83,18.2,-4.4,360,6,,10.0,30.109253,1018.5,,TRUE,TRUE,TRUE,,,,,,CLR,,,,,,,,VFR,,,,,,,,,,,,METAR,1265.0
K1GM 040058Z AUTO 26010KT 10SM CLR 19/M01 A3003 RMK AO2 SLP152 T01881015 $,K1GM,2021-10-04T00:58:00Z,47.33,-112.1,18.8,-1.5,260,10,,10.0,30.029528,1015.2,,TRUE,TRUE,TRUE,,,,,,CLR,,,,,,,,VFR,,,,,,,,,,,,METAR,1317.0
K1EW 040058Z AUTO 36006KT 10SM CLR 16/M08 A3018 RMK AO2 SLP202 T01631077 $,K1EW,2021-10-04T00:58:00Z,41.12,-103.98,16.3,-7.7,360,6,,10.0,30.180119,1020.2,,TRUE,TRUE,TRUE,,,,,,CLR,,,,,,,,VFR,,,,,,,,,,,,METAR,1609.0
K1DW 040058Z AUTO 36004KT 10SM CLR 18/M07 A3019 RMK AO2 SLP191 T01821074 $,K1DW,2021-10-04T00:58:00Z,41.37,-103.8,18.2,-7.4,360,4,,10.0,30.188976,1019.1,,TRUE,TRUE,TRUE,,,,,,CLR,,,,,,,,VFR,,,,,,,,,,,,METAR,1539.0
K1CW 040058Z AUTO 08004KT 10SM CLR 21/M08 A3016 RMK AO2 SLP178 T02091076 TSNO $,K1CW,2021-10-04T00:58:00Z,41.58,-103.57,20.9,-7.6,80,4,,10.0,30.159449,1017.8,,TRUE,TRUE,TRUE,,TRUE,,,,CLR,,,,,,,,VFR,,,,,,,,,,,,METAR,1370.0
K1BW 040058Z AUTO 31005KT 10SM CLR 17/M10 A3019 RMK AO2 SLP184 T01671099 $,K1BW,2021-10-04T00:58:00Z,41.52,-104.0,16.7,-9.9,310,5,,10.0,30.188976,1018.4,,TRUE,TRUE,TRUE,,,,,,CLR,,,,,,,,VFR,,,,,,,,,,,,METAR,1606.0
K1AW 040058Z AUTO 33010KT 10SM CLR 14/M10 A3017 RMK AO2 SLP195 T01441097 $,K1AW,2021-10-04T00:58:00Z,41.33,-104.27,14.4,-9.7,330,10,,10.0,30.171259,1019.5,,TRUE,TRUE,TRUE,,,,,,CLR,,,,,,,,VFR,,,,,,,,,,,,METAR,1670.0
K1AM 040058Z AUTO 21007KT 10SM CLR 20/M01 A3003 RMK AO2 SLP109 T01981008 $,K1AM,2021-10-04T00:58:00Z,47.28,-110.8,19.8,-0.8,210,7,,10.0,30.029528,1010.9,,TRUE,TRUE,TRUE,,,,,,CLR,,,,,,,,VFR,,,,,,,,,,,,METAR,1228.0
RCSS 040057Z 10018KT 9999 FEW020 32/18 Q1014 NOSIG RMK A2995,RCSS,2021-10-04T00:57:00Z,25.07,121.55,32.0,18.0,100,18,,6.21,29.940945,,,,,,TRUE,,,,,FEW,2000,,,,,,,VFR,,,,,,,,,,,,METAR,8.0
PHNG 040057Z 08008KT 10SM FEW025 27/21 A2986 RMK AO2 SLP107 T02720206 $,PHNG,2021-10-04T00:57:00Z,21.43,-157.77,27.2,20.6,80,8,,10.0,29.861221,1010.7,,,TRUE,TRUE,,,,,,FEW,2500,,,,,,,VFR,,,,,,,,,,,,METAR,1.0
PAQT 040057Z 00000KT 10SM UP OVC095 M04/M06 A3019 RMK (SCC FSS),PAQT,2021-10-04T00:57:00Z,70.22,-151.0,-4.0,-6.0,0,0,,10.0,30.188976,,,,,,,,,,UP,OVC,9500,,,,,,,VFR,,,,,,,,,,,,METAR,11.0
KPNM 040057Z AUTO 00000KT 10SM 14/11 A2998 RMK AO2 P0001,KPNM,2021-10-04T00:57:00Z,45.53,-93.6,14.0,11.0,0,0,,10.0,29.97933,,,TRUE,TRUE,,,,,,,,,,,,,,,,,,,,,0.01,,,,,,METAR,298.0
KNYL 040057Z AUTO 27004KT 10SM CLR 34/04 A2982 RMK AO2 SLP096 T03390044 $,KNYL,2021-10-04T00:57:00Z,32.65,-114.62,33.9,4.4,270,4,,10.0,29.819881,1009.6,,TRUE,TRUE,TRUE,,,,,,CLR,,,,,,,,VFR,,,,,,,,,,,,METAR,58.0
KNJM 040057Z AUTO 19007KT 10SM CLR 24/16 A3005 RMK AO2 SLP180 T02440156,KNJM,2021-10-04T00:57:00Z,34.68,-77.02,24.4,15.6,190,7,,10.0,30.050198,1018.0,,TRUE,TRUE,,,,,,,CLR,,,,,,,,VFR,,,,,,,,,,,,METAR,5.0
KFLG 040057Z 13003KT 10SM FEW070 17/03 A3029 RMK AO2 SLP196 T01720033,KFLG,2021-10-04T00:57:00Z,35.13,-111.67,17.2,3.3,130,3,,10.0,30.28937,1019.6,,,TRUE,,,,,,,FEW,7000,,,,,,,VFR,,,,,,,,,,,,METAR,2134.0
KAQV 040057Z AUTO 00000KT 5SM BR CLR 23/22 A2994 RMK AO2 SLP136 T02280217,KAQV,2021-10-04T00:57:00Z,31.4,-93.3,22.8,21.7,0,0,,5.0,29.940945,1013.6,,TRUE,TRUE,,,,,,BR,CLR,,,,,,,,MVFR,,,,,,,,,,,,METAR,123.0
TJSJ 040056Z 10005KT 10SM FEW033 FEW055 29/23 A2995 RMK AO2 SLP140 T02890233 $,TJSJ,2021-10-04T00:56:00Z,18.43,-66.02,28.9,23.3,100,5,,10.0,29.949802,1014.0,,,TRUE,TRUE,,,,,,FEW,3300,FEW,5500,,,,,VFR,,,,,,,,,,,,METAR,3.0
RODN 040056Z AUTO 07017G23KT 10SM SCT031 SCT043 29/22 A3005 RMK AO2 PK WND 05026/49 SLP181 T02930215 $,RODN,2021-10-04T00:56:00Z,26.35,127.77,29.3,21.5,70,17,23,10.0,30.050198,1018.1,,TRUE,TRUE,TRUE,,,,,,SCT,3100,SCT,4300,,,,,VFR,,,,,,,,,,,,METAR,38.0
RKSG 040056Z 13004KT 6SM HZ FEW043 BKN050 23/17 A3014 RMK AO2A SLPNO $,RKSG,2021-10-04T00:56:00Z,36.97,127.02,23.0,17.0,130,4,,6.0,30.138779,,,,TRUE,TRUE,,,,,HZ,FEW,4300,BKN,5000,,,,,VFR,,,,,,,,,,,,METAR,12.0
RKJK 040056Z 21010KT 10SM OVC030 27/21 A3014 RMK AO2A SLP210 T02710209 $,RKJK,2021-10-04T00:56:00Z,35.9,126.62,27.1,20.9,210,10,,10.0,30.138779,1021.0,,,TRUE,TRUE,,,,,,OVC,3000,,,,,,,MVFR,,,,,,,,,,,,METAR,8.0
RJTY 040056Z AUTO 14004KT 10SM CLR 25/18 A3035 RMK AO2 SLP276 T02470177 FZRANO $,RJTY,2021-10-04T00:56:00Z,35.75,139.33,24.7,17.7,140,4,,10.0,30.351377,1027.6,,TRUE,TRUE,TRUE,,,TRUE,,,CLR,,,,,,,,VFR,,,,,,,,,,,,METAR,136.0
PPIZ 040056Z AUTO 05010KT 10SM CLR M08/M11 A3016 RMK AO2 SLP215 T10831106 FZRANO PNO $,PPIZ,2021-10-04T00:56:00Z,69.73,-163.0,-8.3,-10.6,50,10,,10.0,30.159449,1021.5,,TRUE,TRUE,TRUE,,,TRUE,,,CLR,,,,,,,,VFR,,,,,,,,,,,,METAR,5.0
PPIT 040056Z AUTO 30005KT 10SM OVC031 02/01 A3023 RMK AO2 SLP240 T00220006 FZRANO TSNO,PPIT,2021-10-04T00:56:00Z,60.9,-162.43,2.2,0.6,300,5,,10.0,30.230314,1024.0,,TRUE,TRUE,,,TRUE,TRUE,,,OVC,3100,,,,,,,VFR,,,,,,,,,,,,METAR,4.0
PMDY 040056Z AUTO 15005KT 4SM BR SCT022 BKN026 BKN040 25/23 A2998 RMK AO2 RAB11E41 SLP151 P0012 T02500228,PMDY,2021-10-04T00:56:00Z,28.22,-177.37,25.0,22.8,150,5,,4.0,29.97933,1015.1,,TRUE,TRUE,,,,,,BR,SCT,2200,BKN,2600,BKN,4000,,,MVFR,,,,,,0.12,,,,,,METAR,6.0
PHNY 040056Z AUTO 02013G18KT 10SM SCT025 BKN034 A2992 RMK AO2 SLPNO FZRANO $,PHNY,2021-10-04T00:56:00Z,20.77,-156.95,,,20,13,18,10.0,29.920275,,,TRUE,TRUE,TRUE,,,TRUE,,,SCT,2500,BKN,3400,,,,,VFR,,,,,,,,,,,,METAR,395.0
PHHI 040056Z AUTO 06008KT 10SM FEW033 26/19 A2991 RMK AO2 RAB2358E07RAB07E07 SLP118 P0000 T02630189 $,PHHI,2021-10-04T00:56:00Z,21.48,-158.05,26.3,18.9,60,8,,10.0,29.911417,1011.8,,TRUE,TRUE,TRUE,,,,,,FEW,3300,,,,,,,VFR,,,,,,0.005,,,,,,METAR,246.0
PGUA 040056Z 09014KT 10SM OVC016 29/25 A2981 RMK AO2A SLP085 T02910250 $,PGUA,2021-10-04T00:56:00Z,13.57,144.92,29.1,25.0,90,14,,10.0,29.811024,1008.5,,,TRUE,TRUE,,,,,,OVC,1600,,,,,,,MVFR,,,,,,,,,,,,METAR,159.0
PFYU 040056Z 02004KT 10SM BKN021 OVC100 02/00 A3002 RMK AO2 SLP180 T00220000,PFYU,2021-10-04T00:56:00Z,66.57,-145.23,2.2,0.0,20,4,,10.0,30.02067,1018.0,,,TRUE,,,,,,,BKN,2100,OVC,10000,,,,,MVFR,,,,,,,,,,,,METAR,130.0
PFSH 040056Z AUTO 24007KT 10SM OVC032 02/M03 A3018 RMK AO2 SLP221 T00171033 FZRANO,PFSH,2021-10-04T00:56:00Z,64.37,-161.22,1.7,-3.3,240,7,,10.0,30.180119,1022.1,,TRUE,TRUE,,,,TRUE,,,OVC,3200,,,,,,,VFR,,,,,,,,,,,,METAR,6.0
PFNO 040056Z AUTO 00000KT 8SM CLR 02/M05 A3010 RMK AO2 SLP278 T00171050 FZRANO,PFNO,2021-10-04T00:56:00Z,66.82,-161.02,1.7,-5.0,0,0,,8.0,30.100393,1027.8,,TRUE,TRUE,,,,TRUE,,,CLR,,,,,,,,VFR,,,,,,,,,,,,METAR,14.0
PFKW 040056Z AUTO 32007KT 270V350 10SM OVC027 A3023 RMK AO2 SLPNO FZRANO $,PFKW,2021-10-04T00:56:00Z,60.8,-161.43,,,320,7,,10.0,30.230314,,,TRUE,TRUE,TRUE,,,TRUE,,,OVC,2700,,,,,,,MVFR,,,,,,,,,,,,METAR,4.0
PFKT 040056Z AUTO 00000KT 10SM OVC029 01/M05 A3018 RMK AO2 SLP220 T00061050 FZRANO,PFKT,2021-10-04T00:56:00Z,65.33,-166.47,0.6,-5.0,0,0,,10.0,30.180119,1022.0,,TRUE,TRUE,,,,TRUE,,,OVC,2900,,,,,,,MVFR,,,,,,,,,,,,METAR,8.0
PFCL 040056Z AUTO VRB03KT 10SM CLR 05/M05 A3018 RMK AO2 SLP213 T00501050 TSNO,PFCL,2021-10-04T00:56:00Z,58.83,-158.53,5.0,-5.0,0,3,,10.0,30.180119,1021.3,,TRUE,TRUE,,,TRUE,,,,CLR,,,,,,,,VFR,,,,,,,,,,,,METAR,23.0
PAZK 040056Z AUTO 14004KT 10SM SCT030 00/M06 A2984 RMK AO2 SLP157 T00001061 FZRANO,PAZK,2021-10-04T00:56:00Z,61.93,-147.17,0.0,-6.1,140,4,,10.0,29.840551,1015.7,,TRUE,TRUE,,,,TRUE,,,SCT,3000,,,,,,,VFR,,,,,,,,,,,,METAR,1002.0
PAWS 040056Z AUTO 00000KT 10SM CLR 06/M01 A2995 RMK AO2 SLP148 T00611011,PAWS,2021-10-04T00:56:00Z,61.57,-149.53,6.1,-1.1,0,0,,10.0,29.949802,1014.8,,TRUE,TRUE,,,,,,,CLR,,,,,,,,VFR,,,,,,,,,,,,METAR,102.0
PAWN 040056Z AUTO 24003KT 10SM SCT060 01/M05 A3009 RMK AO2 SLP202 T00111050 FZRANO,PAWN,2021-10-04T00:56:00Z,67.57,-162.98,1.1,-5.0,240,3,,10.0,30.088583,1020.2,,TRUE,TRUE,,,,TRUE,,,SCT,6000,,,,,,,VFR,,,,,,,,,,,,METAR,26.0
PAWM 040056Z AUTO 32008KT 9SM OVC030 01/M05 A3017 RMK AO2 SLP221 T00061050 FZRANO PNO $,PAWM,2021-10-04T00:56:00Z,64.68,-163.42,0.6,-5.0,320,8,,9.0,30.171259,1022.1,,TRUE,TRUE,TRUE,,,TRUE,,,OVC,3000,,,,,,,MVFR,,,,,,,,,,,,METAR,80.0
PAWG 040056Z 10004KT 10SM -RA BKN047 OVC055 06/03 A3000 RMK AO2 RAE15B55 SLP160 T00560033 PNO $,PAWG,2021-10-04T00:56:00Z,56.48,-132.37,5.6,3.3,100,4,,10.0,30.0,1016.0,,,TRUE,TRUE,,,,,-RA,BKN,4700,OVC,5500,,,,,VFR,,,,,,,,,,,,METAR,6.0
PAVD 040056Z 07013G21KT 10SM FEW090 FEW120 10/M06 A2994 RMK AO2 SLP136 T01001056,PAVD,2021-10-04T00:56:00Z,61.13,-146.25,10.0,-5.6,70,13,21,10.0,29.940945,1013.6,,,TRUE,,,,,,,FEW,9000,FEW,12000,,,,,VFR,,,,,,,,,,,,METAR,21.0
PAVA 040056Z AUTO 16008KT 10SM FEW029 03/M03 A3020 RMK AO2 SLP231 T00331028 PNO $,PAVA,2021-10-04T00:56:00Z,61.53,-165.6,3.3,-2.8,160,8,,10.0,30.200787,1023.1,,TRUE,TRUE,TRUE,,,,,,FEW,2900,,,,,,,VFR,,,,,,,,,,,,METAR,14.0
PATQ 040056Z AUTO 31003KT 10SM OVC006 M03/M03 A3018 RMK AO2 SLP225 T10281033 FZRANO TSNO,PATQ,2021-10-04T00:56:00Z,70.47,-157.43,-2.8,-3.3,310,3,,10.0,30.180119,1022.5,,TRUE,TRUE,,,TRUE,TRUE,,,OVC,600,,,,,,,IFR,,,,,,,,,,,,METAR,28.0
PATG 040056Z AUTO 32012G20KT 10SM CLR 04/M03 A3022 RMK AO2 SLP329 T00441033,PATG,2021-10-04T00:56:00Z,59.05,-160.38,4.4,-3.3,320,12,20,10.0,30.221457,1032.9,,TRUE,TRUE,,,,,,,CLR,,,,,,,,VFR,,,,,,,,,,,,METAR,1.0
PATE 040056Z AUTO VRB05KT 10SM OVC027 01/M06 A3015 RMK AO2 SLP216 T00061056 FZRANO,PATE,2021-10-04T00:56:00Z,65.23,-166.33,0.6,-5.6,0,5,,10.0,30.15059,1021.6,,TRUE,TRUE,,,,TRUE,,,OVC,2700,,,,,,,MVFR,,,,,,,,,,,,METAR,93.0
PASX 040056Z AUTO 27005KT 10SM CLR 08/M04 A2996 RMK AO2 SLP157 T00781039,PASX,2021-10-04T00:56:00Z,60.48,-151.05,7.8,-3.9,270,5,,10.0,29.958662,1015.7,,TRUE,TRUE,,,,,,,CLR,,,,,,,,VFR,,,,,,,,,,,,METAR,28.0
PASM 040056Z AUTO 27005KT 10SM BKN033 02/M01 A3022 RMK AO2 SNE11 SLP243 P0000 T00171011 FZRANO,PASM,2021-10-04T00:56:00Z,62.07,-163.3,1.7,-1.1,270,5,,10.0,30.221457,1024.3,,TRUE,TRUE,,,,TRUE,,,BKN,3300,,,,,,,VFR,,,,,,0.005,,,,,,METAR,108.0
PASL 040056Z AUTO VRB03KT 10SM FEW036 03/M06 A3019 RMK AO2 SLP217 T00331056,PASL,2021-10-04T00:56:00Z,61.68,-157.15,3.3,-5.6,0,3,,10.0,30.188976,1021.7,,TRUE,TRUE,,,,,,,FEW,3600,,,,,,,VFR,,,,,,,,,,,,METAR,64.0
PASK 040056Z AUTO 06004KT 10SM FEW005 BKN040 OVC060 02/M01 A3011 RMK AO2 UPB12E48SNE2358 SLP194 P0000 T00171006 FZRANO,PASK,2021-10-04T00:56:00Z,66.6,-160.0,1.7,-0.6,60,4,,10.0,30.109253,1019.4,,TRUE,TRUE,,,,TRUE,,,FEW,500,BKN,4000,OVC,6000,,,VFR,,,,,,0.005,,,,,,METAR,3.0
PASD 040056Z 32011KT 10SM FEW041 SCT070 08/M01 A3028 RMK AO2 SLP255 T00781006 $,PASD,2021-10-04T00:56:00Z,55.33,-160.52,7.8,-0.6,320,11,,10.0,30.280512,1025.5,,,TRUE,TRUE,,,,,,FEW,4100,SCT,7000,,,,,VFR,,,,,,,,,,,,METAR,6.0
PASA 040056Z AUTO 36004KT 10SM OVC095 03/M04 A3010 RMK AO2 SLP194 T00331039 PNO $,PASA,2021-10-04T00:56:00Z,63.68,-170.5,3.3,-3.9,360,4,,10.0,30.100393,1019.4,,TRUE,TRUE,TRUE,,,,,,OVC,9500,,,,,,,VFR,,,,,,,,,,,,METAR,9.0
PARY 040056Z AUTO 27009KT 10SM OVC027 00/M06 A3010 RMK AO2 SLP207 T00001061 FZRANO,PARY,2021-10-04T00:56:00Z,64.73,-155.47,0.0,-6.1,270,9,,10.0,30.100393,1020.7,,TRUE,TRUE,,,,TRUE,,,OVC,2700,,,,,,,MVFR,,,,,,,,,,,,METAR,185.0
PARS 040056Z AUTO 05003KT OVC031 02/M04 A3021 RMK AO2 SLP234 T00221044 PWINO FZRANO RVRNO $,PARS,2021-10-04T00:56:00Z,61.77,-161.32,2.2,-4.4,50,3,,,30.209646,1023.4,,TRUE,TRUE,TRUE,,,TRUE,TRUE,,OVC,3100,,,,,,,,,,,,,,,,,,,METAR,15.0
PARC 040056Z AUTO 00000KT 10SM OVC034 01/M05 A2996 RMK AO2 SLP194 T00061050 FZRANO,PARC,2021-10-04T00:56:00Z,68.12,-145.58,0.6,-5.0,0,0,,10.0,29.958662,1019.4,,TRUE,TRUE,,,,TRUE,,,OVC,3400,,,,,,,VFR,,,,,,,,,,,,METAR,626.0
PAQH 040056Z AUTO 34007KT 10SM OVC027 02/M03 A3025 RMK AO2 SLP245 T00221033 FZRANO,PAQH,2021-10-04T00:56:00Z,59.75,-161.85,2.2,-3.3,340,7,,10.0,30.250984,1024.5,,TRUE,TRUE,,,,TRUE,,,OVC,2700,,,,,,,MVFR,,,,,,,,,,,,METAR,8.0
PAPO 040056Z AUTO 02005KT 10SM CLR 02/M02 A3010 RMK AO2 SLP192 T00221017 FZRANO PNO $,PAPO,2021-10-04T00:56:00Z,68.35,-166.8,2.2,-1.7,20,5,,10.0,30.100393,1019.2,,TRUE,TRUE,TRUE,,,TRUE,,,CLR,,,,,,,,VFR,,,,,,,,,,,,METAR,4.0
PAPN 040056Z AUTO 31011KT 6SM HZ OVC031 04/M02 A3019 RMK AO2 SLP226 T00391017,PAPN,2021-10-04T00:56:00Z,57.58,-157.57,3.9,-1.7,310,11,,6.0,30.188976,1022.6,,TRUE,TRUE,,,,,,HZ,OVC,3100,,,,,,,VFR,,,,,,,,,,,,METAR,19.0
PAPM 040056Z AUTO 35010KT 10SM CLR A3025 RMK AO2 SLPNO FZRANO $,PAPM,2021-10-04T00:56:00Z,59.02,-161.82,,,350,10,,10.0,30.250984,,,TRUE,TRUE,TRUE,,,TRUE,,,CLR,,,,,,,,VFR,,,,,,,,,,,,METAR,4.0
PAPH 040056Z AUTO 32014KT 10SM OVC030 05/M01 A3024 RMK AO2 SLP243 T00501011,PAPH,2021-10-04T00:56:00Z,56.95,-158.62,5.0,-1.1,320,14,,10.0,30.239174,1024.3,,TRUE,TRUE,,,,,,,OVC,3000,,,,,,,MVFR,,,,,,,,,,,,METAR,29.0
PAPG 040056Z 00000KT 10SM FEW020 SCT028 BKN060 05/03 A2999 RMK AO2 RAE55GRB14E15 SLP158 VCSH N P0007 T00500028,PAPG,2021-10-04T00:56:00Z,56.82,-132.93,5.0,2.8,0,0,,10.0,29.991142,1015.8,,,TRUE,,,,,,,FEW,2000,SCT,2800,BKN,6000,,,VFR,,,,,,0.07,,,,,,METAR,24.0
PAOU 040056Z AUTO 31008KT 10SM FEW028 07/00 A3030 RMK AO2 SLP260 T00670000,PAOU,2021-10-04T00:56:00Z,56.0,-161.17,6.7,0.0,310,8,,10.0,30.301182,1026.0,,TRUE,TRUE,,,,,,,FEW,2800,,,,,,,VFR,,,,,,,,,,,,METAR,3.0
PAOO 040056Z AUTO 13014KT 10SM OVC050 04/M01 A3022 RMK AO2 SLP240 T00391006 TSNO $,PAOO,2021-10-04T00:56:00Z,60.53,-165.08,3.9,-0.6,130,14,,10.0,30.221457,1024.0,,TRUE,TRUE,TRUE,,TRUE,,,,OVC,5000,,,,,,,VFR,,,,,,,,,,,,METAR,15.0
PANW 040056Z AUTO 35010KT 10SM FEW038 04/M06 A3017 RMK AO2 SLP223 T00391056,PANW,2021-10-04T00:56:00Z,59.45,-157.32,3.9,-5.6,350,10,,10.0,30.171259,1022.3,,TRUE,TRUE,,,,,,,FEW,3800,,,,,,,VFR,,,,,,,,,,,,METAR,100.0
PANV 040056Z AUTO 28006KT 10SM OVC032 02/M05 A3017 RMK AO2 SLP320 T00221050 FZRANO TSNO,PANV,2021-10-04T00:56:00Z,62.65,-160.18,2.2,-5.0,280,6,,10.0,30.171259,1032.0,,TRUE,TRUE,,,TRUE,TRUE,,,OVC,3200,,,,,,,VFR,,,,,,,,,,,,METAR,91.0
PANI 040056Z AUTO 32003KT 10SM OVC030 02/M05 A3026 RMK AO2 SLP239 T00171050 FZRANO,PANI,2021-10-04T00:56:00Z,61.58,-159.53,1.7,-5.0,320,3,,10.0,30.259842,1023.9,,TRUE,TRUE,,,,TRUE,,,OVC,3000,,,,,,,MVFR,,,,,,,,,,,,METAR,21.0
PAMO 040056Z AUTO 28004KT 9SM BKN026 OVC033 02/M03 A3021 RMK AO2 SLP236 T00221028 FZRANO,PAMO,2021-10-04T00:56:00Z,62.1,-163.68,2.2,-2.8,280,4,,9.0,30.209646,1023.6,,TRUE,TRUE,,,,TRUE,,,BKN,2600,OVC,3300,,,,,MVFR,,,,,,,,,,,,METAR,93.0
PAMM 040056Z AUTO 11005KT 10SM -RA FEW015 OVC024 05/04 A3003 RMK AO2 RAB05 SLP161 P0010 T00500039 $,PAMM,2021-10-04T00:56:00Z,55.13,-131.58,5.0,3.9,110,5,,10.0,30.029528,1016.1,,TRUE,TRUE,TRUE,,,,,-RA,FEW,1500,OVC,2400,,,,,MVFR,,,,,,0.1,,,,,,METAR,0.0
PAMK 040056Z AUTO 28006KT 10SM BKN033 02/M04 A3019 RMK AO2 SLP226 T00221039 FZRANO PNO $,PAMK,2021-10-04T00:56:00Z,63.48,-162.12,2.2,-3.9,280,6,,10.0,30.188976,1022.6,,TRUE,TRUE,TRUE,,,TRUE,,,BKN,3300,,,,,,,VFR,,,,,,,,,,,,METAR,31.0
PAMH 040056Z AUTO 19004KT 10SM OVC060 00/M02 A3009 RMK AO2 SLP195 T00001022 FZRANO,PAMH,2021-10-04T00:56:00Z,63.9,-152.28,0.0,-2.2,190,4,,10.0,30.088583,1019.5,,TRUE,TRUE,,,,TRUE,,,OVC,6000,,,,,,,VFR,,,,,,,,,,,,METAR,200.0
PAMB 040056Z AUTO 00000KT 8SM CLR 06/M06 A3017 RMK AO2 SLP220 T00561056 $,PAMB,2021-10-04T00:56:00Z,58.98,-159.05,5.6,-5.6,0,0,,8.0,30.171259,1022.0,,TRUE,TRUE,TRUE,,,,,,CLR,,,,,,,,VFR,,,,,,,,,,,,METAR,28.0
PALG 040056Z AUTO VRB04KT 10SM OVC027 02/M03 A3021 RMK AO2 SLP234 T00171033 FZRANO,PALG,2021-10-04T00:56:00Z,61.53,-160.33,1.7,-3.3,0,4,,10.0,30.209646,1023.4,,TRUE,TRUE,,,,TRUE,,,OVC,2700,,,,,,,MVFR,,,,,,,,,,,,METAR,13.0
PAKP 040056Z AUTO 00000KT 10SM CLR M06/M10 A3000 RMK AO2 SLP212 T10611100 FZRANO,PAKP,2021-10-04T00:56:00Z,68.13,-151.73,-6.1,-10.0,0,0,,10.0,30.0,1021.2,,TRUE,TRUE,,,,TRUE,,,CLR,,,,,,,,VFR,,,,,,,,,,,,METAR,649.0
PAKK 040056Z AUTO 18005KT 10SM SCT031 OVC042 01/M04 A3012 RMK AO2 SLP208 T00111044 FZRANO,PAKK,2021-10-04T00:56:00Z,64.93,-161.15,1.1,-4.4,180,5,,10.0,30.121063,1020.8,,TRUE,TRUE,,,,TRUE,,,SCT,3100,OVC,4200,,,,,VFR,,,,,,,,,,,,METAR,56.0
PAKI 040056Z AUTO 20005KT BKN042 04/M02 A3023 RMK AO2 SLP241 T00391022 PWINO $,PAKI,2021-10-04T00:56:00Z,59.93,-164.03,3.9,-2.2,200,5,,,30.230314,1024.1,,TRUE,TRUE,TRUE,,,,TRUE,,BKN,4200,,,,,,,,,,,,,,,,,,,METAR,4.0
PAKH 040056Z AUTO 31019G24KT 10SM CLR 07/M02 A3003 RMK AO2 PK WND 30029/0025 SLP171 T00671017,PAKH,2021-10-04T00:56:00Z,56.93,-154.18,6.7,-1.7,310,19,24,10.0,30.029528,1017.1,,TRUE,TRUE,,,,,,,CLR,,,,,,,,VFR,,,,,,,,,,,,METAR,15.0
PAKF 040056Z AUTO 34003KT 10SM 09/06 A3030 RMK AO2 RAB12E32 SLP262 T00940056 PNO $,PAKF,2021-10-04T00:56:00Z,54.85,-163.42,9.4,5.6,340,3,,10.0,30.301182,1026.2,,TRUE,TRUE,TRUE,,,,,,,,,,,,,,,,,,,,,,,,,,METAR,2.0
PAJZ 040056Z AUTO 34012KT 7SM OVC033 03/M04 A3021 RMK AO2 SLP238 T00331044 $,PAJZ,2021-10-04T00:56:00Z,59.73,-157.27,3.3,-4.4,340,12,,7.0,30.209646,1023.8,,TRUE,TRUE,TRUE,,,,,,OVC,3300,,,,,,,VFR,,,,,,,,,,,,METAR,80.0
PAIW 040056Z AUTO 21011KT 10SM BKN027 OVC110 01/M03 A3016 RMK AO2 SLP214 T00061033 FZRANO,PAIW,2021-10-04T00:56:00Z,65.62,-168.1,0.6,-3.3,210,11,,10.0,30.159449,1021.4,,TRUE,TRUE,,,,TRUE,,,BKN,2700,OVC,11000,,,,,MVFR,,,,,,,,,,,,METAR,6.0
PAIN 040056Z AUTO 36008KT 8SM -SN OVC029 M01/M03 A3000 RMK AO2 SLP194 P0000 T10111033 FZRANO,PAIN,2021-10-04T00:56:00Z,63.73,-148.92,-1.1,-3.3,360,8,,8.0,30.0,1019.4,,TRUE,TRUE,,,,TRUE,,-SN,OVC,2900,,,,,,,MVFR,,,,,,0.005,,,,,,METAR,525.0
PAIK 040056Z AUTO 00000KT 10SM CLR 02/M06 A3011 RMK AO2 SLP200 T00171061 FZRANO,PAIK,2021-10-04T00:56:00Z,66.98,-160.43,1.7,-6.1,0,0,,10.0,30.109253,1020.0,,TRUE,TRUE,,,,TRUE,,,CLR,,,,,,,,VFR,,,,,,,,,,,,METAR,49.0
PAIG 040056Z AUTO 28008KT CLR 05/M04 RMK AO2 SLPNO T00501039 PWINO $,PAIG,2021-10-04T00:56:00Z,59.32,-155.9,5.0,-3.9,280,8,,,,,,TRUE,TRUE,TRUE,,,,TRUE,,CLR,,,,,,,,,,,,,,,,,,,,METAR,24.0
PAHP 040056Z AUTO 15013KT 10SM CLR 03/M02 A3017 RMK AO2 SLP217 T00331022 PNO $,PAHP,2021-10-04T00:56:00Z,61.52,-166.15,3.3,-2.2,150,13,,10.0,30.171259,1021.7,,TRUE,TRUE,TRUE,,,,,,CLR,,,,,,,,VFR,,,,,,,,,,,,METAR,8.0
PAHC 040056Z AUTO 29005KT OVC033 02/M05 A3020 RMK AO2 SLP231 T00221050 PWINO FZRANO RVRNO $,PAHC,2021-10-04T00:56:00Z,62.18,-159.78,2.2,-5.0,290,5,,,30.200787,1023.1,,TRUE,TRUE,TRUE,,,TRUE,TRUE,,OVC,3300,,,,,,,,,,,,,,,,,,,METAR,21.0
PAGS 040056Z AUTO 10004KT 10SM -RA OVC050 06/04 A2993 RMK AO2 RAB00 SLP134 P0000 T00610039,PAGS,2021-10-04T00:56:00Z,58.42,-135.7,6.1,3.9,100,4,,10.0,29.929134,1013.4,,TRUE,TRUE,,,,,,-RA,OVC,5000,,,,,,,VFR,,,,,,0.005,,,,,,METAR,9.0
PAGN 040056Z AUTO 09004KT 10SM SCT039 BKN050 OVC070 07/04 A2994 RMK AO2 RAE11 SLP126 P0000 T00720039,PAGN,2021-10-04T00:56:00Z,57.5,-134.58,7.2,3.9,90,4,,10.0,29.940945,1012.6,,TRUE,TRUE,,,,,,,SCT,3900,BKN,5000,OVC,7000,,,VFR,,,,,,0.005,,,,,,METAR,2.0
PAGM 040056Z AUTO 13018KT 10SM BKN070 OVC090 02/M02 A3009 RMK AO2 SLP195 T00171017 FZRANO PNO $,PAGM,2021-10-04T00:56:00Z,63.77,-171.73,1.7,-1.7,130,18,,10.0,30.088583,1019.5,,TRUE,TRUE,TRUE,,,TRUE,,,BKN,7000,OVC,9000,,,,,VFR,,,,,,,,,,,,METAR,6.0
PAGL 040056Z AUTO 30004KT BKN030 02/M05 A3019 RMK AO2 SLP219 T00171050 PWINO FZRANO $,PAGL,2021-10-04T00:56:00Z,64.55,-163.0,1.7,-5.0,300,4,,,30.188976,1021.9,,TRUE,TRUE,TRUE,,,TRUE,TRUE,,BKN,3000,,,,,,,,,,,,,,,,,,,METAR,20.0
PAGA 040056Z AUTO 25008KT 10SM OVC033 01/M06 A3015 RMK AO2 SLP213 T00111061 FZRANO,PAGA,2021-10-04T00:56:00Z,64.73,-156.93,1.1,-6.1,250,8,,10.0,30.15059,1021.3,,TRUE,TRUE,,,,TRUE,,,OVC,3300,,,,,,,VFR,,,,,,,,,,,,METAR,39.0
PAFE 040056Z AUTO 11006KT 10SM FEW016 OVC041 06/03 A2997 RMK AO2 SLP160 T00610033 $,PAFE,2021-10-04T00:56:00Z,56.97,-133.92,6.1,3.3,110,6,,10.0,29.970472,1016.0,,TRUE,TRUE,TRUE,,,,,,FEW,1600,OVC,4100,,,,,VFR,,,,,,,,,,,,METAR,1.0
PAED 040056Z 00000KT 10SM FEW050 FEW200 07/M02 A2993 RMK AO2A SLP132 T00651024 $,PAED,2021-10-04T00:56:00Z,61.25,-149.83,6.5,-2.4,0,0,,10.0,29.929134,1013.2,,,TRUE,TRUE,,,,,,FEW,5000,FEW,20000,,,,,VFR,,,,,,,,,,,,METAR,54.0
PADU 040056Z 08006KT 10SM BKN031 09/04 A3033 RMK AO2 SLP273 T00940044,PADU,2021-10-04T00:56:00Z,53.9,-166.53,9.4,4.4,80,6,,10.0,30.33071,1027.3,,,TRUE,,,,,,,BKN,3100,,,,,,,VFR,,,,,,,,,,,,METAR,4.0
PADM 040056Z AUTO 00000KT 10SM OVC030 03/M04 A3025 RMK AO2 SLP251 T00281039,PADM,2021-10-04T00:56:00Z,61.87,-162.03,2.8,-3.9,0,0,,10.0,30.250984,1025.1,,TRUE,TRUE,,,,,,,OVC,3000,,,,,,,MVFR,,,,,,,,,,,,METAR,17.0
PADL 040056Z 17006KT 10SM CLR 05/M04 A3017 RMK AO2 SLP221 T00501044,PADL,2021-10-04T00:56:00Z,59.05,-158.5,5.0,-4.4,170,6,,10.0,30.171259,1022.1,,,TRUE,,,,,,,CLR,,,,,,,,VFR,,,,,,,,,,,,METAR,20.0
PADK 040056Z AUTO 19013G17KT 2SM BR OVC011 09/09 A3008 RMK AO2 VIS 1 1/2V2 1/2 SLP186 T00940089,PADK,2021-10-04T00:56:00Z,51.88,-176.65,9.4,8.9,190,13,17,2.0,30.079725,1018.6,,TRUE,TRUE,,,,,,BR,OVC,1100,,,,,,,IFR,,,,,,,,,,,,METAR,3.0
PABV 040056Z AUTO VRB03KT 10SM CLR 06/01 A2995 RMK AO2 SLP149 T00560006,PABV,2021-10-04T00:56:00Z,61.42,-149.52,5.6,0.6,0,3,,10.0,29.949802,1014.9,,TRUE,TRUE,,,,,,,CLR,,,,,,,,VFR,,,,,,,,,,,,METAR,21.0
OTBH 040056Z 06005KT 9999 FEW120 31/26 A2971 RMK AO2A SLP061 T03120264 $,OTBH,2021-10-04T00:56:00Z,25.12,51.32,31.2,26.4,60,5,,6.21,29.71063,1006.1,,,TRUE,TRUE,,,,,,FEW,12000,,,,,,,VFR,,,,,,,,,,,,METAR,40.0
OEPS 040056Z 00000KT 9999 CLR 25/M04 A2990 RMK AO2A SLP094 WND DATA ESTMD T02521036,OEPS,2021-10-04T00:56:00Z,24.07,47.58,25.2,-3.6,0,0,,6.21,29.899607,1009.4,,,TRUE,,,,,,,CLR,,,,,,,,VFR,,,,,,,,,,,,METAR,503.0
KYKN 040056Z AUTO 28005KT 10SM CLR 18/09 A3000 RMK AO2 SLP170 T01830089,KYKN,2021-10-04T00:56:00Z,42.92,-97.37,18.3,8.9,280,5,,10.0,30.0,1017.0,,TRUE,TRUE,,,,,,,CLR,,,,,,,,VFR,,,,,,,,,,,,METAR,388.0
KY50 040056Z AUTO 31005KT 10SM OVC016 18/18 A2987 RMK AO2 SLP110 P0002 T01830178 PWINO $,KY50,2021-10-04T00:56:00Z,44.03,-89.3,18.3,17.8,310,5,,10.0,29.870079,1011.0,,TRUE,TRUE,TRUE,,,,TRUE,,OVC,1600,,,,,,,MVFR,,,,,,0.02,,,,,,METAR,261.0
KXNO 040056Z AUTO 11003KT 10SM CLR 22/22 A3004 RMK AO2 SLP173 T02210221 $,KXNO,2021-10-04T00:56:00Z,33.62,-81.07,22.1,22.1,110,3,,10.0,30.041338,1017.3,,TRUE,TRUE,TRUE,,,,,,CLR,,,,,,,,VFR,,,,,,,,,,,,METAR,94.0
KXMR 040056Z AUTO 07005KT 10SM CLR 24/19 A3000 RMK AO2 SLP162 T02410185 $,KXMR,2021-10-04T00:56:00Z,28.47,-80.57,24.1,18.5,70,5,,10.0,30.0,1016.2,,TRUE,TRUE,TRUE,,,,,,CLR,,,,,,,,VFR,,,,,,,,,,,,METAR,5.0
KWWD 040056Z AUTO 21006KT 10SM CLR 22/19 A2995 RMK AO2 SLP144 T02220194 $,KWWD,2021-10-04T00:56:00Z,39.02,-74.92,22.2,19.4,210,6,,10.0,29.949802,1014.4,,TRUE,TRUE,TRUE,,,,,,CLR,,,,,,,,VFR,,,,,,,,,,,,METAR,4.0
KWVL 040056Z AUTO 00000KT 9SM FEW006 BKN070 12/11 A3002 RMK AO2 SLP195 T01170111,KWVL,2021-10-04T00:56:00Z,44.52,-69.67,11.7,11.1,0,0,,9.0,30.02067,1019.5,,TRUE,TRUE,,,,,,,FEW,600,BKN,7000,,,,,VFR,,,,,,,,,,,,METAR,87.0
KWRI 040056Z AUTO 18005KT 10SM CLR 21/18 A2993 RMK AO2 SLP134 T02100184 $,KWRI,2021-10-04T00:56:00Z,40.02,-74.58,21.0,18.4,180,5,,10.0,29.929134,1013.4,,TRUE,TRUE,TRUE,,,,,,CLR,,,,,,,,VFR,,,,,,,,,,,,METAR,35.0
KWRB 040056Z 25003KT 10SM FEW090 BKN130 23/21 A3001 RMK AO2A SLP163 T02310213 TSNO $,KWRB,2021-10-04T00:56:00Z,32.63,-83.58,23.1,21.3,250,3,,10.0,30.008858,1016.3,,,TRUE,TRUE,,TRUE,,,,FEW,9000,BKN,13000,,,,,VFR,,,,,,,,,,,,METAR,82.0
KWMC 040056Z AUTO 00000KT 10SM CLR 27/M10 A3008 RMK AO2 SLP164 T02671100,KWMC,2021-10-04T00:56:00Z,40.9,-117.8,26.7,-10.0,0,0,,10.0,30.079725,1016.4,,TRUE,TRUE,,,,,,,CLR,,,,,,,,VFR,,,,,,,,,,,,METAR,1311.0
KWJF 040056Z 00000KT 10SM CLR 31/M04 A2995 RMK AO2 SLP131 T03111039,KWJF,2021-10-04T00:56:00Z,34.73,-118.22,31.1,-3.9,0,0,,10.0,29.949802,1013.1,,,TRUE,,,,,,,CLR,,,,,,,,VFR,,,,,,,,,,,,METAR,712.0
KVPZ 040056Z AUTO 00000KT 10SM OVC085 18/17 A2984 RMK AO2 SLP100 T01830172 PNO $,KVPZ,2021-10-04T00:56:00Z,41.45,-87.0,18.3,17.2,0,0,,10.0,29.840551,1010.0,,TRUE,TRUE,TRUE,,,,,,OVC,8500,,,,,,,VFR,,,,,,,,,,,,METAR,235.0
KVPS 040056Z AUTO 14003KT 10SM OVC065 24/21 A2997 RMK AO2 SLP155 T02430210 $,KVPS,2021-10-04T00:56:00Z,30.47,-86.52,24.3,21.0,140,3,,10.0,29.970472,1015.5,,TRUE,TRUE,TRUE,,,,,,OVC,6500,,,,,,,VFR,,,,,,,,,,,,METAR,21.0
KVOK 040056Z AUTO 31007KT 10SM BKN026 OVC036 18/16 A2989 RMK AO2 CIG 026V038 SLP123 T01790160,KVOK,2021-10-04T00:56:00Z,43.93,-90.27,17.9,16.0,310,7,,10.0,29.890747,1012.3,,TRUE,TRUE,,,,,,,BKN,2600,OVC,3600,,,,,MVFR,,,,,,,,,,,,METAR,278.0
KVIS 040056Z AUTO 35003KT 3SM HZ CLR 27/07 A2988 RMK AO2 SLP124 T02720072,KVIS,2021-10-04T00:56:00Z,36.32,-119.4,27.2,7.2,350,3,,3.0,29.878937,1012.4,,TRUE,TRUE,,,,,,HZ,CLR,,,,,,,,MVFR,,,,,,,,,,,,METAR,92.0
KVBT 040056Z AUTO 00000KT 10SM CLR 19/17 A3003 RMK AO2 SLP166 T01890167,KVBT,2021-10-04T00:56:00Z,36.35,-94.22,18.9,16.7,0,0,,10.0,30.029528,1016.6,,TRUE,TRUE,,,,,,,CLR,,,,,,,,VFR,,,,,,,,,,,,METAR,390.0
KVAD 040056Z AUTO 31004KT 10SM OVC140 23/21 A3000 RMK AO2 SLP160 T02340207 $,KVAD,2021-10-04T00:56:00Z,30.97,-83.2,23.4,20.7,310,4,,10.0,30.0,1016.0,,TRUE,TRUE,TRUE,,,,,,OVC,14000,,,,,,,VFR,,,,,,,,,,,,METAR,70.0
KUKI 040056Z AUTO 00000KT 10SM CLR 33/02 A2988 RMK AO2 SLP109 T03280017,KUKI,2021-10-04T00:56:00Z,39.12,-123.2,32.8,1.7,0,0,,10.0,29.878937,1010.9,,TRUE,TRUE,,,,,,,CLR,,,,,,,,VFR,,,,,,,,,,,,METAR,183.0
KUDG 040056Z AUTO 16004KT 10SM CLR 21/19 A3003 RMK AO2 SLP169 T02110189,KUDG,2021-10-04T00:56:00Z,34.45,-79.88,21.1,18.9,160,4,,10.0,30.029528,1016.9,,TRUE,TRUE,,,,,,,CLR,,,,,,,,VFR,,,,,,,,,,,,METAR,57.0
KUCP 040056Z AUTO 13003KT 8SM OVC009 19/18 A2991 RMK AO2 SLP137 T01890183,KUCP,2021-10-04T00:56:00Z,41.03,-80.42,18.9,18.3,130,3,,8.0,29.911417,1013.7,,TRUE,TRUE,,,,,,,OVC,900,,,,,,,IFR,,,,,,,,,,,,METAR,313.0
KTVF 040056Z AUTO 17004KT 10SM CLR 17/11 A2996 RMK AO2 SLP152 T01670106,KTVF,2021-10-04T00:56:00Z,48.07,-96.17,16.7,10.6,170,4,,10.0,29.958662,1015.2,,TRUE,TRUE,,,,,,,CLR,,,,,,,,VFR,,,,,,,,,,,,METAR,339.0
KTTS 040056Z AUTO 06004KT 10SM CLR 23/19 A3000 RMK AO2 SLP163 T02300187 $,KTTS,2021-10-04T00:56:00Z,28.58,-80.67,23.0,18.7,60,4,,10.0,30.0,1016.3,,TRUE,TRUE,TRUE,,,,,,CLR,,,,,,,,VFR,,,,,,,,,,,,METAR,1.0
KTPH 040056Z AUTO 00000KT 10SM CLR 25/M13 A3014 RMK AO2 SLP159 T02501133,KTPH,2021-10-04T00:56:00Z,38.05,-117.08,25.0,-13.3,0,0,,10.0,30.138779,1015.9,,TRUE,TRUE,,,,,,,CLR,,,,,,,,VFR,,,,,,,,,,,,METAR,1647.0
KTIK 040056Z AUTO 03003KT 10SM CLR 22/08 A3002 RMK AO2 SLP165 T02160081,KTIK,2021-10-04T00:56:00Z,35.4,-97.38,21.6,8.1,30,3,,10.0,30.02067,1016.5,,TRUE,TRUE,,,,,,,CLR,,,,,,,,VFR,,,,,,,,,,,,METAR,387.0
KTDR 040056Z AUTO 13003KT 10SM CLR 23/21 A2997 RMK AO2 SLP152 T02310210 $,KTDR,2021-10-04T00:56:00Z,30.05,-85.52,23.1,21.0,130,3,,10.0,29.970472,1015.2,,TRUE,TRUE,TRUE,,,,,,CLR,,,,,,,,VFR,,,,,,,,,,,,METAR,4.0
KTBN 040056Z AUTO 00000KT 6SM BR FEW033 17/16 A2998 RMK AO2 SLP150 T01690164,KTBN,2021-10-04T00:56:00Z,37.73,-92.13,16.9,16.4,0,0,,6.0,29.97933,1015.0,,TRUE,TRUE,,,,,,BR,FEW,3300,,,,,,,VFR,,,,,,,,,,,,METAR,349.0
KSZL 040056Z 20003KT 10SM CLR 18/16 A2993 RMK AO2A SLP134 T01820156 $,KSZL,2021-10-04T00:56:00Z,38.73,-93.53,18.2,15.6,200,3,,10.0,29.929134,1013.4,,,TRUE,TRUE,,,,,,CLR,,,,,,,,VFR,,,,,,,,,,,,METAR,259.0
KSXT 040056Z AUTO 33005KT 10SM CLR 16/07 A3006 RMK AO2 SLP148 T01560067 $,KSXT,2021-10-04T00:56:00Z,42.6,-123.37,15.6,6.7,330,5,,10.0,30.059055,1014.8,,TRUE,TRUE,TRUE,,,,,,CLR,,,,,,,,VFR,,,,,,,,,,,,SPECI,1151.0
KSVN 040056Z AUTO 00000KT 10SM CLR 24/21 A3000 RMK AO2 SLP162 T02430206 $,KSVN,2021-10-04T00:56:00Z,32.02,-81.12,24.3,20.6,0,0,,10.0,30.0,1016.2,,TRUE,TRUE,TRUE,,,,,,CLR,,,,,,,,VFR,,,,,,,,,,,,METAR,13.0
KSSC 040056Z AUTO 15003KT 10SM CLR 22/19 A3002 RMK AO2 SLP166 T02190189 $,KSSC,2021-10-04T00:56:00Z,33.97,-80.47,21.9,18.9,150,3,,10.0,30.02067,1016.6,,TRUE,TRUE,TRUE,,,,,,CLR,,,,,,,,VFR,,,,,,,,,,,,METAR,71.0
KSRC 040056Z AUTO 35004KT 10SM SCT060 22/17 A2996 RMK AO2 SLP143 T02170172,KSRC,2021-10-04T00:56:00Z,35.22,-91.73,21.7,17.2,350,4,,10.0,29.958662,1014.3,,TRUE,TRUE,,,,,,,SCT,6000,,,,,,,VFR,,,,,,,,,,,,METAR,80.0
KSQL 040056Z 00000KT 10SM CLR 30/07 A2988,KSQL,2021-10-04T00:56:00Z,37.52,-122.25,30.0,7.0,0,0,,10.0,29.878937,,,,,,,,,,,CLR,,,,,,,,VFR,,,,,,,,,,,,METAR,1.0
KSQI 040056Z 33005KT 10SM BKN040 BKN060 OVC080 22/18 A2987 RMK AO2 SLP978 T02170178,KSQI,2021-10-04T00:56:00Z,41.75,-89.67,21.7,17.8,330,5,,10.0,29.870079,997.8,,,TRUE,,,,,,,BKN,4000,BKN,6000,OVC,8000,,,VFR,,,,,,,,,,,,METAR,196.0
KSPD 040056Z AUTO 11007KT 20/02 A3015 RMK AO1 SLP173 T02000022,KSPD,2021-10-04T00:56:00Z,37.28,-102.62,20.0,2.2,110,7,,,30.15059,1017.3,,TRUE,TRUE,,,,,,,,,,,,,,,,,,,,,,,,,,,METAR,1340.0
KSOP 040056Z AUTO 20007KT 10SM CLR 23/18 A3003 RMK AO2 SLP170 T02330178,KSOP,2021-10-04T00:56:00Z,35.23,-79.4,23.3,17.8,200,7,,10.0,30.029528,1017.0,,TRUE,TRUE,,,,,,,CLR,,,,,,,,VFR,,,,,,,,,,,,METAR,135.0
KSMP 040056Z AUTO VRB03KT 1/2SM FG VV002 09/08 A3010 RMK AO2 SLP193 T00890083,KSMP,2021-10-04T00:56:00Z,47.28,-121.33,8.9,8.3,0,3,,0.5,30.100393,1019.3,,TRUE,TRUE,,,,,,FG,OVX,0,,,,,,,LIFR,,,,,,,,,,,200,SPECI,1206.0
KSLG 040056Z AUTO 02003KT 10SM FEW050 20/16 A3003 RMK AO2 SLP161 T02000156 TSNO,KSLG,2021-10-04T00:56:00Z,36.2,-94.48,20.0,15.6,20,3,,10.0,30.029528,1016.1,,TRUE,TRUE,,,TRUE,,,,FEW,5000,,,,,,,VFR,,,,,,,,,,,,METAR,361.0
KSLE 040056Z 02009KT 10SM CLR 21/11 A3000 RMK AO2 SLP160 T02110111,KSLE,2021-10-04T00:56:00Z,44.9,-123.0,21.1,11.1,20,9,,10.0,30.0,1016.0,,,TRUE,,,,,,,CLR,,,,,,,,VFR,,,,,,,,,,,,METAR,63.0
KSKX 040056Z AUTO 00000KT 10SM CLR 17/02 A3032 RMK AO2 SLP230 T01670017,KSKX,2021-10-04T00:56:00Z,36.45,-105.67,16.7,1.7,0,0,,10.0,30.318897,1023.0,,TRUE,TRUE,,,,,,,CLR,,,,,,,,VFR,,,,,,,,,,,,METAR,2163.0
KSHV 040056Z 28003KT 10SM BKN060 25/17 A2995 RMK AO2 SLP138 T02500172,KSHV,2021-10-04T00:56:00Z,32.45,-93.83,25.0,17.2,280,3,,10.0,29.949802,1013.8,,,TRUE,,,,,,,BKN,6000,,,,,,,VFR,,,,,,,,,,,,METAR,70.0
KSGU 040056Z AUTO 05016G25KT 10SM CLR 27/04 A3003 RMK AO2 PK WND 03031/0044 WSHFT 2343 SLP144 T02670039,KSGU,2021-10-04T00:56:00Z,37.03,-113.52,26.7,3.9,50,16,25,10.0,30.029528,1014.4,,TRUE,TRUE,,,,,,,CLR,,,,,,,,VFR,,,,,,,,,,,,METAR,877.0
KSGT 040056Z AUTO 31004KT 10SM CLR 22/19 A2995 RMK AO2 SLP143 T02220189,KSGT,2021-10-04T00:56:00Z,34.6,-91.57,22.2,18.9,310,4,,10.0,29.949802,1014.3,,TRUE,TRUE,,,,,,,CLR,,,,,,,,VFR,,,,,,,,,,,,METAR,67.0
KSGJ 040056Z AUTO 00000KT 10SM CLR 26/20 A3003 RMK AO2 SLP167 T02560200,KSGJ,2021-10-04T00:56:00Z,29.97,-81.33,25.6,20.0,0,0,,10.0,30.029528,1016.7,,TRUE,TRUE,,,,,,,CLR,,,,,,,,VFR,,,,,,,,,,,,METAR,2.0
KSGH 040056Z AUTO 18006KT 10SM SCT025 BKN032 18/ A2989 RMK AO2 SLP119 T0183,KSGH,2021-10-04T00:56:00Z,39.83,-83.83,18.3,,180,6,,10.0,29.890747,1011.9,,TRUE,TRUE,,,,,,,SCT,2500,BKN,3200,,,,,VFR,,,,,,,,,,,,METAR,318.0
KSFZ 040056Z AUTO 07004KT 7SM -RA OVC006 16/15 A2999 RMK AO2 SLP162 T01560150 PNO $,KSFZ,2021-10-04T00:56:00Z,41.92,-71.5,15.6,15.0,70,4,,7.0,29.991142,1016.2,,TRUE,TRUE,TRUE,,,,,-RA,OVC,600,,,,,,,IFR,,,,,,,,,,,,METAR,129.0
KSFO 040056Z 30014KT 10SM FEW200 24/11 A2988 RMK AO2 SLP117 T02440106,KSFO,2021-10-04T00:56:00Z,37.62,-122.37,24.4,10.6,300,14,,10.0,29.878937,1011.7,,,TRUE,,,,,,,FEW,20000,,,,,,,VFR,,,,,,,,,,,,METAR,2.0
KSFM 040056Z AUTO 04007KT 9SM FEW005 OVC010 13/12 A3004 RMK AO2 SLP174 T01280122,KSFM,2021-10-04T00:56:00Z,43.38,-70.72,12.8,12.2,40,7,,9.0,30.041338,1017.4,,TRUE,TRUE,,,,,,,FEW,500,OVC,1000,,,,,MVFR,,,,,,,,,,,,METAR,70.0
KSDY 040056Z AUTO 30007KT 10SM CLR 19/M04 A2994 RMK AO2 SLP147 T01891039,KSDY,2021-10-04T00:56:00Z,47.7,-104.2,18.9,-3.9,300,7,,10.0,29.940945,1014.7,,TRUE,TRUE,,,,,,,CLR,,,,,,,,VFR,,,,,,,,,,,,METAR,600.0
KSDF 040056Z 20007KT 4SM -RA BR BKN039 BKN046 OVC080 20/19 A2988 RMK AO2 LTG DSNT N RAB46 SLP114 P0007 T02000194 $,KSDF,2021-10-04T00:56:00Z,38.18,-85.73,20.0,19.4,200,7,,4.0,29.878937,1011.4,,,TRUE,TRUE,,,,,-RA BR,BKN,3900,BKN,4600,OVC,8000,,,MVFR,,,,,,0.07,,,,,,METAR,146.0
KSBP 040056Z 36003KT 10SM CLR 23/11 A2990 RMK AO2 SLP124 T02280106 $,KSBP,2021-10-04T00:56:00Z,35.23,-120.63,22.8,10.6,360,3,,10.0,29.899607,1012.4,,,TRUE,TRUE,,,,,,CLR,,,,,,,,VFR,,,,,,,,,,,,METAR,52.0
KRYM 040056Z AUTO 00000KT 10SM CLR 14/12 A2997 RMK AO2 SLP157 T01420117 FZRANO $,KRYM,2021-10-04T00:56:00Z,46.08,-94.37,14.2,11.7,0,0,,10.0,29.970472,1015.7,,TRUE,TRUE,TRUE,,,TRUE,,,CLR,,,,,,,,VFR,,,,,,,,,,,,METAR,344.0
KRUT 040056Z AUTO 00000KT 10SM FEW016 OVC033 16/16 A2998 RMK AO2 RAE11 SLP147 P0000 T01560156 $,KRUT,2021-10-04T00:56:00Z,43.53,-72.95,15.6,15.6,0,0,,10.0,29.97933,1014.7,,TRUE,TRUE,TRUE,,,,,,FEW,1600,OVC,3300,,,,,VFR,,,,,,0.005,,,,,,METAR,238.0
KRND 040056Z AUTO 05003KT 10SM CLR 27/17 A2996 RMK AO2 SLP138 T02680170 $,KRND,2021-10-04T00:56:00Z,29.53,-98.27,26.8,17.0,50,3,,10.0,29.958662,1013.8,,TRUE,TRUE,TRUE,,,,,,CLR,,,,,,,,VFR,,,,,,,,,,,,METAR,224.0
KRKD 040056Z AUTO 00000KT 10SM -RA SCT046 OVC055 12/11 A3005 RMK AO2 RAE27B48 SLP175 P0000 T01170111,KRKD,2021-10-04T00:56:00Z,44.07,-69.1,11.7,11.1,0,0,,10.0,30.050198,1017.5,,TRUE,TRUE,,,,,,-RA,SCT,4600,OVC,5500,,,,,VFR,,,,,,0.005,,,,,,METAR,15.0
KRDR 040056Z AUTO 16008KT 10SM CLR 18/08 A2992 RMK AO2 SLP140 T01770080 VISNO RWY17 $,KRDR,2021-10-04T00:56:00Z,47.93,-97.4,17.7,8.0,160,8,,10.0,29.920275,1014.0,,TRUE,TRUE,TRUE,,,,,,CLR,,,,,,,,VFR,,,,,,,,,,,,METAR,276.0
KRDM 040056Z 34009KT 10SM CLR 24/M02 A3000 RMK AO2 SLP147 T02441017,KRDM,2021-10-04T00:56:00Z,44.25,-121.15,24.4,-1.7,340,9,,10.0,30.0,1014.7,,,TRUE,,,,,,,CLR,,,,,,,,VFR,,,,,,,,,,,,METAR,930.0
KRCA 040056Z AUTO 13003KT 10SM CLR 22/M04 A3003 RMK AO2 SLP164 T02161045 $,KRCA,2021-10-04T00:56:00Z,44.15,-103.12,21.6,-4.5,130,3,,10.0,30.029528,1016.4,,TRUE,TRUE,TRUE,,,,,,CLR,,,,,,,,VFR,,,,,,,,,,,,METAR,993.0
KQVF 040056Z AUTO 00000KT M /// /// FEW017 23/21 A2989 RMK AO2 SLP124 WND DATA ESTMD T02340214 $,KQVF,2021-10-04T00:56:00Z,,,23.4,21.4,0,0,,,29.890747,1012.4,,TRUE,TRUE,TRUE,,,,,,FEW,1700,,,,,,,,,,,,,,,,,,,METAR,
KQRH 040056Z AUTO 00000KT 9999 CLR 30/24 A2970 RMK AO2 SLP060 WND DATA ESTMD T03010235,KQRH,2021-10-04T00:56:00Z,,,30.1,23.5,0,0,,6.21,29.698818,1006.0,,TRUE,TRUE,,,,,,,CLR,,,,,,,,VFR,,,,,,,,,,,,METAR,
KQHY 040056Z AUTO 17003KT 10SM OVC070 26/22 A2998 RMK AO2 SLP159 T02610223,KQHY,2021-10-04T00:56:00Z,,,26.1,22.3,170,3,,10.0,29.97933,1015.9,,TRUE,TRUE,,,,,,,OVC,7000,,,,,,,VFR,,,,,,,,,,,,METAR,
KQDG 040056Z AUTO 26011G15KT 9999 CLR 28/15 A3004 RMK AO2 SLP174 T02750145 PNO $,KQDG,2021-10-04T00:56:00Z,,,27.5,14.5,260,11,15,6.21,30.041338,1017.4,,TRUE,TRUE,TRUE,,,,,,CLR,,,,,,,,VFR,,,,,,,,,,,,METAR,
KQD3 040056Z AUTO 00000KT 9999 CLR 30/21 A2975 RMK AO2 SLP059 WND DATA ESTMD T02970213,KQD3,2021-10-04T00:56:00Z,,,29.7,21.3,0,0,,6.21,29.749016,1005.9,,TRUE,TRUE,,,,,,,CLR,,,,,,,,VFR,,,,,,,,,,,,METAR,
KQBL 040056Z AUTO 00000KT 10SM SCT055 OVC070 26/23 A3001 RMK AO2 SLP168 WND DATA ESTMD T02580225,KQBL,2021-10-04T00:56:00Z,,,25.8,22.5,0,0,,10.0,30.008858,1016.8,,TRUE,TRUE,,,,,,,SCT,5500,OVC,7000,,,,,VFR,,,,,,,,,,,,METAR,
KQAJ 040056Z AUTO 24004KT 9999 CLR 26/M03 A2973 RMK AO2 SLP075 WND DATA ESTMD T02601030,KQAJ,2021-10-04T00:56:00Z,,,26.0,-3.0,240,4,,6.21,29.731298,1007.5,,TRUE,TRUE,,,,,,,CLR,,,,,,,,VFR,,,,,,,,,,,,METAR,
KPWT 040056Z AUTO 04006KT 10SM OVC036 13/09 A3012 RMK AO2 SLP202 T01330094,KPWT,2021-10-04T00:56:00Z,47.5,-122.77,13.3,9.4,40,6,,10.0,30.121063,1020.2,,TRUE,TRUE,,,,,,,OVC,3600,,,,,,,VFR,,,,,,,,,,,,METAR,143.0
KPWG 040056Z AUTO 35005KT 7SM CLR 24/16 A3000 RMK AO2 SLP153 T02440156,KPWG,2021-10-04T00:56:00Z,31.48,-97.32,24.4,15.6,350,5,,7.0,30.0,1015.3,,TRUE,TRUE,,,,,,,CLR,,,,,,,,VFR,,,,,,,,,,,,METAR,178.0
KPVU 040056Z 32003KT 10SM CLR 18/08 A3016 RMK AO2 SLP189 T01830078,KPVU,2021-10-04T00:56:00Z,40.22,-111.72,18.3,7.8,320,3,,10.0,30.159449,1018.9,,,TRUE,,,,,,,CLR,,,,,,,,VFR,,,,,,,,,,,,METAR,1370.0
KPVG 040056Z AUTO 18005KT 10SM CLR 21/18 A3001 RMK AO2 SLP162 T02110183 PNO $,KPVG,2021-10-04T00:56:00Z,36.78,-76.45,21.1,18.3,180,5,,10.0,30.008858,1016.2,,TRUE,TRUE,TRUE,,,,,,CLR,,,,,,,,VFR,,,,,,,,,,,,METAR,7.0
KPVC 040056Z AUTO 06008KT 10SM OVC007 17/16 A2998 RMK AO2 SLP152 T01670156,KPVC,2021-10-04T00:56:00Z,42.07,-70.22,16.7,15.6,60,8,,10.0,29.97933,1015.2,,TRUE,TRUE,,,,,,,OVC,700,,,,,,,IFR,,,,,,,,,,,,METAR,1.0
KPTV 040056Z AUTO 35006KT 5SM HZ BKN023 OVC029 28/07 A2988 RMK AO2 SLP117 T02780067,KPTV,2021-10-04T00:56:00Z,36.02,-119.07,27.8,6.7,350,6,,5.0,29.878937,1011.7,,TRUE,TRUE,,,,,,HZ,BKN,2300,OVC,2900,,,,,MVFR,,,,,,,,,,,,METAR,132.0
KPTN 040056Z AUTO 00000KT 10SM OVC110 24/24 A2995 RMK AO2 SLP143 T02440244 $,KPTN,2021-10-04T00:56:00Z,29.72,-91.33,24.4,24.4,0,0,,10.0,29.949802,1014.3,,TRUE,TRUE,TRUE,,,,,,OVC,11000,,,,,,,VFR,,,,,,,,,,,,METAR,2.0
KPSM 040056Z 03005KT 8SM FEW012 OVC016 14/12 A3003 RMK AO2A SLP172 T01430118,KPSM,2021-10-04T00:56:00Z,43.08,-70.82,14.3,11.8,30,5,,8.0,30.029528,1017.2,,,TRUE,,,,,,,FEW,1200,OVC,1600,,,,,MVFR,,,,,,,,,,,,METAR,34.0
KPRX 040056Z AUTO 00000KT 10SM CLR 23/15 A3000 RMK AO2 SLP169 T02330150,KPRX,2021-10-04T00:56:00Z,33.63,-95.45,23.3,15.0,0,0,,10.0,30.0,1016.9,,TRUE,TRUE,,,,,,,CLR,,,,,,,,VFR,,,,,,,,,,,,METAR,165.0
KPQI 040056Z AUTO 00000KT 10SM OVC048 06/06 A3009 RMK AO2 SLP219 T00560056,KPQI,2021-10-04T00:56:00Z,46.68,-68.05,5.6,5.6,0,0,,10.0,30.088583,1021.9,,TRUE,TRUE,,,,,,,OVC,4800,,,,,,,VFR,,,,,,,,,,,,METAR,154.0
KPOB 040056Z AUTO 20009KT 10SM CLR 24/17 A3001 RMK AO2 SLP164 T02410166 $,KPOB,2021-10-04T00:56:00Z,35.17,-79.02,24.1,16.6,200,9,,10.0,30.008858,1016.4,,TRUE,TRUE,TRUE,,,,,,CLR,,,,,,,,VFR,,,,,,,,,,,,METAR,57.0
KPIB 040056Z AUTO 00000KT 10SM CLR 22/22 A2996 RMK AO2 SLP145 T02170217,KPIB,2021-10-04T00:56:00Z,31.47,-89.33,21.7,21.7,0,0,,10.0,29.958662,1014.5,,TRUE,TRUE,,,,,,,CLR,,,,,,,,VFR,,,,,,,,,,,,METAR,91.0
KPAM 040056Z AUTO 11004KT 10SM CLR 23/20 A2998 RMK AO2 SLP155 T02250204 $,KPAM,2021-10-04T00:56:00Z,30.07,-85.57,22.5,20.4,110,4,,10.0,29.97933,1015.5,,TRUE,TRUE,TRUE,,,,,,CLR,,,,,,,,VFR,,,,,,,,,,,,METAR,4.0
KP60 040056Z AUTO 00000KT 09/M04 A3036 RMK AO1 SLP265 T00891039,KP60,2021-10-04T00:56:00Z,44.55,-110.42,8.9,-3.9,0,0,,,30.360237,1026.5,,TRUE,TRUE,,,,,,,,,,,,,,,,,,,,,,,,,,,METAR,2377.0
KP53 040056Z AUTO 00000KT 17/16 A2988 RMK AO1 SLP118 P0002 T01670161,KP53,2021-10-04T00:56:00Z,46.42,-86.65,16.7,16.1,0,0,,,29.878937,1011.8,,TRUE,TRUE,,,,,,,,,,,,,,,,,,,,,0.02,,,,,,METAR,185.0
KP28 040056Z AUTO 00000KT 21/08 A3005 RMK AO1 SLP168 T02110078 $,KP28,2021-10-04T00:56:00Z,37.28,-98.55,21.1,7.8,0,0,,,30.050198,1016.8,,TRUE,TRUE,TRUE,,,,,,,,,,,,,,,,,,,,,,,,,,METAR,469.0
KOZR 040056Z AUTO 00000KT 10SM FEW080 23/19 A3000 RMK AO2 SLP159 T02320189 $,KOZR,2021-10-04T00:56:00Z,31.28,-85.72,23.2,18.9,0,0,,10.0,30.0,1015.9,,TRUE,TRUE,TRUE,,,,,,FEW,8000,,,,,,,VFR,,,,,,,,,,,,METAR,90.0
KOYM 040056Z AUTO 24003KT 10SM OVC006 18/18 A2997 RMK AO2,KOYM,2021-10-04T00:56:00Z,41.42,-78.5,18.0,18.0,240,3,,10.0,29.970472,,,TRUE,TRUE,,,,,,,OVC,600,,,,,,,IFR,,,,,,,,,,,,METAR,582.0
KOWB 040056Z 25005KT 10SM OVC075 22/18 A2990 RMK AO2 SLP124 T02170178 $,KOWB,2021-10-04T00:56:00Z,37.72,-87.17,21.7,17.8,250,5,,10.0,29.899607,1012.4,,,TRUE,TRUE,,,,,,OVC,7500,,,,,,,VFR,,,,,,,,,,,,METAR,121.0
KOTH 040056Z 36016KT 10SM CLR 16/12 A3003 RMK AO2 SLP168 T01560117,KOTH,2021-10-04T00:56:00Z,43.42,-124.25,15.6,11.7,360,16,,10.0,30.029528,1016.8,,,TRUE,,,,,,,CLR,,,,,,,,VFR,,,,,,,,,,,,METAR,3.0
KOTG 040056Z AUTO 00000KT 10SM CLR 16/08 A3000 RMK AO2 SLP164 T01610083,KOTG,2021-10-04T00:56:00Z,43.65,-95.57,16.1,8.3,0,0,,10.0,30.0,1016.4,,TRUE,TRUE,,,,,,,CLR,,,,,,,,VFR,,,,,,,,,,,,METAR,478.0
KOLU 040056Z AUTO 00000KT 10SM CLR 16/11 A3003 RMK AO2 SLP172 T01560106,KOLU,2021-10-04T00:56:00Z,41.45,-97.33,15.6,10.6,0,0,,10.0,30.029528,1017.2,,TRUE,TRUE,,,,,,,CLR,,,,,,,,VFR,,,,,,,,,,,,METAR,438.0
KOKK 040056Z AUTO 31003KT 10SM SCT060 BKN090 17/ A2985 RMK AO2 SLP104 P0012 T0172,KOKK,2021-10-04T00:56:00Z,40.53,-86.07,17.2,,310,3,,10.0,29.84941,1010.4,,TRUE,TRUE,,,,,,,SCT,6000,BKN,9000,,,,,VFR,,,,,,0.12,,,,,,METAR,251.0
KOFK 040056Z AUTO 00000KT 10SM CLR 14/09 A3002 RMK AO2 SLP166 T01440089,KOFK,2021-10-04T00:56:00Z,41.98,-97.43,14.4,8.9,0,0,,10.0,30.02067,1016.6,,TRUE,TRUE,,,,,,,CLR,,,,,,,,VFR,,,,,,,,,,,,METAR,476.0
KOFF 040056Z 00000KT 10SM CLR 19/07 A3001 RMK AO2A SLP164 T01920070 PWINO PNO FZRANO TSNO VISNO RWY12 CHINO RWY12 $,KOFF,2021-10-04T00:56:00Z,41.12,-95.92,19.2,7.0,0,0,,10.0,30.008858,1016.4,,,TRUE,TRUE,,TRUE,TRUE,TRUE,,CLR,,,,,,,,VFR,,,,,,,,,,,,METAR,308.0
KOCH 040056Z AUTO 00000KT 10SM CLR 23/17 A2997 RMK AO2 SLP151 T02280172 PWINO,KOCH,2021-10-04T00:56:00Z,31.57,-94.72,22.8,17.2,0,0,,10.0,29.970472,1015.1,,TRUE,TRUE,,,,,TRUE,,CLR,,,,,,,,VFR,,,,,,,,,,,,METAR,105.0
KOAJ 040056Z 18004KT 10SM CLR 19/16 A3005 RMK AO2 SLP179 T01940161,KOAJ,2021-10-04T00:56:00Z,34.82,-77.62,19.4,16.1,180,4,,10.0,30.050198,1017.9,,,TRUE,,,,,,,CLR,,,,,,,,VFR,,,,,,,,,,,,METAR,26.0
KNYG 040056Z AUTO 20005KT 9SM OVC100 24/19 A2993 RMK AO2 SLP137 T02440194,KNYG,2021-10-04T00:56:00Z,38.5,-77.3,24.4,19.4,200,5,,9.0,29.929134,1013.7,,TRUE,TRUE,,,,,,,OVC,10000,,,,,,,VFR,,,,,,,,,,,,METAR,2.0
KNXP 040056Z AUTO 14007KT 10SM CLR 31/M01 A3000 RMK AO2 SLP127 T03111011,KNXP,2021-10-04T00:56:00Z,34.28,-116.13,31.1,-1.1,140,7,,10.0,30.0,1012.7,,TRUE,TRUE,,,,,,,CLR,,,,,,,,VFR,,,,,,,,,,,,SPECI,610.0
KNUW 040056Z 24006KT 10SM FEW016 BKN043 BKN220 13/08 A3016 RMK AO2 SLP211 T01280078 $,KNUW,2021-10-04T00:56:00Z,48.35,-122.65,12.8,7.8,240,6,,10.0,30.159449,1021.1,,,TRUE,TRUE,,,,,,FEW,1600,BKN,4300,BKN,22000,,,VFR,,,,,,,,,,,,METAR,14.0
KNTU 040056Z 20010KT 10SM BKN200 25/17 A2999 RMK AO2 SLP158 T02500167,KNTU,2021-10-04T00:56:00Z,36.82,-76.02,25.0,16.7,200,10,,10.0,29.991142,1015.8,,,TRUE,,,,,,,BKN,20000,,,,,,,VFR,,,,,,,,,,,,METAR,6.0
KNSE 040056Z AUTO 14003KT 10SM BKN047 BKN060 23/22 A2999 RMK AO2 SLP140 T02280217 $,KNSE,2021-10-04T00:56:00Z,30.73,-87.02,22.8,21.7,140,3,,10.0,29.991142,1014.0,,TRUE,TRUE,TRUE,,,,,,BKN,4700,BKN,6000,,,,,VFR,,,,,,,,,,,,METAR,56.0
KNRS 040056Z AUTO 27003KT 10SM CLR A2990 RMK AO2 SLP126 $,KNRS,2021-10-04T00:56:00Z,32.57,-117.12,,,270,3,,10.0,29.899607,1012.6,,TRUE,TRUE,TRUE,,,,,,CLR,,,,,,,,VFR,,,,,,,,,,,,METAR,15.0
KNQI 040056Z AUTO 16004KT 10SM CLR 26/23 A2995 RMK AO2 SLP139 T02610233 $,KNQI,2021-10-04T00:56:00Z,27.5,-97.82,26.1,23.3,160,4,,10.0,29.949802,1013.9,,TRUE,TRUE,TRUE,,,,,,CLR,,,,,,,,VFR,,,,,,,,,,,,METAR,15.0
KNPA 040056Z 17009KT 10SM SCT021 SCT044 BKN090 26/22 A2997 RMK AO2 SLP151 T2 SET T02560217 $,KNPA,2021-10-04T00:56:00Z,30.35,-87.32,25.6,21.7,170,9,,10.0,29.970472,1015.1,,,TRUE,TRUE,,,,,,SCT,2100,SCT,4400,BKN,9000,,,VFR,,,,,,,,,,,,METAR,6.0
KNOG 040056Z AUTO 10SM 26/23 A2996 RMK AO2 SLP125 T02560228 PNO $,KNOG,2021-10-04T00:56:00Z,27.9,-98.05,25.6,22.8,,,,10.0,29.958662,1012.5,,TRUE,TRUE,TRUE,,,,,,,,,,,,,,,,,,,,,,,,,,METAR,72.0
KNMM 040056Z 18003KT 10SM SCT016 BKN060 BKN200 23/22 A2997 RMK AO2 TSE07B08E38 SLP156 OCNL LTG ICCC W CB DSNT W T1 SET T02330222 $,KNMM,2021-10-04T00:56:00Z,32.53,-88.53,23.3,22.2,180,3,,10.0,29.970472,1015.6,,,TRUE,TRUE,,,,,,SCT,1600,BKN,6000,BKN,20000,,,VFR,,,,,,,,,,,,SPECI,94.0
KNLC 040056Z 36006KT 3SM HZ FU OVC021 28/06 A2988 RMK AO2 SLP118 FU OVC021 RH/23 T02830056,KNLC,2021-10-04T00:56:00Z,36.32,-119.95,28.3,5.6,360,6,,3.0,29.878937,1011.8,,,TRUE,,,,,,HZ FU,OVC,2100,,,,,,,MVFR,,,,,,,,,,,,METAR,69.0
KNJK 040056Z AUTO 15003KT 10SM CLR 36/01 A2982 RMK AO2 SLP114 T03560011 $,KNJK,2021-10-04T00:56:00Z,32.82,-115.67,35.6,1.1,150,3,,10.0,29.819881,1011.4,,TRUE,TRUE,TRUE,,,,,,CLR,,,,,,,,VFR,,,,,,,,,,,,METAR,-15.0
KNID 040056Z AUTO 07004KT 10SM CLR 32/M03 A2994 RMK AO2 SLP125 T03221028 $,KNID,2021-10-04T00:56:00Z,35.68,-117.68,32.2,-2.8,70,4,,10.0,29.940945,1012.5,,TRUE,TRUE,TRUE,,,,,,CLR,,,,,,,,VFR,,,,,,,,,,,,SPECI,682.0
KNGP 040056Z AUTO 10SM CLR 27/23 A2995 RMK AO2 SLP141 T02670233 $,KNGP,2021-10-04T00:56:00Z,27.68,-97.28,26.7,23.3,,,,10.0,29.949802,1014.1,,TRUE,TRUE,TRUE,,,,,,CLR,,,,,,,,VFR,,,,,,,,,,,,METAR,5.0
KNFL 040056Z 02008KT 10SM CLR 25/M09 A3005 RMK AO2 SLP145 FU HZ ALQDS T02501089,KNFL,2021-10-04T00:56:00Z,39.42,-118.7,25.0,-8.9,20,8,,10.0,30.050198,1014.5,,,TRUE,,,,,,,CLR,,,,,,,,VFR,,,,,,,,,,,,METAR,1199.0
KNFE 040056Z AUTO VRB06KT 10SM CLR 23/17 A3000 RMK AO2 SLP162 T02330172,KNFE,2021-10-04T00:56:00Z,36.7,-76.13,23.3,17.2,0,6,,10.0,30.0,1016.2,,TRUE,TRUE,,,,,,,CLR,,,,,,,,VFR,,,,,,,,,,,,METAR,4.0
KNCA 040056Z AUTO 21004KT 10SM CLR 21/16 A3004 RMK AO2 SLP175 T02060161,KNCA,2021-10-04T00:56:00Z,34.72,-77.45,20.6,16.1,210,4,,10.0,30.041338,1017.5,,TRUE,TRUE,,,,,,,CLR,,,,,,,,VFR,,,,,,,,,,,,METAR,9.0
KNBT 040056Z AUTO 19004KT 10SM CLR 21/16 A3005 RMK AO2 SLP179 T02060161,KNBT,2021-10-04T00:56:00Z,35.02,-76.47,20.6,16.1,190,4,,10.0,30.050198,1017.9,,TRUE,TRUE,,,,,,,CLR,,,,,,,,VFR,,,,,,,,,,,,METAR,5.0
KNBC 040056Z AUTO 00000KT CLR 24/21 A3003 RMK AO2 SLP168 T02390206 $,KNBC,2021-10-04T00:56:00Z,32.47,-80.72,23.9,20.6,0,0,,,30.029528,1016.8,,TRUE,TRUE,TRUE,,,,,,CLR,,,,,,,,,,,,,,,,,,,,METAR,9.0
KMYR 040056Z 20004KT 10SM SCT065 23/23 A3005 RMK AO2 SLP174 T02330228,KMYR,2021-10-04T00:56:00Z,33.68,-78.92,23.3,22.8,200,4,,10.0,30.050198,1017.4,,,TRUE,,,,,,,SCT,6500,,,,,,,VFR,,,,,,,,,,,,METAR,7.0
KMXF 040056Z AUTO 18003KT 10SM CLR 22/21 A2997 RMK AO2 SLP150 T02220206,KMXF,2021-10-04T00:56:00Z,32.38,-86.37,22.2,20.6,180,3,,10.0,29.970472,1015.0,,TRUE,TRUE,,,,,,,CLR,,,,,,,,VFR,,,,,,,,,,,,METAR,47.0
KMVN 040056Z AUTO 26003KT 10SM FEW065 BKN085 19/ A2991 RMK AO2 SLP129 T0194,KMVN,2021-10-04T00:56:00Z,38.32,-88.87,19.4,,260,3,,10.0,29.911417,1012.9,,TRUE,TRUE,,,,,,,FEW,6500,BKN,8500,,,,,VFR,,,,,,,,,,,,METAR,145.0
KMTC 040056Z 17005KT 10SM -RA BKN024 BKN055 OVC100 19/19 A2982 RMK AO2A LTG DSNT NE TSB12E41 CB 15NE MOV NE SLP101 P0046 T01870187 $,KMTC,2021-10-04T00:56:00Z,42.62,-82.83,18.7,18.7,170,5,,10.0,29.819881,1010.1,,,TRUE,TRUE,,,,,-RA,BKN,2400,BKN,5500,OVC,10000,,,MVFR,,,,,,0.46,,,,,,METAR,177.0
KMSV 040056Z AUTO 00000KT 10SM FEW047 SCT055 BKN070 16/15 A2996 RMK AO2 SLP145 T01610150,KMSV,2021-10-04T00:56:00Z,41.7,-74.78,16.1,15.0,0,0,,10.0,29.958662,1014.5,,TRUE,TRUE,,,,,,,FEW,4700,SCT,5500,BKN,7000,,,VFR,,,,,,,,,,,,METAR,427.0
KMRF 040056Z AUTO 07006KT 10SM CLR 22/07 A3022 RMK AO2 SLP189 T02170072,KMRF,2021-10-04T00:56:00Z,30.37,-104.02,21.7,7.2,70,6,,10.0,30.221457,1018.9,,TRUE,TRUE,,,,,,,CLR,,,,,,,,VFR,,,,,,,,,,,,METAR,1476.0
KMQY 040056Z AUTO 18003KT 10SM CLR 22/20 A2995 RMK AO2 SLP147 T02170200,KMQY,2021-10-04T00:56:00Z,36.02,-86.52,21.7,20.0,180,3,,10.0,29.949802,1014.7,,TRUE,TRUE,,,,,,,CLR,,,,,,,,VFR,,,,,,,,,,,,METAR,156.0
KMOB 040056Z 15005KT 8SM BKN015 BKN026 BKN070 23/23 A2998 RMK AO2 RAE07 SLP150 P0000 T02330228 $,KMOB,2021-10-04T00:56:00Z,30.68,-88.25,23.3,22.8,150,5,,8.0,29.97933,1015.0,,,TRUE,TRUE,,,,,,BKN,1500,BKN,2600,BKN,7000,,,MVFR,,,,,,0.005,,,,,,METAR,67.0
KMNM 040056Z AUTO 05005KT 2SM -RA OVC002 18/ A2987 RMK AO2 RAB47 SLP115 P0000 T0178 $,KMNM,2021-10-04T00:56:00Z,45.12,-87.63,17.8,,50,5,,2.0,29.870079,1011.5,,TRUE,TRUE,TRUE,,,,,-RA,OVC,200,,,,,,,LIFR,,,,,,0.005,,,,,,METAR,188.0
KMMT 040056Z AUTO 12004KT 10SM CLR 21/21 A3001 RMK AO2 SLP164 T02130211 $,KMMT,2021-10-04T00:56:00Z,33.92,-80.8,21.3,21.1,120,4,,10.0,30.008858,1016.4,,TRUE,TRUE,TRUE,,,,,,CLR,,,,,,,,VFR,,,,,,,,,,,,METAR,76.0
KMML 040056Z AUTO 01008KT 10SM CLR 19/09 A2999 RMK AO2 SLP159 T01890089,KMML,2021-10-04T00:56:00Z,44.45,-95.82,18.9,8.9,10,8,,10.0,29.991142,1015.9,,TRUE,TRUE,,,,,,,CLR,,,,,,,,VFR,,,,,,,,,,,,METAR,358.0
KMKY 040056Z AUTO 00000KT 10SM FEW044 OVC080 26/23 A2999 RMK AO2 RAE31 SLP154 P0000 T02560228 TSNO $,KMKY,2021-10-04T00:56:00Z,26.0,-81.67,25.6,22.8,0,0,,10.0,29.991142,1015.4,,TRUE,TRUE,TRUE,,TRUE,,,,FEW,4400,OVC,8000,,,,,VFR,,,,,,0.005,,,,,,METAR,2.0
KMKT 040056Z AUTO 03005KT 10SM CLR 18/08 A2997 RMK AO2 SLP153 T01780083,KMKT,2021-10-04T00:56:00Z,44.22,-93.92,17.8,8.3,30,5,,10.0,29.970472,1015.3,,TRUE,TRUE,,,,,,,CLR,,,,,,,,VFR,,,,,,,,,,,,METAR,309.0
KMIB 040056Z AUTO 00000KT 9SM CLR 16/M07 A2988 RMK AO2 SLP128 T01621075 $,KMIB,2021-10-04T00:56:00Z,48.42,-101.35,16.2,-7.5,0,0,,9.0,29.878937,1012.8,,TRUE,TRUE,TRUE,,,,,,CLR,,,,,,,,VFR,,,,,,,,,,,,METAR,505.0
KMHS 040056Z AUTO 00000KT 10SM CLR 25/01 A3001 RMK AO2 SLP162 T02500011 $,KMHS,2021-10-04T00:56:00Z,41.32,-122.32,25.0,1.1,0,0,,10.0,30.008858,1016.2,,TRUE,TRUE,TRUE,,,,,,CLR,,,,,,,,VFR,,,,,,,,,,,,METAR,1080.0
KMGE 040056Z 14002KT 10SM FEW035 BKN080 BKN250 21/20 A3002 RMK AO2A SLP160 T02060199 $,KMGE,2021-10-04T00:56:00Z,33.92,-84.52,20.6,19.9,140,2,,10.0,30.02067,1016.0,,,TRUE,TRUE,,,,,,FEW,3500,BKN,8000,BKN,25000,,,VFR,,,,,,,,,,,,METAR,309.0
KMEH 040056Z AUTO 00000KT 10SM CLR 16/M01 A3008 RMK AO2 SLP190 T01561011,KMEH,2021-10-04T00:56:00Z,45.52,-118.42,15.6,-1.1,0,0,,10.0,30.079725,1019.0,,TRUE,TRUE,,,,,,,CLR,,,,,,,,VFR,,,,,,,,,,,,METAR,1138.0
KMDT 040056Z 00000KT 10SM BKN060 OVC070 22/17 A2990 RMK AO2 SLP125 T02170172 $,KMDT,2021-10-04T00:56:00Z,40.2,-76.77,21.7,17.2,0,0,,10.0,29.899607,1012.5,,,TRUE,TRUE,,,,,,BKN,6000,OVC,7000,,,,,VFR,,,,,,,,,,,,METAR,91.0
KMCF 040056Z AUTO 01004KT 10SM FEW065 26/18 A2996 RMK AO2 SLP148 T02570176 FZRANO $,KMCF,2021-10-04T00:56:00Z,27.85,-82.52,25.7,17.6,10,4,,10.0,29.958662,1014.8,,TRUE,TRUE,TRUE,,,TRUE,,,FEW,6500,,,,,,,VFR,,,,,,,,,,,,METAR,3.0
KMBL 040056Z AUTO 00000KT 5SM BR OVC095 17/17 A2983 RMK AO2 SLP102 T01670167,KMBL,2021-10-04T00:56:00Z,44.27,-86.25,16.7,16.7,0,0,,5.0,29.828741,1010.2,,TRUE,TRUE,,,,,,BR,OVC,9500,,,,,,,MVFR,,,,,,,,,,,,METAR,187.0
KM19 040056Z AUTO 31005KT 10SM CLR 21/17 A2996 RMK AO2 RAB21E31 SLP142 P0000 T02110167,KM19,2021-10-04T00:56:00Z,35.65,-91.17,21.1,16.7,310,5,,10.0,29.958662,1014.2,,TRUE,TRUE,,,,,,,CLR,,,,,,,,VFR,,,,,,0.005,,,,,,METAR,72.0
KLZU 040056Z AUTO 00000KT 6SM BR OVC005 22/21 A3003 RMK AO2 TSB10E36RAE36 CIG 003V008 SLP173 T02170211,KLZU,2021-10-04T00:56:00Z,33.98,-83.97,21.7,21.1,0,0,,6.0,30.029528,1017.3,,TRUE,TRUE,,,,,,BR,OVC,500,,,,,,,IFR,,,,,,,,,,,,METAR,316.0
KLWS 040056Z 31004KT 10SM CLR 23/01 A2999 RMK AO2 SLP151 T02330011,KLWS,2021-10-04T00:56:00Z,46.37,-117.02,23.3,1.1,310,4,,10.0,29.991142,1015.1,,,TRUE,,,,,,,CLR,,,,,,,,VFR,,,,,,,,,,,,METAR,435.0
KLTS 040056Z AUTO 14004KT 10SM CLR 22/13 A3002 RMK AO2 VIS 1 1/4 RWY35R SLP158 T02180129 $,KLTS,2021-10-04T00:56:00Z,34.67,-99.27,21.8,12.9,140,4,,10.0,30.02067,1015.8,,TRUE,TRUE,TRUE,,,,,,CLR,,,,,,,,VFR,,,,,,,,,,,,METAR,416.0
KLSF 040056Z AUTO 15003KT 10SM SCT085 OVC100 22/18 A2999 RMK AO2 SLP159 T02170183,KLSF,2021-10-04T00:56:00Z,32.32,-84.97,21.7,18.3,150,3,,10.0,29.991142,1015.9,,TRUE,TRUE,,,,,,,SCT,8500,OVC,10000,,,,,VFR,,,,,,,,,,,,METAR,68.0
KLRF 040056Z AUTO 04003KT 10SM CLR 21/19 A2994 RMK AO2 SLP139 T02060185,KLRF,2021-10-04T00:56:00Z,34.92,-92.12,20.6,18.5,40,3,,10.0,29.940945,1013.9,,TRUE,TRUE,,,,,,,CLR,,,,,,,,VFR,,,,,,,,,,,,METAR,85.0
KLRD 040056Z 06006KT 10SM CLR 31/19 A2994 RMK AO2 SLP136 T03110194,KLRD,2021-10-04T00:56:00Z,27.55,-99.47,31.1,19.4,60,6,,10.0,29.940945,1013.6,,,TRUE,,,,,,,CLR,,,,,,,,VFR,,,,,,,,,,,,METAR,150.0
KLPC 040056Z AUTO 27007KT 10SM CLR 16/13 A2991 RMK AO2 SLP129 T01560128,KLPC,2021-10-04T00:56:00Z,34.67,-120.47,15.6,12.8,270,7,,10.0,29.911417,1012.9,,TRUE,TRUE,,,,,,,CLR,,,,,,,,VFR,,,,,,,,,,,,METAR,26.0
KLNR 040056Z AUTO 31007KT 290V360 10SM BKN023 OVC030 19/16 A2988 RMK AO2 SLP111 T01940156,KLNR,2021-10-04T00:56:00Z,43.22,-90.18,19.4,15.6,310,7,,10.0,29.878937,1011.1,,TRUE,TRUE,,,,,,,BKN,2300,OVC,3000,,,,,MVFR,,,,,,,,,,,,METAR,218.0
KLHW 040056Z AUTO 15003KT 10SM M 24/21 A3000 RMK AO2 SLP162 T02360209 CHINO RWY15 $,KLHW,2021-10-04T00:56:00Z,31.88,-81.57,23.6,20.9,150,3,,10.0,30.0,1016.2,,TRUE,TRUE,TRUE,,,,,,,,,,,,,,,,,,,,,,,,,,METAR,14.0
KLGD 040056Z AUTO 02004KT 10SM CLR 24/07 A3000 RMK AO2 SLP153 T02390067,KLGD,2021-10-04T00:56:00Z,45.28,-118.0,23.9,6.7,20,4,,10.0,30.0,1015.3,,TRUE,TRUE,,,,,,,CLR,,,,,,,,VFR,,,,,,,,,,,,METAR,827.0
KLFI 040056Z 22005KT 10SM FEW070 SCT120 24/20 A2998 RMK AO2A SLP159 T02420195 $,KLFI,2021-10-04T00:56:00Z,37.08,-76.33,24.2,19.5,220,5,,10.0,29.97933,1015.9,,,TRUE,TRUE,,,,,,FEW,7000,SCT,12000,,,,,VFR,,,,,,,,,,,,METAR,2.0
KLEW 040056Z AUTO 00000KT 10SM BKN004 BKN009 OVC039 12/11 A3005 RMK AO2 RAE52 SLP185 P0001 T01170111,KLEW,2021-10-04T00:56:00Z,44.03,-70.28,11.7,11.1,0,0,,10.0,30.050198,1018.5,,TRUE,TRUE,,,,,,,BKN,400,BKN,900,OVC,3900,,,LIFR,,,,,,0.01,,,,,,METAR,81.0
KLCI 040056Z AUTO 07007KT 9SM BKN008 OVC013 13/13 A3002 RMK AO2 CIG 006V011 SLP168 T01280128,KLCI,2021-10-04T00:56:00Z,43.57,-71.42,12.8,12.8,70,7,,9.0,30.02067,1016.8,,TRUE,TRUE,,,,,,,BKN,800,OVC,1300,,,,,IFR,,,,,,,,,,,,METAR,166.0
KLBL 040056Z AUTO 08005KT 10SM CLR 22/07 A3011 RMK AO2 SLP179 T02170067,KLBL,2021-10-04T00:56:00Z,37.03,-100.97,21.7,6.7,80,5,,10.0,30.109253,1017.9,,TRUE,TRUE,,,,,,,CLR,,,,,,,,VFR,,,,,,,,,,,,METAR,877.0
KLAS 040056Z 00000KT 10SM FEW120 32/00 A2995 RMK AO2 SLP121 T03170000,KLAS,2021-10-04T00:56:00Z,36.07,-115.17,31.7,0.0,0,0,,10.0,29.949802,1012.1,,,TRUE,,,,,,,FEW,12000,,,,,,,VFR,,,,,,,,,,,,METAR,662.0
KKLS 040056Z AUTO VRB03KT 10SM OVC027 16/12 A3007 RMK AO2 SLP187 T01610122,KKLS,2021-10-04T00:56:00Z,46.12,-122.9,16.1,12.2,0,3,,10.0,30.070866,1018.7,,TRUE,TRUE,,,,,,,OVC,2700,,,,,,,MVFR,,,,,,,,,,,,METAR,4.0
KJYG 040056Z AUTO 00000KT 10SM CLR 14/09 A2997 RMK AO2,KJYG,2021-10-04T00:56:00Z,43.98,-94.55,14.0,9.0,0,0,,10.0,29.970472,,,TRUE,TRUE,,,,,,,CLR,,,,,,,,VFR,,,,,,,,,,,,METAR,323.0
KJXN 040056Z 00000KT 10SM FEW039 SCT110 20/18 A2982 RMK AO2 SLP092 T02000178,KJXN,2021-10-04T00:56:00Z,42.27,-84.47,20.0,17.8,0,0,,10.0,29.819881,1009.2,,,TRUE,,,,,,,FEW,3900,SCT,11000,,,,,VFR,,,,,,,,,,,,METAR,303.0
KJRB 040056Z AUTO 00000KT 10SM CLR 23/19 A2993 RMK AO2 SLP133 T02280189,KJRB,2021-10-04T00:56:00Z,40.7,-74.02,22.8,18.9,0,0,,10.0,29.929134,1013.3,,TRUE,TRUE,,,,,,,CLR,,,,,,,,VFR,,,,,,,,,,,,METAR,2.0
KJMS 040056Z AUTO 19008KT 10SM CLR 17/07 A2994 RMK AO2 SLP143 T01720072,KJMS,2021-10-04T00:56:00Z,46.93,-98.67,17.2,7.2,190,8,,10.0,29.940945,1014.3,,TRUE,TRUE,,,,,,,CLR,,,,,,,,VFR,,,,,,,,,,,,METAR,455.0
KJHW 040056Z AUTO 21007KT 10SM OVC005 18/18 A2991 RMK AO2 RAE06 CIG 002V007 SLP130 P0000 T01780178,KJHW,2021-10-04T00:56:00Z,42.15,-79.27,17.8,17.8,210,7,,10.0,29.911417,1013.0,,TRUE,TRUE,,,,,,,OVC,500,,,,,,,IFR,,,,,,0.005,,,,,,METAR,520.0
KJAX 040056Z 00000KT 10SM SCT100 OVC200 24/21 A3001 RMK AO2 SLP162 T02390206,KJAX,2021-10-04T00:56:00Z,30.5,-81.68,23.9,20.6,0,0,,10.0,30.008858,1016.2,,,TRUE,,,,,,,SCT,10000,OVC,20000,,,,,VFR,,,,,,,,,,,,METAR,8.0
KJAC 040056Z 29005KT 10SM CLR 16/M07 RMK AO2 SLPNO T01611072 $,KJAC,2021-10-04T00:56:00Z,43.62,-110.73,16.1,-7.2,290,5,,10.0,,,,,TRUE,TRUE,,,,,,CLR,,,,,,,,VFR,,,,,,,,,,,,METAR,1967.0
KIWD 040056Z AUTO 35005KT 4SM BR OVC003 13/13 A2998 RMK AO2 RAE18 SLP156 P0000 T01280128,KIWD,2021-10-04T00:56:00Z,46.52,-90.12,12.8,12.8,350,5,,4.0,29.97933,1015.6,,TRUE,TRUE,,,,,,BR,OVC,300,,,,,,,LIFR,,,,,,0.005,,,,,,METAR,373.0
KISP 040056Z 16003KT 9SM SCT006 BKN140 OVC250 20/20 A2994 RMK AO2 SLP137 T02000200,KISP,2021-10-04T00:56:00Z,40.8,-73.1,20.0,20.0,160,3,,9.0,29.940945,1013.7,,,TRUE,,,,,,,SCT,600,BKN,14000,OVC,25000,,,VFR,,,,,,,,,,,,METAR,25.0
KISO 040056Z 18006KT 10SM CLR 22/17 A3004,KISO,2021-10-04T00:56:00Z,35.32,-77.62,22.0,17.0,180,6,,10.0,30.041338,,,,,,,,,,,CLR,,,,,,,,VFR,,,,,,,,,,,,METAR,27.0
KISM 040056Z 09008KT 10SM CLR 27/18 A3002 RMK AO2 SLP165 T02700180 PNO $,KISM,2021-10-04T00:56:00Z,28.28,-81.43,27.0,18.0,90,8,,10.0,30.02067,1016.5,,,TRUE,TRUE,,,,,,CLR,,,,,,,,VFR,,,,,,,,,,,,METAR,25.0
KINW 040056Z AUTO 06003KT 10SM CLR 24/03 A3016 RMK AO2 SLP165 T02390028 $,KINW,2021-10-04T00:56:00Z,35.03,-110.72,23.9,2.8,60,3,,10.0,30.159449,1016.5,,TRUE,TRUE,TRUE,,,,,,CLR,,,,,,,,VFR,,,,,,,,,,,,METAR,1492.0
KILE 040056Z AUTO 02003KT 10SM CLR 24/17 A3001 RMK AO2 SLP152 T02440172,KILE,2021-10-04T00:56:00Z,31.08,-97.68,24.4,17.2,20,3,,10.0,30.008858,1015.2,,TRUE,TRUE,,,,,,,CLR,,,,,,,,VFR,,,,,,,,,,,,METAR,256.0
KIAB 040056Z AUTO 29003KT 10SM CLR 22/08 A3003 RMK AO2 VIS 2 1/2 RWY19 SLP165 T02220083 $,KIAB,2021-10-04T00:56:00Z,37.62,-97.27,22.2,8.3,290,3,,10.0,30.029528,1016.5,,TRUE,TRUE,TRUE,,,,,,CLR,,,,,,,,VFR,,,,,,,,,,,,METAR,413.0
KHYS 040056Z AUTO 10SM CLR 19/09 A3006 RMK AO2 SLP176 T01890089 $,KHYS,2021-10-04T00:56:00Z,38.85,-99.27,18.9,8.9,,,,10.0,30.059055,1017.6,,TRUE,TRUE,TRUE,,,,,,CLR,,,,,,,,VFR,,,,,,,,,,,,METAR,607.0
KHYI 040056Z 07004KT 10SM CLR 25/21 A2999 RMK AO2 SLP146 T02500211 PNO $,KHYI,2021-10-04T00:56:00Z,29.88,-97.87,25.0,21.1,70,4,,10.0,29.991142,1014.6,,,TRUE,TRUE,,,,,,CLR,,,,,,,,VFR,,,,,,,,,,,,METAR,180.0
KHYA 040056Z 00000KT 10SM BKN080 17/16 A2996 RMK AO2 SLP145 T01720161,KHYA,2021-10-04T00:56:00Z,41.67,-70.27,17.2,16.1,0,0,,10.0,29.958662,1014.5,,,TRUE,,,,,,,BKN,8000,,,,,,,VFR,,,,,,,,,,,,METAR,11.0
KHWV 040056Z AUTO 17003KT 7SM CLR 21/18 A2994 RMK AO2 SLP139 T02060183,KHWV,2021-10-04T00:56:00Z,40.82,-72.87,20.6,18.3,170,3,,7.0,29.940945,1013.9,,TRUE,TRUE,,,,,,,CLR,,,,,,,,VFR,,,,,,,,,,,,METAR,20.0
KHST 040056Z AUTO 06004KT 10SM FEW085 25/21 A2996 RMK AO2 SLP149 T02510214,KHST,2021-10-04T00:56:00Z,25.48,-80.37,25.1,21.4,60,4,,10.0,29.958662,1014.9,,TRUE,TRUE,,,,,,,FEW,8500,,,,,,,VFR,,,,,,,,,,,,METAR,1.0
KHRT 040056Z AUTO 00000KT 10SM OVC065 25/21 A2997 RMK AO2 SLP150 T02540210,KHRT,2021-10-04T00:56:00Z,30.42,-86.68,25.4,21.0,0,0,,10.0,29.970472,1015.0,,TRUE,TRUE,,,,,,,OVC,6500,,,,,,,VFR,,,,,,,,,,,,METAR,10.0
KHPN 040056Z 00000KT 10SM BKN046 19/17 A2993 RMK AO2 SLP131 T01940172,KHPN,2021-10-04T00:56:00Z,41.07,-73.7,19.4,17.2,0,0,,10.0,29.929134,1013.1,,,TRUE,,,,,,,BKN,4600,,,,,,,VFR,,,,,,,,,,,,METAR,113.0
KHOP 040056Z AUTO 00000KT 10SM CLR 21/21 A2991 RMK AO2 SLP127 T02080206 $,KHOP,2021-10-04T00:56:00Z,36.67,-87.5,20.8,20.6,0,0,,10.0,29.911417,1012.7,,TRUE,TRUE,TRUE,,,,,,CLR,,,,,,,,VFR,,,,,,,,,,,,METAR,170.0
KHND 040056Z 02005KT 10SM CLR 31/01 A2999 RMK AO2 SLP148 T03110011,KHND,2021-10-04T00:56:00Z,35.98,-115.13,31.1,1.1,20,5,,10.0,29.991142,1014.8,,,TRUE,,,,,,,CLR,,,,,,,,VFR,,,,,,,,,,,,METAR,740.0
KHNB 040056Z AUTO 00000KT 10SM OVC080 20/19 A2990 RMK AO2 SLP120 T02000189,KHNB,2021-10-04T00:56:00Z,38.25,-86.95,20.0,18.9,0,0,,10.0,29.899607,1012.0,,TRUE,TRUE,,,,,,,OVC,8000,,,,,,,VFR,,,,,,,,,,,,METAR,159.0
KHHW 040056Z AUTO 00000KT 10SM CLR 22/14 A2999 RMK AO2,KHHW,2021-10-04T00:56:00Z,34.03,-95.55,22.0,14.0,0,0,,10.0,29.991142,,,TRUE,TRUE,,,,,,,CLR,,,,,,,,VFR,,,,,,,,,,,,METAR,178.0
KHFF 040056Z AUTO 22007KT 10SM CLR 23/18 A2999 RMK AO2 SLP156 T02270182 $,KHFF,2021-10-04T00:56:00Z,35.03,-79.5,22.7,18.2,220,7,,10.0,29.991142,1015.6,,TRUE,TRUE,TRUE,,,,,,CLR,,,,,,,,VFR,,,,,,,,,,,,METAR,100.0
KHEZ 040056Z AUTO 07003KT 10SM OVC110 22/21 A2996 RMK AO2 TSB03E18RAB2357E09 SLP145 P0000 T02220211,KHEZ,2021-10-04T00:56:00Z,31.62,-91.3,22.2,21.1,70,3,,10.0,29.958662,1014.5,,TRUE,TRUE,,,,,,,OVC,11000,,,,,,,VFR,,,,,,0.005,,,,,,METAR,82.0
KHEF 040056Z 18006KT 10SM FEW075 OVC095 23/18 A2993 RMK AO2 SLP137 T02330183 PNO $,KHEF,2021-10-04T00:56:00Z,38.72,-77.52,23.3,18.3,180,6,,10.0,29.929134,1013.7,,,TRUE,TRUE,,,,,,FEW,7500,OVC,9500,,,,,VFR,,,,,,,,,,,,METAR,53.0
KHDN 040056Z AUTO 32005KT 10SM CLR 17/M03 A3029 RMK AO2 SLP218 T01721033,KHDN,2021-10-04T00:56:00Z,40.48,-107.22,17.2,-3.3,320,5,,10.0,30.28937,1021.8,,TRUE,TRUE,,,,,,,CLR,,,,,,,,VFR,,,,,,,,,,,,METAR,2012.0
KGXY 040056Z AUTO 21004KT 10SM CLR 21/M01 A3014 RMK AO2 SLP199 T02061006,KGXY,2021-10-04T00:56:00Z,40.43,-104.62,20.6,-0.6,210,4,,10.0,30.138779,1019.9,,TRUE,TRUE,,,,,,,CLR,,,,,,,,VFR,,,,,,,,,,,,METAR,1420.0
KGVQ 040056Z AUTO 00000KT 2SM -RA BR OVC002 18/18 A2988 RMK AO2 SLP115 P0001 T01830183,KGVQ,2021-10-04T00:56:00Z,43.03,-78.17,18.3,18.3,0,0,,2.0,29.878937,1011.5,,TRUE,TRUE,,,,,,-RA BR,OVC,200,,,,,,,LIFR,,,,,,0.01,,,,,,METAR,279.0
KGUS 040056Z AUTO 00000KT 10SM OVC006 18/17 A2983 RMK AO2 SLP101 T01810174 $,KGUS,2021-10-04T00:56:00Z,40.63,-86.15,18.1,17.4,0,0,,10.0,29.828741,1010.1,,TRUE,TRUE,TRUE,,,,,,OVC,600,,,,,,,IFR,,,,,,,,,,,,METAR,245.0
KGUC 040056Z AUTO 32003KT 10SM BKN085 16/00 A3033 RMK AO2 SLP235 T01610000 PNO $,KGUC,2021-10-04T00:56:00Z,38.52,-106.93,16.1,0.0,320,3,,10.0,30.33071,1023.5,,TRUE,TRUE,TRUE,,,,,,BKN,8500,,,,,,,VFR,,,,,,,,,,,,METAR,2337.0
KGTU 040056Z 02004KT 10SM CLR 26/17 A3001 RMK AO2 SLP158 T02610167,KGTU,2021-10-04T00:56:00Z,30.68,-97.68,26.1,16.7,20,4,,10.0,30.008858,1015.8,,,TRUE,,,,,,,CLR,,,,,,,,VFR,,,,,,,,,,,,METAR,232.0
KGTR 040056Z AUTO 13008KT 10SM -RA FEW008 BKN013 OVC018 22/22 A2997 RMK AO2 RAB14 SLP153 T02220222 PNO $,KGTR,2021-10-04T00:56:00Z,33.45,-88.58,22.2,22.2,130,8,,10.0,29.970472,1015.3,,TRUE,TRUE,TRUE,,,,,-RA,FEW,800,BKN,1300,OVC,1800,,,MVFR,,,,,,,,,,,,METAR,80.0
KGTB 040056Z 05006KT 10SM OVC003 15/14 A2994 RMK AO2A SLP139 T01510143 $,KGTB,2021-10-04T00:56:00Z,44.07,-75.72,15.1,14.3,50,6,,10.0,29.940945,1013.9,,,TRUE,TRUE,,,,,,OVC,300,,,,,,,LIFR,,,,,,,,,,,,METAR,206.0
KGSB 040056Z AUTO 17005KT 10SM CLR 22/16 A3001 RMK AO2 SLP165 T02200158 $,KGSB,2021-10-04T00:56:00Z,35.33,-77.93,22.0,15.8,170,5,,10.0,30.008858,1016.5,,TRUE,TRUE,TRUE,,,,,,CLR,,,,,,,,VFR,,,,,,,,,,,,METAR,33.0
KGRK 040056Z AUTO 03004KT 10SM CLR 25/16 A2999 RMK AO2 SLP148 T02530159,KGRK,2021-10-04T00:56:00Z,31.07,-97.83,25.3,15.9,30,4,,10.0,29.991142,1014.8,,TRUE,TRUE,,,,,,,CLR,,,,,,,,VFR,,,,,,,,,,,,METAR,311.0
KGRD 040056Z AUTO 00000KT 10SM SCT120 22/19 A3004 RMK AO2 RAB04E13 SLP169 P0000 T02220189,KGRD,2021-10-04T00:56:00Z,34.25,-82.15,22.2,18.9,0,0,,10.0,30.041338,1016.9,,TRUE,TRUE,,,,,,,SCT,12000,,,,,,,VFR,,,,,,0.005,,,,,,METAR,188.0
KGPZ 040056Z AUTO 00000KT 10SM CLR 11/10 A3000 RMK AO2 SLP168 T01110100,KGPZ,2021-10-04T00:56:00Z,47.22,-93.52,11.1,10.0,0,0,,10.0,30.0,1016.8,,TRUE,TRUE,,,,,,,CLR,,,,,,,,VFR,,,,,,,,,,,,METAR,410.0
KGON 040056Z 00000KT 10SM SCT060 OVC075 19/17 A2995 RMK AO2 SLP140 T01940172,KGON,2021-10-04T00:56:00Z,41.33,-72.05,19.4,17.2,0,0,,10.0,29.949802,1014.0,,,TRUE,,,,,,,SCT,6000,OVC,7500,,,,,VFR,,,,,,,,,,,,METAR,2.0
KGNR 040056Z AUTO 09004KT 10/08 A3003 RMK AO1 SLP177 T01000078,KGNR,2021-10-04T00:56:00Z,45.47,-69.55,10.0,7.8,90,4,,,30.029528,1017.7,,TRUE,TRUE,,,,,,,,,,,,,,,,,,,,,,,,,,,METAR,426.0
KGNA 040056Z AUTO 24003KT 14/13 A2998 RMK AO1 SLP152 T01440128,KGNA,2021-10-04T00:56:00Z,47.75,-90.35,14.4,12.8,240,3,,,29.97933,1015.2,,TRUE,TRUE,,,,,,,,,,,,,,,,,,,,,,,,,,,METAR,186.0
KGDV 040056Z AUTO 30007KT 10SM CLR 19/M07 A2998 RMK AO2 SLP150 T01941072,KGDV,2021-10-04T00:56:00Z,47.13,-104.8,19.4,-7.2,300,7,,10.0,29.97933,1015.0,,TRUE,TRUE,,,,,,,CLR,,,,,,,,VFR,,,,,,,,,,,,METAR,749.0
KGBD 040056Z AUTO 00000KT 10SM CLR 19/09 A3006 RMK AO2 RAE12 SLP175 P0000 T01940094,KGBD,2021-10-04T00:56:00Z,38.35,-98.87,19.4,9.4,0,0,,10.0,30.059055,1017.5,,TRUE,TRUE,,,,,,,CLR,,,,,,,,VFR,,,,,,0.005,,,,,,METAR,573.0
KGAI 040056Z AUTO 16005KT 10SM CLR 23/19 A2994 RMK AO2 SLP148 T02330194 PNO $,KGAI,2021-10-04T00:56:00Z,39.17,-77.17,23.3,19.4,160,5,,10.0,29.940945,1014.8,,TRUE,TRUE,TRUE,,,,,,CLR,,,,,,,,VFR,,,,,,,,,,,,METAR,151.0
KGAD 040056Z AUTO 00000KT 10SM 21/21 A3000 RMK AO2 SLP160 T02060206 $,KGAD,2021-10-04T00:56:00Z,33.97,-86.08,20.6,20.6,0,0,,10.0,30.0,1016.0,,TRUE,TRUE,TRUE,,,,,,,,,,,,,,,,,,,,,,,,,,METAR,169.0
KFTK 040056Z AUTO 20006KT 10SM FEW049 SCT075 BKN110 19/19 A2989 RMK AO2 SLP119 T01880186 $,KFTK,2021-10-04T00:56:00Z,37.9,-85.97,18.8,18.6,200,6,,10.0,29.890747,1011.9,,TRUE,TRUE,TRUE,,,,,,FEW,4900,SCT,7500,BKN,11000,,,VFR,,,,,,,,,,,,METAR,225.0
KFSI 040056Z AUTO 08004KT 9SM CLR 22/11 A3002 RMK AO2 SLP160 T02160110,KFSI,2021-10-04T00:56:00Z,34.65,-98.4,21.6,11.0,80,4,,9.0,30.02067,1016.0,,TRUE,TRUE,,,,,,,CLR,,,,,,,,VFR,,,,,,,,,,,,METAR,360.0
KFSD 040056Z 31005KT 10SM FEW150 17/09 A2999 RMK AO2 SLP158 P0000 T01720094,KFSD,2021-10-04T00:56:00Z,43.58,-96.75,17.2,9.4,310,5,,10.0,29.991142,1015.8,,,TRUE,,,,,,,FEW,15000,,,,,,,VFR,,,,,,0.005,,,,,,METAR,433.0
KFRM 040056Z AUTO 34003KT 10SM CLR 17/08 A2998 RMK AO2 SLP156 T01720083,KFRM,2021-10-04T00:56:00Z,43.63,-94.42,17.2,8.3,340,3,,10.0,29.97933,1015.6,,TRUE,TRUE,,,,,,,CLR,,,,,,,,VFR,,,,,,,,,,,,METAR,353.0
KFRI 040056Z AUTO 00000KT 10SM CLR 20/06 A3000 RMK AO2 SLP154 T02030062,KFRI,2021-10-04T00:56:00Z,39.05,-96.77,20.3,6.2,0,0,,10.0,30.0,1015.4,,TRUE,TRUE,,,,,,,CLR,,,,,,,,VFR,,,,,,,,,,,,METAR,232.0
KFOD 040056Z AUTO 00000KT 10SM CLR 16/08 A2998 RMK AO2 SLP176 T01610078,KFOD,2021-10-04T00:56:00Z,42.53,-94.17,16.1,7.8,0,0,,10.0,29.97933,1017.6,,TRUE,TRUE,,,,,,,CLR,,,,,,,,VFR,,,,,,,,,,,,METAR,347.0
KFNL 040056Z 19005KT 10SM CLR 21/00 A3017 RMK AO2 SLP180 T02060000,KFNL,2021-10-04T00:56:00Z,40.45,-105.02,20.6,0.0,190,5,,10.0,30.171259,1018.0,,,TRUE,,,,,,,CLR,,,,,,,,VFR,,,,,,,,,,,,METAR,1529.0
KFLP 040056Z AUTO 00000KT 10SM CLR 19/17 A2999 RMK AO2 SLP152 T01890172,KFLP,2021-10-04T00:56:00Z,36.28,-92.58,18.9,17.2,0,0,,10.0,29.991142,1015.2,,TRUE,TRUE,,,,,,,CLR,,,,,,,,VFR,,,,,,,,,,,,METAR,215.0
KFKL 040056Z AUTO 21005KT 10SM OVC004 18/18 A2993 RMK AO2 SLP132 T01830183,KFKL,2021-10-04T00:56:00Z,41.37,-79.87,18.3,18.3,210,5,,10.0,29.929134,1013.2,,TRUE,TRUE,,,,,,,OVC,400,,,,,,,LIFR,,,,,,,,,,,,METAR,468.0
KFFO 040056Z 17007KT 10SM BKN046 19/16 A2988 RMK AO2A SLP118 T01930157,KFFO,2021-10-04T00:56:00Z,39.83,-84.03,19.3,15.7,170,7,,10.0,29.878937,1011.8,,,TRUE,,,,,,,BKN,4600,,,,,,,VFR,,,,,,,,,,,,METAR,250.0
KFCI 040056Z AUTO 21006KT 10SM CLR 21/19 A2997 RMK AO2 SLP159 T02110189,KFCI,2021-10-04T00:56:00Z,37.4,-77.52,21.1,18.9,210,6,,10.0,29.970472,1015.9,,TRUE,TRUE,,,,,,,CLR,,,,,,,,VFR,,,,,,,,,,,,METAR,63.0
KFBG 040056Z AUTO 18008KT 10SM CLR 24/17 A3001 RMK AO2 SLP164 T02360169 $,KFBG,2021-10-04T00:56:00Z,35.12,-78.92,23.6,16.9,180,8,,10.0,30.008858,1016.4,,TRUE,TRUE,TRUE,,,,,,CLR,,,,,,,,VFR,,,,,,,,,,,,METAR,69.0
KFAM 040056Z AUTO 27003KT 10SM CLR 18/18 A2996 RMK AO2 SLP150 T01830183,KFAM,2021-10-04T00:56:00Z,37.77,-90.42,18.3,18.3,270,3,,10.0,29.958662,1015.0,,TRUE,TRUE,,,,,,,CLR,,,,,,,,VFR,,,,,,,,,,,,METAR,276.0
KFAF 040056Z AUTO 18004KT 10SM BKN220 24/16 A2997 RMK AO2 SLP152 T02350158 $,KFAF,2021-10-04T00:56:00Z,37.13,-76.62,23.5,15.8,180,4,,10.0,29.970472,1015.2,,TRUE,TRUE,TRUE,,,,,,BKN,22000,,,,,,,VFR,,,,,,,,,,,,METAR,3.0
KEUL 040056Z AUTO 32004KT 10SM CLR 26/03 A3002 RMK AO2 SLP156 T02610028,KEUL,2021-10-04T00:56:00Z,43.63,-116.62,26.1,2.8,320,4,,10.0,30.02067,1015.6,,TRUE,TRUE,,,,,,,CLR,,,,,,,,VFR,,,,,,,,,,,,METAR,741.0
KESC 040056Z AUTO 07004KT 7SM OVC004 17/17 A2988 RMK AO2 SLP120 T01720167 $,KESC,2021-10-04T00:56:00Z,45.72,-87.08,17.2,16.7,70,4,,7.0,29.878937,1012.0,,TRUE,TRUE,TRUE,,,,,,OVC,400,,,,,,,LIFR,,,,,,,,,,,,METAR,180.0
KENV 040056Z AUTO 00000KT 10SM CLR 22/M05 A3015 RMK AO2 SLP193 T02221050,KENV,2021-10-04T00:56:00Z,40.72,-114.02,22.2,-5.0,0,0,,10.0,30.15059,1019.3,,TRUE,TRUE,,,,,,,CLR,,,,,,,,VFR,,,,,,,,,,,,METAR,1291.0
KEND 040056Z AUTO 00000KT 10SM CLR 21/11 A3003 RMK AO2 VIS 5/8 RWY17C SLP165 T02050111 $,KEND,2021-10-04T00:56:00Z,36.33,-97.92,20.5,11.1,0,0,,10.0,30.029528,1016.5,,TRUE,TRUE,TRUE,,,,,,CLR,,,,,,,,VFR,,,,,,,,,,,,METAR,392.0
KELZ 040056Z AUTO 24005KT 10SM SCT011 BKN014 OVC060 17/17 A2993 RMK AO2 SLP133 T01720172,KELZ,2021-10-04T00:56:00Z,42.1,-77.98,17.2,17.2,240,5,,10.0,29.929134,1013.3,,TRUE,TRUE,,,,,,,SCT,1100,BKN,1400,OVC,6000,,,MVFR,,,,,,,,,,,,METAR,639.0
KEKY 040056Z AUTO VRB04KT 10SM OVC008 22/22 A3000 RMK AO2 LTG DSNT NW CIG 005V011 SLPNO T02170217,KEKY,2021-10-04T00:56:00Z,33.32,-86.93,21.7,21.7,0,4,,10.0,30.0,,,TRUE,TRUE,,,,,,,OVC,800,,,,,,,IFR,,,,,,,,,,,,METAR,213.0
KEKQ 040056Z AUTO 20004KT 10SM FEW100 SCT110 19/19 A2997 RMK AO2 SLP140 T01890189,KEKQ,2021-10-04T00:56:00Z,36.85,-84.85,18.9,18.9,200,4,,10.0,29.970472,1014.0,,TRUE,TRUE,,,,,,,FEW,10000,SCT,11000,,,,,VFR,,,,,,,,,,,,METAR,291.0
KEKO 040056Z AUTO 00000KT 10SM CLR 24/M11 A3013 RMK AO2 SLP177 T02441106,KEKO,2021-10-04T00:56:00Z,40.82,-115.78,24.4,-10.6,0,0,,10.0,30.129921,1017.7,,TRUE,TRUE,,,,,,,CLR,,,,,,,,VFR,,,,,,,,,,,,METAR,1541.0
KEHR 040056Z AUTO 21004KT 10SM CLR 19/17 A2990 RMK AO2 SLP124 T01890172,KEHR,2021-10-04T00:56:00Z,37.82,-87.67,18.9,17.2,210,4,,10.0,29.899607,1012.4,,TRUE,TRUE,,,,,,,CLR,,,,,,,,VFR,,,,,,,,,,,,METAR,117.0
KEGI 040056Z AUTO 14003KT 10SM OVC060 24/21 A2998 RMK AO2 RAB01E14RAB14E14 SLP152 P0000 T02350210 $,KEGI,2021-10-04T00:56:00Z,30.65,-86.52,23.5,21.0,140,3,,10.0,29.97933,1015.2,,TRUE,TRUE,TRUE,,,,,,OVC,6000,,,,,,,VFR,,,,,,0.005,,,,,,METAR,59.0
KEGE 040056Z 22003KT 10SM CLR 18/M01 A3029 RMK AO2 SLP237 T01831006 PNO $,KEGE,2021-10-04T00:56:00Z,39.63,-106.92,18.3,-0.6,220,3,,10.0,30.28937,1023.7,,,TRUE,TRUE,,,,,,CLR,,,,,,,,VFR,,,,,,,,,,,,METAR,1993.0
KEEN 040056Z AUTO 02003KT 10SM -RA OVC013 16/15 A2999 RMK AO2 SLP159 P0002 T01560150 $,KEEN,2021-10-04T00:56:00Z,42.88,-72.27,15.6,15.0,20,3,,10.0,29.991142,1015.9,,TRUE,TRUE,TRUE,,,,,-RA,OVC,1300,,,,,,,MVFR,,,,,,0.02,,,,,,METAR,143.0
KEED 040056Z AUTO 06005KT 10SM CLR 35/02 A2986 RMK AO2 SLP083 T03500022,KEED,2021-10-04T00:56:00Z,34.77,-114.62,35.0,2.2,60,5,,10.0,29.861221,1008.3,,TRUE,TRUE,,,,,,,CLR,,,,,,,,VFR,,,,,,,,,,,,METAR,271.0
KEAU 040056Z 00000KT 10SM BKN020 OVC028 17/14 A2994 RMK AO2 SLP138 T01720139,KEAU,2021-10-04T00:56:00Z,44.87,-91.48,17.2,13.9,0,0,,10.0,29.940945,1013.8,,,TRUE,,,,,,,BKN,2000,OVC,2800,,,,,MVFR,,,,,,,,,,,,METAR,271.0
KEAR 040056Z AUTO 00000KT 10SM CLR 21/06 A3005 RMK AO2 SLP172 T02060056,KEAR,2021-10-04T00:56:00Z,40.72,-99.0,20.6,5.6,0,0,,10.0,30.050198,1017.2,,TRUE,TRUE,,,,,,,CLR,,,,,,,,VFR,,,,,,,,,,,,METAR,649.0
KDYS 040056Z AUTO 04005KT 10SM CLR 22/12 A3006 RMK AO2 SLP150 T02160119 $,KDYS,2021-10-04T00:56:00Z,32.42,-99.83,21.6,11.9,40,5,,10.0,30.059055,1015.0,,TRUE,TRUE,TRUE,,,,,,CLR,,,,,,,,VFR,,,,,,,,,,,,METAR,544.0
KDYR 040056Z AUTO 26003KT 10SM CLR 21/19 A2994 RMK AO2 SLP144 T02110189 PNO $,KDYR,2021-10-04T00:56:00Z,36.0,-89.4,21.1,18.9,260,3,,10.0,29.940945,1014.4,,TRUE,TRUE,TRUE,,,,,,CLR,,,,,,,,VFR,,,,,,,,,,,,METAR,98.0
KDWU 040056Z AUTO 00000KT 10SM CLR 18/18 A2993 RMK AO2 SLP132 T01780178,KDWU,2021-10-04T00:56:00Z,38.55,-82.73,17.8,17.8,0,0,,10.0,29.929134,1013.2,,TRUE,TRUE,,,,,,,CLR,,,,,,,,VFR,,,,,,,,,,,,METAR,165.0
KDVL 040056Z AUTO 19009KT 10SM CLR 20/09 A2990 RMK AO2 SLP706 T02000089,KDVL,2021-10-04T00:56:00Z,48.12,-98.92,20.0,8.9,190,9,,10.0,29.899607,970.6,,TRUE,TRUE,,,,,,,CLR,,,,,,,,VFR,,,,,,,,,,,,METAR,439.0
KDOV 040056Z AUTO 15004KT 10SM CLR 22/19 A2992 RMK AO2 SLP135 T02190187 $,KDOV,2021-10-04T00:56:00Z,39.12,-75.47,21.9,18.7,150,4,,10.0,29.920275,1013.5,,TRUE,TRUE,TRUE,,,,,,CLR,,,,,,,,VFR,,,,,,,,,,,,METAR,6.0
KDLF 040056Z AUTO 00000KT 10SM CLR 26/19 A2999 RMK AO2 SLP146 T02590188 $,KDLF,2021-10-04T00:56:00Z,29.37,-100.78,25.9,18.8,0,0,,10.0,29.991142,1014.6,,TRUE,TRUE,TRUE,,,,,,CLR,,,,,,,,VFR,,,,,,,,,,,,METAR,328.0
KDIK 040056Z AUTO 00000KT 10SM CLR 20/M03 A2996 RMK AO2 SLP142 T02001033,KDIK,2021-10-04T00:56:00Z,46.8,-102.8,20.0,-3.3,0,0,,10.0,29.958662,1014.2,,TRUE,TRUE,,,,,,,CLR,,,,,,,,VFR,,,,,,,,,,,,METAR,788.0
KDIJ 040056Z AUTO 02008KT 10SM CLR 14/M05 A3028 RMK AO2 SLP239 T01441050,KDIJ,2021-10-04T00:56:00Z,43.75,-111.1,14.4,-5.0,20,8,,10.0,30.280512,1023.9,,TRUE,TRUE,,,,,,,CLR,,,,,,,,VFR,,,,,,,,,,,,METAR,1896.0
KDAY 040056Z 18008KT 10SM FEW012 SCT048 BKN140 19/16 A2989 RMK AO2 SLP115 T01940161,KDAY,2021-10-04T00:56:00Z,39.9,-84.22,19.4,16.1,180,8,,10.0,29.890747,1011.5,,,TRUE,,,,,,,FEW,1200,SCT,4800,BKN,14000,,,VFR,,,,,,,,,,,,METAR,303.0
KDAA 040056Z AUTO 14004KT 10SM OVC100 22/20 A2992 RMK AO2 SLP134 T02230196 $,KDAA,2021-10-04T00:56:00Z,38.72,-77.17,22.3,19.6,140,4,,10.0,29.920275,1013.4,,TRUE,TRUE,TRUE,,,,,,OVC,10000,,,,,,,VFR,,,,,,,,,,,,METAR,17.0
KD07 040056Z AUTO 16008KT 20/01 A3000 RMK AO1 SLP157 T02000006 $,KD07,2021-10-04T00:56:00Z,45.03,-102.02,20.0,0.6,160,8,,,30.0,1015.7,,TRUE,TRUE,TRUE,,,,,,,,,,,,,,,,,,,,,,,,,,METAR,786.0
KCXY 040056Z 19005KT 10SM OVC055 23/18 A2990 RMK AO2 RAB21E30B47E56 SLP127 P0000 T02330183,KCXY,2021-10-04T00:56:00Z,40.22,-76.85,23.3,18.3,190,5,,10.0,29.899607,1012.7,,,TRUE,,,,,,,OVC,5500,,,,,,,VFR,,,,,,0.005,,,,,,METAR,102.0
KCWI 040056Z AUTO 34010KT 10SM OVC039 21/17 A2988 RMK AO2 SLP119 T02110172,KCWI,2021-10-04T00:56:00Z,41.82,-90.32,21.1,17.2,340,10,,10.0,29.878937,1011.9,,TRUE,TRUE,,,,,,,OVC,3900,,,,,,,VFR,,,,,,,,,,,,METAR,212.0
KCVO 040056Z AUTO 04009KT 10SM CLR 21/10 A3001 RMK AO2 SLP163 T02110100,KCVO,2021-10-04T00:56:00Z,44.5,-123.28,21.1,10.0,40,9,,10.0,30.008858,1016.3,,TRUE,TRUE,,,,,,,CLR,,,,,,,,VFR,,,,,,,,,,,,METAR,75.0
KCVN 040056Z AUTO 17005KT 10SM CLR 19/07 A3018 RMK AO2 SLP201 T01890072,KCVN,2021-10-04T00:56:00Z,34.42,-103.07,18.9,7.2,170,5,,10.0,30.180119,1020.1,,TRUE,TRUE,,,,,,,CLR,,,,,,,,VFR,,,,,,,,,,,,METAR,1278.0
KCVB 040056Z AUTO 00000KT CLR 28/19 A3000 RMK AO2 PWINO,KCVB,2021-10-04T00:56:00Z,29.35,-98.85,28.0,19.0,0,0,,,30.0,,,TRUE,TRUE,,,,,TRUE,,CLR,,,,,,,,,,,,,,,,,,,,SPECI,234.0
KCTB 040056Z AUTO 26011KT 10SM CLR 18/M04 A3001 RMK AO2 PK WND 25028/0002 SLP142 T01781039,KCTB,2021-10-04T00:56:00Z,48.6,-112.37,17.8,-3.9,260,11,,10.0,30.008858,1014.2,,TRUE,TRUE,,,,,,,CLR,,,,,,,,VFR,,,,,,,,,,,,METAR,1172.0
KCOF 040056Z AUTO 06004KT 10SM CLR 26/20 A2999 RMK AO2 SLP160 T02640195 $,KCOF,2021-10-04T00:56:00Z,28.23,-80.6,26.4,19.5,60,4,,10.0,29.991142,1016.0,,TRUE,TRUE,TRUE,,,,,,CLR,,,,,,,,VFR,,,,,,,,,,,,METAR,1.0
KCOE 040056Z AUTO 22003KT 10SM CLR 18/05 A3003 RMK AO2 SLP186 T01780050 PNO $,KCOE,2021-10-04T00:56:00Z,47.77,-116.82,17.8,5.0,220,3,,10.0,30.029528,1018.6,,TRUE,TRUE,TRUE,,,,,,CLR,,,,,,,,VFR,,,,,,,,,,,,METAR,693.0
KCOD 040056Z AUTO 13010KT 10SM CLR 20/M08 A3012 RMK AO2 SLP168 T02001078,KCOD,2021-10-04T00:56:00Z,44.52,-109.02,20.0,-7.8,130,10,,10.0,30.121063,1016.8,,TRUE,TRUE,,,,,,,CLR,,,,,,,,VFR,,,,,,,,,,,,METAR,1550.0
KCIU 040056Z AUTO 09005KT 9SM BKN004 OVC008 16/16 A2992 RMK AO2 CIG 004V007 SLPNO T01610156,KCIU,2021-10-04T00:56:00Z,46.25,-84.47,16.1,15.6,90,5,,9.0,29.920275,,,TRUE,TRUE,,,,,,,BKN,400,OVC,800,,,,,LIFR,,,,,,,,,,,,METAR,242.0
KCHS 040056Z 00000KT 10SM FEW018 FEW030 SCT200 23/21 A3003 RMK AO2 SLP168 T02280211,KCHS,2021-10-04T00:56:00Z,32.9,-80.03,22.8,21.1,0,0,,10.0,30.029528,1016.8,,,TRUE,,,,,,,FEW,1800,FEW,3000,SCT,20000,,,VFR,,,,,,,,,,,,METAR,12.0
KCGZ 040056Z AUTO 10SM CLR 32/07 A2990 RMK AO2 SLP113 T03220072,KCGZ,2021-10-04T00:56:00Z,32.95,-111.77,32.2,7.2,,,,10.0,29.899607,1011.3,,TRUE,TRUE,,,,,,,CLR,,,,,,,,VFR,,,,,,,,,,,,METAR,444.0
KCEF 040056Z 05003KT 6SM -RA BR SCT005 OVC032 16/16 A2995 RMK AO2A SLP148 P0012 T01630163,KCEF,2021-10-04T00:56:00Z,42.2,-72.52,16.3,16.3,50,3,,6.0,29.949802,1014.8,,,TRUE,,,,,,-RA BR,SCT,500,OVC,3200,,,,,VFR,,,,,,0.12,,,,,,METAR,72.0
KCBM 040056Z AUTO 00000KT 10SM BKN026 22/21 A2995 RMK AO2 SLP143 T02230206 TSNO CHINO RWY31C $,KCBM,2021-10-04T00:56:00Z,33.65,-88.45,22.3,20.6,0,0,,10.0,29.949802,1014.3,,TRUE,TRUE,TRUE,,TRUE,,,,BKN,2600,,,,,,,MVFR,,,,,,,,,,,,METAR,59.0
KCAE 040056Z 14004KT 10SM FEW200 23/19 A3002 RMK AO2 SLP162 T02330194,KCAE,2021-10-04T00:56:00Z,33.93,-81.12,23.3,19.4,140,4,,10.0,30.02067,1016.2,,,TRUE,,,,,,,FEW,20000,,,,,,,VFR,,,,,,,,,,,,METAR,69.0
KBZN 040056Z 10004KT 9SM CLR 20/M06 A3008 RMK AO2 SLP179 T02001061,KBZN,2021-10-04T00:56:00Z,45.78,-111.17,20.0,-6.1,100,4,,9.0,30.079725,1017.9,,,TRUE,,,,,,,CLR,,,,,,,,VFR,,,,,,,,,,,,METAR,1349.0
KBVX 040056Z AUTO 31003KT 10SM CLR 20/17 A2998 RMK AO2 SLP148 T02000167,KBVX,2021-10-04T00:56:00Z,35.73,-91.65,20.0,16.7,310,3,,10.0,29.97933,1014.8,,TRUE,TRUE,,,,,,,CLR,,,,,,,,VFR,,,,,,,,,,,,METAR,137.0
KBTP 040056Z AUTO 19004KT 10SM OVC049 19/18 A2992 RMK AO2 SLP132 T01890183,KBTP,2021-10-04T00:56:00Z,40.77,-79.95,18.9,18.3,190,4,,10.0,29.920275,1013.2,,TRUE,TRUE,,,,,,,OVC,4900,,,,,,,VFR,,,,,,,,,,,,METAR,375.0
KBOK 040056Z AUTO 16003KT 10SM CLR 15/12 A2996 RMK AO2 SLP145 T01500117,KBOK,2021-10-04T00:56:00Z,42.07,-124.28,15.0,11.7,160,3,,10.0,29.958662,1014.5,,TRUE,TRUE,,,,,,,CLR,,,,,,,,VFR,,,,,,,,,,,,METAR,140.0
KBMI 040056Z 27006KT 10SM FEW055 SCT065 20/19 A2988 RMK AO2 SLP109 T02000194,KBMI,2021-10-04T00:56:00Z,40.47,-88.92,20.0,19.4,270,6,,10.0,29.878937,1010.9,,,TRUE,,,,,,,FEW,5500,SCT,6500,,,,,VFR,,,,,,,,,,,,METAR,262.0
KBLV 040056Z 24004KT 10SM FEW065 SCT080 19/18 A2991 RMK AO2A RAE25DZB25E37 SLP130 P0010 T01910183 $,KBLV,2021-10-04T00:56:00Z,38.53,-89.83,19.1,18.3,240,4,,10.0,29.911417,1013.0,,,TRUE,TRUE,,,,,,FEW,6500,SCT,8000,,,,,VFR,,,,,,0.1,,,,,,METAR,134.0
KBLM 040056Z AUTO 18004KT 10SM CLR 21/20 A2994 RMK AO2 SLP139 T02060200 PNO $,KBLM,2021-10-04T00:56:00Z,40.17,-74.12,20.6,20.0,180,4,,10.0,29.940945,1013.9,,TRUE,TRUE,TRUE,,,,,,CLR,,,,,,,,VFR,,,,,,,,,,,,METAR,45.0
KBKX 040056Z AUTO 35003KT 10SM CLR 17/08 A3000 RMK AO2 SLP177 T01670078,KBKX,2021-10-04T00:56:00Z,44.3,-96.82,16.7,7.8,350,3,,10.0,30.0,1017.7,,TRUE,TRUE,,,,,,,CLR,,,,,,,,VFR,,,,,,,,,,,,METAR,494.0
KBIX 040056Z AUTO 22006KT 10SM FEW023 SCT130 25/23 A2994 RMK AO2 SLP141 T02530229,KBIX,2021-10-04T00:56:00Z,30.42,-88.92,25.3,22.9,220,6,,10.0,29.940945,1014.1,,TRUE,TRUE,,,,,,,FEW,2300,SCT,13000,,,,,VFR,,,,,,,,,,,,METAR,4.0
KBIH 040056Z AUTO 15010KT 10SM CLR 27/M08 A3002 RMK AO2 SLP133 T02721083 $,KBIH,2021-10-04T00:56:00Z,37.37,-118.35,27.2,-8.3,150,10,,10.0,30.02067,1013.3,,TRUE,TRUE,TRUE,,,,,,CLR,,,,,,,,VFR,,,,,,,,,,,,METAR,1252.0
KBID 040056Z AUTO 24007KT 10SM OVC065 19/18 A2997 RMK AO2 SLP147 T01940178,KBID,2021-10-04T00:56:00Z,41.17,-71.58,19.4,17.8,240,7,,10.0,29.970472,1014.7,,TRUE,TRUE,,,,,,,OVC,6500,,,,,,,VFR,,,,,,,,,,,,METAR,32.0
KBHB 040056Z AUTO 00000KT 10SM FEW060 10/09 A3006 RMK AO2 SLP179 T01000094,KBHB,2021-10-04T00:56:00Z,44.45,-68.37,10.0,9.4,0,0,,10.0,30.059055,1017.9,,TRUE,TRUE,,,,,,,FEW,6000,,,,,,,VFR,,,,,,,,,,,,METAR,21.0
KBBB 040056Z AUTO 00000KT 10SM CLR 13/08 A2999 RMK AO2,KBBB,2021-10-04T00:56:00Z,45.32,-95.65,13.0,8.0,0,0,,10.0,29.991142,,,TRUE,TRUE,,,,,,,CLR,,,,,,,,VFR,,,,,,,,,,,,METAR,315.0
KBAD 040056Z AUTO 00000KT 10SM CLR 24/17 A2995 RMK AO2 SLP144 T02440174,KBAD,2021-10-04T00:56:00Z,32.5,-93.67,24.4,17.4,0,0,,10.0,29.949802,1014.4,,TRUE,TRUE,,,,,,,CLR,,,,,,,,VFR,,,,,,,,,,,,METAR,49.0
KAWO 040056Z AUTO 32004KT 10SM OVC042 14/08 A3012 RMK AO2 SLP203 T01390078,KAWO,2021-10-04T00:56:00Z,48.17,-122.17,13.9,7.8,320,4,,10.0,30.121063,1020.3,,TRUE,TRUE,,,,,,,OVC,4200,,,,,,,VFR,,,,,,,,,,,,METAR,38.0
KAUO 040056Z AUTO 00000KT 10SM -RA SCT037 BKN049 OVC100 22/21 A3004 RMK AO2 RAB50 SLP167 P0000 T02220206,KAUO,2021-10-04T00:56:00Z,32.62,-85.43,22.2,20.6,0,0,,10.0,30.041338,1016.7,,TRUE,TRUE,,,,,,-RA,SCT,3700,BKN,4900,OVC,10000,,,VFR,,,,,,0.005,,,,,,METAR,231.0
KASH 040056Z 07005KT 10SM OVC012 14/14 A3001 RMK AO2 SLP168 T01440144,KASH,2021-10-04T00:56:00Z,42.78,-71.52,14.4,14.4,70,5,,10.0,30.008858,1016.8,,,TRUE,,,,,,,OVC,1200,,,,,,,MVFR,,,,,,,,,,,,METAR,56.0
KART 040056Z AUTO 05007KT 10SM BKN013 OVC020 16/14 A2992 RMK AO2 SLP132 T01560144 $,KART,2021-10-04T00:56:00Z,43.98,-76.03,15.6,14.4,50,7,,10.0,29.920275,1013.2,,TRUE,TRUE,TRUE,,,,,,BKN,1300,OVC,2000,,,,,MVFR,,,,,,,,,,,,METAR,100.0
KARG 040056Z AUTO 28006KT 10SM CLR 22/17 A2995 RMK AO2 SLP142 T02170172,KARG,2021-10-04T00:56:00Z,36.12,-90.92,21.7,17.2,280,6,,10.0,29.949802,1014.2,,TRUE,TRUE,,,,,,,CLR,,,,,,,,VFR,,,,,,,,,,,,METAR,82.0
KAND 040056Z AUTO 00000KT 10SM SCT070 BKN095 BKN120 21/19 A3003 RMK AO2 RAB2358E21 SLP162 P0000 T02110194,KAND,2021-10-04T00:56:00Z,34.5,-82.72,21.1,19.4,0,0,,10.0,30.029528,1016.2,,TRUE,TRUE,,,,,,,SCT,7000,BKN,9500,BKN,12000,,,VFR,,,,,,0.005,,,,,,METAR,233.0
KALK 040056Z AUTO 24003KT 10SM CLR 24/04 A3013 RMK AO2 SLP121 T02440044,KALK,2021-10-04T00:56:00Z,31.6,-110.43,24.4,4.4,240,3,,10.0,30.129921,1012.1,,TRUE,TRUE,,,,,,,CLR,,,,,,,,VFR,,,,,,,,,,,,METAR,1451.0
KAJO 040056Z AUTO 27008G14KT 10SM CLR 31/03 A2986 RMK AO2 SLP106 T03110028,KAJO,2021-10-04T00:56:00Z,33.9,-117.6,31.1,2.8,270,8,14,10.0,29.861221,1010.6,,TRUE,TRUE,,,,,,,CLR,,,,,,,,VFR,,,,,,,,,,,,METAR,161.0
KAIZ 040056Z AUTO 00000KT 9SM CLR 18/17 A2998 RMK AO2 SLP147 T01780172,KAIZ,2021-10-04T00:56:00Z,38.1,-92.53,17.8,17.2,0,0,,9.0,29.97933,1014.7,,TRUE,TRUE,,,,,,,CLR,,,,,,,,VFR,,,,,,,,,,,,METAR,263.0
KAFJ 040056Z AUTO 00000KT 7SM OVC027 19/19 A2995 RMK AO2 SLP136 T01890189,KAFJ,2021-10-04T00:56:00Z,40.13,-80.28,18.9,18.9,0,0,,7.0,29.949802,1013.6,,TRUE,TRUE,,,,,,,OVC,2700,,,,,,,MVFR,,,,,,,,,,,,METAR,360.0
KADW 040056Z AUTO 18005KT 10SM SCT190 22/19 A2991 RMK AO2 SLP134 T02230187 $,KADW,2021-10-04T00:56:00Z,38.82,-76.87,22.3,18.7,180,5,,10.0,29.911417,1013.4,,TRUE,TRUE,TRUE,,,,,,SCT,19000,,,,,,,VFR,,,,,,,,,,,,METAR,87.0
KADF 040056Z AUTO 32003KT 10SM BKN065 22/19 A2996 RMK AO2 SLP143 T02220194,KADF,2021-10-04T00:56:00Z,34.1,-93.07,22.2,19.4,320,3,,10.0,29.958662,1014.3,,TRUE,TRUE,,,,,,,BKN,6500,,,,,,,VFR,,,,,,,,,,,,METAR,54.0
K8D3 040056Z AUTO 21005KT 15/09 A2997 RMK AO1 SLP149 T01500094 $,K8D3,2021-10-04T00:56:00Z,45.67,-96.98,15.0,9.4,210,5,,,29.970472,1014.9,,TRUE,TRUE,TRUE,,,,,,,,,,,,,,,,,,,,,,,,,,METAR,535.0
K7N0 040056Z AUTO VRB04KT 10SM CLR A2996 RMK AO2 SLPNO FZRANO $,K7N0,2021-10-04T00:56:00Z,29.95,-90.07,,,0,4,,10.0,29.958662,,,TRUE,TRUE,TRUE,,,TRUE,,,CLR,,,,,,,,VFR,,,,,,,,,,,,METAR,0.0
K79J 040056Z AUTO 00000KT 3SM BR FEW002 SCT036 SCT085 24/22 A3001 RMK AO2 RAE35 SLP158 P0004 T02390217,K79J,2021-10-04T00:56:00Z,31.32,-86.4,23.9,21.7,0,0,,3.0,30.008858,1015.8,,TRUE,TRUE,,,,,,BR,FEW,200,SCT,3600,SCT,8500,,,MVFR,,,,,,0.04,,,,,,SPECI,93.0
K2WX 040056Z AUTO 31007KT 22/M06 A2999 RMK AO1 SLP147 T02221061,K2WX,2021-10-04T00:56:00Z,45.6,-103.55,22.2,-6.1,310,7,,,29.991142,1014.7,,TRUE,TRUE,,,,,,,,,,,,,,,,,,,,,,,,,,,METAR,925.0
K2DP 040056Z AUTO 21005KT 10SM CLR 19/19 A3003 RMK AO2 SLPNO T01940189 $,K2DP,2021-10-04T00:56:00Z,35.68,-75.9,19.4,18.9,210,5,,10.0,30.029528,,,TRUE,TRUE,TRUE,,,,,,CLR,,,,,,,,VFR,,,,,,,,,,,,METAR,1.0
K1M4 040056Z AUTO 20003KT 10SM SCT080 BKN095 19/18 A3000 RMK AO2 LTG DSNT SE-SW RAB23E38 SLP565 P0000 T01890183,K1M4,2021-10-04T00:56:00Z,34.28,-87.6,18.9,18.3,200,3,,10.0,30.0,956.5,,TRUE,TRUE,,,,,,,SCT,8000,BKN,9500,,,,,VFR,,,,,,0.005,,,,,,METAR,283.0
ETOU 040056Z 23006KT 9999 SCT070 14/10 A3004 RMK AO2A SLPNO ALSTG ESTMD $,ETOU,2021-10-04T00:56:00Z,50.03,8.32,14.0,10.0,230,6,,6.21,30.041338,,,,TRUE,TRUE,,,,,,SCT,7000,,,,,,,VFR,,,,,,,,,,,,METAR,141.0
ETIK 040056Z AUTO 26003KT 9999 BKN070 OVC095 14/12 A3002 RMK AO2 DZB24E55 SLP158 P0000 T01370116,ETIK,2021-10-04T00:56:00Z,49.47,10.38,13.7,11.6,260,3,,6.21,30.02067,1015.8,,TRUE,TRUE,,,,,,,BKN,7000,OVC,9500,,,,,VFR,,,,,,0.005,,,,,,METAR,326.0
ETIC 040056Z AUTO 00000KT 9999 SCT050 OVC100 11/10 A2997 RMK AO2 SLP142 T01140103 $,ETIC,2021-10-04T00:56:00Z,49.7,11.93,11.4,10.3,0,0,,6.21,29.970472,1014.2,,TRUE,TRUE,TRUE,,,,,,SCT,5000,OVC,10000,,,,,VFR,,,,,,,,,,,,METAR,414.0
ETEB 040056Z AUTO 28009KT 9999 BKN055 BKN070 13/11 A3001 RMK AO2 SLP163 T01310110 $,ETEB,2021-10-04T00:56:00Z,49.32,10.63,13.1,11.0,280,9,,6.21,30.008858,1016.3,,TRUE,TRUE,TRUE,,,,,,BKN,5500,BKN,7000,,,,,VFR,,,,,,,,,,,,METAR,466.0
ETAR 040056Z 25004KT 9999 FEW023 SCT037 12/12 A3000 RMK AO2A SLP160 T01200120 $,ETAR,2021-10-04T00:56:00Z,49.43,7.58,12.0,12.0,250,4,,6.21,30.0,1016.0,,,TRUE,TRUE,,,,,,FEW,2300,SCT,3700,,,,,VFR,,,,,,,,,,,,METAR,231.0
ETAD 040056Z AUTO 20004KT 9999 CLR 10/10 A2998 RMK AO2 SLP141 T01000097 $,ETAD,2021-10-04T00:56:00Z,49.98,6.7,10.0,9.7,200,4,,6.21,29.97933,1014.1,,TRUE,TRUE,TRUE,,,,,,CLR,,,,,,,,VFR,,,,,,,,,,,,METAR,365.0
EGVA 040056Z AUTO 22005KT 9999 FEW029 09/09 A2969 RMK AO2 SLP058 T00900088 $,EGVA,2021-10-04T00:56:00Z,51.67,-1.78,9.0,8.8,220,5,,6.21,29.68996,1005.8,,TRUE,TRUE,TRUE,,,,,,FEW,2900,,,,,,,VFR,,,,,,,,,,,,METAR,84.0
EGUN 040056Z 21008KT 9999 FEW250 11/11 A2972 RMK AO2A SLP067 T01060106 $,EGUN,2021-10-04T00:56:00Z,52.37,0.48,10.6,10.6,210,8,,6.21,29.719488,1006.7,,,TRUE,TRUE,,,,,,FEW,25000,,,,,,,VFR,,,,,,,,,,,,METAR,10.0
EGUL 040056Z AUTO 22011KT 9999 CLR 11/06 A2971 RMK AO2 SLP064 T01100057 $,EGUL,2021-10-04T00:56:00Z,52.42,0.57,11.0,5.7,220,11,,6.21,29.71063,1006.4,,TRUE,TRUE,TRUE,,,,,,CLR,,,,,,,,VFR,,,,,,,,,,,,METAR,8.0
BGTL 040056Z AUTO 00000KT 9999 OVC041 01/00 A3002 RMK AO2 SLP151 T00060000 TSNO $,BGTL,2021-10-04T00:56:00Z,76.53,-68.75,0.6,0.0,0,0,,6.21,30.02067,1015.1,,TRUE,TRUE,TRUE,,TRUE,,,,OVC,4100,,,,,,,VFR,,,,,,,,,,,,METAR,79.0
TXKF 040055Z 05003KT 9999 SCT038 24/16 Q1019 ,TXKF,2021-10-04T00:55:00Z,32.37,-64.68,24.0,16.0,50,3,,6.21,30.088583,,,,,,,,,,,SCT,3800,,,,,,,VFR,,,,,,,,,,,,METAR,4.0
TNCE 040055Z AUTO 08015KT 050V110 //// // ///////// 28/23 Q1014 RE//,TNCE,2021-10-04T00:55:00Z,17.48,-62.97,28.0,23.0,80,15,,,29.940945,,,TRUE,,,,,,,,,,,,,,,,,,,,,,,,,,,,METAR,38.0
TNCB 040055Z AUTO 09020KT 070V130 9999 FEW020/// SCT023/// BKN027/// 29/24 Q1009,TNCB,2021-10-04T00:55:00Z,12.13,-68.28,29.0,24.0,90,20,,6.21,29.793306,,,TRUE,,,,,,,,FEW,2000,SCT,2300,BKN,2700,,,MVFR,,,,,,,,,,,,METAR,6.0
PTPN 040055Z 30003KT 15SM -RA BKN018TCU OVC130 27/25 A2970 RMK TCU ALQDS,PTPN,2021-10-04T00:55:00Z,6.98,158.22,27.0,25.0,300,3,,15.0,29.698818,,,,,,,,,,-RA,BKN,1800,OVC,13000,,,,,MVFR,,,,,,,,,,,,METAR,3.0
PATL 040055Z AUTO VRB05KT 10SM CLR 02/M07 A3013 RMK AO2 SLP217 T00241068,PATL,2021-10-04T00:55:00Z,62.9,-155.97,2.4,-6.8,0,5,,10.0,30.129921,1021.7,,TRUE,TRUE,,,,,,,CLR,,,,,,,,VFR,,,,,,,,,,,,METAR,261.0
PATC 040055Z AUTO 22009KT 10SM BKN022 BKN110 00/M04 A3013 RMK AO2 SLP208 T10031045,PATC,2021-10-04T00:55:00Z,65.57,-167.92,-0.3,-4.5,220,9,,10.0,30.129921,1020.8,,TRUE,TRUE,,,,,,,BKN,2200,BKN,11000,,,,,MVFR,,,,,,,,,,,,METAR,77.0
PASV 040055Z AUTO 34008KT 290V030 10SM CLR 01/M07 A3006 RMK AO2 SLP205 T00091066 $,PASV,2021-10-04T00:55:00Z,61.1,-155.57,0.9,-6.6,340,8,,10.0,30.059055,1020.5,,TRUE,TRUE,TRUE,,,,,,CLR,,,,,,,,VFR,,,,,,,,,,,,METAR,462.0
PAKX 040055Z AUTO 07009G14KT 020V100 7SM BKN041 03/M04 A3007 RMK AO2,PAKX,2021-10-04T00:55:00Z,60.2,-154.32,3.0,-4.0,70,9,14,7.0,30.070866,,,TRUE,TRUE,,,,,,,BKN,4100,,,,,,,VFR,,,,,,,,,,,,METAR,88.0
PAIM 040055Z AUTO 26005KT 10SM CLR 00/M05 A3004 RMK AO2 SLP197 T10021055,PAIM,2021-10-04T00:55:00Z,66.0,-153.7,-0.2,-5.5,260,5,,10.0,30.041338,1019.7,,TRUE,TRUE,,,,,,,CLR,,,,,,,,VFR,,,,,,,,,,,,METAR,309.0
PAEH 040055Z AUTO 35009KT 10SM BKN027 03/M04 A3025 RMK AO2 SLP251 T00271036,PAEH,2021-10-04T00:55:00Z,58.65,-162.07,2.7,-3.6,350,9,,10.0,30.250984,1025.1,,TRUE,TRUE,,,,,,,BKN,2700,,,,,,,MVFR,,,,,,,,,,,,METAR,101.0
PACZ 040055Z AUTO 19010G18KT 10SM FEW075 02/M03 A3016 RMK AO2 SLP218 T00191029,PACZ,2021-10-04T00:55:00Z,61.78,-166.03,1.9,-2.9,190,10,18,10.0,30.159449,1021.8,,TRUE,TRUE,,,,,,,FEW,7500,,,,,,,VFR,,,,,,,,,,,,METAR,129.0
PAAD 040055Z AUTO 27005KT 3SM -SN BKN009 OVC012 M04/M05 A3016 RMK AO2 T10451050,PAAD,2021-10-04T00:55:00Z,70.13,-146.28,-4.5,-5.0,270,5,,3.0,30.159449,,,TRUE,TRUE,,,,,,-SN,BKN,900,OVC,1200,,,,,IFR,,,,,,,,,,,,METAR,8.0
OPLA 040055Z 08003KT 5000 FU FEW040 SCT100 26/24 Q1004 BECMG 6000 RMK QFE977 RMK A29.67,OPLA,2021-10-04T00:55:00Z,31.52,74.4,26.0,24.0,80,3,,3.11,29.64567,,,,,,,,,,FU,FEW,4000,SCT,10000,,,,,MVFR,,,,,,,,,,,,METAR,217.0
OPIS 040055Z 00000KT 3000 BR SCT040 SCT100 22/21 Q1006 TEMPO 3000,OPIS,2021-10-04T00:55:00Z,33.55,72.83,22.0,21.0,0,0,,1.86,29.704725,,,,,,,,,,BR,SCT,4000,SCT,10000,,,,,IFR,,,,,,,,,,,,METAR,542.0
OPFA 040055Z 05002KT 3000 BR FEW100 27/25 Q1005 BECMG 2000,OPFA,2021-10-04T00:55:00Z,31.37,73.0,27.0,25.0,50,2,,1.86,29.675198,,,,,,,,,,BR,FEW,10000,,,,,,,IFR,,,,,,,,,,,,METAR,180.0
NZCM 040055Z AUTO 05006KT 9999 CLR M11/M29 A2902 RMK AO2 SLP834 T11151290 $,NZCM,2021-10-04T00:55:00Z,-77.85,166.67,-11.5,-29.0,50,6,,6.21,29.019686,983.4,,TRUE,TRUE,TRUE,,,,,,CLR,,,,,,,,VFR,,,,,,,,,,,,METAR,24.0
MUHA 040055Z VRB02KT 9000 FEW030 25/22 Q1014,MUHA,2021-10-04T00:55:00Z,22.98,-82.42,25.0,22.0,0,2,,5.59,29.940945,,,,,,,,,,,FEW,3000,,,,,,,VFR,,,,,,,,,,,,METAR,61.0
LIVF 040055Z 20006KT 9999 FEW025 18/12 Q1018 RMK FEW MON LIB VAL NIL VIS MIN 9999,LIVF,2021-10-04T00:55:00Z,43.52,12.72,18.0,12.0,200,6,,6.21,30.059055,,,,,,,,,,,FEW,2500,,,,,,,VFR,,,,,,,,,,,,SPECI,549.0
LIVC 040055Z AUTO 20020G30KT //// 07/06 Q1024,LIVC,2021-10-04T00:55:00Z,44.2,10.68,7.0,6.0,200,20,30,,30.236221,,,TRUE,,,,,,,,,,,,,,,,,,,,,,,,,,,,SPECI,2139.0
LIRS 040055Z 12004KT 9999 FEW025 20/18 Q1017,LIRS,2021-10-04T00:55:00Z,42.75,11.07,20.0,18.0,120,4,,6.21,30.029528,,,,,,,,,,,FEW,2500,,,,,,,VFR,,,,,,,,,,,,METAR,3.0
LIRM 040055Z /////KT CAVOK 17/16 Q1019 RMK SKC VIS MIN 9999 WIND THR06 01004KT BLU,LIRM,2021-10-04T00:55:00Z,41.05,14.07,17.0,16.0,,,,6.21,30.088583,,,,,,,,,,,CAVOK,,,,,,,,VFR,,,,,,,,,,,,METAR,6.0
LIPC 040055Z 21003KT CAVOK 16/14 Q1017 RMK SKC VIS MIN 9999 WIND THR11 18002KT WIND THR29 24003KT BLU,LIPC,2021-10-04T00:55:00Z,44.22,12.3,16.0,14.0,210,3,,6.21,30.029528,,,,,,,,,,,CAVOK,,,,,,,,VFR,,,,,,,,,,,,SPECI,10.0
LIMU 040055Z 36005KT 9999 FEW030 20/19 Q1016 RMK SCT SCT070 QUK / QUL / VIS MAR 20 KM VIS MIN 9999,LIMU,2021-10-04T00:55:00Z,43.95,8.17,20.0,19.0,360,5,,6.21,30.0,,,,,,,,,,,FEW,3000,,,,,,,VFR,,,,,,,,,,,,SPECI,215.0
LICT 040055Z 14011KT 9999 FEW025 22/19 Q1018,LICT,2021-10-04T00:55:00Z,37.92,12.5,22.0,19.0,140,11,,6.21,30.059055,,,,,,,,,,,FEW,2500,,,,,,,VFR,,,,,,,,,,,,METAR,4.0
LIBA 040055Z 21004KT CAVOK 16/14 Q1020 RMK SKC VIS MIN 9999 WIND THR11 23001KT WIND THR29 /////KT BLU,LIBA,2021-10-04T00:55:00Z,41.53,15.72,16.0,14.0,210,4,,6.21,30.11811,,,,,,,,,,,CAVOK,,,,,,,,VFR,,,,,,,,,,,,SPECI,55.0
KZPH 040055Z AUTO 06004KT 10SM CLR 24/20 A3001 RMK A02 T02380199,KZPH,2021-10-04T00:55:00Z,28.23,-82.15,23.8,19.9,60,4,,10.0,30.008858,,,TRUE,TRUE,,,,,,,CLR,,,,,,,,VFR,,,,,,,,,,,,METAR,26.0
KY70 040055Z AUTO 00000KT 10SM SCT025 BKN120 18/18 A2981 RMK AO2 T01810181,KY70,2021-10-04T00:55:00Z,42.93,-85.07,18.1,18.1,0,0,,10.0,29.811024,,,TRUE,TRUE,,,,,,,SCT,2500,BKN,12000,,,,,VFR,,,,,,,,,,,,METAR,247.0
KY63 040055Z AUTO 00000KT 10SM CLR 14/12 A2999 RMK AO2 T01380124,KY63,2021-10-04T00:55:00Z,45.98,-96.0,13.8,12.4,0,0,,10.0,29.991142,,,TRUE,TRUE,,,,,,,CLR,,,,,,,,VFR,,,,,,,,,,,,METAR,367.0
KY49 040055Z AUTO 00000KT 10SM CLR 12/11 A2999 RMK AO2 T01160106,KY49,2021-10-04T00:55:00Z,47.15,-94.65,11.6,10.6,0,0,,10.0,29.991142,,,TRUE,TRUE,,,,,,,CLR,,,,,,,,VFR,,,,,,,,,,,,METAR,413.0
KY31 040055Z AUTO 07003KT 7SM BKN008 OVC020 18/18 A2985 RMK AO2 T01830180,KY31,2021-10-04T00:55:00Z,44.25,-84.18,18.3,18.0,70,3,,7.0,29.84941,,,TRUE,TRUE,,,,,,,BKN,800,OVC,2000,,,,,IFR,,,,,,,,,,,,METAR,264.0
KY23 040055Z AUTO 01005KT 10SM OVC024 17/14 A2997 RMK AO2 T01650140,KY23,2021-10-04T00:55:00Z,45.3,-91.63,16.5,14.0,10,5,,10.0,29.970472,,,TRUE,TRUE,,,,,,,OVC,2400,,,,,,,MVFR,,,,,,,,,,,,METAR,322.0
KY19 040055Z AUTO 32004KT 10SM CLR 21/04 A2995 RMK AO2,KY19,2021-10-04T00:55:00Z,46.77,-100.9,21.0,4.0,320,4,,10.0,29.949802,,,TRUE,TRUE,,,,,,,CLR,,,,,,,,VFR,,,,,,,,,,,,METAR,591.0
KXLL 040055Z AUTO 19004KT 10SM SCT075 23/18 A2992 RMK AO2,KXLL,2021-10-04T00:55:00Z,40.57,-75.48,23.0,18.0,190,4,,10.0,29.920275,,,TRUE,TRUE,,,,,,,SCT,7500,,,,,,,VFR,,,,,,,,,,,,METAR,118.0
KXBP 040055Z AUTO 00000KT 10SM CLR 20/16 A3004 RMK AO2 T01950161,KXBP,2021-10-04T00:55:00Z,33.18,-97.83,19.5,16.1,0,0,,10.0,30.041338,,,TRUE,TRUE,,,,,,,CLR,,,,,,,,VFR,,,,,,,,,,,,METAR,256.0
KX60 040055Z AUTO 00000KT 10SM CLR 22/21 A3001 RMK AO2 T02210209,KX60,2021-10-04T00:55:00Z,29.35,-82.47,22.1,20.9,0,0,,10.0,30.008858,,,TRUE,TRUE,,,,,,,CLR,,,,,,,,VFR,,,,,,,,,,,,METAR,21.0
KX26 040055Z AUTO 04005KT 10SM CLR 25/19 A3001 RMK AO2 T02510188,KX26,2021-10-04T00:55:00Z,27.82,-80.5,25.1,18.8,40,5,,10.0,30.008858,,,TRUE,TRUE,,,,,,,CLR,,,,,,,,VFR,,,,,,,,,,,,METAR,5.0
KX07 040055Z AUTO 09006KT CLR 25/19 RMK A01,KX07,2021-10-04T00:55:00Z,27.9,-81.62,25.0,19.0,90,6,,,,,,TRUE,TRUE,,,,,,,CLR,,,,,,,,,,,,,,,,,,,,METAR,36.0
KWDR 040055Z AUTO 00000KT 1/4SM -RA OVC001 21/20 A3005 RMK AO2 LTG DSNT SW,KWDR,2021-10-04T00:55:00Z,33.98,-83.67,21.0,20.0,0,0,,0.25,30.050198,,,TRUE,TRUE,,,,,,-RA,OVC,100,,,,,,,LIFR,,,,,,,,,,,,METAR,280.0
KW99 040055Z AUTO 00000KT 10SM OVC080 20/20 A2994 RMK AO2 T02030203,KW99,2021-10-04T00:55:00Z,39.0,-79.15,20.3,20.3,0,0,,10.0,29.940945,,,TRUE,TRUE,,,,,,,OVC,8000,,,,,,,VFR,,,,,,,,,,,,METAR,288.0
KW96 040055Z AUTO 00000KT 10SM CLR 22/19 A2996 RMK AO1 T02200187,KW96,2021-10-04T00:55:00Z,37.5,-77.12,22.0,18.7,0,0,,10.0,29.958662,,,TRUE,TRUE,,,,,,,CLR,,,,,,,,VFR,,,,,,,,,,,,SPECI,35.0
KW81 040055Z AUTO 00000KT 10SM CLR 20/18 A2998 RMK AO1 T02030179,KW81,2021-10-04T00:55:00Z,37.18,-78.1,20.3,17.9,0,0,,10.0,29.97933,,,TRUE,TRUE,,,,,,,CLR,,,,,,,,VFR,,,,,,,,,,,,METAR,121.0
KW78 040055Z AUTO 00000KT 10SM CLR 21/17 A2999 RMK AO1 T02130171,KW78,2021-10-04T00:55:00Z,36.7,-78.85,21.3,17.1,0,0,,10.0,29.991142,,,TRUE,TRUE,,,,,,,CLR,,,,,,,,VFR,,,,,,,,,,,,METAR,120.0
KW75 040055Z AUTO 19005KT 10SM CLR 23/19 A2997 RMK AO1 T02310190,KW75,2021-10-04T00:55:00Z,37.6,-76.45,23.1,19.0,190,5,,10.0,29.970472,,,TRUE,TRUE,,,,,,,CLR,,,,,,,,VFR,,,,,,,,,,,,METAR,8.0
KW43 040055Z AUTO 00000KT 10SM CLR 22/M06 A3011 RMK AO2,KW43,2021-10-04T00:55:00Z,44.67,-104.57,22.0,-6.0,0,0,,10.0,30.109253,,,TRUE,TRUE,,,,,,,CLR,,,,,,,,VFR,,,,,,,,,,,,METAR,1292.0
KW31 040055Z AUTO 19003KT 10SM CLR 20/18 A2999 RMK AO1 T01980177,KW31,2021-10-04T00:55:00Z,36.95,-78.18,19.8,17.7,190,3,,10.0,29.991142,,,TRUE,TRUE,,,,,,,CLR,,,,,,,,VFR,,,,,,,,,,,,SPECI,159.0
KW22 040055Z AUTO 21005KT 3SM -RA SCT015 SCT024 OVC031 19/19 A2997 RMK AO2,KW22,2021-10-04T00:55:00Z,39.0,-80.27,19.0,19.0,210,5,,3.0,29.970472,,,TRUE,TRUE,,,,,,-RA,SCT,1500,SCT,2400,OVC,3100,,,MVFR,,,,,,,,,,,,METAR,497.0
KW13 040055Z AUTO 20003KT 10SM SCT040 BKN065 OVC110 20/19 A2999 RMK AO1 T02000190,KW13,2021-10-04T00:55:00Z,38.08,-78.95,20.0,19.0,200,3,,10.0,29.991142,,,TRUE,TRUE,,,,,,,SCT,4000,BKN,6500,OVC,11000,,,VFR,,,,,,,,,,,,SPECI,440.0
KVVV 040055Z AUTO 00000KT 10SM 15/09 A2998 RMK AO2,KVVV,2021-10-04T00:55:00Z,45.3,-96.42,15.0,9.0,0,0,,10.0,29.97933,,,TRUE,TRUE,,,,,,,,,,,,,,,,,,,,,,,,,,,METAR,334.0
KVVS 040055Z AUTO 00000KT 7SM -DZ OVC060 19/18 A2995 RMK AO2 P0003 T01890185,KVVS,2021-10-04T00:55:00Z,39.95,-79.65,18.9,18.5,0,0,,7.0,29.949802,,,TRUE,TRUE,,,,,,-DZ,OVC,6000,,,,,,,VFR,,,,,,0.03,,,,,,METAR,386.0
KVUJ 040055Z AUTO 00000KT 10SM SCT055 SCT070 19/18 A3006 RMK AO2 T01920178,KVUJ,2021-10-04T00:55:00Z,35.42,-80.15,19.2,17.8,0,0,,10.0,30.059055,,,TRUE,TRUE,,,,,,,SCT,5500,SCT,7000,,,,,VFR,,,,,,,,,,,,METAR,174.0
KVTP 040055Z AUTO 24003KT 10SM CLR 08/M02 A3047 RMK AO2,KVTP,2021-10-04T00:55:00Z,37.5,-105.17,8.0,-2.0,240,3,,10.0,30.469488,,,TRUE,TRUE,,,,,,,CLR,,,,,,,,VFR,,,,,,,,,,,,METAR,3086.0
KVTI 040055Z AUTO 35006KT 10SM CLR 19/08 A2992 RMK AO2 T01880079,KVTI,2021-10-04T00:55:00Z,42.22,-92.02,18.8,7.9,350,6,,10.0,29.920275,,,TRUE,TRUE,,,,,,,CLR,,,,,,,,VFR,,,,,,,,,,,,METAR,256.0
KVNW 040055Z AUTO 00000KT 5SM RA SCT020 SCT031 BKN046 17/16 A2985 RMK AO2 P0017 LTG DSNT NE,KVNW,2021-10-04T00:55:00Z,40.87,-84.62,17.0,16.0,0,0,,5.0,29.84941,,,TRUE,TRUE,,,,,,RA,SCT,2000,SCT,3100,BKN,4600,,,MVFR,,,,,,0.17,,,,,,METAR,238.0
KVNC 040055Z AUTO 04006KT 10SM BKN055 BKN070 28/21 A2998 RMK AO2,KVNC,2021-10-04T00:55:00Z,27.07,-82.43,28.0,21.0,40,6,,10.0,29.97933,,,TRUE,TRUE,,,,,,,BKN,5500,BKN,7000,,,,,VFR,,,,,,,,,,,,METAR,4.0
KVLL 040055Z AUTO 00000KT 10SM BKN100 OVC120 19/18 A2985 RMK AO2 T01930175,KVLL,2021-10-04T00:55:00Z,42.55,-83.18,19.3,17.5,0,0,,10.0,29.84941,,,TRUE,TRUE,,,,,,,BKN,10000,OVC,12000,,,,,VFR,,,,,,,,,,,,METAR,214.0
KVKS 040055Z AUTO 00000KT 10SM BKN050 24/24 A2994 RMK A01,KVKS,2021-10-04T00:55:00Z,32.23,-90.93,24.0,24.0,0,0,,10.0,29.940945,,,TRUE,TRUE,,,,,,,BKN,5000,,,,,,,VFR,,,,,,,,,,,,METAR,31.0
KVHN 040055Z AUTO 08008KT 10SM CLR 25/07 A3018 RMK AO2 T02500074,KVHN,2021-10-04T00:55:00Z,31.07,-104.78,25.0,7.4,80,8,,10.0,30.180119,,,TRUE,TRUE,,,,,,,CLR,,,,,,,,VFR,,,,,,,,,,,,METAR,1200.0
KVGC 040055Z AUTO 00000KT 5SM BKN005 OVC014 15/ A2993 RMK AO2 P0002,KVGC,2021-10-04T00:55:00Z,42.85,-75.57,15.0,,0,0,,5.0,29.929134,,,TRUE,TRUE,,,,,,,BKN,500,OVC,1400,,,,,IFR,,,,,,0.02,,,,,,METAR,346.0
KVES 040055Z AUTO 20004KT 10SM -RA SCT046 BKN110 19/18 A2987 RMK AO2 P0001,KVES,2021-10-04T00:55:00Z,40.2,-84.53,19.0,18.0,200,4,,10.0,29.870079,,,TRUE,TRUE,,,,,,-RA,SCT,4600,BKN,11000,,,,,VFR,,,,,,0.01,,,,,,METAR,308.0
KVDI 040055Z AUTO 00000KT 10SM CLR 23/20 A3001 RMK AO2,KVDI,2021-10-04T00:55:00Z,32.2,-82.37,23.0,20.0,0,0,,10.0,30.008858,,,TRUE,TRUE,,,,,,,CLR,,,,,,,,VFR,,,,,,,,,,,,METAR,81.0
KVDF 040055Z AUTO 00000KT 10SM CLR 23/22 A3000 RMK AO2,KVDF,2021-10-04T00:55:00Z,28.02,-82.33,23.0,22.0,0,0,,10.0,30.0,,,TRUE,TRUE,,,,,,,CLR,,,,,,,,VFR,,,,,,,,,,,,METAR,5.0
KVBW 040055Z AUTO 15003KT 10SM OVC065 21/20 A2996 RMK AO1 T02090195,KVBW,2021-10-04T00:55:00Z,38.37,-78.97,20.9,19.5,150,3,,10.0,29.958662,,,TRUE,TRUE,,,,,,,OVC,6500,,,,,,,VFR,,,,,,,,,,,,SPECI,362.0
KVAF 040055Z AUTO 10SM CLR 28/22 A2995 RMK A01,KVAF,2021-10-04T00:55:00Z,27.35,-94.63,28.0,22.0,,,,10.0,29.949802,,,TRUE,TRUE,,,,,,,CLR,,,,,,,,VFR,,,,,,,,,,,,METAR,38.0
KUYF 040055Z AUTO 19004KT 10SM BKN016 BKN037 OVC050 18/17 A2990 RMK AO2,KUYF,2021-10-04T00:55:00Z,39.93,-83.47,18.0,17.0,190,4,,10.0,29.899607,,,TRUE,TRUE,,,,,,,BKN,1600,BKN,3700,OVC,5000,,,MVFR,,,,,,,,,,,,METAR,326.0
KUXL 040055Z AUTO 00000KT 10SM BKN050 26/21 A2996 RMK AO2 T02630211 PWINO,KUXL,2021-10-04T00:55:00Z,30.13,-93.38,26.3,21.1,0,0,,10.0,29.958662,,,TRUE,TRUE,,,,,TRUE,,BKN,5000,,,,,,,VFR,,,,,,,,,,,,METAR,2.0
KUVA 040055Z AUTO 00000KT 10SM SCT110 25/21 A3002 RMK AO2 T02530206,KUVA,2021-10-04T00:55:00Z,29.22,-99.75,25.3,20.6,0,0,,10.0,30.02067,,,TRUE,TRUE,,,,,,,SCT,11000,,,,,,,VFR,,,,,,,,,,,,METAR,285.0
KUTA 040055Z AUTO 32003KT CLR 22/18 A2994 RMK AO2 TSNO,KUTA,2021-10-04T00:55:00Z,34.68,-90.35,22.0,18.0,320,3,,,29.940945,,,TRUE,TRUE,,,TRUE,,,,CLR,,,,,,,,,,,,,,,,,,,,METAR,58.0
KUOX 040055Z AUTO 00000KT 3SM BR CLR 20/20 A2996 RMK AO2 PWINO,KUOX,2021-10-04T00:55:00Z,34.38,-89.53,20.0,20.0,0,0,,3.0,29.958662,,,TRUE,TRUE,,,,,TRUE,BR,CLR,,,,,,,,MVFR,,,,,,,,,,,,METAR,123.0
KUNI 040055Z AUTO 00000KT 10SM SCT008 BKN014 OVC033 18/18 A2992 RMK AO2 T01780178,KUNI,2021-10-04T00:55:00Z,39.22,-82.23,17.8,17.8,0,0,,10.0,29.920275,,,TRUE,TRUE,,,,,,,SCT,800,BKN,1400,OVC,3300,,,MVFR,,,,,,,,,,,,METAR,232.0
KULS 040055Z AUTO 10005KT 10SM CLR 18/09 A3008 RMK AO2,KULS,2021-10-04T00:55:00Z,37.6,-101.37,18.0,9.0,100,5,,10.0,30.079725,,,TRUE,TRUE,,,,,,,CLR,,,,,,,,VFR,,,,,,,,,,,,METAR,934.0
KULM 040055Z AUTO 00000KT 10SM CLR 19/08 A2997 RMK AO2,KULM,2021-10-04T00:55:00Z,44.32,-94.5,19.0,8.0,0,0,,10.0,29.970472,,,TRUE,TRUE,,,,,,,CLR,,,,,,,,VFR,,,,,,,,,,,,METAR,305.0
KUKT 040055Z AUTO 00000KT 10SM CLR 20/20 A2993 RMK A01,KUKT,2021-10-04T00:55:00Z,40.43,-75.38,20.0,20.0,0,0,,10.0,29.929134,,,TRUE,TRUE,,,,,,,CLR,,,,,,,,VFR,,,,,,,,,,,,METAR,156.0
KUKL 040055Z AUTO 31004KT 10SM CLR 19/08 A3000 RMK AO2 T01900075,KUKL,2021-10-04T00:55:00Z,38.3,-95.73,19.0,7.5,310,4,,10.0,30.0,,,TRUE,TRUE,,,,,,,CLR,,,,,,,,VFR,,,,,,,,,,,,METAR,357.0
KUGN 040055Z 00000KT 3SM -RA BR FEW080 OVC100 19/18 A2983 RMK AO2 RAB2356 SLP092 LAST P0012 T01890178 $,KUGN,2021-10-04T00:55:00Z,42.42,-87.87,18.9,17.8,0,0,,3.0,29.828741,1009.2,,,TRUE,TRUE,,,,,-RA BR,FEW,8000,OVC,10000,,,,,MVFR,,,,,,0.12,,,,,,METAR,217.0
KUBE 040055Z AUTO 34003KT 10SM SCT026 OVC036 15/13 A2997 RMK AO2,KUBE,2021-10-04T00:55:00Z,45.5,-91.98,15.0,13.0,340,3,,10.0,29.970472,,,TRUE,TRUE,,,,,,,SCT,2600,OVC,3600,,,,,VFR,,,,,,,,,,,,METAR,376.0
KU68 040055Z AUTO 12003KT 10SM CLR 21/M08 A3007 RMK AO2,KU68,2021-10-04T00:55:00Z,44.92,-108.45,21.0,-8.0,120,3,,10.0,30.070866,,,TRUE,TRUE,,,,,,,CLR,,,,,,,,VFR,,,,,,,,,,,,METAR,1244.0
KU42 040055Z AUTO 30005KT 10SM CLR 20/06 A3017 RMK AO1 T02000057,KU42,2021-10-04T00:55:00Z,40.62,-111.98,20.0,5.7,300,5,,10.0,30.171259,,,TRUE,TRUE,,,,,,,CLR,,,,,,,,VFR,,,,,,,,,,,,METAR,1399.0
KTZR 040055Z AUTO 21004KT 10SM BKN065 18/17 A2990 RMK AO2 T01800174,KTZR,2021-10-04T00:55:00Z,39.9,-83.13,18.0,17.4,210,4,,10.0,29.899607,,,TRUE,TRUE,,,,,,,BKN,6500,,,,,,,VFR,,,,,,,,,,,,METAR,275.0
KTYQ 040055Z AUTO 26007KT 10SM SCT006 BKN022 OVC026 18/18 A2986 RMK AO2 P0001 T01800175,KTYQ,2021-10-04T00:55:00Z,40.03,-86.25,18.0,17.5,260,7,,10.0,29.861221,,,TRUE,TRUE,,,,,,,SCT,600,BKN,2200,OVC,2600,,,MVFR,,,,,,0.01,,,,,,METAR,279.0
KTYL 040055Z AUTO 22005KT 10SM CLR 19/05 A3023 RMK AO2,KTYL,2021-10-04T00:55:00Z,34.45,-110.12,19.0,5.0,220,5,,10.0,30.230314,,,TRUE,TRUE,,,,,,,CLR,,,,,,,,VFR,,,,,,,,,,,,METAR,1748.0
KTXW 040055Z AUTO 00000KT 10SM SCT110 27/23 A2994 RMK AO2 T02650227,KTXW,2021-10-04T00:55:00Z,26.18,-97.97,26.5,22.7,0,0,,10.0,29.940945,,,TRUE,TRUE,,,,,,,SCT,11000,,,,,,,VFR,,,,,,,,,,,,METAR,21.0
KTWT 040055Z AUTO 00000KT 10SM CLR 18/18 A2991 RMK AO2,KTWT,2021-10-04T00:55:00Z,,,18.0,18.0,0,0,,10.0,29.911417,,,TRUE,TRUE,,,,,,,CLR,,,,,,,,VFR,,,,,,,,,,,,METAR,
KTWM 040055Z AUTO 12003KT M1/4SM FG OVC002 13/13 A2998 RMK AO2,KTWM,2021-10-04T00:55:00Z,47.05,-91.75,13.0,13.0,120,3,,0.25,29.97933,,,TRUE,TRUE,,,,,,FG,OVC,200,,,,,,,LIFR,,,,,,,,,,,,METAR,331.0
KTVY 040055Z AUTO 00000KT 10SM CLR 19/07 A3016 RMK AO2,KTVY,2021-10-04T00:55:00Z,40.62,-112.35,19.0,7.0,0,0,,10.0,30.159449,,,TRUE,TRUE,,,,,,,CLR,,,,,,,,VFR,,,,,,,,,,,,METAR,1310.0
KTVK 040055Z AUTO 29006KT 10SM CLR 15/12 A2996 RMK AO2,KTVK,2021-10-04T00:55:00Z,40.68,-92.9,15.0,12.0,290,6,,10.0,29.958662,,,TRUE,TRUE,,,,,,,CLR,,,,,,,,VFR,,,,,,,,,,,,METAR,311.0
KTVI 040055Z AUTO 00000KT 10SM BKN120 22/21 A3004 RMK AO2,KTVI,2021-10-04T00:55:00Z,30.9,-83.88,22.0,21.0,0,0,,10.0,30.041338,,,TRUE,TRUE,,,,,,,BKN,12000,,,,,,,VFR,,,,,,,,,,,,METAR,74.0
KTTF 040055Z AUTO 19007KT 10SM -RA SCT032 BKN041 OVC090 20/19 A2981 RMK AO2 T02030187,KTTF,2021-10-04T00:55:00Z,41.93,-83.42,20.3,18.7,190,7,,10.0,29.811024,,,TRUE,TRUE,,,,,,-RA,SCT,3200,BKN,4100,OVC,9000,,,VFR,,,,,,,,,,,,METAR,186.0
KTTA 040055Z AUTO 00000KT 10SM CLR 20/20 A3001 RMK AO2 T02000196,KTTA,2021-10-04T00:55:00Z,35.58,-79.1,20.0,19.6,0,0,,10.0,30.008858,,,TRUE,TRUE,,,,,,,CLR,,,,,,,,VFR,,,,,,,,,,,,METAR,71.0
KTSP 040055Z AUTO 10004KT 10SM CLR 26/M04 A3008 RMK AO2,KTSP,2021-10-04T00:55:00Z,35.13,-118.43,26.0,-4.0,100,4,,10.0,30.079725,,,TRUE,TRUE,,,,,,,CLR,,,,,,,,VFR,,,,,,,,,,,,METAR,1209.0
KTQK 040055Z AUTO 13008KT 10SM CLR 17/07 A3009 RMK AO2 T01690071,KTQK,2021-10-04T00:55:00Z,38.47,-100.88,16.9,7.1,130,8,,10.0,30.088583,,,TRUE,TRUE,,,,,,,CLR,,,,,,,,VFR,,,,,,,,,,,,METAR,906.0
KTQH 040055Z AUTO 00000KT 10SM CLR 18/15 A3001 RMK AO2,KTQH,2021-10-04T00:55:00Z,35.93,-95.0,18.0,15.0,0,0,,10.0,30.008858,,,TRUE,TRUE,,,,,,,CLR,,,,,,,,VFR,,,,,,,,,,,,METAR,265.0
KTPF 040055Z AUTO 06003KT 10SM SCT065 SCT080 OVC110 27/21 A2999 RMK AO2,KTPF,2021-10-04T00:55:00Z,27.92,-82.45,27.0,21.0,60,3,,10.0,29.991142,,,TRUE,TRUE,,,,,,,SCT,6500,SCT,8000,OVC,11000,,,VFR,,,,,,,,,,,,METAR,1.0
KTOC 040055Z AUTO 36003KT 4SM -RA OVC002 19/18 A3004 RMK AO2 T01910180,KTOC,2021-10-04T00:55:00Z,34.6,-83.3,19.1,18.0,360,3,,4.0,30.041338,,,TRUE,TRUE,,,,,,-RA,OVC,200,,,,,,,LIFR,,,,,,,,,,,,METAR,292.0
KTOB 040055Z AUTO 00000KT 10SM 14/12 A2997 RMK AO2,KTOB,2021-10-04T00:55:00Z,44.02,-92.82,14.0,12.0,0,0,,10.0,29.970472,,,TRUE,TRUE,,,,,,,,,,,,,,,,,,,,,,,,,,,METAR,394.0
KTNU 040055Z AUTO 33007KT 10SM CLR 19/09 A2993 RMK A01,KTNU,2021-10-04T00:55:00Z,41.67,-93.02,19.0,9.0,330,7,,10.0,29.929134,,,TRUE,TRUE,,,,,,,CLR,,,,,,,,VFR,,,,,,,,,,,,METAR,287.0
KTNB 040055Z AUTO 00000KT 10SM -RA 17/16 A3012 RMK AO2 P0003 T01670161,KTNB,2021-10-04T00:55:00Z,36.2,-81.65,16.7,16.1,0,0,,10.0,30.121063,,,TRUE,TRUE,,,,,,-RA,,,,,,,,,,,,,,,0.03,,,,,,METAR,958.0
KTMT 040055Z AUTO 33009KT 10SM CLR 21/M11 A3018 RMK AO2 T02131107,KTMT,2021-10-04T00:55:00Z,39.47,-117.2,21.3,-10.7,330,9,,10.0,30.180119,,,TRUE,TRUE,,,,,,,CLR,,,,,,,,VFR,,,,,,,,,,,,METAR,1748.0
KTMK 040055Z AUTO 30009KT 7SM SCT020 15/10 A3007 RMK AO2,KTMK,2021-10-04T00:55:00Z,45.42,-123.82,15.0,10.0,300,9,,7.0,30.070866,,,TRUE,TRUE,,,,,,,SCT,2000,,,,,,,VFR,,,,,,,,,,,,METAR,8.0
KTME 040055Z AUTO 00000KT 9SM CLR 25/22 A2997 RMK AO2,KTME,2021-10-04T00:55:00Z,29.8,-95.9,25.0,22.0,0,0,,9.0,29.970472,,,TRUE,TRUE,,,,,,,CLR,,,,,,,,VFR,,,,,,,,,,,,METAR,49.0
KTMA 040055Z AUTO 29003KT 10SM CLR 23/21 A3002 RMK AO2 T02320206,KTMA,2021-10-04T00:55:00Z,31.43,-83.48,23.2,20.6,290,3,,10.0,30.02067,,,TRUE,TRUE,,,,,,,CLR,,,,,,,,VFR,,,,,,,,,,,,METAR,105.0
KTKX 040055Z AUTO 29003KT 10SM SCT037 BKN045 22/20 A2993 RMK AO2,KTKX,2021-10-04T00:55:00Z,36.22,-90.03,22.0,20.0,290,3,,10.0,29.929134,,,TRUE,TRUE,,,,,,,SCT,3700,BKN,4500,,,,,VFR,,,,,,,,,,,,METAR,73.0
KTKV 040055Z AUTO 33005KT 10SM 14/12 A2994 RMK AO2 T01360121 PWINO,KTKV,2021-10-04T00:55:00Z,45.47,-89.82,13.6,12.1,330,5,,10.0,29.940945,,,TRUE,TRUE,,,,,TRUE,,,,,,,,,,,,,,,,,,,,,,METAR,449.0
KTIP 040055Z AUTO 24004KT 10SM SCT042 BKN085 18/18 A2986 RMK AO2 LTG DSNT NW T01810180,KTIP,2021-10-04T00:55:00Z,40.28,-88.15,18.1,18.0,240,4,,10.0,29.861221,,,TRUE,TRUE,,,,,,,SCT,4200,BKN,8500,,,,,VFR,,,,,,,,,,,,METAR,224.0
KTHM 040055Z AUTO 00000KT 10SM 19/03 A3006 RMK Thompson Falls ,KTHM,2021-10-04T00:55:00Z,,,19.0,3.0,0,0,,10.0,30.059055,,,TRUE,,,,,,,,,,,,,,,,,,,,,,,,,,,,METAR,
KTFP 040055Z AUTO 17003KT 7SM CLR 26/24 A2995 RMK AO2 T02630241,KTFP,2021-10-04T00:55:00Z,27.92,-97.22,26.3,24.1,170,3,,7.0,29.949802,,,TRUE,TRUE,,,,,,,CLR,,,,,,,,VFR,,,,,,,,,,,,SPECI,5.0
KTEX 040055Z AUTO 00000KT 10SM SCT055 SCT090 12/02 A3045 RMK AO2,KTEX,2021-10-04T00:55:00Z,37.95,-107.9,12.0,2.0,0,0,,10.0,30.448818,,,TRUE,TRUE,,,,,,,SCT,5500,SCT,9000,,,,,VFR,,,,,,,,,,,,METAR,2760.0
KTEW 040055Z AUTO 30004KT 10SM BKN016 BKN090 19/18 A2981 RMK AO2 T01890178,KTEW,2021-10-04T00:55:00Z,42.57,-84.42,18.9,17.8,300,4,,10.0,29.811024,,,TRUE,TRUE,,,,,,,BKN,1600,BKN,9000,,,,,MVFR,,,,,,,,,,,,METAR,281.0
KTDF 040055Z AUTO 00000KT 10SM CLR 18/17 A3002 RMK AO2,KTDF,2021-10-04T00:55:00Z,36.28,-78.98,18.0,17.0,0,0,,10.0,30.02067,,,TRUE,TRUE,,,,,,,CLR,,,,,,,,VFR,,,,,,,,,,,,METAR,180.0
KTBR 040055Z AUTO 00000KT 10SM CLR 22/20 A3002 RMK AO2 T02160197,KTBR,2021-10-04T00:55:00Z,32.48,-81.73,21.6,19.7,0,0,,10.0,30.02067,,,TRUE,TRUE,,,,,,,CLR,,,,,,,,VFR,,,,,,,,,,,,METAR,54.0
KTAZ 040055Z AUTO 28008KT 10SM CLR 20/20 A2990 RMK AO2,KTAZ,2021-10-04T00:55:00Z,39.53,-89.33,20.0,20.0,280,8,,10.0,29.899607,,,TRUE,TRUE,,,,,,,CLR,,,,,,,,VFR,,,,,,,,,,,,METAR,188.0
KT82 040055Z AUTO 00000KT 10SM SCT065 SCT075 24/17 A3005 RMK AO2 T02410169,KT82,2021-10-04T00:55:00Z,30.25,-98.92,24.1,16.9,0,0,,10.0,30.050198,,,TRUE,TRUE,,,,,,,SCT,6500,SCT,7500,,,,,VFR,,,,,,,,,,,,METAR,509.0
KT78 040055Z AUTO 00000KT 7SM CLR 24/24 A2995 RMK AO2,KT78,2021-10-04T00:55:00Z,,,24.0,24.0,0,0,,7.0,29.949802,,,TRUE,TRUE,,,,,,,CLR,,,,,,,,VFR,,,,,,,,,,,,METAR,
KT74 040055Z AUTO 01006KT 10SM SCT085 24/19 A2998 RMK AO2 T02410188,KT74,2021-10-04T00:55:00Z,30.57,-97.45,24.1,18.8,10,6,,10.0,29.97933,,,TRUE,TRUE,,,,,,,SCT,8500,,,,,,,VFR,,,,,,,,,,,,METAR,169.0
KT69 040055Z AUTO 18005KT 10SM CLR 27/25 A2995 RMK A01,KT69,2021-10-04T00:55:00Z,28.03,-97.55,27.0,25.0,180,5,,10.0,29.949802,,,TRUE,TRUE,,,,,,,CLR,,,,,,,,VFR,,,,,,,,,,,,METAR,15.0
KT41 040055Z AUTO 36004KT 10SM OVC090 27/22 A2996 RMK AO2 T02740220,KT41,2021-10-04T00:55:00Z,29.67,-95.07,27.4,22.0,360,4,,10.0,29.958662,,,TRUE,TRUE,,,,,,,OVC,9000,,,,,,,VFR,,,,,,,,,,,,METAR,8.0
KT35 040055Z AUTO 35003KT 10SM CLR 26/16 A2998 RMK AO2 T02550155,KT35,2021-10-04T00:55:00Z,30.88,-96.97,25.5,15.5,350,3,,10.0,29.97933,,,TRUE,TRUE,,,,,,,CLR,,,,,,,,VFR,,,,,,,,,,,,METAR,122.0
KT20 040055Z AUTO 03003KT 10SM CLR 27/19 A2997 RMK AO2 T02720185,KT20,2021-10-04T00:55:00Z,29.52,-97.47,27.2,18.5,30,3,,10.0,29.970472,,,TRUE,TRUE,,,,,,,CLR,,,,,,,,VFR,,,,,,,,,,,,METAR,107.0
KSZT 040055Z AUTO 00000KT CLR 15/09 A3002 RMK AO2 PWINO,KSZT,2021-10-04T00:55:00Z,48.3,-116.57,15.0,9.0,0,0,,,30.02067,,,TRUE,TRUE,,,,,TRUE,,CLR,,,,,,,,,,,,,,,,,,,,METAR,649.0
KSYN 040055Z AUTO 00000KT 10SM CLR 14/12 A2995 RMK AO2 T01430123,KSYN,2021-10-04T00:55:00Z,44.47,-93.02,14.3,12.3,0,0,,10.0,29.949802,,,TRUE,TRUE,,,,,,,CLR,,,,,,,,VFR,,,,,,,,,,,,METAR,280.0
KSYM 040055Z AUTO 15003KT 10SM FEW018 18/17 A2994 RMK AO2 P0005,KSYM,2021-10-04T00:55:00Z,38.22,-83.58,18.0,17.0,150,3,,10.0,29.940945,,,TRUE,TRUE,,,,,,,FEW,1800,,,,,,,VFR,,,,,,0.05,,,,,,METAR,307.0
KSYF 040055Z AUTO 00000KT 7SM CLR 22/M05 A3007 RMK AO2 T02211051 PWINO,KSYF,2021-10-04T00:55:00Z,39.77,-101.8,22.1,-5.1,0,0,,7.0,30.070866,,,TRUE,TRUE,,,,,TRUE,,CLR,,,,,,,,VFR,,,,,,,,,,,,METAR,1041.0
KSXU 040055Z AUTO 15005KT 10SM CLR 18/08 A3018 RMK AO2 T01840077,KSXU,2021-10-04T00:55:00Z,34.93,-104.65,18.4,7.7,150,5,,10.0,30.180119,,,TRUE,TRUE,,,,,,,CLR,,,,,,,,VFR,,,,,,,,,,,,METAR,1465.0
KSXK 040055Z AUTO 00000KT 10SM CLR 20/06 A2998 RMK AO2,KSXK,2021-10-04T00:55:00Z,42.98,-96.17,20.0,6.0,0,0,,10.0,29.97933,,,TRUE,TRUE,,,,,,,CLR,,,,,,,,VFR,,,,,,,,,,,,METAR,430.0
KSWW 040055Z AUTO 06003KT 10SM CLR 23/05 A3013 RMK AO2 T02250049,KSWW,2021-10-04T00:55:00Z,32.47,-100.47,22.5,4.9,60,3,,10.0,30.129921,,,TRUE,TRUE,,,,,,,CLR,,,,,,,,VFR,,,,,,,,,,,,METAR,718.0
KSVH 040055Z AUTO 00000KT 10SM OVC110 23/18 A3002 RMK AO2 T02280180,KSVH,2021-10-04T00:55:00Z,35.75,-80.95,22.8,18.0,0,0,,10.0,30.02067,,,TRUE,TRUE,,,,,,,OVC,11000,,,,,,,VFR,,,,,,,,,,,,METAR,286.0
KSVE 040055Z AUTO 16003KT 10SM CLR 24/M05 A3006 RMK AO2,KSVE,2021-10-04T00:55:00Z,40.37,-120.57,24.0,-5.0,160,3,,10.0,30.059055,,,TRUE,TRUE,,,,,,,CLR,,,,,,,,VFR,,,,,,,,,,,,METAR,1263.0
KSVC 040055Z AUTO 00000KT 10SM SCT110 22/05 A3021 RMK AO2 T02170051,KSVC,2021-10-04T00:55:00Z,32.63,-108.15,21.7,5.1,0,0,,10.0,30.209646,,,TRUE,TRUE,,,,,,,SCT,11000,,,,,,,VFR,,,,,,,,,,,,METAR,1638.0
KSUZ 040055Z AUTO 00000KT 10SM CLR 21/18 A2996 RMK A01,KSUZ,2021-10-04T00:55:00Z,34.58,-92.48,21.0,18.0,0,0,,10.0,29.958662,,,TRUE,TRUE,,,,,,,CLR,,,,,,,,VFR,,,,,,,,,,,,METAR,114.0
KSUW 040055Z AUTO 07003KT 3SM BR OVC002 14/14 A2998 RMK AO2 T01410140,KSUW,2021-10-04T00:55:00Z,46.68,-92.1,14.1,14.0,70,3,,3.0,29.97933,,,TRUE,TRUE,,,,,,BR,OVC,200,,,,,,,LIFR,,,,,,,,,,,,METAR,205.0
KSUT 040055Z AUTO 18003KT 10SM OVC070 25/16 A3005 RMK AO2 T02450160,KSUT,2021-10-04T00:55:00Z,33.93,-78.08,24.5,16.0,180,3,,10.0,30.050198,,,TRUE,TRUE,,,,,,,OVC,7000,,,,,,,VFR,,,,,,,,,,,,METAR,6.0
KSTK 040055Z AUTO 02004KT 10SM CLR 21/00 A3008 RMK AO2,KSTK,2021-10-04T00:55:00Z,40.62,-103.27,21.0,0.0,20,4,,10.0,30.079725,,,TRUE,TRUE,,,,,,,CLR,,,,,,,,VFR,,,,,,,,,,,,METAR,1228.0
KSTE 040055Z AUTO 34006KT 10SM BKN018 OVC023 17/16 A2989 RMK AO2 T01710161,KSTE,2021-10-04T00:55:00Z,44.55,-89.53,17.1,16.1,340,6,,10.0,29.890747,,,TRUE,TRUE,,,,,,,BKN,1800,OVC,2300,,,,,MVFR,,,,,,,,,,,,METAR,335.0
KSRR 040055Z AUTO 12005KT 10SM CLR 15/04 A3033 RMK AO2,KSRR,2021-10-04T00:55:00Z,33.47,-105.52,15.0,4.0,120,5,,10.0,30.33071,,,TRUE,TRUE,,,,,,,CLR,,,,,,,,VFR,,,,,,,,,,,,METAR,2063.0
KSPF 040055Z AUTO 20007KT 10SM CLR 16/M01 A3009 RMK AO2,KSPF,2021-10-04T00:55:00Z,44.47,-103.78,16.0,-1.0,200,7,,10.0,30.088583,,,TRUE,TRUE,,,,,,,CLR,,,,,,,,VFR,,,,,,,,,,,,METAR,1191.0
KSPA 040055Z AUTO 00000KT 10SM SCT022 SCT035 OVC075 20/18 A3004 RMK AO2 LTG DSNT E AND S P0025,KSPA,2021-10-04T00:55:00Z,34.92,-81.95,20.0,18.0,0,0,,10.0,30.041338,,,TRUE,TRUE,,,,,,,SCT,2200,SCT,3500,OVC,7500,,,VFR,,,,,,0.25,,,,,,SPECI,242.0
KSOW 040055Z AUTO 21003KT 10SM CLR 19/03 A3026 RMK AO2,KSOW,2021-10-04T00:55:00Z,34.27,-110.0,19.0,3.0,210,3,,10.0,30.259842,,,TRUE,TRUE,,,,,,,CLR,,,,,,,,VFR,,,,,,,,,,,,METAR,1954.0
KSOA 040055Z AUTO 00000KT 10SM BKN060 25/17 A3011 RMK AO2,KSOA,2021-10-04T00:55:00Z,30.58,-100.65,25.0,17.0,0,0,,10.0,30.109253,,,TRUE,TRUE,,,,,,,BKN,6000,,,,,,,VFR,,,,,,,,,,,,METAR,654.0
KSNL 040055Z AUTO 32004KT 10SM CLR 21/09 A3003 RMK AO2 T02090091,KSNL,2021-10-04T00:55:00Z,35.35,-96.95,20.9,9.1,320,4,,10.0,30.029528,,,TRUE,TRUE,,,,,,,CLR,,,,,,,,VFR,,,,,,,,,,,,METAR,327.0
KSNK 040055Z AUTO 04004KT 10SM CLR 23/08 A3011 RMK AO2 T02340078,KSNK,2021-10-04T00:55:00Z,32.7,-100.95,23.4,7.8,40,4,,10.0,30.109253,,,TRUE,TRUE,,,,,,,CLR,,,,,,,,VFR,,,,,,,,,,,,METAR,738.0
KSNC 040055Z AUTO 00000KT 10SM OVC045 19/17 A2996 RMK AO2,KSNC,2021-10-04T00:55:00Z,41.38,-72.5,19.0,17.0,0,0,,10.0,29.958662,,,TRUE,TRUE,,,,,,,OVC,4500,,,,,,,VFR,,,,,,,,,,,,METAR,114.0
KSMS 040055Z AUTO 00000KT 10SM CLR 21/19 A3004 RMK AO2,KSMS,2021-10-04T00:55:00Z,34.0,-80.37,21.0,19.0,0,0,,10.0,30.041338,,,TRUE,TRUE,,,,,,,CLR,,,,,,,,VFR,,,,,,,,,,,,METAR,53.0
KSMD 040055Z AUTO 16004KT 9SM FEW045 FEW060 SCT075 17/18 A2983 RMK A01,KSMD,2021-10-04T00:55:00Z,41.15,-85.15,17.0,18.0,160,4,,9.0,29.828741,,,TRUE,TRUE,,,,,,,FEW,4500,FEW,6000,SCT,7500,,,VFR,,,,,,,,,,,,METAR,252.0
KSLR 040055Z AUTO 35007KT 10SM CLR 24/15 A3001 RMK AO2 T02400154,KSLR,2021-10-04T00:55:00Z,33.17,-95.62,24.0,15.4,350,7,,10.0,30.008858,,,TRUE,TRUE,,,,,,,CLR,,,,,,,,VFR,,,,,,,,,,,,METAR,144.0
KSLO 040055Z AUTO 26005KT 10SM OVC080 21/19 A2991 RMK AO2 T02100188,KSLO,2021-10-04T00:55:00Z,38.65,-88.97,21.0,18.8,260,5,,10.0,29.911417,,,TRUE,TRUE,,,,,,,OVC,8000,,,,,,,VFR,,,,,,,,,,,,METAR,173.0
KSLH 040055Z AUTO 07005KT 1 3/4SM BR OVC001 15/15 A2988 RMK AO2,KSLH,2021-10-04T00:55:00Z,45.65,-84.52,15.0,15.0,70,5,,1.75,29.878937,,,TRUE,TRUE,,,,,,BR,OVC,100,,,,,,,LIFR,,,,,,,,,,,,METAR,193.0
KSLB 040055Z AUTO 01004KT 10SM CLR 16/07 A2999 RMK AO2,KSLB,2021-10-04T00:55:00Z,42.6,-95.23,16.0,7.0,10,4,,10.0,29.991142,,,TRUE,TRUE,,,,,,,CLR,,,,,,,,VFR,,,,,,,,,,,,METAR,450.0
KSKF 040055Z 12005KT 10SM FEW220 29/18 A2996 RMK AO2A SLP139 T02870178 $,KSKF,2021-10-04T00:55:00Z,29.38,-98.57,28.7,17.8,120,5,,10.0,29.958662,1013.9,,,TRUE,TRUE,,,,,,FEW,22000,,,,,,,VFR,,,,,,,,,,,,SPECI,214.0
KSJX 040055Z AUTO 09009KT 7SM OVC001 17/17 A2989 RMK AO2 T01660166,KSJX,2021-10-04T00:55:00Z,45.7,-85.57,16.6,16.6,90,9,,7.0,29.890747,,,TRUE,TRUE,,,,,,,OVC,100,,,,,,,LIFR,,,,,,,,,,,,METAR,202.0
KSJS 040055Z AUTO 21004KT 10SM SCT110 19/19 A2997 RMK AO2 T01900190,KSJS,2021-10-04T00:55:00Z,37.75,-82.63,19.0,19.0,210,4,,10.0,29.970472,,,TRUE,TRUE,,,,,,,SCT,11000,,,,,,,VFR,,,,,,,,,,,,METAR,359.0
KSIK 040055Z AUTO 26003KT 10SM CLR 21/18 A2993 RMK AO2 TSNO,KSIK,2021-10-04T00:55:00Z,36.9,-89.57,21.0,18.0,260,3,,10.0,29.929134,,,TRUE,TRUE,,,TRUE,,,,CLR,,,,,,,,VFR,,,,,,,,,,,,METAR,95.0
KSIF 040055Z AUTO 26005KT 7SM SCT042 BKN080 OVC090 22/18 A3002 RMK AO2 T02190182,KSIF,2021-10-04T00:55:00Z,36.43,-79.85,21.9,18.2,260,5,,7.0,30.02067,,,TRUE,TRUE,,,,,,,SCT,4200,BKN,8000,OVC,9000,,,VFR,,,,,,,,,,,,METAR,206.0
KSHL 040055Z AUTO 00000KT 10SM CLR 13/10 A2997 RMK AO2,KSHL,2021-10-04T00:55:00Z,43.22,-95.83,13.0,10.0,0,0,,10.0,29.970472,,,TRUE,TRUE,,,,,,,CLR,,,,,,,,VFR,,,,,,,,,,,,METAR,430.0
KSHD 040055Z AUTO 20004KT 10SM OVC070 21/18 A2999 RMK AO2 T02120177,KSHD,2021-10-04T00:55:00Z,38.27,-78.9,21.2,17.7,200,4,,10.0,29.991142,,,TRUE,TRUE,,,,,,,OVC,7000,,,,,,,VFR,,,,,,,,,,,,METAR,360.0
KSGS 040055Z AUTO 00000KT 10SM CLR 17/13 A2996 RMK AO2 T01710134,KSGS,2021-10-04T00:55:00Z,44.87,-93.03,17.1,13.4,0,0,,10.0,29.958662,,,TRUE,TRUE,,,,,,,CLR,,,,,,,,VFR,,,,,,,,,,,,METAR,250.0
KSFY 040055Z AUTO 35006KT 10SM BKN065 20/16 A2987 RMK AO2,KSFY,2021-10-04T00:55:00Z,42.05,-90.12,20.0,16.0,350,6,,10.0,29.870079,,,TRUE,TRUE,,,,,,,BKN,6500,,,,,,,VFR,,,,,,,,,,,,METAR,188.0
KSFQ 040055Z AUTO 17004KT 10SM CLR 22/19 A3001 RMK AO2 T02160186,KSFQ,2021-10-04T00:55:00Z,36.68,-76.6,21.6,18.6,170,4,,10.0,30.008858,,,TRUE,TRUE,,,,,,,CLR,,,,,,,,VFR,,,,,,,,,,,,METAR,19.0
KSEZ 040055Z AUTO 22003KT 10SM CLR 23/04 A3015 RMK AO2,KSEZ,2021-10-04T00:55:00Z,34.85,-111.78,23.0,4.0,220,3,,10.0,30.15059,,,TRUE,TRUE,,,,,,,CLR,,,,,,,,VFR,,,,,,,,,,,,METAR,1455.0
KSEP 040055Z AUTO 01004KT 10SM CLR 24/15 A3007 RMK AO2 T02350145,KSEP,2021-10-04T00:55:00Z,32.22,-98.17,23.5,14.5,10,4,,10.0,30.070866,,,TRUE,TRUE,,,,,,,CLR,,,,,,,,VFR,,,,,,,,,,,,METAR,399.0
KSEM 040055Z AUTO 00000KT 10SM FEW028 FEW033 FEW085 23/23 A2998 RMK AO2,KSEM,2021-10-04T00:55:00Z,32.35,-86.98,23.0,23.0,0,0,,10.0,29.97933,,,TRUE,TRUE,,,,,,,FEW,2800,FEW,3300,FEW,8500,,,VFR,,,,,,,,,,,,METAR,48.0
KSEF 040055Z AUTO 06005KT 10SM CLR 24/19 A3001 RMK AO2 T02360191,KSEF,2021-10-04T00:55:00Z,27.45,-81.35,23.6,19.1,60,5,,10.0,30.008858,,,TRUE,TRUE,,,,,,,CLR,,,,,,,,VFR,,,,,,,,,,,,METAR,17.0
KSDA 040055Z AUTO 00000KT 10SM CLR 15/09 A2998 RMK AO2,KSDA,2021-10-04T00:55:00Z,40.75,-95.42,15.0,9.0,0,0,,10.0,29.97933,,,TRUE,TRUE,,,,,,,CLR,,,,,,,,VFR,,,,,,,,,,,,METAR,293.0
KSCK 040055Z 22003KT 10SM CLR 28/09 A2988 RMK AO2 SLP118 T02780089,KSCK,2021-10-04T00:55:00Z,37.88,-121.22,27.8,8.9,220,3,,10.0,29.878937,1011.8,,,TRUE,,,,,,,CLR,,,,,,,,VFR,,,,,,,,,,,,METAR,8.0
KSCD 040055Z AUTO 00000KT 10SM BKN085 OVC110 21/20 A3001 RMK AO2 T02130202,KSCD,2021-10-04T00:55:00Z,33.17,-86.3,21.3,20.2,0,0,,10.0,30.008858,,,TRUE,TRUE,,,,,,,BKN,8500,OVC,11000,,,,,VFR,,,,,,,,,,,,METAR,164.0
KSBS 040055Z AUTO 32004KT 10SM CLR 15/M01 A3028 RMK AO1 T01511015,KSBS,2021-10-04T00:55:00Z,40.52,-106.87,15.1,-1.5,320,4,,10.0,30.280512,,,TRUE,TRUE,,,,,,,CLR,,,,,,,,VFR,,,,,,,,,,,,METAR,2097.0
KSAZ 040055Z AUTO 00000KT 10SM CLR 17/11 A2998 RMK AO2 P0001,KSAZ,2021-10-04T00:55:00Z,46.37,-94.8,17.0,11.0,0,0,,10.0,29.97933,,,TRUE,TRUE,,,,,,,CLR,,,,,,,,VFR,,,,,,0.01,,,,,,METAR,391.0
KSAR 040055Z AUTO 27003KT 10SM SCT055 BKN070 OVC075 20/18 A2994 RMK AO2 T01980175,KSAR,2021-10-04T00:55:00Z,38.15,-89.7,19.8,17.5,270,3,,10.0,29.940945,,,TRUE,TRUE,,,,,,,SCT,5500,BKN,7000,OVC,7500,,,VFR,,,,,,,,,,,,METAR,162.0
KSAA 040055Z AUTO 21008KT 10SM CLR 14/M05 A3030 RMK AO2,KSAA,2021-10-04T00:55:00Z,41.45,-106.8,14.0,-5.0,210,8,,10.0,30.301182,,,TRUE,TRUE,,,,,,,CLR,,,,,,,,VFR,,,,,,,,,,,,METAR,2093.0
KS52 040055Z AUTO 35007KT 300V360 10SM CLR 20/02 A2995 RMK AO2 T01990021,KS52,2021-10-04T00:55:00Z,48.42,-120.15,19.9,2.1,350,7,,10.0,29.949802,,,TRUE,TRUE,,,,,,,CLR,,,,,,,,VFR,,,,,,,,,,,,METAR,517.0
KS34 040055Z AUTO 00000KT 10SM 23/M09 A3003 RMK Plains ,KS34,2021-10-04T00:55:00Z,47.47,-114.9,23.0,-9.0,0,0,,10.0,30.029528,,,TRUE,,,,,,,,,,,,,,,,,,,,,,,,,,,,METAR,752.0
KS33 040055Z AUTO 01003KT 10SM CLR 22/M02 A3001 RMK AO2,KS33,2021-10-04T00:55:00Z,44.67,-121.15,22.0,-2.0,10,3,,10.0,30.008858,,,TRUE,TRUE,,,,,,,CLR,,,,,,,,VFR,,,,,,,,,,,,METAR,739.0
KS25 040055Z AUTO 00000KT 10SM CLR 18/M00 A2995 RMK AO2,KS25,2021-10-04T00:55:00Z,47.8,-103.25,18.0,0.0,0,0,,10.0,29.949802,,,TRUE,TRUE,,,,,,,CLR,,,,,,,,VFR,,,,,,,,,,,,METAR,632.0
KRZT 040055Z AUTO 18003KT 10SM SCT035 17/17 A2991 RMK AO2 PWINO,KRZT,2021-10-04T00:55:00Z,39.43,-83.02,17.0,17.0,180,3,,10.0,29.911417,,,TRUE,TRUE,,,,,TRUE,,SCT,3500,,,,,,,VFR,,,,,,,,,,,,METAR,217.0
KRZN 040055Z AUTO 00000KT 10SM OVC027 15/14 A2998 RMK AO2 T01470137,KRZN,2021-10-04T00:55:00Z,45.82,-92.37,14.7,13.7,0,0,,10.0,29.97933,,,TRUE,TRUE,,,,,,,OVC,2700,,,,,,,MVFR,,,,,,,,,,,,METAR,301.0
KRZL 040055Z AUTO 24004KT 10SM BKN065 OVC095 18/17 A2984 RMK AO2,KRZL,2021-10-04T00:55:00Z,40.95,-87.18,18.0,17.0,240,4,,10.0,29.840551,,,TRUE,TRUE,,,,,,,BKN,6500,OVC,9500,,,,,VFR,,,,,,,,,,,,METAR,210.0
KRYW 040055Z AUTO 04006KT 10SM CLR 24/16 A3002 RMK AO2 T02400160,KRYW,2021-10-04T00:55:00Z,30.5,-97.97,24.0,16.0,40,6,,10.0,30.02067,,,TRUE,TRUE,,,,,,,CLR,,,,,,,,VFR,,,,,,,,,,,,METAR,370.0
KRYV 040055Z AUTO 27006KT 5SM VCTS HZ SCT005 BKN020 OVC034 A2985 RMK AO2 LTG DSNT SW THRU NW,KRYV,2021-10-04T00:55:00Z,43.17,-88.72,,,270,6,,5.0,29.84941,,,TRUE,TRUE,,,,,,VCTS HZ,SCT,500,BKN,2000,OVC,3400,,,MVFR,,,,,,,,,,,,METAR,249.0
KRWV 040055Z AUTO 00000KT 10SM CLR 24/18 A2998 RMK AO2 T02440179,KRWV,2021-10-04T00:55:00Z,30.52,-96.7,24.4,17.9,0,0,,10.0,29.97933,,,TRUE,TRUE,,,,,,,CLR,,,,,,,,VFR,,,,,,,,,,,,METAR,116.0
KRVL 040055Z AUTO 09003KT 10SM SCT050 SCT065 21/19 A2992 RMK AO2,KRVL,2021-10-04T00:55:00Z,40.68,-77.63,21.0,19.0,90,3,,10.0,29.920275,,,TRUE,TRUE,,,,,,,SCT,5000,SCT,6500,,,,,VFR,,,,,,,,,,,,METAR,250.0
KRVJ 040055Z AUTO 09006KT 10SM CLR 23/19 A3001 RMK AO2 T02300195,KRVJ,2021-10-04T00:55:00Z,32.07,-82.15,23.0,19.5,90,6,,10.0,30.008858,,,TRUE,TRUE,,,,,,,CLR,,,,,,,,VFR,,,,,,,,,,,,METAR,60.0
KRUQ 040055Z AUTO 00000KT 10SM SCT080 SCT110 19/18 A3001 RMK AO2 T01940175,KRUQ,2021-10-04T00:55:00Z,35.65,-80.52,19.4,17.5,0,0,,10.0,30.008858,,,TRUE,TRUE,,,,,,,SCT,8000,SCT,11000,,,,,VFR,,,,,,,,,,,,METAR,231.0
KRUG 040055Z AUTO 00000KT 10SM CLR 18/05 A2989 RMK AO2,KRUG,2021-10-04T00:55:00Z,48.38,-100.02,18.0,5.0,0,0,,10.0,29.890747,,,TRUE,TRUE,,,,,,,CLR,,,,,,,,VFR,,,,,,,,,,,,METAR,469.0
KRSV 040055Z AUTO 23004KT 10SM SCT050 SCT070 18/17 A2989 RMK AO2 LTG DSNT E T01830170,KRSV,2021-10-04T00:55:00Z,39.02,-87.65,18.3,17.0,230,4,,10.0,29.890747,,,TRUE,TRUE,,,,,,,SCT,5000,SCT,7000,,,,,VFR,,,,,,,,,,,,METAR,139.0
KRSN 040055Z AUTO 00000KT 10SM CLR 22/21 A2999 RMK AO2 T02170205,KRSN,2021-10-04T00:55:00Z,32.52,-92.58,21.7,20.5,0,0,,10.0,29.991142,,,TRUE,TRUE,,,,,,,CLR,,,,,,,,VFR,,,,,,,,,,,,METAR,86.0
KRRT 040055Z AUTO 13006KT 10SM CLR 14/11 A2995 RMK AO2,KRRT,2021-10-04T00:55:00Z,48.93,-95.33,14.0,11.0,130,6,,10.0,29.949802,,,TRUE,TRUE,,,,,,,CLR,,,,,,,,VFR,,,,,,,,,,,,METAR,327.0
KRRL 040055Z AUTO 36007KT 10SM OVC015 16/14 A2991 RMK AO2 T01600140 TSNO,KRRL,2021-10-04T00:55:00Z,45.2,-89.72,16.0,14.0,360,7,,10.0,29.911417,,,TRUE,TRUE,,,TRUE,,,,OVC,1500,,,,,,,MVFR,,,,,,,,,,,,SPECI,397.0
KRQO 040055Z AUTO 00000KT 10SM CLR 20/11 A3006 RMK AO2 T02030111,KRQO,2021-10-04T00:55:00Z,35.47,-98.0,20.3,11.1,0,0,,10.0,30.059055,,,TRUE,TRUE,,,,,,,CLR,,,,,,,,VFR,,,,,,,,,,,,METAR,431.0
KRQB 040055Z AUTO 30005KT 10SM SCT050 BKN065 OVC085 17/17 A2983 RMK AO2 T01700165,KRQB,2021-10-04T00:55:00Z,43.72,-85.5,17.0,16.5,300,5,,10.0,29.828741,,,TRUE,TRUE,,,,,,,SCT,5000,BKN,6500,OVC,8500,,,VFR,,,,,,,,,,,,METAR,282.0
KRPX 040055Z AUTO 25007KT 24/M06 A2993 RMK Roundup ,KRPX,2021-10-04T00:55:00Z,46.47,-108.55,24.0,-6.0,250,7,,,29.929134,,,TRUE,,,,,,,,,,,,,,,,,,,,,,,,,,,,METAR,1062.0
KRPJ 040055Z AUTO 31004KT 10SM SCT047 OVC060 20/18 A2985 RMK AO2 T02020179,KRPJ,2021-10-04T00:55:00Z,41.88,-89.08,20.2,17.9,310,4,,10.0,29.84941,,,TRUE,TRUE,,,,,,,SCT,4700,OVC,6000,,,,,VFR,,,,,,,,,,,,METAR,234.0
KROX 040055Z AUTO 16004KT 10SM CLR 17/08 A2994 RMK AO2,KROX,2021-10-04T00:55:00Z,48.85,-95.7,17.0,8.0,160,4,,10.0,29.940945,,,TRUE,TRUE,,,,,,,CLR,,,,,,,,VFR,,,,,,,,,,,,METAR,320.0
KROS 040055Z AUTO 00000KT 10SM CLR 12/11 A2997 RMK AO2 T01240106,KROS,2021-10-04T00:55:00Z,45.7,-92.95,12.4,10.6,0,0,,10.0,29.970472,,,TRUE,TRUE,,,,,,,CLR,,,,,,,,VFR,,,,,,,,,,,,METAR,282.0
KRNP 040055Z AUTO 00000KT 10SM BKN040 19/19 A2982 RMK AO2 T01880186,KRNP,2021-10-04T00:55:00Z,43.0,-84.13,18.8,18.6,0,0,,10.0,29.819881,,,TRUE,TRUE,,,,,,,BKN,4000,,,,,,,VFR,,,,,,,,,,,,METAR,224.0
KRNO 040055Z 09006KT 10SM BKN140 26/M08 A3007 RMK AO2 SLP145 FU BKN140 FU ALF AND HZ VC ALQDS T02611083,KRNO,2021-10-04T00:55:00Z,39.5,-119.77,26.1,-8.3,90,6,,10.0,30.070866,1014.5,,,TRUE,,,,,,,BKN,14000,,,,,,,VFR,,,,,,,,,,,,METAR,1344.0
KRNH 040055Z AUTO 00000KT 5SM BR SCT041 13/11 A2998 RMK AO2 T01290110,KRNH,2021-10-04T00:55:00Z,45.15,-92.53,12.9,11.0,0,0,,5.0,29.97933,,,TRUE,TRUE,,,,,,BR,SCT,4100,,,,,,,MVFR,,,,,,,,,,,,METAR,302.0
KRMY 040055Z AUTO 00000KT 4SM BR SCT022 BKN046 19/19 A2981 RMK AO2 T01880185 P0001,KRMY,2021-10-04T00:55:00Z,42.25,-84.95,18.8,18.5,0,0,,4.0,29.811024,,,TRUE,TRUE,,,,,,BR,SCT,2200,BKN,4600,,,,,MVFR,,,,,,0.01,,,,,,METAR,285.0
KRMN 040055Z AUTO 20006KT 10SM OVC100 A2997 RMK AO2,KRMN,2021-10-04T00:55:00Z,38.4,-77.45,,,200,6,,10.0,29.970472,,,TRUE,TRUE,,,,,,,OVC,10000,,,,,,,VFR,,,,,,,,,,,,METAR,50.0
KRLD 040055Z AUTO 10004KT 10SM CLR 24/04 A2997 RMK AO2 T02420040,KRLD,2021-10-04T00:55:00Z,46.3,-119.3,24.2,4.0,100,4,,10.0,29.970472,,,TRUE,TRUE,,,,,,,CLR,,,,,,,,VFR,,,,,,,,,,,,METAR,118.0
KRKR 040055Z AUTO 00000KT 10SM CLR 21/15 A2998 RMK AO2,KRKR,2021-10-04T00:55:00Z,35.02,-94.62,21.0,15.0,0,0,,10.0,29.97933,,,TRUE,TRUE,,,,,,,CLR,,,,,,,,VFR,,,,,,,,,,,,METAR,136.0
KRGK 040055Z AUTO 00000KT 10SM CLR 14/13 A2995 RMK AO2,KRGK,2021-10-04T00:55:00Z,44.58,-92.48,14.0,13.0,0,0,,10.0,29.949802,,,TRUE,TRUE,,,,,,,CLR,,,,,,,,VFR,,,,,,,,,,,,METAR,238.0
KRGA 040055Z AUTO 18007KT 10SM SCT100 SCT120 19/18 A2994 RMK AO2,KRGA,2021-10-04T00:55:00Z,37.63,-84.33,19.0,18.0,180,7,,10.0,29.940945,,,TRUE,TRUE,,,,,,,SCT,10000,SCT,12000,,,,,VFR,,,,,,,,,,,,METAR,301.0
KRFI 040055Z AUTO 00000KT 10SM CLR 22/17 A2998 RMK AO2 T02180167,KRFI,2021-10-04T00:55:00Z,32.15,-94.85,21.8,16.7,0,0,,10.0,29.97933,,,TRUE,TRUE,,,,,,,CLR,,,,,,,,VFR,,,,,,,,,,,,METAR,133.0
KREG 040055Z AUTO 17009KT 10SM -RA SCT050 BKN070 OVC110 24/22 A2994 RMK AO2 LTG DSNT S P0023 T02380222,KREG,2021-10-04T00:55:00Z,30.17,-90.93,23.8,22.2,170,9,,10.0,29.940945,,,TRUE,TRUE,,,,,,-RA,SCT,5000,BKN,7000,OVC,11000,,,VFR,,,,,,0.23,,,,,,METAR,3.0
KRDK 040055Z AUTO 00000KT 10SM CLR 15/08 A2999 RMK AO2,KRDK,2021-10-04T00:55:00Z,41.02,-95.27,15.0,8.0,0,0,,10.0,29.991142,,,TRUE,TRUE,,,,,,,CLR,,,,,,,,VFR,,,,,,,,,,,,METAR,317.0
KRCZ 040055Z AUTO 17007KT 10SM CLR 23/18 A3002 RMK AO2 T02320180,KRCZ,2021-10-04T00:55:00Z,34.88,-79.77,23.2,18.0,170,7,,10.0,30.02067,,,TRUE,TRUE,,,,,,,CLR,,,,,,,,VFR,,,,,,,,,,,,SPECI,110.0
KRCX 040055Z AUTO 00000KT 10SM 16/15 A2998 RMK AO2 T01570146,KRCX,2021-10-04T00:55:00Z,45.5,-91.0,15.7,14.6,0,0,,10.0,29.97933,,,TRUE,TRUE,,,,,,,,,,,,,,,,,,,,,,,,,,,METAR,373.0
KRCV 040055Z AUTO 29008KT 10SM CLR 14/02 A3035 RMK AO2 T01360020,KRCV,2021-10-04T00:55:00Z,37.72,-106.35,13.6,2.0,290,8,,10.0,30.351377,,,TRUE,TRUE,,,,,,,CLR,,,,,,,,VFR,,,,,,,,,,,,METAR,2418.0
KRCR 040055Z AUTO 27004KT 7SM SCT080 SCT100 18/17 A2984 RMK AO2 LTG DSNT N,KRCR,2021-10-04T00:55:00Z,41.07,-86.18,18.0,17.0,270,4,,7.0,29.840551,,,TRUE,TRUE,,,,,,,SCT,8000,SCT,10000,,,,,VFR,,,,,,,,,,,,METAR,240.0
KRCM 040055Z AUTO 23004KT 10SM CLR 18/15 A2996 RMK AO2,KRCM,2021-10-04T00:55:00Z,38.78,-93.8,18.0,15.0,230,4,,10.0,29.958662,,,TRUE,TRUE,,,,,,,CLR,,,,,,,,VFR,,,,,,,,,,,,METAR,242.0
KRCE 040055Z AUTO 02003KT 10SM CLR 22/09 A3004 RMK AO2,KRCE,2021-10-04T00:55:00Z,35.48,-97.82,22.0,9.0,20,3,,10.0,30.041338,,,TRUE,TRUE,,,,,,,CLR,,,,,,,,VFR,,,,,,,,,,,,METAR,412.0
KRBW 040055Z AUTO 00000KT 10SM CLR 21/21 A3004 RMK AO2,KRBW,2021-10-04T00:55:00Z,32.92,-80.63,21.0,21.0,0,0,,10.0,30.041338,,,TRUE,TRUE,,,,,,,CLR,,,,,,,,VFR,,,,,,,,,,,,SPECI,30.0
KRBO 040055Z AUTO 14005KT 10SM CLR 28/25 A2996 RMK AO2 T02810252,KRBO,2021-10-04T00:55:00Z,27.78,-97.68,28.1,25.2,140,5,,10.0,29.958662,,,TRUE,TRUE,,,,,,,CLR,,,,,,,,VFR,,,,,,,,,,,,METAR,24.0
KRAW 040055Z AUTO 31003KT 10SM SCT065 18/15 A2999 RMK AO2 T01840148,KRAW,2021-10-04T00:55:00Z,38.35,-93.35,18.4,14.8,310,3,,10.0,29.991142,,,TRUE,TRUE,,,,,,,SCT,6500,,,,,,,VFR,,,,,,,,,,,,METAR,285.0
KRAS 040055Z AUTO 12005KT 10SM CLR 27/23 A2997 RMK AO2 T02720235,KRAS,2021-10-04T00:55:00Z,27.82,-97.08,27.2,23.5,120,5,,10.0,29.970472,,,TRUE,TRUE,,,,,,,CLR,,,,,,,,VFR,,,,,,,,,,,,METAR,3.0
KQTZ 040055Z 31008KT 9999 SKC 26/08 A2977 RMK SLP085,KQTZ,2021-10-04T00:55:00Z,,,26.0,8.0,310,8,,6.21,29.769686,1008.5,,,,,,,,,,SKC,,,,,,,,VFR,,,,,,,,,,,,METAR,
KQN3 040055Z AUTO VRB05KT 9999 CLR 30/23 A2986 RMK AO2 SLP092 WND DATA ESTMD T03010232 $,KQN3,2021-10-04T00:55:00Z,,,30.1,23.2,0,5,,6.21,29.861221,1009.2,,TRUE,TRUE,TRUE,,,,,,CLR,,,,,,,,VFR,,,,,,,,,,,,METAR,
KQAZ 040055Z 05005KT 9000 HZ CLR 29/03 A2992 RMK AO2A SLP094 WND DATA ESTMD T02900028,KQAZ,2021-10-04T00:55:00Z,,,29.0,2.8,50,5,,5.59,29.920275,1009.4,,,TRUE,,,,,,HZ,CLR,,,,,,,,VFR,,,,,,,,,,,,METAR,
KPZZ 040055Z AUTO 00000KT 10SM SCT021 BKN026 BKN032 28/23 A2997 RMK A01,KPZZ,2021-10-04T00:55:00Z,28.43,-91.03,28.0,23.0,0,0,,10.0,29.970472,,,TRUE,TRUE,,,,,,,SCT,2100,BKN,2600,BKN,3200,,,MVFR,,,,,,,,,,,,METAR,25.0
KPZQ 040055Z AUTO 09007KT 1 1/2SM BR OVC003 15/15 A2990 RMK AO2 T01510150,KPZQ,2021-10-04T00:55:00Z,45.4,-83.82,15.1,15.0,90,7,,1.5,29.899607,,,TRUE,TRUE,,,,,,BR,OVC,300,,,,,,,LIFR,,,,,,,,,,,,METAR,199.0
KPYX 040055Z AUTO 07005KT 10SM CLR 21/07 A3009 RMK AO2 T02110066,KPYX,2021-10-04T00:55:00Z,36.42,-100.75,21.1,6.6,70,5,,10.0,30.088583,,,TRUE,TRUE,,,,,,,CLR,,,,,,,,VFR,,,,,,,,,,,,METAR,890.0
KPXE 040055Z AUTO 28004KT 10SM -RA SCT120 22/20 A3004 RMK AO2 LTG DSNT N T02170205,KPXE,2021-10-04T00:55:00Z,32.52,-83.77,21.7,20.5,280,4,,10.0,30.041338,,,TRUE,TRUE,,,,,,-RA,SCT,12000,,,,,,,VFR,,,,,,,,,,,,METAR,126.0
KPWC 040055Z AUTO 00000KT 10SM CLR 13/11 A3002 RMK AO2,KPWC,2021-10-04T00:55:00Z,46.72,-94.38,13.0,11.0,0,0,,10.0,30.02067,,,TRUE,TRUE,,,,,,,CLR,,,,,,,,VFR,,,,,,,,,,,,METAR,394.0
KPVW 040055Z AUTO 00000KT 10SM CLR 20/09 A3014 RMK AO2 T01950087,KPVW,2021-10-04T00:55:00Z,34.17,-101.72,19.5,8.7,0,0,,10.0,30.138779,,,TRUE,TRUE,,,,,,,CLR,,,,,,,,VFR,,,,,,,,,,,,METAR,1029.0
KPVJ 040055Z AUTO 32003KT 10SM CLR 19/13 A3003 RMK AO2 T01930127,KPVJ,2021-10-04T00:55:00Z,34.72,-97.22,19.3,12.7,320,3,,10.0,30.029528,,,TRUE,TRUE,,,,,,,CLR,,,,,,,,VFR,,,,,,,,,,,,METAR,287.0
KPVF 040055Z AUTO 26003KT 10SM CLR 24/00 A3004 RMK AO1,KPVF,2021-10-04T00:55:00Z,38.72,-120.75,24.0,0.0,260,3,,10.0,30.041338,,,TRUE,TRUE,,,,,,,CLR,,,,,,,,VFR,,,,,,,,,,,,METAR,788.0
KPVB 040055Z AUTO 33006KT 10SM BKN060 18/18 A2990 RMK AO1 T01800180,KPVB,2021-10-04T00:55:00Z,42.68,-90.43,18.0,18.0,330,6,,10.0,29.899607,,,TRUE,TRUE,,,,,,,BKN,6000,,,,,,,VFR,,,,,,,,,,,,METAR,311.0
KPUJ 040055Z AUTO 00000KT 5SM BR SCT002 SCT014 BKN060 20/20 A3003 RMK AO2,KPUJ,2021-10-04T00:55:00Z,33.92,-84.93,20.0,20.0,0,0,,5.0,30.029528,,,TRUE,TRUE,,,,,,BR,SCT,200,SCT,1400,BKN,6000,,,MVFR,,,,,,,,,,,,METAR,385.0
KPTT 040055Z AUTO 00000KT 5SM HZ CLR 22/07 A3007 RMK AO2 T02150065,KPTT,2021-10-04T00:55:00Z,37.7,-98.75,21.5,6.5,0,0,,5.0,30.070866,,,TRUE,TRUE,,,,,,HZ,CLR,,,,,,,,MVFR,,,,,,,,,,,,METAR,594.0
KPTS 040055Z AUTO 10SM SCT055 18/16 A2998 RMK AO2 T01770164,KPTS,2021-10-04T00:55:00Z,37.45,-94.73,17.7,16.4,,,,10.0,29.97933,,,TRUE,TRUE,,,,,,,SCT,5500,,,,,,,VFR,,,,,,,,,,,,SPECI,286.0
KPTB 040055Z AUTO 00000KT 10SM CLR 20/18 A2998 RMK AO2 T02040176 TSNO,KPTB,2021-10-04T00:55:00Z,37.17,-77.52,20.4,17.6,0,0,,10.0,29.97933,,,TRUE,TRUE,,,TRUE,,,,CLR,,,,,,,,VFR,,,,,,,,,,,,SPECI,56.0
KPSO 040055Z AUTO 00000KT 10SM CLR 14/04 A3036 RMK AO2 T01380038,KPSO,2021-10-04T00:55:00Z,37.28,-107.05,13.8,3.8,0,0,,10.0,30.360237,,,TRUE,TRUE,,,,,,,CLR,,,,,,,,VFR,,,,,,,,,,,,METAR,2332.0
KPSN 040055Z AUTO 00000KT 5SM HZ CLR 23/17 A2997 RMK AO2,KPSN,2021-10-04T00:55:00Z,31.78,-95.7,23.0,17.0,0,0,,5.0,29.970472,,,TRUE,TRUE,,,,,,HZ,CLR,,,,,,,,MVFR,,,,,,,,,,,,METAR,124.0
KPRS 040055Z AUTO 19006KT 10SM CLR 26/14 A3011 RMK AO2 T02570137,KPRS,2021-10-04T00:55:00Z,29.63,-104.35,25.7,13.7,190,6,,10.0,30.109253,,,TRUE,TRUE,,,,,,,CLR,,,,,,,,VFR,,,,,,,,,,,,METAR,890.0
KPRO 040055Z AUTO 32005KT 10SM CLR 16/09 A2996 RMK AO2 T01610092,KPRO,2021-10-04T00:55:00Z,41.83,-94.17,16.1,9.2,320,5,,10.0,29.958662,,,TRUE,TRUE,,,,,,,CLR,,,,,,,,VFR,,,,,,,,,,,,METAR,308.0
KPRG 040055Z AUTO 25006KT 10SM CLR 19/18 A2987 RMK AO2 T01910182,KPRG,2021-10-04T00:55:00Z,39.7,-87.67,19.1,18.2,250,6,,10.0,29.870079,,,TRUE,TRUE,,,,,,,CLR,,,,,,,,VFR,,,,,,,,,,,,METAR,197.0
KPQN 040055Z AUTO 00000KT 10SM CLR 18/07 A3000 RMK AO2,KPQN,2021-10-04T00:55:00Z,43.98,-96.28,18.0,7.0,0,0,,10.0,30.0,,,TRUE,TRUE,,,,,,,CLR,,,,,,,,VFR,,,,,,,,,,,,METAR,529.0
KPPQ 040055Z AUTO 25003KT 10SM BKN060 20/19 A2992 RMK AO2 T01950193,KPPQ,2021-10-04T00:55:00Z,39.63,-90.78,19.5,19.3,250,3,,10.0,29.920275,,,TRUE,TRUE,,,,,,,BKN,6000,,,,,,,VFR,,,,,,,,,,,,METAR,215.0
KPPO 040055Z AUTO 00000KT 3SM BR OVC004 18/18 A2984 RMK AO2 T01840184,KPPO,2021-10-04T00:55:00Z,41.57,-86.73,18.4,18.4,0,0,,3.0,29.840551,,,TRUE,TRUE,,,,,,BR,OVC,400,,,,,,,LIFR,,,,,,,,,,,,METAR,242.0
KPOY 040055Z AUTO 11007KT 10SM CLR 18/M11 A3012 RMK AO2,KPOY,2021-10-04T00:55:00Z,44.87,-108.8,18.0,-11.0,110,7,,10.0,30.121063,,,TRUE,TRUE,,,,,,,CLR,,,,,,,,VFR,,,,,,,,,,,,METAR,1547.0
KPOV 040055Z AUTO 00000KT 10SM SCT014 18/17 A2987 RMK AO2 T01820167 PWINO,KPOV,2021-10-04T00:55:00Z,41.22,-81.25,18.2,16.7,0,0,,10.0,29.870079,,,TRUE,TRUE,,,,,TRUE,,SCT,1400,,,,,,,VFR,,,,,,,,,,,,METAR,363.0
KPMV 040055Z AUTO 00000KT 10SM CLR 20/05 A3000 RMK AO2 T02030046,KPMV,2021-10-04T00:55:00Z,40.95,-95.92,20.3,4.6,0,0,,10.0,30.0,,,TRUE,TRUE,,,,,,,CLR,,,,,,,,VFR,,,,,,,,,,,,METAR,365.0
KPLU 040055Z AUTO 00000KT 10SM BKN010 OVC020 14/13 A3011 RMK AO2,KPLU,2021-10-04T00:55:00Z,47.1,-122.28,14.0,13.0,0,0,,10.0,30.109253,,,TRUE,TRUE,,,,,,,BKN,1000,OVC,2000,,,,,MVFR,,,,,,,,,,,,METAR,164.0
KPLR 040055Z AUTO 00000KT 10SM SCT070 SCT090 21/20 A3001 RMK A01,KPLR,2021-10-04T00:55:00Z,33.57,-86.25,21.0,20.0,0,0,,10.0,30.008858,,,TRUE,TRUE,,,,,,,SCT,7000,SCT,9000,,,,,VFR,,,,,,,,,,,,METAR,145.0
KPJC 040055Z AUTO 00000KT 3SM BR SCT008 SCT050 18/18 A2990 RMK AO2,KPJC,2021-10-04T00:55:00Z,40.8,-80.17,18.0,18.0,0,0,,3.0,29.899607,,,TRUE,TRUE,,,,,,BR,SCT,800,SCT,5000,,,,,MVFR,,,,,,,,,,,,METAR,273.0
KPHP 040055Z AUTO 12003KT 10SM CLR 21/02 A3000 RMK AO2 SLP151 T02110017,KPHP,2021-10-04T00:55:00Z,44.05,-101.6,21.1,1.7,120,3,,10.0,30.0,1015.1,,TRUE,TRUE,,,,,,,CLR,,,,,,,,VFR,,,,,,,,,,,,METAR,673.0
KPHN 040055Z AUTO 00000KT 5SM BR BKN003 BKN080 18/17 A2983 RMK AO2,KPHN,2021-10-04T00:55:00Z,42.92,-82.52,18.0,17.0,0,0,,5.0,29.828741,,,TRUE,TRUE,,,,,,BR,BKN,300,BKN,8000,,,,,LIFR,,,,,,,,,,,,METAR,195.0
KPGV 040055Z AUTO 20011G14KT 10SM CLR 22/16 A3005 RMK AO2,KPGV,2021-10-04T00:55:00Z,35.63,-77.4,22.0,16.0,200,11,14,10.0,30.050198,,,TRUE,TRUE,,,,,,,CLR,,,,,,,,VFR,,,,,,,,,,,,METAR,6.0
KPEZ 040055Z AUTO 04003KT 10SM SCT120 29/19 A2997 RMK AO2 T02900194,KPEZ,2021-10-04T00:55:00Z,28.95,-98.52,29.0,19.4,40,3,,10.0,29.970472,,,TRUE,TRUE,,,,,,,SCT,12000,,,,,,,VFR,,,,,,,,,,,,METAR,126.0
KPEX 040055Z AUTO 00000KT 10SM CLR 14/13 A2998 RMK AO2,KPEX,2021-10-04T00:55:00Z,45.37,-94.73,14.0,13.0,0,0,,10.0,29.97933,,,TRUE,TRUE,,,,,,,CLR,,,,,,,,VFR,,,,,,,,,,,,METAR,359.0
KPEA 040055Z AUTO 00000KT 10SM 19/09 A2994 RMK AO2 T01860090,KPEA,2021-10-04T00:55:00Z,41.4,-92.95,18.6,9.0,0,0,,10.0,29.940945,,,TRUE,TRUE,,,,,,,,,,,,,,,,,,,,,,,,,,,METAR,264.0
KPCZ 040055Z AUTO 33005KT 10SM BKN014 OVC020 20/18 A2987 RMK AO2 P0014 T01950183,KPCZ,2021-10-04T00:55:00Z,44.33,-89.02,19.5,18.3,330,5,,10.0,29.870079,,,TRUE,TRUE,,,,,,,BKN,1400,OVC,2000,,,,,MVFR,,,,,,0.14,,,,,,METAR,248.0
KPCM 040055Z AUTO 10003KT 10SM CLR 25/18 A3002 RMK AO2,KPCM,2021-10-04T00:55:00Z,28.0,-82.17,25.0,18.0,100,3,,10.0,30.02067,,,TRUE,TRUE,,,,,,,CLR,,,,,,,,VFR,,,,,,,,,,,,METAR,43.0
KPCD 040055Z AUTO 29003KT 10SM CLR 19/18 A2992 RMK AO2 T01870177,KPCD,2021-10-04T00:55:00Z,37.87,-89.87,18.7,17.7,290,3,,10.0,29.920275,,,TRUE,TRUE,,,,,,,CLR,,,,,,,,VFR,,,,,,,,,,,,METAR,112.0
KPBX 040055Z AUTO 00000KT 3SM BR SCT001 SCT029 BKN095 18/18 A2998 RMK AO2 T01760176,KPBX,2021-10-04T00:55:00Z,37.57,-82.57,17.6,17.6,0,0,,3.0,29.97933,,,TRUE,TRUE,,,,,,BR,SCT,100,SCT,2900,BKN,9500,,,MVFR,,,,,,,,,,,,METAR,447.0
KPAN 040055Z AUTO 00000KT 10SM CLR 21/05 A3020 RMK AO2,KPAN,2021-10-04T00:55:00Z,34.25,-111.33,21.0,5.0,0,0,,10.0,30.200787,,,TRUE,TRUE,,,,,,,CLR,,,,,,,,VFR,,,,,,,,,,,,METAR,1575.0
KP58 040055Z AUTO 05007KT 18/18 A2983 RMK AO1 SLP098 T01780178,KP58,2021-10-04T00:55:00Z,44.02,-82.8,17.8,17.8,50,7,,,29.828741,1009.8,,TRUE,TRUE,,,,,,,,,,,,,,,,,,,,,,,,,,,METAR,180.0
KOZW 040055Z AUTO 00000KT 5SM BR CLR 19/18 A2982 RMK AO2 T01860183,KOZW,2021-10-04T00:55:00Z,42.62,-83.98,18.6,18.3,0,0,,5.0,29.819881,,,TRUE,TRUE,,,,,,BR,CLR,,,,,,,,MVFR,,,,,,,,,,,,METAR,288.0
KOZS 040055Z AUTO 24005KT 10SM CLR 18/17 A2999 RMK AO2,KOZS,2021-10-04T00:55:00Z,37.97,-92.68,18.0,17.0,240,5,,10.0,29.991142,,,TRUE,TRUE,,,,,,,CLR,,,,,,,,VFR,,,,,,,,,,,,METAR,321.0
KOZA 040055Z AUTO 08004KT 10SM CLR 25/15 A3011 RMK AO2,KOZA,2021-10-04T00:55:00Z,30.73,-101.2,25.0,15.0,80,4,,10.0,30.109253,,,TRUE,TRUE,,,,,,,CLR,,,,,,,,VFR,,,,,,,,,,,,METAR,721.0
KOXV 040055Z AUTO 32005KT 10SM CLR 19/08 A2993 RMK AO2,KOXV,2021-10-04T00:55:00Z,41.28,-93.12,19.0,8.0,320,5,,10.0,29.929134,,,TRUE,TRUE,,,,,,,CLR,,,,,,,,VFR,,,,,,,,,,,,METAR,280.0
KOXI 040055Z AUTO 00000KT 7SM BKN110 18/17 A2983 RMK AO1,KOXI,2021-10-04T00:55:00Z,41.33,-86.67,18.0,17.0,0,0,,7.0,29.828741,,,TRUE,TRUE,,,,,,,BKN,11000,,,,,,,VFR,,,,,,,,,,,,METAR,208.0
KOWX 040055Z AUTO 28009G16KT 5SM SCT018 BKN032 OVC050 20/17 A2987 RMK AO1,KOWX,2021-10-04T00:55:00Z,41.03,-83.98,20.0,17.0,280,9,16,5.0,29.870079,,,TRUE,TRUE,,,,,,,SCT,1800,BKN,3200,OVC,5000,,,MVFR,,,,,,,,,,,,METAR,232.0
KOVL 040055Z AUTO 00000KT 10SM CLR 17/08 A2997 RMK AO2,KOVL,2021-10-04T00:55:00Z,44.78,-95.03,17.0,8.0,0,0,,10.0,29.970472,,,TRUE,TRUE,,,,,,,CLR,,,,,,,,VFR,,,,,,,,,,,,METAR,329.0
KOSC 040055Z AUTO 03005KT 1/2SM FG OVC002 18/18 A2985 RMK AO2 T01750175,KOSC,2021-10-04T00:55:00Z,44.45,-83.4,17.5,17.5,30,5,,0.5,29.84941,,,TRUE,TRUE,,,,,,FG,OVC,200,,,,,,,LIFR,,,,,,,,,,,,METAR,191.0
KOSA 040055Z AUTO 34005KT 10SM CLR 24/15 A2998 RMK AO2 T02410146,KOSA,2021-10-04T00:55:00Z,33.1,-94.97,24.1,14.6,340,5,,10.0,29.97933,,,TRUE,TRUE,,,,,,,CLR,,,,,,,,VFR,,,,,,,,,,,,METAR,108.0
KORS 040055Z AUTO 00000KT 10SM CLR 12/09 A3011 RMK AO2,KORS,2021-10-04T00:55:00Z,48.7,-122.92,12.0,9.0,0,0,,10.0,30.109253,,,TRUE,TRUE,,,,,,,CLR,,,,,,,,VFR,,,,,,,,,,,,METAR,7.0
KORG 040055Z AUTO 00000KT 10SM CLR 25/23 A2996 RMK AO2 T02510228,KORG,2021-10-04T00:55:00Z,30.07,-93.8,25.1,22.8,0,0,,10.0,29.958662,,,TRUE,TRUE,,,,,,,CLR,,,,,,,,VFR,,,,,,,,,,,,METAR,2.0
KOQN 040055Z AUTO 00000KT 10SM CLR 21/17 A2994 RMK AO2,KOQN,2021-10-04T00:55:00Z,39.98,-75.58,21.0,17.0,0,0,,10.0,29.940945,,,TRUE,TRUE,,,,,,,CLR,,,,,,,,VFR,,,,,,,,,,,,METAR,141.0
KOPN 040055Z AUTO 18008KT 10SM SCT013 BKN022 OVC041 22/20 A3006 RMK AO2 LTG DSNT NE THRU S,KOPN,2021-10-04T00:55:00Z,32.95,-84.27,22.0,20.0,180,8,,10.0,30.059055,,,TRUE,TRUE,,,,,,,SCT,1300,BKN,2200,OVC,4100,,,MVFR,,,,,,,,,,,,METAR,241.0
KOPL 040055Z AUTO 00000KT 10SM SCT043 23/21 A2995 RMK AO2 T02300207,KOPL,2021-10-04T00:55:00Z,30.55,-92.1,23.0,20.7,0,0,,10.0,29.949802,,,TRUE,TRUE,,,,,,,SCT,4300,,,,,,,VFR,,,,,,,,,,,,METAR,22.0
KOOA 040055Z AUTO 00000KT 7SM CLR 20/08 A2993 RMK AO2 T01950081,KOOA,2021-10-04T00:55:00Z,41.23,-92.5,19.5,8.1,0,0,,7.0,29.929134,,,TRUE,TRUE,,,,,,,CLR,,,,,,,,VFR,,,,,,,,,,,,METAR,256.0
KONZ 040055Z AUTO 17004KT 10SM BKN028 BKN110 19/17 A2981 RMK AO2 T01940174 P0001,KONZ,2021-10-04T00:55:00Z,42.1,-83.15,19.4,17.4,170,4,,10.0,29.811024,,,TRUE,TRUE,,,,,,,BKN,2800,BKN,11000,,,,,MVFR,,,,,,0.01,,,,,,METAR,179.0
KONP 040055Z AUTO 35009G15KT 5SM HZ CLR 13/10 A3008 RMK AO2,KONP,2021-10-04T00:55:00Z,44.57,-124.05,13.0,10.0,350,9,15,5.0,30.079725,,,TRUE,TRUE,,,,,,HZ,CLR,,,,,,,,MVFR,,,,,,,,,,,,METAR,43.0
KONL 040055Z AUTO 10006KT 10SM CLR 18/08 A3003 RMK AO2 T01750081,KONL,2021-10-04T00:55:00Z,42.47,-98.68,17.5,8.1,100,6,,10.0,30.029528,,,TRUE,TRUE,,,,,,,CLR,,,,,,,,VFR,,,,,,,,,,,,METAR,619.0
KONA 040055Z AUTO 32006KT 7SM -DZ BKN023 OVC029 17/16 A2994 RMK AO2,KONA,2021-10-04T00:55:00Z,44.07,-91.7,17.0,16.0,320,6,,7.0,29.940945,,,TRUE,TRUE,,,,,,-DZ,BKN,2300,OVC,2900,,,,,MVFR,,,,,,,,,,,,METAR,200.0
KOMH 040055Z AUTO 00000KT 10SM OVC100 22/18 A2994 RMK AO2,KOMH,2021-10-04T00:55:00Z,38.25,-78.05,22.0,18.0,0,0,,10.0,29.940945,,,TRUE,TRUE,,,,,,,OVC,10000,,,,,,,VFR,,,,,,,,,,,,METAR,136.0
KOLZ 040055Z AUTO 36004KT 10SM CLR 17/14 A2993 RMK A01,KOLZ,2021-10-04T00:55:00Z,42.67,-91.97,17.0,14.0,360,4,,10.0,29.929134,,,TRUE,TRUE,,,,,,,CLR,,,,,,,,VFR,,,,,,,,,,,,METAR,328.0
KOLY 040055Z AUTO 27004KT 10SM CLR 21/16 A2990 RMK AO2 T02080162,KOLY,2021-10-04T00:55:00Z,38.72,-88.18,20.8,16.2,270,4,,10.0,29.899607,,,TRUE,TRUE,,,,,,,CLR,,,,,,,,VFR,,,,,,,,,,,,METAR,144.0
KOLG 040055Z AUTO 03004KT 10SM OVC015 14/14 A2998 RMK AO1,KOLG,2021-10-04T00:55:00Z,46.3,-91.82,14.0,14.0,30,4,,10.0,29.97933,,,TRUE,TRUE,,,,,,,OVC,1500,,,,,,,MVFR,,,,,,,,,,,,METAR,334.0
KOLE 040055Z AUTO 22005KT 3SM BR OVC002 16/16 A2992 RMK AO2,KOLE,2021-10-04T00:55:00Z,42.23,-78.37,16.0,16.0,220,5,,3.0,29.920275,,,TRUE,TRUE,,,,,,BR,OVC,200,,,,,,,LIFR,,,,,,,,,,,,METAR,651.0
KOKZ 040055Z AUTO 00000KT 10SM OVC050 23/20 A3001 RMK AO2 LTG DSNT W T02300205,KOKZ,2021-10-04T00:55:00Z,32.97,-82.83,23.0,20.5,0,0,,10.0,30.008858,,,TRUE,TRUE,,,,,,,OVC,5000,,,,,,,VFR,,,,,,,,,,,,METAR,128.0
KOKV 040055Z AUTO 00000KT 10SM SCT065 OVC095 22/17 A2991 RMK AO2,KOKV,2021-10-04T00:55:00Z,39.13,-78.15,22.0,17.0,0,0,,10.0,29.911417,,,TRUE,TRUE,,,,,,,SCT,6500,OVC,9500,,,,,VFR,,,,,,,,,,,,METAR,213.0
KOKM 040055Z AUTO 27008KT 10SM CLR 20/15 A3000 RMK AO2 T02000146,KOKM,2021-10-04T00:55:00Z,35.67,-95.95,20.0,14.6,270,8,,10.0,30.0,,,TRUE,TRUE,,,,,,,CLR,,,,,,,,VFR,,,,,,,,,,,,METAR,215.0
KOJA 040055Z AUTO 10004KT 10SM CLR 20/13 A3006 RMK AO2 T01990127,KOJA,2021-10-04T00:55:00Z,35.55,-98.67,19.9,12.7,100,4,,10.0,30.059055,,,TRUE,TRUE,,,,,,,CLR,,,,,,,,VFR,,,,,,,,,,,,METAR,490.0
KOIN 040055Z AUTO 14004KT 7SM CLR 20/05 A3009 RMK AO1 T01980054,KOIN,2021-10-04T00:55:00Z,39.83,-100.53,19.8,5.4,140,4,,7.0,30.088583,,,TRUE,TRUE,,,,,,,CLR,,,,,,,,VFR,,,,,,,,,,,,METAR,810.0
KOIC 040055Z AUTO 00000KT 3SM BKN024 BKN036 OVC042 15/15 A2995 RMK AO2 T01540154 PWINO,KOIC,2021-10-04T00:55:00Z,42.57,-75.52,15.4,15.4,0,0,,3.0,29.949802,,,TRUE,TRUE,,,,,TRUE,,BKN,2400,BKN,3600,OVC,4200,,,MVFR,,,,,,,,,,,,METAR,312.0
KOGS 040055Z AUTO VRB04KT 10SM OVC004 13/12 A2995 RMK AO2,KOGS,2021-10-04T00:55:00Z,44.67,-75.47,13.0,12.0,0,4,,10.0,29.949802,,,TRUE,TRUE,,,,,,,OVC,400,,,,,,,LIFR,,,,,,,,,,,,METAR,88.0
KOGA 040055Z AUTO 00000KT 10SM CLR 17/03 A3006 RMK AO2 T01720026,KOGA,2021-10-04T00:55:00Z,41.12,-101.77,17.2,2.6,0,0,,10.0,30.059055,,,TRUE,TRUE,,,,,,,CLR,,,,,,,,VFR,,,,,,,,,,,,METAR,991.0
KOEO 040055Z AUTO 00000KT 10SM CLR 14/14 A3000 RMK AO2 T01350135,KOEO,2021-10-04T00:55:00Z,45.32,-92.7,13.5,13.5,0,0,,10.0,30.0,,,TRUE,TRUE,,,,,,,CLR,,,,,,,,VFR,,,,,,,,,,,,METAR,269.0
KOEL 040055Z AUTO 15006KT 10SM CLR 17/07 A3008 RMK AO1 T01660068,KOEL,2021-10-04T00:55:00Z,39.12,-100.82,16.6,6.8,150,6,,10.0,30.079725,,,TRUE,TRUE,,,,,,,CLR,,,,,,,,VFR,,,,,,,,,,,,METAR,924.0
KOEL 040055Z AUTO 15006KT 10SM CLR 17/07 A3008 RMK AO1 T01660068,KOEL,2021-10-04T00:55:00Z,39.12,-100.82,16.6,6.8,150,6,,10.0,30.079725,,,TRUE,TRUE,,,,,,,CLR,,,,,,,,VFR,,,,,,,,,,,,METAR,924.0
KOEB 040055Z AUTO 00000KT 5SM RA SCT006 BKN120 18/18 A2982 RMK AO2 T01810177,KOEB,2021-10-04T00:55:00Z,41.92,-85.05,18.1,17.7,0,0,,5.0,29.819881,,,TRUE,TRUE,,,,,,RA,SCT,600,BKN,12000,,,,,MVFR,,,,,,,,,,,,METAR,291.0
KOCW 040055Z AUTO 17005KT 10SM CLR 22/16 A3004 RMK AO2 T02170160,KOCW,2021-10-04T00:55:00Z,35.57,-77.05,21.7,16.0,170,5,,10.0,30.041338,,,TRUE,TRUE,,,,,,,CLR,,,,,,,,VFR,,,,,,,,,,,,METAR,10.0
KOBE 040055Z AUTO 07004KT 10SM OVC050 23/19 A3000 RMK AO2,KOBE,2021-10-04T00:55:00Z,27.27,-80.85,23.0,19.0,70,4,,10.0,30.0,,,TRUE,TRUE,,,,,,,OVC,5000,,,,,,,VFR,,,,,,,,,,,,METAR,11.0
KOAR 040055Z AUTO 28006KT 10SM CLR 20/08 A2990 RMK AO2,KOAR,2021-10-04T00:55:00Z,,,20.0,8.0,280,6,,10.0,29.899607,,,TRUE,TRUE,,,,,,,CLR,,,,,,,,VFR,,,,,,,,,,,,SPECI,
KO22 040055Z AUTO 00000KT 6SM HZ CLR 23/M01 A2999 RMK A01,KO22,2021-10-04T00:55:00Z,38.03,-120.42,23.0,-1.0,0,0,,6.0,29.991142,,,TRUE,TRUE,,,,,,HZ,CLR,,,,,,,,VFR,,,,,,,,,,,,METAR,637.0
KNRN 040055Z AUTO 12003KT 10SM CLR 18/06 A3008 RMK AO2,KNRN,2021-10-04T00:55:00Z,39.85,-99.9,18.0,6.0,120,3,,10.0,30.079725,,,TRUE,TRUE,,,,,,,CLR,,,,,,,,VFR,,,,,,,,,,,,METAR,726.0
KNOW 040055Z AUTO 29007KT 10SM OVC039 12/08 A3013 RMK AO2 T01160080,KNOW,2021-10-04T00:55:00Z,48.13,-123.4,11.6,8.0,290,7,,10.0,30.129921,,,TRUE,TRUE,,,,,,,OVC,3900,,,,,,,VFR,,,,,,,,,,,,METAR,3.0
KNKX 040055Z 33005KT 10SM SCT240 28/05 A2990 RMK AO2 SLP120 T02780050,KNKX,2021-10-04T00:55:00Z,32.87,-117.13,27.8,5.0,330,5,,10.0,29.899607,1012.0,,,TRUE,,,,,,,SCT,24000,,,,,,,VFR,,,,,,,,,,,,METAR,138.0
KNFG 040055Z AUTO 23006KT 10SM CLR 28/03 A2988 RMK AO2 SLP117 T02830033 $,KNFG,2021-10-04T00:55:00Z,33.3,-117.35,28.3,3.3,230,6,,10.0,29.878937,1011.7,,TRUE,TRUE,TRUE,,,,,,CLR,,,,,,,,VFR,,,,,,,,,,,,METAR,21.0
KNBG 040055Z AUTO 17004KT 10SM FEW110 26/25 A2994 RMK AO2 SLP138 T02610250 $,KNBG,2021-10-04T00:55:00Z,29.83,-90.02,26.1,25.0,170,4,,10.0,29.940945,1013.8,,TRUE,TRUE,TRUE,,,,,,FEW,11000,,,,,,,VFR,,,,,,,,,,,,METAR,0.0
KN03 040055Z AUTO 00000KT 1 1/4SM +RA SCT009 BKN014 OVC020 16/16 A2992 RMK AO2,KN03,2021-10-04T00:55:00Z,42.6,-76.22,16.0,16.0,0,0,,1.25,29.920275,,,TRUE,TRUE,,,,,,+RA,SCT,900,BKN,1400,OVC,2000,,,IFR,,,,,,,,,,,,METAR,361.0
KMZZ 040055Z AUTO 12004KT 10SM SCT070 OVC100 A2984 RMK AO2,KMZZ,2021-10-04T00:55:00Z,40.48,-85.68,,,120,4,,10.0,29.840551,,,TRUE,TRUE,,,,,,,SCT,7000,OVC,10000,,,,,VFR,,,,,,,,,,,,METAR,260.0
KMZH 040055Z AUTO 00000KT 10SM BKN037 15/13 A2996 RMK AO2,KMZH,2021-10-04T00:55:00Z,46.42,-92.8,15.0,13.0,0,0,,10.0,29.958662,,,TRUE,TRUE,,,,,,,BKN,3700,,,,,,,VFR,,,,,,,,,,,,METAR,331.0
KMYZ 040055Z AUTO 03003KT 10SM CLR 18/03 A3001 RMK AO2,KMYZ,2021-10-04T00:55:00Z,39.85,-96.63,18.0,3.0,30,3,,10.0,30.008858,,,TRUE,TRUE,,,,,,,CLR,,,,,,,,VFR,,,,,,,,,,,,METAR,388.0
KMYP 040055Z AUTO 26012KT 10SM CLR 06/M04 A3068 RMK AO2,KMYP,2021-10-04T00:55:00Z,38.48,-106.32,6.0,-4.0,260,12,,10.0,30.679134,,,TRUE,TRUE,,,,,,,CLR,,,,,,,,VFR,,,,,,,,,,,,METAR,3629.0
KMYJ 040055Z AUTO 25005KT 10SM SCT075 18/17 A2994 RMK AO2,KMYJ,2021-10-04T00:55:00Z,39.15,-91.82,18.0,17.0,250,5,,10.0,29.940945,,,TRUE,TRUE,,,,,,,SCT,7500,,,,,,,VFR,,,,,,,,,,,,METAR,249.0
KMXO 040055Z AUTO 34006KT 10SM CLR 19/16 A2989 RMK AO2,KMXO,2021-10-04T00:55:00Z,42.22,-91.17,19.0,16.0,340,6,,10.0,29.890747,,,TRUE,TRUE,,,,,,,CLR,,,,,,,,VFR,,,,,,,,,,,,METAR,251.0
KMWO 040055Z AUTO 20005KT 10SM OVC012 20/19 A2989 RMK AO2 T02010191,KMWO,2021-10-04T00:55:00Z,39.53,-84.4,20.1,19.1,200,5,,10.0,29.890747,,,TRUE,TRUE,,,,,,,OVC,1200,,,,,,,MVFR,,,,,,,,,,,,METAR,197.0
KMWM 040055Z AUTO 00000KT 10SM CLR 14/08 A2998 RMK AO2,KMWM,2021-10-04T00:55:00Z,43.9,-95.1,14.0,8.0,0,0,,10.0,29.97933,,,TRUE,TRUE,,,,,,,CLR,,,,,,,,VFR,,,,,,,,,,,,METAR,427.0
KMWK 040055Z AUTO 26005KT 7SM RA 20/19 A3006 RMK AO2 P0005 T02000186,KMWK,2021-10-04T00:55:00Z,36.47,-80.55,20.0,18.6,260,5,,7.0,30.059055,,,TRUE,TRUE,,,,,,RA,,,,,,,,,,,,,,,0.05,,,,,,METAR,374.0
KMWA 040055Z AUTO 00000KT 10SM CLR 20/18 A2993 RMK AO2 T01950180,KMWA,2021-10-04T00:55:00Z,37.77,-89.02,19.5,18.0,0,0,,10.0,29.929134,,,TRUE,TRUE,,,,,,,CLR,,,,,,,,VFR,,,,,,,,,,,,METAR,142.0
KMVE 040055Z AUTO 01003KT 10SM CLR 18/06 A2998 RMK AO2,KMVE,2021-10-04T00:55:00Z,44.97,-95.72,18.0,6.0,10,3,,10.0,29.97933,,,TRUE,TRUE,,,,,,,CLR,,,,,,,,VFR,,,,,,,,,,,,METAR,319.0
KMUT 040055Z AUTO 29006KT 10SM BKN060 21/14 A2988 RMK AO2,KMUT,2021-10-04T00:55:00Z,41.37,-91.15,21.0,14.0,290,6,,10.0,29.878937,,,TRUE,TRUE,,,,,,,BKN,6000,,,,,,,VFR,,,,,,,,,,,,METAR,166.0
KMTV 040055Z AUTO 00000KT 7SM BKN070 OVC085 19/19 A3004 RMK AO2 T01930192,KMTV,2021-10-04T00:55:00Z,36.63,-80.02,19.3,19.2,0,0,,7.0,30.041338,,,TRUE,TRUE,,,,,,,BKN,7000,OVC,8500,,,,,VFR,,,,,,,,,,,,METAR,276.0
KMTN 040055Z 16004KT 10SM CLR 23/22 A2993,KMTN,2021-10-04T00:55:00Z,39.32,-76.42,23.0,22.0,160,4,,10.0,29.929134,,,,,,,,,,,CLR,,,,,,,,VFR,,,,,,,,,,,,METAR,2.0
KMRT 040055Z AUTO 21007KT 10SM OVC048 20/17 A2989 RMK AO2 T01950172,KMRT,2021-10-04T00:55:00Z,40.22,-83.35,19.5,17.2,210,7,,10.0,29.890747,,,TRUE,TRUE,,,,,,,OVC,4800,,,,,,,VFR,,,,,,,,,,,,METAR,302.0
KMRN 040055Z AUTO 00000KT 7SM -RA SCT080 OVC100 20/20 A3008 RMK AO2 P0002 T02020195,KMRN,2021-10-04T00:55:00Z,35.82,-81.62,20.2,19.5,0,0,,7.0,30.079725,,,TRUE,TRUE,,,,,,-RA,SCT,8000,OVC,10000,,,,,VFR,,,,,,0.02,,,,,,METAR,375.0
KMRJ 040055Z AUTO 33005KT 10SM BKN030 OVC055 19/16 A2989 RMK AO2,KMRJ,2021-10-04T00:55:00Z,42.88,-90.23,19.0,16.0,330,5,,10.0,29.890747,,,TRUE,TRUE,,,,,,,BKN,3000,OVC,5500,,,,,MVFR,,,,,,,,,,,,METAR,350.0
KMQS 040055Z AUTO 00000KT 10SM CLR 21/18 A2995 RMK AO2,KMQS,2021-10-04T00:55:00Z,39.98,-75.87,21.0,18.0,0,0,,10.0,29.949802,,,TRUE,TRUE,,,,,,,CLR,,,,,,,,VFR,,,,,,,,,,,,METAR,200.0
KMQJ 040055Z AUTO 20005KT 10SM SCT032 SCT044 SCT070 19/19 A2985 RMK AO1,KMQJ,2021-10-04T00:55:00Z,39.85,-85.9,19.0,19.0,200,5,,10.0,29.84941,,,TRUE,TRUE,,,,,,,SCT,3200,SCT,4400,SCT,7000,,,VFR,,,,,,,,,,,,METAR,262.0
KMQI 040055Z AUTO 22009KT 10SM CLR 22/17 A3005 RMK AO2 T02210172,KMQI,2021-10-04T00:55:00Z,35.92,-75.7,22.1,17.2,220,9,,10.0,30.050198,,,TRUE,TRUE,,,,,,,CLR,,,,,,,,VFR,,,,,,,,,,,,METAR,3.0
KMQB 040055Z AUTO 27007KT 10SM SCT060 18/16 A2992 RMK AO2 T01820160,KMQB,2021-10-04T00:55:00Z,40.52,-90.65,18.2,16.0,270,7,,10.0,29.920275,,,TRUE,TRUE,,,,,,,SCT,6000,,,,,,,VFR,,,,,,,,,,,,METAR,205.0
KMPZ 040055Z AUTO 27004KT 10SM CLR 19/15 A2991 RMK AO2,KMPZ,2021-10-04T00:55:00Z,40.95,-91.52,19.0,15.0,270,4,,10.0,29.911417,,,TRUE,TRUE,,,,,,,CLR,,,,,,,,VFR,,,,,,,,,,,,METAR,222.0
KMOX 040055Z AUTO 00000KT 10SM CLR 11/07 A2999 RMK AO2,KMOX,2021-10-04T00:55:00Z,45.57,-95.97,11.0,7.0,0,0,,10.0,29.991142,,,TRUE,TRUE,,,,,,,CLR,,,,,,,,VFR,,,,,,,,,,,,METAR,346.0
KMOP 040055Z AUTO 04004KT 5SM BR OVC006 19/19 A2982 RMK AO2 T01850185,KMOP,2021-10-04T00:55:00Z,43.62,-84.73,18.5,18.5,40,4,,5.0,29.819881,,,TRUE,TRUE,,,,,,BR,OVC,600,,,,,,,IFR,,,,,,,,,,,,METAR,229.0
KMNZ 040055Z AUTO 00000KT 10SM CLR 23/13 A3005 RMK AO2 T02340128,KMNZ,2021-10-04T00:55:00Z,31.67,-98.15,23.4,12.8,0,0,,10.0,30.050198,,,TRUE,TRUE,,,,,,,CLR,,,,,,,,VFR,,,,,,,,,,,,METAR,397.0
KMNI 040055Z AUTO 15003KT 10SM CLR 21/19 A3003 RMK AO2,KMNI,2021-10-04T00:55:00Z,33.58,-80.22,21.0,19.0,150,3,,10.0,30.029528,,,TRUE,TRUE,,,,,,,CLR,,,,,,,,VFR,,,,,,,,,,,,METAR,29.0
KMNH 040055Z AUTO 08003KT 10SM CLR 14/M05 A3031 RMK AO2,KMNH,2021-10-04T00:55:00Z,39.22,-104.65,14.0,-5.0,80,3,,10.0,30.31004,,,TRUE,TRUE,,,,,,,CLR,,,,,,,,VFR,,,,,,,,,,,,METAR,2152.0
KMMH 040055Z AUTO 03004KT 10SM CLR 19/M12 A3024 RMK AO2,KMMH,2021-10-04T00:55:00Z,37.62,-118.83,19.0,-12.0,30,4,,10.0,30.239174,,,TRUE,TRUE,,,,,,,CLR,,,,,,,,VFR,,,,,,,,,,,,SPECI,2167.0
KMLE 040055Z AUTO 00000KT 10SM CLR 18/09 A3000 RMK AO2 T01800088,KMLE,2021-10-04T00:55:00Z,41.2,-96.12,18.0,8.8,0,0,,10.0,30.0,,,TRUE,TRUE,,,,,,,CLR,,,,,,,,VFR,,,,,,,,,,,,METAR,318.0
KMKS 040055Z AUTO 00000KT 10SM CLR 21/21 A3004 RMK AO2,KMKS,2021-10-04T00:55:00Z,33.18,-80.03,21.0,21.0,0,0,,10.0,30.041338,,,TRUE,TRUE,,,,,,,CLR,,,,,,,,VFR,,,,,,,,,,,,METAR,22.0
KMKN 040055Z AUTO 03003KT 10SM CLR 23/16 A3005 RMK AO2 T02270155,KMKN,2021-10-04T00:55:00Z,31.92,-98.6,22.7,15.5,30,3,,10.0,30.050198,,,TRUE,TRUE,,,,,,,CLR,,,,,,,,VFR,,,,,,,,,,,,METAR,428.0
KMKJ 040055Z AUTO 24004KT 10SM -RA SCT006 BKN016 BKN055 17/17 A3008 RMK AO2 P0002 T01680168,KMKJ,2021-10-04T00:55:00Z,36.88,-81.33,16.8,16.8,240,4,,10.0,30.079725,,,TRUE,TRUE,,,,,,-RA,SCT,600,BKN,1600,BKN,5500,,,MVFR,,,,,,0.02,,,,,,METAR,777.0
KMKG 040055Z 33004KT 10SM BKN013 BKN020 OVC026 19/18 A2982 RMK AO2 SLP097 T01940178,KMKG,2021-10-04T00:55:00Z,43.17,-86.23,19.4,17.8,330,4,,10.0,29.819881,1009.7,,,TRUE,,,,,,,BKN,1300,BKN,2000,OVC,2600,,,MVFR,,,,,,,,,,,,METAR,190.0
KMJQ 040055Z AUTO 00000KT 10SM CLR 13/07 A3000 RMK AO2 PWINO,KMJQ,2021-10-04T00:55:00Z,43.63,-94.98,13.0,7.0,0,0,,10.0,30.0,,,TRUE,TRUE,,,,,TRUE,,CLR,,,,,,,,VFR,,,,,,,,,,,,METAR,439.0
KMIS 040055Z AUTO 18007KT 10SM FEW021 BKN044 OVC070 25/23 A2997 RMK A01,KMIS,2021-10-04T00:55:00Z,29.3,-88.85,25.0,23.0,180,7,,10.0,29.970472,,,TRUE,TRUE,,,,,,,FEW,2100,BKN,4400,OVC,7000,,,VFR,,,,,,,,,,,,METAR,24.0
KMHP 040055Z AUTO 00000KT 10SM CLR 22/21 A3001 RMK AO2 T02230208,KMHP,2021-10-04T00:55:00Z,32.37,-82.08,22.3,20.8,0,0,,10.0,30.008858,,,TRUE,TRUE,,,,,,,CLR,,,,,,,,VFR,,,,,,,,,,,,METAR,60.0
KMHL 040055Z AUTO 00000KT 10SM SCT065 20/16 A2997 RMK AO2,KMHL,2021-10-04T00:55:00Z,39.1,-93.2,20.0,16.0,0,0,,10.0,29.970472,,,TRUE,TRUE,,,,,,,SCT,6500,,,,,,,VFR,,,,,,,,,,,,METAR,236.0
KMGN 040055Z AUTO 07008KT 10SM OVC003 16/16 A2987 RMK AO2 T01650161,KMGN,2021-10-04T00:55:00Z,45.43,-84.92,16.5,16.1,70,8,,10.0,29.870079,,,TRUE,TRUE,,,,,,,OVC,300,,,,,,,LIFR,,,,,,,,,,,,METAR,205.0
KMGG 040055Z AUTO 00000KT 10SM CLR 15/12 A2999 RMK AO2 T01490115,KMGG,2021-10-04T00:55:00Z,45.23,-93.98,14.9,11.5,0,0,,10.0,29.991142,,,TRUE,TRUE,,,,,,,CLR,,,,,,,,VFR,,,,,,,,,,,,METAR,310.0
KMGC 040055Z AUTO 00000KT 5SM BR OVC009 18/18 A2984 RMK AO2,KMGC,2021-10-04T00:55:00Z,41.7,-86.82,18.0,18.0,0,0,,5.0,29.840551,,,TRUE,TRUE,,,,,,BR,OVC,900,,,,,,,IFR,,,,,,,,,,,,METAR,199.0
KMEZ 040055Z AUTO 00000KT 10SM CLR 19/16 A3001 RMK AO2,KMEZ,2021-10-04T00:55:00Z,34.55,-94.2,19.0,16.0,0,0,,10.0,30.008858,,,TRUE,TRUE,,,,,,,CLR,,,,,,,,VFR,,,,,,,,,,,,METAR,320.0
KMDQ 040055Z AUTO 13003KT 5SM BR BKN026 BKN040 21/20 A2998 RMK A02 LTG DSNT SW T02060202,KMDQ,2021-10-04T00:55:00Z,34.87,-86.55,20.6,20.2,130,3,,5.0,29.97933,,,TRUE,TRUE,,,,,,BR,BKN,2600,BKN,4000,,,,,MVFR,,,,,,,,,,,,METAR,221.0
KMDD 040055Z AUTO 05005KT 10SM CLR 23/08 A3012 RMK AO2 T02320077,KMDD,2021-10-04T00:55:00Z,32.03,-102.1,23.2,7.7,50,5,,10.0,30.121063,,,TRUE,TRUE,,,,,,,CLR,,,,,,,,VFR,,,,,,,,,,,,METAR,853.0
KMCJ 040055Z AUTO 09005KT 10SM OVC110 28/21 A2995 RMK A01,KMCJ,2021-10-04T00:55:00Z,29.72,-95.4,28.0,21.0,90,5,,10.0,29.949802,,,TRUE,TRUE,,,,,,,OVC,11000,,,,,,,VFR,,,,,,,,,,,,METAR,70.0
KMCD 040055Z AUTO 09008KT 3SM BR OVC001 15/15 A2990 RMK AO2 T01520152,KMCD,2021-10-04T00:55:00Z,45.85,-84.63,15.2,15.2,90,8,,3.0,29.899607,,,TRUE,TRUE,,,,,,BR,OVC,100,,,,,,,LIFR,,,,,,,,,,,,METAR,228.0
KMBY 040055Z AUTO 23003KT 10SM OVC065 20/16 A2995 RMK AO2,KMBY,2021-10-04T00:55:00Z,39.47,-92.43,20.0,16.0,230,3,,10.0,29.949802,,,TRUE,TRUE,,,,,,,OVC,6500,,,,,,,VFR,,,,,,,,,,,,METAR,263.0
KMAW 040055Z AUTO 00000KT 10SM CLR 22/18 A2994 RMK AO2,KMAW,2021-10-04T00:55:00Z,36.6,-90.0,22.0,18.0,0,0,,10.0,29.940945,,,TRUE,TRUE,,,,,,,CLR,,,,,,,,VFR,,,,,,,,,,,,METAR,88.0
KMAN 040055Z AUTO 36004KT 10SM CLR 26/02 A3002 RMK A01,KMAN,2021-10-04T00:55:00Z,43.58,-116.52,26.0,2.0,360,4,,10.0,30.02067,,,TRUE,TRUE,,,,,,,CLR,,,,,,,,VFR,,,,,,,,,,,,METAR,773.0
KM40 040055Z AUTO 13004KT 6SM BR FEW065 SCT085 BKN110 22/22 A2997 RMK AO2,KM40,2021-10-04T00:55:00Z,33.87,-88.48,22.0,22.0,130,4,,6.0,29.970472,,,TRUE,TRUE,,,,,,BR,FEW,6500,SCT,8500,BKN,11000,,,VFR,,,,,,,,,,,,METAR,68.0
KM30 040055Z AUTO 00000KT 10SM CLR A2992 RMK AO2,KM30,2021-10-04T00:55:00Z,37.18,-88.75,,,0,0,,10.0,29.920275,,,TRUE,TRUE,,,,,,,CLR,,,,,,,,VFR,,,,,,,,,,,,METAR,116.0
KM21 040055Z AUTO 00000KT 10SM SCT065 SCT080 BKN110 21/17 A2991 RMK AO2 T02100172,KM21,2021-10-04T00:55:00Z,37.22,-87.15,21.0,17.2,0,0,,10.0,29.911417,,,TRUE,TRUE,,,,,,,SCT,6500,SCT,8000,BKN,11000,,,VFR,,,,,,,,,,,,METAR,127.0
KLZZ 040055Z AUTO 36003KT 10SM CLR 24/16 A3000 RMK AO2 T02390163,KLZZ,2021-10-04T00:55:00Z,31.1,-98.2,23.9,16.3,360,3,,10.0,30.0,,,TRUE,TRUE,,,,,,,CLR,,,,,,,,VFR,,,,,,,,,,,,SPECI,356.0
KLYV 040055Z AUTO 00000KT 10SM CLR 14/06 A2999 RMK AO2 P0004,KLYV,2021-10-04T00:55:00Z,43.62,-96.22,14.0,6.0,0,0,,10.0,29.991142,,,TRUE,TRUE,,,,,,,CLR,,,,,,,,VFR,,,,,,0.04,,,,,,METAR,435.0
KLYO 040055Z AUTO 33003KT 10SM CLR 19/10 A3005 RMK AO2 T01880100,KLYO,2021-10-04T00:55:00Z,38.35,-98.23,18.8,10.0,330,3,,10.0,30.050198,,,TRUE,TRUE,,,,,,,CLR,,,,,,,,VFR,,,,,,,,,,,,METAR,515.0
KLXY 040055Z AUTO 29006KT 10SM CLR 25/16 A2998 RMK AO2 T02490157,KLXY,2021-10-04T00:55:00Z,31.63,-96.52,24.9,15.7,290,6,,10.0,29.97933,,,TRUE,TRUE,,,,,,,CLR,,,,,,,,VFR,,,,,,,,,,,,METAR,164.0
KLXN 040055Z AUTO 12004KT 10SM CLR 18/08 A3005 RMK AO2 T01790080,KLXN,2021-10-04T00:55:00Z,40.78,-99.77,17.9,8.0,120,4,,10.0,30.050198,,,TRUE,TRUE,,,,,,,CLR,,,,,,,,VFR,,,,,,,,,,,,METAR,734.0
KLXL 040055Z AUTO 00000KT 10SM CLR 12/11 A2999 RMK AO2,KLXL,2021-10-04T00:55:00Z,45.95,-94.33,12.0,11.0,0,0,,10.0,29.991142,,,TRUE,TRUE,,,,,,,CLR,,,,,,,,VFR,,,,,,,,,,,,METAR,335.0
KLWB 040055Z AUTO 00000KT 10SM SCT030 BKN036 OVC110 18/17 A3004 RMK AO2 T01780172,KLWB,2021-10-04T00:55:00Z,37.87,-80.4,17.8,17.2,0,0,,10.0,30.041338,,,TRUE,TRUE,,,,,,,SCT,3000,BKN,3600,OVC,11000,,,VFR,,,,,,,,,,,,METAR,702.0
KLWA 040055Z AUTO 00000KT 3SM BR SCT047 SCT090 OVC110 19/19 A2981 RMK AO2 T01900185,KLWA,2021-10-04T00:55:00Z,42.35,-86.25,19.0,18.5,0,0,,3.0,29.811024,,,TRUE,TRUE,,,,,,BR,SCT,4700,SCT,9000,OVC,11000,,,MVFR,,,,,,,,,,,,METAR,199.0
KLVN 040055Z AUTO 00000KT 10SM CLR 14/09 A2996 RMK AO2,KLVN,2021-10-04T00:55:00Z,44.63,-93.23,14.0,9.0,0,0,,10.0,29.958662,,,TRUE,TRUE,,,,,,,CLR,,,,,,,,VFR,,,,,,,,,,,,METAR,292.0
KLVL 040055Z AUTO 00000KT 10SM CLR 21/18 A3000 RMK AO1 T02090176,KLVL,2021-10-04T00:55:00Z,36.78,-77.8,20.9,17.6,0,0,,10.0,30.0,,,TRUE,TRUE,,,,,,,CLR,,,,,,,,VFR,,,,,,,,,,,,METAR,98.0
KLUX 040055Z AUTO 00000KT 10SM SCT044 BKN060 OVC070 22/19 A3004 RMK AO2,KLUX,2021-10-04T00:55:00Z,34.5,-81.95,22.0,19.0,0,0,,10.0,30.041338,,,TRUE,TRUE,,,,,,,SCT,4400,BKN,6000,OVC,7000,,,VFR,,,,,,,,,,,,METAR,213.0
KLUV 040055Z AUTO 06007KT 7SM 21/09 A3014 RMK AO2,KLUV,2021-10-04T00:55:00Z,32.75,-101.92,21.0,9.0,60,7,,7.0,30.138779,,,TRUE,TRUE,,,,,,,,,,,,,,,,,,,,,,,,,,,METAR,910.0
KLUM 040055Z AUTO 30005KT 10SM 15/13 A2996 RMK AO2 T01530133,KLUM,2021-10-04T00:55:00Z,44.9,-91.87,15.3,13.3,300,5,,10.0,29.958662,,,TRUE,TRUE,,,,,,,,,,,,,,,,,,,,,,,,,,,SPECI,271.0
KLUL 040055Z AUTO 11003KT 10SM CLR 21/21 A2996 RMK A02 T02140208,KLUL,2021-10-04T00:55:00Z,31.67,-89.17,21.4,20.8,110,3,,10.0,29.958662,,,TRUE,TRUE,,,,,,,CLR,,,,,,,,VFR,,,,,,,,,,,,METAR,74.0
KLUD 040055Z AUTO 00000KT 7SM CLR 24/12 A3003 RMK AO2 T02420120,KLUD,2021-10-04T00:55:00Z,33.25,-97.58,24.2,12.0,0,0,,7.0,30.029528,,,TRUE,TRUE,,,,,,,CLR,,,,,,,,VFR,,,,,,,,,,,,METAR,319.0
KLUA 040055Z AUTO 22004KT 10SM BKN065 BKN090 22/17 A2994 RMK AO2,KLUA,2021-10-04T00:55:00Z,38.67,-78.5,22.0,17.0,220,4,,10.0,29.940945,,,TRUE,TRUE,,,,,,,BKN,6500,BKN,9000,,,,,VFR,,,,,,,,,,,,METAR,273.0
KLRY 040055Z AUTO 00000KT 10SM CLR 18/16 A3000 RMK AO2,KLRY,2021-10-04T00:55:00Z,38.62,-94.35,18.0,16.0,0,0,,10.0,30.0,,,TRUE,TRUE,,,,,,,CLR,,,,,,,,VFR,,,,,,,,,,,,METAR,272.0
KLRU 040055Z AUTO 06003KT 10SM CLR 23/06 A3016 RMK AO2 T02260060,KLRU,2021-10-04T00:55:00Z,32.28,-106.92,22.6,6.0,60,3,,10.0,30.159449,,,TRUE,TRUE,,,,,,,CLR,,,,,,,,VFR,,,,,,,,,,,,METAR,1355.0
KLRO 040055Z AUTO 00000KT 10SM CLR 23/23 A3003 RMK AO2,KLRO,2021-10-04T00:55:00Z,32.9,-79.78,23.0,23.0,0,0,,10.0,30.029528,,,TRUE,TRUE,,,,,,,CLR,,,,,,,,VFR,,,,,,,,,,,,METAR,3.0
KLRJ 040055Z AUTO 00000KT 10SM CLR 15/11 A2998 RMK AO2,KLRJ,2021-10-04T00:55:00Z,42.77,-96.2,15.0,11.0,0,0,,10.0,29.97933,,,TRUE,TRUE,,,,,,,CLR,,,,,,,,VFR,,,,,,,,,,,,METAR,363.0
KLQK 040055Z AUTO 00000KT 7SM BKN120 19/19 A3003 RMK AO2 P0001 T01910191,KLQK,2021-10-04T00:55:00Z,34.82,-82.7,19.1,19.1,0,0,,7.0,30.029528,,,TRUE,TRUE,,,,,,,BKN,12000,,,,,,,VFR,,,,,,0.01,,,,,,SPECI,291.0
KLOT 040055Z AUTO 30004KT 10SM SCT042 OVC065 21/18 A2984 RMK AO2 LTG DSNT N T02060175,KLOT,2021-10-04T00:55:00Z,41.6,-88.1,20.6,17.5,300,4,,10.0,29.840551,,,TRUE,TRUE,,,,,,,SCT,4200,OVC,6500,,,,,VFR,,,,,,,,,,,,METAR,205.0
KLNP 040055Z AUTO 23008KT 10SM CLR 15/15 A3005 RMK AO2,KLNP,2021-10-04T00:55:00Z,36.98,-82.52,15.0,15.0,230,8,,10.0,30.050198,,,TRUE,TRUE,,,,,,,CLR,,,,,,,,VFR,,,,,,,,,,,,METAR,817.0
KLNN 040055Z AUTO 20003KT 10SM CLR 21/18 A2985 RMK AO1 T02050181,KLNN,2021-10-04T00:55:00Z,41.68,-81.38,20.5,18.1,200,3,,10.0,29.84941,,,TRUE,TRUE,,,,,,,CLR,,,,,,,,VFR,,,,,,,,,,,,METAR,190.0
KLNL 040055Z AUTO 35008KT 5SM BR BKN006 OVC013 14/14 A2995 RMK AO2 T01400135,KLNL,2021-10-04T00:55:00Z,46.15,-89.22,14.0,13.5,350,8,,5.0,29.949802,,,TRUE,TRUE,,,,,,BR,BKN,600,OVC,1300,,,,,IFR,,,,,,,,,,,,METAR,517.0
KLNC 040055Z AUTO 00000KT 10SM CLR 24/15 A3000 RMK AO2 T02430148,KLNC,2021-10-04T00:55:00Z,32.58,-96.72,24.3,14.8,0,0,,10.0,30.0,,,TRUE,TRUE,,,,,,,CLR,,,,,,,,VFR,,,,,,,,,,,,METAR,152.0
KLNA 040055Z AUTO CLR 27/19 A3000 RMK AO2 T02700186 PWINO PNO,KLNA,2021-10-04T00:55:00Z,26.6,-80.08,27.0,18.6,,,,,30.0,,,TRUE,TRUE,,,,,TRUE,,CLR,,,,,,,,,,,,,,,,,,,,METAR,3.0
KLMO 040055Z AUTO 00000KT 10SM CLR 22/M01 A3018 RMK AO2 T02201006,KLMO,2021-10-04T00:55:00Z,40.17,-105.17,22.0,-0.6,0,0,,10.0,30.180119,,,TRUE,TRUE,,,,,,,CLR,,,,,,,,VFR,,,,,,,,,,,,METAR,1535.0
KLLN 040055Z AUTO 18003KT 10SM CLR 19/11 A3017 RMK AO2,KLLN,2021-10-04T00:55:00Z,,,19.0,11.0,180,3,,10.0,30.171259,,,TRUE,TRUE,,,,,,,CLR,,,,,,,,VFR,,,,,,,,,,,,METAR,
KLLJ 040055Z AUTO 25004KT 10SM CLR 18/M13 A3010 RMK AO2 SLP165 T01781128,KLLJ,2021-10-04T00:55:00Z,44.52,-114.22,17.8,-12.8,250,4,,10.0,30.100393,1016.5,,TRUE,TRUE,,,,,,,CLR,,,,,,,,VFR,,,,,,,,,,,,METAR,1535.0
KLKU 040055Z AUTO 18003KT 10SM OVC095 22/19 A3000 RMK AO2 T02230187,KLKU,2021-10-04T00:55:00Z,38.02,-77.97,22.3,18.7,180,3,,10.0,30.0,,,TRUE,TRUE,,,,,,,OVC,9500,,,,,,,VFR,,,,,,,,,,,,METAR,146.0
KLKR 040055Z AUTO 00000KT 10SM FEW040 BKN049 OVC055 23/17 A3002 RMK AO2,KLKR,2021-10-04T00:55:00Z,34.72,-80.85,23.0,17.0,0,0,,10.0,30.02067,,,TRUE,TRUE,,,,,,,FEW,4000,BKN,4900,OVC,5500,,,VFR,,,,,,,,,,,,METAR,166.0
KLJF 040055Z AUTO 00000KT 10SM CLR 17/12 A2998 RMK AO2,KLJF,2021-10-04T00:55:00Z,45.1,-94.52,17.0,12.0,0,0,,10.0,29.97933,,,TRUE,TRUE,,,,,,,CLR,,,,,,,,VFR,,,,,,,,,,,,METAR,347.0
KLIC 040055Z AUTO 01006KT 10SM CLR 14/M06 A3019 RMK AO2 SLP200 T01441056,KLIC,2021-10-04T00:55:00Z,39.27,-103.67,14.4,-5.6,10,6,,10.0,30.188976,1020.0,,TRUE,TRUE,,,,,,,CLR,,,,,,,,VFR,,,,,,,,,,,,METAR,1635.0
KLHZ 040055Z AUTO 20004KT 10SM CLR 21/16 A3004 RMK AO2,KLHZ,2021-10-04T00:55:00Z,36.02,-78.33,21.0,16.0,200,4,,10.0,30.041338,,,TRUE,TRUE,,,,,,,CLR,,,,,,,,VFR,,,,,,,,,,,,METAR,104.0
KLHM 040055Z AUTO 00000KT 10SM CLR 30/02 A2987 RMK AO1,KLHM,2021-10-04T00:55:00Z,38.92,-121.35,30.0,2.0,0,0,,10.0,29.870079,,,TRUE,TRUE,,,,,,,CLR,,,,,,,,VFR,,,,,,,,,,,,METAR,36.0
KLHB 040055Z AUTO 03003KT 10SM CLR 26/17 A2998 RMK AO2 T02620173,KLHB,2021-10-04T00:55:00Z,30.87,-96.62,26.2,17.3,30,3,,10.0,29.97933,,,TRUE,TRUE,,,,,,,CLR,,,,,,,,VFR,,,,,,,,,,,,METAR,83.0
KLGC 040055Z AUTO 00000KT 7SM SCT060 OVC100 21/21 A3002 RMK AO2 T02120207,KLGC,2021-10-04T00:55:00Z,33.0,-85.07,21.2,20.7,0,0,,7.0,30.02067,,,TRUE,TRUE,,,,,,,SCT,6000,OVC,10000,,,,,VFR,,,,,,,,,,,,METAR,209.0
KLDM 040055Z AUTO 00000KT 7SM SCT060 OVC075 17/16 A2983 RMK AO2 T01710164,KLDM,2021-10-04T00:55:00Z,43.97,-86.4,17.1,16.4,0,0,,7.0,29.828741,,,TRUE,TRUE,,,,,,,SCT,6000,OVC,7500,,,,,VFR,,,,,,,,,,,,METAR,194.0
KLDJ 040055Z AUTO 00000KT 10SM CLR 23/18 A2992 RMK AO2 T02300182,KLDJ,2021-10-04T00:55:00Z,40.62,-74.25,23.0,18.2,0,0,,10.0,29.920275,,,TRUE,TRUE,,,,,,,CLR,,,,,,,,VFR,,,,,,,,,,,,SPECI,6.0
KLCQ 040055Z AUTO 00000KT 10SM SCT050 23/21 A3002 RMK AO2,KLCQ,2021-10-04T00:55:00Z,30.18,-82.58,23.0,21.0,0,0,,10.0,30.02067,,,TRUE,TRUE,,,,,,,SCT,5000,,,,,,,VFR,,,,,,,,,,,,METAR,59.0
KLCK 040055Z AUTO 20006KT 10SM SCT085 18/16 A2990 RMK AO2 T01810163,KLCK,2021-10-04T00:55:00Z,39.82,-82.92,18.1,16.3,200,6,,10.0,29.899607,,,TRUE,TRUE,,,,,,,SCT,8500,,,,,,,VFR,,,,,,,,,,,,METAR,225.0
KLCG 040055Z AUTO 00000KT 10SM CLR 16/10 A3001 RMK AO2 T01560096,KLCG,2021-10-04T00:55:00Z,42.25,-96.98,15.6,9.6,0,0,,10.0,30.008858,,,TRUE,TRUE,,,,,,,CLR,,,,,,,,VFR,,,,,,,,,,,,METAR,434.0
KLBO 040055Z AUTO 00000KT 10SM CLR 17/15 A3001 RMK AO2,KLBO,2021-10-04T00:55:00Z,37.65,-92.65,17.0,15.0,0,0,,10.0,30.008858,,,TRUE,TRUE,,,,,,,CLR,,,,,,,,VFR,,,,,,,,,,,,METAR,399.0
KLAM 040055Z AUTO 20003KT 10SM SCT070 16/02 A3033 RMK AO2 T01580018,KLAM,2021-10-04T00:55:00Z,35.87,-106.27,15.8,1.8,200,3,,10.0,30.33071,,,TRUE,TRUE,,,,,,,SCT,7000,,,,,,,VFR,,,,,,,,,,,,METAR,2166.0
KL52 040055Z AUTO 00000KT 1/2SM BR OVC002 13/13 A2992 RMK A01,KL52,2021-10-04T00:55:00Z,35.1,-120.62,13.0,13.0,0,0,,0.5,29.920275,,,TRUE,TRUE,,,,,,BR,OVC,200,,,,,,,LIFR,,,,,,,,,,,,METAR,3.0
KL35 040055Z AUTO 22004KT 10SM CLR 18/M03 A3023 RMK AO2,KL35,2021-10-04T00:55:00Z,34.27,-116.85,18.0,-3.0,220,4,,10.0,30.230314,,,TRUE,TRUE,,,,,,,CLR,,,,,,,,VFR,,,,,,,,,,,,METAR,2062.0
KL08 040055Z AUTO 14004KT 10SM CLR 35/M03 A2984 RMK AO2,KL08,2021-10-04T00:55:00Z,33.27,-116.32,35.0,-3.0,140,4,,10.0,29.840551,,,TRUE,TRUE,,,,,,,CLR,,,,,,,,VFR,,,,,,,,,,,,METAR,156.0
KKY8 040055Z AUTO 00000KT 10SM SCT070 OVC080 22/20 A2990 RMK A01,KKY8,2021-10-04T00:55:00Z,37.95,-86.87,22.0,20.0,0,0,,10.0,29.899607,,,TRUE,TRUE,,,,,,,SCT,7000,OVC,8000,,,,,VFR,,,,,,,,,,,,METAR,124.0
KK88 040055Z AUTO 00000KT 10SM CLR 17/13 A3001 RMK AO1 T01700130,KK88,2021-10-04T00:55:00Z,37.87,-95.38,17.0,13.0,0,0,,10.0,30.008858,,,TRUE,TRUE,,,,,,,CLR,,,,,,,,VFR,,,,,,,,,,,,METAR,308.0
KK82 040055Z AUTO 12004KT 5SM HZ CLR 18/06 A3005 RMK AO2,KK82,2021-10-04T00:55:00Z,39.77,-98.8,18.0,6.0,120,4,,5.0,30.050198,,,TRUE,TRUE,,,,,,HZ,CLR,,,,,,,,MVFR,,,,,,,,,,,,METAR,548.0
KK62 040055Z AUTO 15004KT 10SM OVC110 17/17 A2990 RMK AO2,KK62,2021-10-04T00:55:00Z,38.7,-84.4,17.0,17.0,150,4,,10.0,29.899607,,,TRUE,TRUE,,,,,,,OVC,11000,,,,,,,VFR,,,,,,,,,,,,METAR,274.0
KJZP 040055Z AUTO 00000KT 1/2SM FG BKN002 BKN028 OVC070 19/19 A3008 RMK AO2 T01900190,KJZP,2021-10-04T00:55:00Z,34.45,-84.47,19.0,19.0,0,0,,0.5,30.079725,,,TRUE,TRUE,,,,,,FG,BKN,200,BKN,2800,OVC,7000,,,LIFR,,,,,,,,,,,,METAR,462.0
KJZI 040055Z AUTO 00000KT 10SM SCT019 22/22 A3003 RMK AO2,KJZI,2021-10-04T00:55:00Z,32.7,-80.0,22.0,22.0,0,0,,10.0,30.029528,,,TRUE,TRUE,,,,,,,SCT,1900,,,,,,,VFR,,,,,,,,,,,,METAR,5.0
KJYR 040055Z AUTO 09003KT 10SM CLR 19/05 A3003 RMK AO2,KJYR,2021-10-04T00:55:00Z,40.9,-97.62,19.0,5.0,90,3,,10.0,30.029528,,,TRUE,TRUE,,,,,,,CLR,,,,,,,,VFR,,,,,,,,,,,,METAR,508.0
KJYO 040055Z AUTO 20004KT 10SM SCT080 23/20 A2993 RMK AO2,KJYO,2021-10-04T00:55:00Z,39.07,-77.57,23.0,20.0,200,4,,10.0,29.929134,,,TRUE,TRUE,,,,,,,SCT,8000,,,,,,,VFR,,,,,,,,,,,,METAR,112.0
KJYM 040055Z AUTO 00000KT 10SM -RA SCT010 BKN015 OVC110 19/18 A2982 RMK AO2 T01850175,KJYM,2021-10-04T00:55:00Z,41.92,-84.58,18.5,17.5,0,0,,10.0,29.819881,,,TRUE,TRUE,,,,,,-RA,SCT,1000,BKN,1500,OVC,11000,,,MVFR,,,,,,,,,,,,METAR,357.0
KJYL 040055Z AUTO 00000KT 10SM CLR 22/20 A3003 RMK AO2 T02160203,KJYL,2021-10-04T00:55:00Z,32.65,-81.6,21.6,20.3,0,0,,10.0,30.029528,,,TRUE,TRUE,,,,,,,CLR,,,,,,,,VFR,,,,,,,,,,,,METAR,54.0
KJXI 040055Z AUTO 00000KT 10SM A2998 RMK AO2,KJXI,2021-10-04T00:55:00Z,32.7,-94.95,,,0,0,,10.0,29.97933,,,TRUE,TRUE,,,,,,,,,,,,,,,,,,,,,,,,,,,SPECI,130.0
KJWY 040055Z AUTO 01003KT 10SM BKN110 24/16 A3001 RMK AO2 T02410158,KJWY,2021-10-04T00:55:00Z,32.45,-96.92,24.1,15.8,10,3,,10.0,30.008858,,,TRUE,TRUE,,,,,,,BKN,11000,,,,,,,VFR,,,,,,,,,,,,METAR,211.0
KJWN 040055Z 20004KT 10SM BKN034 21/20 A2991,KJWN,2021-10-04T00:55:00Z,36.18,-86.88,21.0,20.0,200,4,,10.0,29.911417,,,,,,,,,,,BKN,3400,,,,,,,VFR,,,,,,,,,,,,METAR,149.0
KJWG 040055Z AUTO 10003KT 10SM CLR 19/13 A3007 RMK AO2 T01920131,KJWG,2021-10-04T00:55:00Z,35.87,-98.42,19.2,13.1,100,3,,10.0,30.070866,,,TRUE,TRUE,,,,,,,CLR,,,,,,,,VFR,,,,,,,,,,,,METAR,469.0
KJVY 040055Z AUTO 01007KT 10SM VCTS SCT011 BKN034 BKN050 19/19 A2989 RMK AO2 LTG DSNT NE,KJVY,2021-10-04T00:55:00Z,38.37,-85.73,19.0,19.0,10,7,,10.0,29.890747,,,TRUE,TRUE,,,,,,VCTS,SCT,1100,BKN,3400,BKN,5000,,,VFR,,,,,,,,,,,,METAR,141.0
KJVW 040055Z AUTO 00000KT 10SM FEW033 23/23 A2994 RMK AO2,KJVW,2021-10-04T00:55:00Z,32.3,-90.42,23.0,23.0,0,0,,10.0,29.940945,,,TRUE,TRUE,,,,,,,FEW,3300,,,,,,,VFR,,,,,,,,,,,,METAR,73.0
KJSY 040055Z AUTO 18004KT 10SM CLR 14/07 A3008 RMK AO2 T01430070,KJSY,2021-10-04T00:55:00Z,45.35,-117.25,14.3,7.0,180,4,,10.0,30.079725,,,TRUE,TRUE,,,,,,,CLR,,,,,,,,VFR,,,,,,,,,,,,METAR,1256.0
KJSV 040055Z AUTO 00000KT 10SM CLR 20/16 A2999 RMK AO2,KJSV,2021-10-04T00:55:00Z,35.43,-94.8,20.0,16.0,0,0,,10.0,29.991142,,,TRUE,TRUE,,,,,,,CLR,,,,,,,,VFR,,,,,,,,,,,,METAR,158.0
KJSO 040055Z AUTO 00000KT 10SM CLR 25/15 A3001 RMK AO2 T02560147,KJSO,2021-10-04T00:55:00Z,31.87,-95.22,25.6,14.7,0,0,,10.0,30.008858,,,TRUE,TRUE,,,,,,,CLR,,,,,,,,VFR,,,,,,,,,,,,METAR,204.0
KJOT 040055Z 10SM SCT040 SCT050 OVC085 23/18 A2984 RMK AO2 T02250180,KJOT,2021-10-04T00:55:00Z,41.52,-88.18,22.5,18.0,,,,10.0,29.840551,,,,TRUE,,,,,,,SCT,4000,SCT,5000,OVC,8500,,,VFR,,,,,,,,,,,,METAR,175.0
KJNX 040055Z AUTO 00000KT 10SM BKN060 20/18 A3002 RMK AO2,KJNX,2021-10-04T00:55:00Z,35.53,-78.38,20.0,18.0,0,0,,10.0,30.02067,,,TRUE,TRUE,,,,,,,BKN,6000,,,,,,,VFR,,,,,,,,,,,,METAR,41.0
KJMR 040055Z AUTO 00000KT 10SM 12/11 A2999 RMK AO2,KJMR,2021-10-04T00:55:00Z,45.88,-93.27,12.0,11.0,0,0,,10.0,29.991142,,,TRUE,TRUE,,,,,,,,,,,,,,,,,,,,,,,,,,,METAR,301.0
KJKJ 040055Z AUTO 00000KT 10SM CLR 18/08 A2996 RMK AO2,KJKJ,2021-10-04T00:55:00Z,46.83,-96.67,18.0,8.0,0,0,,10.0,29.958662,,,TRUE,TRUE,,,,,,,CLR,,,,,,,,VFR,,,,,,,,,,,,METAR,280.0
KJKA 040055Z AUTO 15006KT 10SM BKN019 BKN028 BKN039 25/23 A2997 RMK AO2 T02510226,KJKA,2021-10-04T00:55:00Z,30.28,-87.67,25.1,22.6,150,6,,10.0,29.970472,,,TRUE,TRUE,,,,,,,BKN,1900,BKN,2800,BKN,3900,,,MVFR,,,,,,,,,,,,METAR,5.0
KJHN 040055Z AUTO 10004KT 10SM CLR 19/06 A3011 RMK AO2 T01920064,KJHN,2021-10-04T00:55:00Z,37.58,-101.73,19.2,6.4,100,4,,10.0,30.109253,,,TRUE,TRUE,,,,,,,CLR,,,,,,,,VFR,,,,,,,,,,,,METAR,1013.0
KJGG 040055Z AUTO 19004KT 10SM CLR 24/19 A2999 RMK AO1,KJGG,2021-10-04T00:55:00Z,37.23,-76.72,24.0,19.0,190,4,,10.0,29.991142,,,TRUE,TRUE,,,,,,,CLR,,,,,,,,VFR,,,,,,,,,,,,METAR,13.0
KJFZ 040055Z AUTO 23005KT 10SM SCT120 16/16 A3005 RMK AO2 P0002 T01620155,KJFZ,2021-10-04T00:55:00Z,37.07,-81.8,16.2,15.5,230,5,,10.0,30.050198,,,TRUE,TRUE,,,,,,,SCT,12000,,,,,,,VFR,,,,,,0.02,,,,,,METAR,809.0
KJFX 040055Z AUTO 17004KT 1 1/2SM TS BKN001 OVC010 20/20 A2999 RMK AO2 LTG DSNT ALQDS PWINO,KJFX,2021-10-04T00:55:00Z,33.9,-87.32,20.0,20.0,170,4,,1.5,29.991142,,,TRUE,TRUE,,,,,TRUE,TS,BKN,100,OVC,1000,,,,,LIFR,,,,,,,,,,,,METAR,144.0
KJES 040055Z AUTO 00000KT 10SM CLR 23/20 A3005 RMK AO2,KJES,2021-10-04T00:55:00Z,31.55,-81.88,23.0,20.0,0,0,,10.0,30.050198,,,TRUE,TRUE,,,,,,,CLR,,,,,,,,VFR,,,,,,,,,,,,METAR,26.0
KJDD 040055Z AUTO 00000KT 10SM CLR 23/17 A2999 RMK AO2,KJDD,2021-10-04T00:55:00Z,32.75,-95.5,23.0,17.0,0,0,,10.0,29.991142,,,TRUE,TRUE,,,,,,,CLR,,,,,,,,VFR,,,,,,,,,,,,METAR,127.0
KJCA 040055Z AUTO 00000KT 7SM -RA SCT100 SCT120 20/ A3004 RMK AO2 T0198////,KJCA,2021-10-04T00:55:00Z,34.18,-83.57,19.8,,0,0,,7.0,30.041338,,,TRUE,TRUE,,,,,,-RA,SCT,10000,SCT,12000,,,,,VFR,,,,,,,,,,,,METAR,287.0
KJAS 040055Z AUTO 00000KT 10SM 23/23 A2995 RMK AO2,KJAS,2021-10-04T00:55:00Z,30.88,-94.03,23.0,23.0,0,0,,10.0,29.949802,,,TRUE,TRUE,,,,,,,,,,,,,,,,,,,,,,,,,,,METAR,60.0
KIZA 040055Z AUTO 27006KT 10SM CLR 30/00 A2992 RMK AO2,KIZA,2021-10-04T00:55:00Z,34.6,-120.07,30.0,0.0,270,6,,10.0,29.920275,,,TRUE,TRUE,,,,,,,CLR,,,,,,,,VFR,,,,,,,,,,,,METAR,200.0
KIYA 040055Z AUTO 00000KT 10SM SCT050 SCT065 BKN095 25/22 A2994 RMK AO2 T02520221,KIYA,2021-10-04T00:55:00Z,29.98,-92.08,25.2,22.1,0,0,,10.0,29.940945,,,TRUE,TRUE,,,,,,,SCT,5000,SCT,6500,BKN,9500,,,VFR,,,,,,,,,,,,METAR,4.0
KIXA 040055Z AUTO 18004KT 10SM CLR 21/20 A3000 RMK AO2,KIXA,2021-10-04T00:55:00Z,36.33,-77.63,21.0,20.0,180,4,,10.0,30.0,,,TRUE,TRUE,,,,,,,CLR,,,,,,,,VFR,,,,,,,,,,,,METAR,43.0
KIWA 040055Z 00000KT 10SM BKN230 33/06 A2990,KIWA,2021-10-04T00:55:00Z,33.3,-111.65,33.0,6.0,0,0,,10.0,29.899607,,,,,,,,,,,BKN,23000,,,,,,,VFR,,,,,,,,,,,,METAR,420.0
KIUA 040055Z AUTO 00000KT 4SM RA SCT013 SCT020 OVC043 17/17 A2989 RMK AO2 P0048 T01710171,KIUA,2021-10-04T00:55:00Z,42.92,-77.33,17.1,17.1,0,0,,4.0,29.890747,,,TRUE,TRUE,,,,,,RA,SCT,1300,SCT,2000,OVC,4300,,,MVFR,,,,,,0.48,,,,,,METAR,248.0
KISQ 040055Z AUTO 06006KT 2SM BR OVC003 17/16 A2988 RMK AO2 T01670163,KISQ,2021-10-04T00:55:00Z,45.97,-86.17,16.7,16.3,60,6,,2.0,29.878937,,,TRUE,TRUE,,,,,,BR,OVC,300,,,,,,,LIFR,,,,,,,,,,,,METAR,206.0
KIRS 040055Z AUTO 00000KT 7SM RA SCT100 BKN120 17/17 A2982 RMK AO2 T01700166 P0001,KIRS,2021-10-04T00:55:00Z,41.8,-85.43,17.0,16.6,0,0,,7.0,29.819881,,,TRUE,TRUE,,,,,,RA,SCT,10000,BKN,12000,,,,,VFR,,,,,,0.01,,,,,,METAR,282.0
KIRK 040055Z AUTO 30004KT 8SM CLR 17/15 A2995 RMK AO2 SLP142 T01670150,KIRK,2021-10-04T00:55:00Z,40.1,-92.55,16.7,15.0,300,4,,8.0,29.949802,1014.2,,TRUE,TRUE,,,,,,,CLR,,,,,,,,VFR,,,,,,,,,,,,METAR,292.0
KIPJ 040055Z AUTO 00000KT 10SM BKN100 BKN120 22/18 A3003 RMK AO2 T02160184,KIPJ,2021-10-04T00:55:00Z,35.48,-81.17,21.6,18.4,0,0,,10.0,30.029528,,,TRUE,TRUE,,,,,,,BKN,10000,BKN,12000,,,,,VFR,,,,,,,,,,,,METAR,266.0
KIOB 040055Z AUTO 21006KT 10SM SCT005 SCT034 18/18 A2995 RMK AO2,KIOB,2021-10-04T00:55:00Z,38.05,-83.98,18.0,18.0,210,6,,10.0,29.949802,,,TRUE,TRUE,,,,,,,SCT,500,SCT,3400,,,,,VFR,,,,,,,,,,,,METAR,301.0
KINF 040055Z AUTO 10SM CLR 24/22 A3001 RMK AO2,KINF,2021-10-04T00:55:00Z,28.8,-82.32,24.0,22.0,,,,10.0,30.008858,,,TRUE,TRUE,,,,,,,CLR,,,,,,,,VFR,,,,,,,,,,,,SPECI,14.0
KIMS 040055Z AUTO 00000KT 10SM SCT060 BKN070 OVC090 20/20 A2989 RMK AO2,KIMS,2021-10-04T00:55:00Z,38.75,-85.47,20.0,20.0,0,0,,10.0,29.890747,,,TRUE,TRUE,,,,,,,SCT,6000,BKN,7000,OVC,9000,,,VFR,,,,,,,,,,,,METAR,244.0
KIKW 040055Z AUTO 07008KT 4SM RA SCT006 BKN018 OVC040 19/19 A2983 RMK AO2 T01900190 P0043,KIKW,2021-10-04T00:55:00Z,43.67,-84.27,19.0,19.0,70,8,,4.0,29.828741,,,TRUE,TRUE,,,,,,RA,SCT,600,BKN,1800,OVC,4000,,,MVFR,,,,,,0.43,,,,,,METAR,190.0
KIKV 040055Z AUTO 33006KT 10SM CLR 20/08 A2995 RMK AO2,KIKV,2021-10-04T00:55:00Z,41.68,-93.57,20.0,8.0,330,6,,10.0,29.949802,,,TRUE,TRUE,,,,,,,CLR,,,,,,,,VFR,,,,,,,,,,,,METAR,270.0
KIKK 040055Z AUTO 25005KT 10SM SCT060 SCT070 SCT090 18/18 A2984 RMK AO2,KIKK,2021-10-04T00:55:00Z,41.07,-87.85,18.0,18.0,250,5,,10.0,29.840551,,,TRUE,TRUE,,,,,,,SCT,6000,SCT,7000,SCT,9000,,,VFR,,,,,,,,,,,,METAR,188.0
KIKG 040055Z AUTO 12004KT 10SM CLR 27/23 A2996 RMK AO2 T02690225,KIKG,2021-10-04T00:55:00Z,27.55,-98.03,26.9,22.5,120,4,,10.0,29.958662,,,TRUE,TRUE,,,,,,,CLR,,,,,,,,VFR,,,,,,,,,,,,METAR,37.0
KIJX 040055Z AUTO 00000KT 10SM OVC075 20/20 A2990 RMK AO2 T01950195,KIJX,2021-10-04T00:55:00Z,39.77,-90.25,19.5,19.5,0,0,,10.0,29.899607,,,TRUE,TRUE,,,,,,,OVC,7500,,,,,,,VFR,,,,,,,,,,,,METAR,187.0
KIIY 040055Z AUTO 00000KT 10SM CLR 22/21 A3003 RMK AO2 T02200206,KIIY,2021-10-04T00:55:00Z,33.78,-82.82,22.0,20.6,0,0,,10.0,30.029528,,,TRUE,TRUE,,,,,,,CLR,,,,,,,,VFR,,,,,,,,,,,,METAR,192.0
KIIB 040055Z AUTO 01007KT 10SM CLR 19/15 A2992 RMK AO2 T01850152,KIIB,2021-10-04T00:55:00Z,42.45,-91.95,18.5,15.2,10,7,,10.0,29.920275,,,TRUE,TRUE,,,,,,,CLR,,,,,,,,VFR,,,,,,,,,,,,METAR,294.0
KIGQ 040055Z AUTO 00000KT 3/4SM BR BKN043 17/17 A2984 RMK AO2 LTG DSNT NE T01730173,KIGQ,2021-10-04T00:55:00Z,41.53,-87.53,17.3,17.3,0,0,,0.75,29.840551,,,TRUE,TRUE,,,,,,BR,BKN,4300,,,,,,,LIFR,,,,,,,,,,,,METAR,187.0
KIFA 040055Z AUTO 30004KT 10SM CLR 16/09 A2996 RMK AO2 T01610091,KIFA,2021-10-04T00:55:00Z,42.47,-93.27,16.1,9.1,300,4,,10.0,29.958662,,,TRUE,TRUE,,,,,,,CLR,,,,,,,,VFR,,,,,,,,,,,,METAR,344.0
KIER 040055Z AUTO 00000KT 10SM CLR 23/21 A2995 RMK AO2 T02290205,KIER,2021-10-04T00:55:00Z,31.73,-93.1,22.9,20.5,0,0,,10.0,29.949802,,,TRUE,TRUE,,,,,,,CLR,,,,,,,,VFR,,,,,,,,,,,,METAR,35.0
KIDP 040055Z AUTO 23003KT 10SM CLR 18/14 A3000 RMK AO2 T01830138,KIDP,2021-10-04T00:55:00Z,37.17,-95.78,18.3,13.8,230,3,,10.0,30.0,,,TRUE,TRUE,,,,,,,CLR,,,,,,,,VFR,,,,,,,,,,,,METAR,252.0
KIDI 040055Z AUTO 00000KT 3SM BR BKN029 OVC033 19/19 A2997 RMK A01,KIDI,2021-10-04T00:55:00Z,40.63,-79.1,19.0,19.0,0,0,,3.0,29.970472,,,TRUE,TRUE,,,,,,BR,BKN,2900,OVC,3300,,,,,MVFR,,,,,,,,,,,,METAR,425.0
KICL 040055Z AUTO 00000KT 10SM CLR 15/11 A3000 RMK AO2,KICL,2021-10-04T00:55:00Z,40.72,-95.02,15.0,11.0,0,0,,10.0,30.0,,,TRUE,TRUE,,,,,,,CLR,,,,,,,,VFR,,,,,,,,,,,,METAR,299.0
KIBM 040055Z AUTO 01003KT 10SM CLR 18/M08 A3016 RMK AO2 T01821081,KIBM,2021-10-04T00:55:00Z,41.18,-103.68,18.2,-8.1,10,3,,10.0,30.159449,,,TRUE,TRUE,,,,,,,CLR,,,,,,,,VFR,,,,,,,,,,,,METAR,1494.0
KI75 040055Z AUTO 28004KT 10SM CLR 18/10 A2996 RMK AO2 T01800095,KI75,2021-10-04T00:55:00Z,41.05,-93.68,18.0,9.5,280,4,,10.0,29.958662,,,TRUE,TRUE,,,,,,,CLR,,,,,,,,VFR,,,,,,,,,,,,METAR,336.0
KI74 040055Z AUTO 20008KT 10SM OVC044 19/16 A2989 RMK AO2,KI74,2021-10-04T00:55:00Z,40.12,-83.75,19.0,16.0,200,8,,10.0,29.890747,,,TRUE,TRUE,,,,,,,OVC,4400,,,,,,,VFR,,,,,,,,,,,,METAR,322.0
KI69 040055Z AUTO 00000KT 10SM OVC013 19/18 A2991 RMK AO2 T01850175,KI69,2021-10-04T00:55:00Z,39.08,-84.22,18.5,17.5,0,0,,10.0,29.911417,,,TRUE,TRUE,,,,,,,OVC,1300,,,,,,,MVFR,,,,,,,,,,,,METAR,238.0
KI68 040055Z AUTO 16007KT 10SM SCT007 BKN011 OVC016 19/18 A2989 RMK AO1 T01900180,KI68,2021-10-04T00:55:00Z,39.47,-84.25,19.0,18.0,160,7,,10.0,29.890747,,,TRUE,TRUE,,,,,,,SCT,700,BKN,1100,OVC,1600,,,MVFR,,,,,,,,,,,,METAR,274.0
KI67 040055Z AUTO 00000KT 10SM OVC014 20/18 A2987 RMK AO1,KI67,2021-10-04T00:55:00Z,39.25,-84.78,20.0,18.0,0,0,,10.0,29.870079,,,TRUE,TRUE,,,,,,,OVC,1400,,,,,,,MVFR,,,,,,,,,,,,METAR,177.0
KI63 040055Z AUTO 26004KT 10SM CLR 19/17 A2991 RMK AO2 T01850173,KI63,2021-10-04T00:55:00Z,39.98,-90.8,18.5,17.3,260,4,,10.0,29.911417,,,TRUE,TRUE,,,,,,,CLR,,,,,,,,VFR,,,,,,,,,,,,METAR,221.0
KI43 040055Z AUTO 00000KT 10SM CLR 17/17 A2993 RMK AO2,KI43,2021-10-04T00:55:00Z,38.98,-82.58,17.0,17.0,0,0,,10.0,29.929134,,,TRUE,TRUE,,,,,,,CLR,,,,,,,,VFR,,,,,,,,,,,,SPECI,221.0
KI35 040055Z AUTO 00000KT 7SM OVC018 17/17 A3001 RMK AO2 T01680168,KI35,2021-10-04T00:55:00Z,36.87,-83.37,16.8,16.8,0,0,,7.0,30.008858,,,TRUE,TRUE,,,,,,,OVC,1800,,,,,,,MVFR,,,,,,,,,,,,METAR,467.0
KI23 040055Z AUTO 21005KT 10SM SCT018 17/16 A2990 RMK AO1 P0001,KI23,2021-10-04T00:55:00Z,39.57,-83.42,17.0,16.0,210,5,,10.0,29.899607,,,TRUE,TRUE,,,,,,,SCT,1800,,,,,,,VFR,,,,,,0.01,,,,,,METAR,298.0
KI19 040055Z AUTO 19003KT 10SM BKN024 OVC029 19/18 A2991 RMK AO2 T01880181,KI19,2021-10-04T00:55:00Z,39.7,-83.98,18.8,18.1,190,3,,10.0,29.911417,,,TRUE,TRUE,,,,,,,BKN,2400,OVC,2900,,,,,MVFR,,,,,,,,,,,,METAR,285.0
KI16 040055Z AUTO 2 1/2SM RA SCT003 SCT019 BKN095 19/18 A3004 RMK AO2 T01870178,KI16,2021-10-04T00:55:00Z,37.6,-81.57,18.7,17.8,,,,2.5,30.041338,,,TRUE,TRUE,,,,,,RA,SCT,300,SCT,1900,BKN,9500,,,IFR,,,,,,,,,,,,METAR,528.0
KHZX 040055Z AUTO 00000KT 10SM CLR 12/10 A2999 RMK AO2,KHZX,2021-10-04T00:55:00Z,46.62,-93.32,12.0,10.0,0,0,,10.0,29.991142,,,TRUE,TRUE,,,,,,,CLR,,,,,,,,VFR,,,,,,,,,,,,METAR,374.0
KHZR 040055Z AUTO 00000KT 10SM CLR 24/23 A2995 RMK AO2 T02370233,KHZR,2021-10-04T00:55:00Z,30.72,-91.48,23.7,23.3,0,0,,10.0,29.949802,,,TRUE,TRUE,,,,,,,CLR,,,,,,,,VFR,,,,,,,,,,,,METAR,11.0
KHZL 040055Z AUTO 00000KT 10SM OVC060 20/17 A2997 RMK AO2,KHZL,2021-10-04T00:55:00Z,40.98,-76.0,20.0,17.0,0,0,,10.0,29.970472,,,TRUE,TRUE,,,,,,,OVC,6000,,,,,,,VFR,,,,,,,,,,,,METAR,481.0
KHZE 040055Z AUTO 15003KT 10SM CLR 15/02 A2995 RMK AO2,KHZE,2021-10-04T00:55:00Z,47.28,-101.58,15.0,2.0,150,3,,10.0,29.949802,,,TRUE,TRUE,,,,,,,CLR,,,,,,,,VFR,,,,,,,,,,,,METAR,542.0
KHYX 040055Z AUTO 00000KT 3SM BR BKN011 OVC021 19/19 A2982 RMK AO2 T01880188,KHYX,2021-10-04T00:55:00Z,43.43,-83.87,18.8,18.8,0,0,,3.0,29.819881,,,TRUE,TRUE,,,,,,BR,BKN,1100,OVC,2100,,,,,MVFR,,,,,,,,,,,,METAR,181.0
KHYW 040055Z AUTO 00000KT 10SM SCT065 20/18 A3004 RMK AO2,KHYW,2021-10-04T00:55:00Z,33.83,-79.12,20.0,18.0,0,0,,10.0,30.041338,,,TRUE,TRUE,,,,,,,SCT,6500,,,,,,,VFR,,,,,,,,,,,,METAR,10.0
KHXD 040055Z AUTO 00000KT 10SM CLR 23/21 A3004 RMK AO2 PWINO,KHXD,2021-10-04T00:55:00Z,32.22,-80.7,23.0,21.0,0,0,,10.0,30.041338,,,TRUE,TRUE,,,,,TRUE,,CLR,,,,,,,,VFR,,,,,,,,,,,,METAR,5.0
KHWY 040055Z AUTO 19005KT 10SM SCT080 OVC100 24/18 A2992 RMK AO2 T02420182,KHWY,2021-10-04T00:55:00Z,38.58,-77.72,24.2,18.2,190,5,,10.0,29.920275,,,TRUE,TRUE,,,,,,,SCT,8000,OVC,10000,,,,,VFR,,,,,,,,,,,,METAR,93.0
KHVS 040055Z AUTO 00000KT 10SM FEW039 SCT047 BKN055 21/19 A3003 RMK AO2,KHVS,2021-10-04T00:55:00Z,34.4,-80.12,21.0,19.0,0,0,,10.0,30.029528,,,TRUE,TRUE,,,,,,,FEW,3900,SCT,4700,BKN,5500,,,VFR,,,,,,,,,,,,METAR,110.0
KHVE 040055Z AUTO 00000KT 10SM CLR 23/00 A3017 RMK AO2,KHVE,2021-10-04T00:55:00Z,38.42,-110.7,23.0,0.0,0,0,,10.0,30.171259,,,TRUE,TRUE,,,,,,,CLR,,,,,,,,VFR,,,,,,,,,,,,METAR,1351.0
KHTO 040055Z AUTO 00000KT 7SM SCT006 OVC070 19/19 A2995 RMK AO2 T01900185,KHTO,2021-10-04T00:55:00Z,40.95,-72.25,19.0,18.5,0,0,,7.0,29.949802,,,TRUE,TRUE,,,,,,,SCT,600,OVC,7000,,,,,VFR,,,,,,,,,,,,METAR,10.0
KHSP 040055Z AUTO 24010KT 4SM -RA BKN003 BKN012 OVC047 17/17 A3009 RMK AO2 P0003 T01650165,KHSP,2021-10-04T00:55:00Z,37.95,-79.82,16.5,16.5,240,10,,4.0,30.088583,,,TRUE,TRUE,,,,,,-RA,BKN,300,BKN,1200,OVC,4700,,,LIFR,,,,,,0.03,,,,,,METAR,1148.0
KHSG 040055Z AUTO 00000KT 10SM CLR 17/M09 A3012 RMK AO2 T01681095,KHSG,2021-10-04T00:55:00Z,43.72,-108.38,16.8,-9.5,0,0,,10.0,30.121063,,,TRUE,TRUE,,,,,,,CLR,,,,,,,,VFR,,,,,,,,,,,,METAR,1497.0
KHSB 040055Z AUTO 27003KT 10SM CLR 20/17 A2991 RMK AO2 T01950170,KHSB,2021-10-04T00:55:00Z,37.82,-88.55,19.5,17.0,270,3,,10.0,29.911417,,,TRUE,TRUE,,,,,,,CLR,,,,,,,,VFR,,,,,,,,,,,,METAR,118.0
KHRX 040055Z AUTO 17003KT 10SM CLR 22/07 A3015 RMK AO2 T02220072,KHRX,2021-10-04T00:55:00Z,34.87,-102.33,22.2,7.2,170,3,,10.0,30.15059,,,TRUE,TRUE,,,,,,,CLR,,,,,,,,VFR,,,,,,,,,,,,METAR,1153.0
KHRJ 040055Z AUTO 17006KT 10SM CLR 22/18 A3003 RMK AO2 T02240175,KHRJ,2021-10-04T00:55:00Z,35.38,-78.73,22.4,17.5,170,6,,10.0,30.029528,,,TRUE,TRUE,,,,,,,CLR,,,,,,,,VFR,,,,,,,,,,,,METAR,55.0
KHQU 040055Z AUTO 00000KT 10SM SCT055 22/22 A3002 RMK AO2 T02220220,KHQU,2021-10-04T00:55:00Z,33.53,-82.52,22.2,22.0,0,0,,10.0,30.02067,,,TRUE,TRUE,,,,,,,SCT,5500,,,,,,,VFR,,,,,,,,,,,,METAR,141.0
KHQG 040055Z AUTO 00000KT 10SM CLR 17/07 A3010 RMK AO2 T01740067,KHQG,2021-10-04T00:55:00Z,37.17,-101.37,17.4,6.7,0,0,,10.0,30.100393,,,TRUE,TRUE,,,,,,,CLR,,,,,,,,VFR,,,,,,,,,,,,METAR,956.0
KHQG 040055Z AUTO 00000KT 10SM CLR 17/07 A3010 RMK AO2 T01740067,KHQG,2021-10-04T00:55:00Z,37.17,-101.37,17.4,6.7,0,0,,10.0,30.100393,,,TRUE,TRUE,,,,,,,CLR,,,,,,,,VFR,,,,,,,,,,,,METAR,956.0
KHPT 040055Z AUTO 31004KT 10SM CLR 14/08 A2994 RMK AO2,KHPT,2021-10-04T00:55:00Z,42.72,-93.23,14.0,8.0,310,4,,10.0,29.940945,,,TRUE,TRUE,,,,,,,CLR,,,,,,,,VFR,,,,,,,,,,,,METAR,354.0
KHON 040055Z AUTO 00000KT 10SM CLR 17/09 A2999 RMK AO2 SLP161 T01670089,KHON,2021-10-04T00:55:00Z,44.38,-98.23,16.7,8.9,0,0,,10.0,29.991142,1016.1,,TRUE,TRUE,,,,,,,CLR,,,,,,,,VFR,,,,,,,,,,,,METAR,391.0
KHOE 040055Z AUTO 27003KT 10SM CLR 23/21 A3002 RMK AO2 T02400208,KHOE,2021-10-04T00:55:00Z,31.05,-82.78,24.0,20.8,270,3,,10.0,30.02067,,,TRUE,TRUE,,,,,,,CLR,,,,,,,,VFR,,,,,,,,,,,,METAR,56.0
KHOB 040055Z AUTO 10006KT 10SM CLR 20/11 A3016 RMK AO2,KHOB,2021-10-04T00:55:00Z,32.67,-103.22,20.0,11.0,100,6,,10.0,30.159449,,,TRUE,TRUE,,,,,,,CLR,,,,,,,,VFR,,,,,,,,,,,,METAR,1112.0
KHNZ 040055Z AUTO 00000KT 10SM CLR 19/16 A3000 RMK AO2 T01900163,KHNZ,2021-10-04T00:55:00Z,36.37,-78.53,19.0,16.3,0,0,,10.0,30.0,,,TRUE,TRUE,,,,,,,CLR,,,,,,,,VFR,,,,,,,,,,,,METAR,158.0
KHNR 040055Z AUTO 00000KT 10SM CLR 16/08 A2999 RMK A01,KHNR,2021-10-04T00:55:00Z,41.58,-95.33,16.0,8.0,0,0,,10.0,29.991142,,,TRUE,TRUE,,,,,,,CLR,,,,,,,,VFR,,,,,,,,,,,,METAR,364.0
KHMT 040055Z AUTO 20013G19KT 10SM CLR 30/01 A2992 RMK AO2 T02980011,KHMT,2021-10-04T00:55:00Z,33.73,-117.02,29.8,1.1,200,13,19,10.0,29.920275,,,TRUE,TRUE,,,,,,,CLR,,,,,,,,VFR,,,,,,,,,,,,METAR,462.0
KHMP 040055Z AUTO 00000KT 3SM BR SCT110 19/19 A3006 RMK AO2 LTG DSNT SE T01950193,KHMP,2021-10-04T00:55:00Z,33.38,-84.33,19.5,19.3,0,0,,3.0,30.059055,,,TRUE,TRUE,,,,,,BR,SCT,11000,,,,,,,MVFR,,,,,,,,,,,,METAR,263.0
KHLX 040055Z AUTO 20004KT 7SM -RA BKN075 BKN110 17/17 A3008 RMK AO2 T01730167,KHLX,2021-10-04T00:55:00Z,36.77,-80.82,17.3,16.7,200,4,,7.0,30.079725,,,TRUE,TRUE,,,,,,-RA,BKN,7500,BKN,11000,,,,,VFR,,,,,,,,,,,,METAR,819.0
KHJH 040055Z AUTO 00000KT 10SM CLR 17/08 A3003 RMK AO2 T01700076,KHJH,2021-10-04T00:55:00Z,40.15,-97.58,17.0,7.6,0,0,,10.0,30.029528,,,TRUE,TRUE,,,,,,,CLR,,,,,,,,VFR,,,,,,,,,,,,METAR,449.0
KHII 040055Z AUTO 30005KT 10SM CLR 35/02 A2985 RMK AO2,KHII,2021-10-04T00:55:00Z,34.57,-114.37,35.0,2.0,300,5,,10.0,29.84941,,,TRUE,TRUE,,,,,,,CLR,,,,,,,,VFR,,,,,,,,,,,,METAR,241.0
KHHF 040055Z AUTO 10005KT 10SM CLR 20/10 A3007 RMK AO2 T01990100,KHHF,2021-10-04T00:55:00Z,35.9,-100.4,19.9,10.0,100,5,,10.0,30.070866,,,TRUE,TRUE,,,,,,,CLR,,,,,,,,VFR,,,,,,,,,,,,METAR,729.0
KHFJ 040055Z AUTO 00000KT 10SM CLR 18/15 A3001 RMK AO2,KHFJ,2021-10-04T00:55:00Z,36.9,-94.02,18.0,15.0,0,0,,10.0,30.008858,,,TRUE,TRUE,,,,,,,CLR,,,,,,,,VFR,,,,,,,,,,,,METAR,398.0
KHEQ 040055Z AUTO 01007KT 10SM CLR 18/M05 A3009 RMK AO2,KHEQ,2021-10-04T00:55:00Z,40.57,-102.28,18.0,-5.0,10,7,,10.0,30.088583,,,TRUE,TRUE,,,,,,,CLR,,,,,,,,VFR,,,,,,,,,,,,METAR,1136.0
KHEG 040055Z AUTO 00000KT 7SM CLR 24/21 A3003 RMK AO2,KHEG,2021-10-04T00:55:00Z,30.28,-81.8,24.0,21.0,0,0,,7.0,30.029528,,,TRUE,TRUE,,,,,,,CLR,,,,,,,,VFR,,,,,,,,,,,,METAR,25.0
KHDE 040055Z AUTO 10004KT 10SM CLR 18/08 A3005 RMK AO2 T01760078,KHDE,2021-10-04T00:55:00Z,40.45,-99.33,17.6,7.8,100,4,,10.0,30.050198,,,TRUE,TRUE,,,,,,,CLR,,,,,,,,VFR,,,,,,,,,,,,METAR,703.0
KHCO 040055Z AUTO 14008KT 10SM CLR 16/05 A2990 RMK AO2,KHCO,2021-10-04T00:55:00Z,48.75,-96.93,16.0,5.0,140,8,,10.0,29.899607,,,TRUE,TRUE,,,,,,,CLR,,,,,,,,VFR,,,,,,,,,,,,METAR,250.0
KHCD 040055Z AUTO 00000KT 10SM CLR 14/11 A2999 RMK AO2 T01350108,KHCD,2021-10-04T00:55:00Z,44.87,-94.38,13.5,10.8,0,0,,10.0,29.991142,,,TRUE,TRUE,,,,,,,CLR,,,,,,,,VFR,,,,,,,,,,,,METAR,320.0
KHBV 040055Z AUTO 13007KT 10SM CLR 29/22 A2998 RMK AO2 T02860217,KHBV,2021-10-04T00:55:00Z,27.35,-98.73,28.6,21.7,130,7,,10.0,29.97933,,,TRUE,TRUE,,,,,,,CLR,,,,,,,,VFR,,,,,,,,,,,,METAR,200.0
KHBI 040055Z AUTO 18005KT 10SM BKN055 BKN070 23/15 A3004 RMK AO2 T02300153,KHBI,2021-10-04T00:55:00Z,35.65,-79.9,23.0,15.3,180,5,,10.0,30.041338,,,TRUE,TRUE,,,,,,,BKN,5500,BKN,7000,,,,,VFR,,,,,,,,,,,,METAR,199.0
KHAI 040055Z AUTO 31005KT 10SM -RA BKN008 BKN017 OVC041 19/17 A2984 RMK AO2 T01860174,KHAI,2021-10-04T00:55:00Z,41.97,-85.6,18.6,17.4,310,5,,10.0,29.840551,,,TRUE,TRUE,,,,,,-RA,BKN,800,BKN,1700,OVC,4100,,,IFR,,,,,,,,,,,,METAR,250.0
KHAF 040055Z AUTO 32006KT 5SM HZ CLR 18/15 A2991 RMK AO2 PWINO,KHAF,2021-10-04T00:55:00Z,37.52,-122.5,18.0,15.0,320,6,,5.0,29.911417,,,TRUE,TRUE,,,,,TRUE,HZ,CLR,,,,,,,,MVFR,,,,,,,,,,,,METAR,11.0
KHAE 040055Z AUTO 00000KT 10SM CLR 20/18 A2992 RMK AO2,KHAE,2021-10-04T00:55:00Z,39.73,-91.45,20.0,18.0,0,0,,10.0,29.920275,,,TRUE,TRUE,,,,,,,CLR,,,,,,,,VFR,,,,,,,,,,,,METAR,230.0
KGYL 040055Z AUTO 00000KT 10SM CLR 15/10 A2997 RMK AO2 T01470100,KGYL,2021-10-04T00:55:00Z,44.77,-94.08,14.7,10.0,0,0,,10.0,29.970472,,,TRUE,TRUE,,,,,,,CLR,,,,,,,,VFR,,,,,,,,,,,,METAR,304.0
KGYI 040055Z AUTO 00000KT 10SM CLR 23/14 A3003 RMK AO2 T02310140,KGYI,2021-10-04T00:55:00Z,33.72,-96.67,23.1,14.0,0,0,,10.0,30.029528,,,TRUE,TRUE,,,,,,,CLR,,,,,,,,VFR,,,,,,,,,,,,METAR,227.0
KGYF 040055Z AUTO 05003KT 10SM CLR A2993 RMK AO2,KGYF,2021-10-04T00:55:00Z,26.13,-94.9,,,50,3,,10.0,29.929134,,,TRUE,TRUE,,,,,,,CLR,,,,,,,,VFR,,,,,,,,,,,,METAR,65.0
KGYB 040055Z AUTO 00000KT 10SM CLR 26/18 A2998 RMK AO2 T02590176,KGYB,2021-10-04T00:55:00Z,30.17,-96.98,25.9,17.6,0,0,,10.0,29.97933,,,TRUE,TRUE,,,,,,,CLR,,,,,,,,VFR,,,,,,,,,,,,METAR,140.0
KGWW 040055Z AUTO 18006KT 10SM CLR 22/17 A3003 RMK AO2 T02220171,KGWW,2021-10-04T00:55:00Z,35.47,-77.97,22.2,17.1,180,6,,10.0,30.029528,,,TRUE,TRUE,,,,,,,CLR,,,,,,,,VFR,,,,,,,,,,,,METAR,40.0
KGWR 040055Z AUTO 10SM CLR 16/07 A2997 RMK A01,KGWR,2021-10-04T00:55:00Z,46.22,-97.65,16.0,7.0,,,,10.0,29.970472,,,TRUE,TRUE,,,,,,,CLR,,,,,,,,VFR,,,,,,,,,,,,METAR,381.0
KGWB 040055Z AUTO 00000KT 10SM -DZ BKN110 16/16 A2983 RMK AO2 P0007,KGWB,2021-10-04T00:55:00Z,41.3,-85.07,16.0,16.0,0,0,,10.0,29.828741,,,TRUE,TRUE,,,,,,-DZ,BKN,11000,,,,,,,VFR,,,,,,0.07,,,,,,METAR,268.0
KGVT 040055Z AUTO 36004KT 10SM CLR 22/15 A3000 RMK AO2 TSNO T02180148,KGVT,2021-10-04T00:55:00Z,33.07,-96.07,21.8,14.8,360,4,,10.0,30.0,,,TRUE,TRUE,,,TRUE,,,,CLR,,,,,,,,VFR,,,,,,,,,,,,METAR,165.0
KGVE 040055Z AUTO 22005KT 10SM OVC085 24/20 A2995 RMK AO1 T02360195,KGVE,2021-10-04T00:55:00Z,38.15,-78.17,23.6,19.5,220,5,,10.0,29.949802,,,TRUE,TRUE,,,,,,,OVC,8500,,,,,,,VFR,,,,,,,,,,,,METAR,138.0
KGRN 040055Z AUTO 00000KT 10SM CLR 17/00 A3007 RMK AO2 T01740001,KGRN,2021-10-04T00:55:00Z,42.8,-102.17,17.4,0.1,0,0,,10.0,30.070866,,,TRUE,TRUE,,,,,,,CLR,,,,,,,,VFR,,,,,,,,,,,,METAR,1080.0
KGPI 040055Z 00000KT 10SM CLR 19/M03 A3001 RMK AO2 SLP163 T01941033,KGPI,2021-10-04T00:55:00Z,48.32,-114.25,19.4,-3.3,0,0,,10.0,30.008858,1016.3,,,TRUE,,,,,,,CLR,,,,,,,,VFR,,,,,,,,,,,,METAR,903.0
KGPH 040055Z AUTO 00000KT 10SM CLR 18/12 A2997 RMK AO2,KGPH,2021-10-04T00:55:00Z,39.33,-94.32,18.0,12.0,0,0,,10.0,29.970472,,,TRUE,TRUE,,,,,,,CLR,,,,,,,,VFR,,,,,,,,,,,,SPECI,233.0
KGPC 040055Z AUTO 25003KT 10SM SCT024 OVC032 19/17 A2987 RMK AO2 LTG DSNT SE T01890170,KGPC,2021-10-04T00:55:00Z,39.63,-86.82,18.9,17.0,250,3,,10.0,29.870079,,,TRUE,TRUE,,,,,,,SCT,2400,OVC,3200,,,,,VFR,,,,,,,,,,,,METAR,254.0
KGOP 040055Z AUTO 00000KT 10SM CLR 25/15 A3003 RMK AO2,KGOP,2021-10-04T00:55:00Z,31.42,-97.8,25.0,15.0,0,0,,10.0,30.029528,,,TRUE,TRUE,,,,,,,CLR,,,,,,,,VFR,,,,,,,,,,,,METAR,272.0
KGNT 040055Z AUTO 30003KT 10SM CLR 15/06 A3030 RMK AO2 T01500061,KGNT,2021-10-04T00:55:00Z,35.17,-107.9,15.0,6.1,300,3,,10.0,30.301182,,,TRUE,TRUE,,,,,,,CLR,,,,,,,,VFR,,,,,,,,,,,,METAR,1988.0
KGNC 040055Z AUTO 03003KT 10SM CLR 22/08 A3019 RMK AO2 T02170084,KGNC,2021-10-04T00:55:00Z,32.68,-102.65,21.7,8.4,30,3,,10.0,30.188976,,,TRUE,TRUE,,,,,,,CLR,,,,,,,,VFR,,,,,,,,,,,,METAR,1002.0
KGNB 040055Z AUTO 24004KT 10SM CLR 13/M02 A3038 RMK AO2 T01261021,KGNB,2021-10-04T00:55:00Z,40.08,-105.92,12.6,-2.1,240,4,,10.0,30.380905,,,TRUE,TRUE,,,,,,,CLR,,,,,,,,VFR,,,,,,,,,,,,METAR,2500.0
KGMJ 040055Z AUTO 00000KT 19/17 A3001 RMK AO2 PWINO,KGMJ,2021-10-04T00:55:00Z,36.6,-94.73,19.0,17.0,0,0,,,30.008858,,,TRUE,TRUE,,,,,TRUE,,,,,,,,,,,,,,,,,,,,,,METAR,251.0
KGLY 040055Z AUTO 00000KT 10SM CLR 18/16 A2997 RMK AO2,KGLY,2021-10-04T00:55:00Z,38.35,-93.68,18.0,16.0,0,0,,10.0,29.970472,,,TRUE,TRUE,,,,,,,CLR,,,,,,,,VFR,,,,,,,,,,,,METAR,247.0
KGLW 040055Z AUTO 35008KT 10SM TS SCT009 SCT046 OVC060 21/20 A2994 RMK AO2 LTG DSNT SW THRU NE T02060201,KGLW,2021-10-04T00:55:00Z,37.03,-85.95,20.6,20.1,350,8,,10.0,29.940945,,,TRUE,TRUE,,,,,,TS,SCT,900,SCT,4600,OVC,6000,,,VFR,,,,,,,,,,,,METAR,216.0
KGLE 040055Z AUTO 00000KT 10SM CLR 22/13 A3004 RMK AO2 T02210130,KGLE,2021-10-04T00:55:00Z,33.65,-97.2,22.1,13.0,0,0,,10.0,30.041338,,,TRUE,TRUE,,,,,,,CLR,,,,,,,,VFR,,,,,,,,,,,,METAR,250.0
KGIC 040055Z AUTO 10SM CLR 19/03 A3005 RMK AO1,KGIC,2021-10-04T00:55:00Z,45.95,-116.12,19.0,3.0,,,,10.0,30.050198,,,TRUE,TRUE,,,,,,,CLR,,,,,,,,VFR,,,,,,,,,,,,METAR,1002.0
KGHW 040055Z AUTO 10SM CLR A2999 RMK AO2,KGHW,2021-10-04T00:55:00Z,45.63,-95.32,,,,,,10.0,29.991142,,,TRUE,TRUE,,,,,,,CLR,,,,,,,,VFR,,,,,,,,,,,,METAR,423.0
KGHG 040055Z AUTO 04005KT 10SM -RA OVC009 17/15 A2998 RMK AO2,KGHG,2021-10-04T00:55:00Z,42.1,-70.67,17.0,15.0,40,5,,10.0,29.97933,,,TRUE,TRUE,,,,,,-RA,OVC,900,,,,,,,IFR,,,,,,,,,,,,METAR,3.0
KGHB 040055Z AUTO 00000KT 10SM FEW019 27/25 RMK A01,KGHB,2021-10-04T00:55:00Z,27.83,-91.98,27.0,25.0,0,0,,10.0,,,,TRUE,TRUE,,,,,,,FEW,1900,,,,,,,VFR,,,,,,,,,,,,METAR,30.0
KGGP 040055Z AUTO 25006KT 7SM SCT002 SCT009 BKN080 A2985 RMK AO2,KGGP,2021-10-04T00:55:00Z,40.72,-86.37,,,250,6,,7.0,29.84941,,,TRUE,TRUE,,,,,,,SCT,200,SCT,900,BKN,8000,,,VFR,,,,,,,,,,,,METAR,224.0
KGGI 040055Z AUTO 32004KT 10SM CLR 18/09 A2994 RMK AO2 T01830091,KGGI,2021-10-04T00:55:00Z,41.72,-92.73,18.3,9.1,320,4,,10.0,29.940945,,,TRUE,TRUE,,,,,,,CLR,,,,,,,,VFR,,,,,,,,,,,,METAR,305.0
KGGE 040055Z AUTO 00000KT 10SM CLR 20/20 A3005 RMK AO2,KGGE,2021-10-04T00:55:00Z,33.32,-79.32,20.0,20.0,0,0,,10.0,30.050198,,,TRUE,TRUE,,,,,,,CLR,,,,,,,,VFR,,,,,,,,,,,,METAR,9.0
KGEV 040055Z AUTO 00000KT 10SM DZ SCT024 BKN090 OVC110 17/14 A3010 RMK AO2 P0001 T01660144,KGEV,2021-10-04T00:55:00Z,36.43,-81.42,16.6,14.4,0,0,,10.0,30.100393,,,TRUE,TRUE,,,,,,DZ,SCT,2400,BKN,9000,OVC,11000,,,VFR,,,,,,0.01,,,,,,METAR,961.0
KGDJ 040055Z AUTO 34003KT 10SM CLR 24/16 A3003 RMK AO2 T02430156,KGDJ,2021-10-04T00:55:00Z,32.45,-97.82,24.3,15.6,340,3,,10.0,30.029528,,,TRUE,TRUE,,,,,,,CLR,,,,,,,,VFR,,,,,,,,,,,,METAR,235.0
KGDB 040055Z AUTO 32003KT 10SM CLR 15/10 A2999 RMK AO2 T01520101,KGDB,2021-10-04T00:55:00Z,44.75,-95.55,15.2,10.1,320,3,,10.0,29.991142,,,TRUE,TRUE,,,,,,,CLR,,,,,,,,VFR,,,,,,,,,,,,METAR,316.0
KGCM 040055Z AUTO 00000KT 10SM CLR 18/12 A3001 RMK AO2,KGCM,2021-10-04T00:55:00Z,36.3,-95.48,18.0,12.0,0,0,,10.0,30.008858,,,TRUE,TRUE,,,,,,,CLR,,,,,,,,VFR,,,,,,,,,,,,METAR,215.0
KGCD 040055Z AUTO 24003KT 10SM CLR 25/02 A3004 RMK AO2 T02450020,KGCD,2021-10-04T00:55:00Z,44.4,-118.97,24.5,2.0,240,3,,10.0,30.041338,,,TRUE,TRUE,,,,,,,CLR,,,,,,,,VFR,,,,,,,,,,,,METAR,1122.0
KGBG 040055Z AUTO 27005KT 10SM SCT050 BKN070 18/14 A2990 RMK AO2 T01770137,KGBG,2021-10-04T00:55:00Z,40.93,-90.43,17.7,13.7,270,5,,10.0,29.899607,,,TRUE,TRUE,,,,,,,SCT,5000,BKN,7000,,,,,VFR,,,,,,,,,,,,METAR,230.0
KFZG 040055Z AUTO 00000KT 10SM SCT060 SCT070 SCT095 24/21 A3003 RMK AO2 T02400209,KFZG,2021-10-04T00:55:00Z,31.68,-83.27,24.0,20.9,0,0,,10.0,30.029528,,,TRUE,TRUE,,,,,,,SCT,6000,SCT,7000,SCT,9500,,,VFR,,,,,,,,,,,,METAR,105.0
KFYJ 040055Z AUTO 00000KT 22/18 A2997 RMK AO1 T02160184,KFYJ,2021-10-04T00:55:00Z,37.52,-76.77,21.6,18.4,0,0,,,29.970472,,,TRUE,TRUE,,,,,,,,,,,,,,,,,,,,,,,,,,,SPECI,3.0
KFYG 040055Z AUTO 00000KT 10SM SCT038 SCT060 BKN080 21/19 A2993 RMK AO2,KFYG,2021-10-04T00:55:00Z,38.58,-91.0,21.0,19.0,0,0,,10.0,29.929134,,,TRUE,TRUE,,,,,,,SCT,3800,SCT,6000,BKN,8000,,,VFR,,,,,,,,,,,,METAR,147.0
KFXY 040055Z AUTO 32003KT 10SM CLR 14/06 A2996 RMK AO2,KFXY,2021-10-04T00:55:00Z,43.23,-93.62,14.0,6.0,320,3,,10.0,29.958662,,,TRUE,TRUE,,,,,,,CLR,,,,,,,,VFR,,,,,,,,,,,,METAR,366.0
KFWS 040055Z AUTO 32005KT 10SM CLR 24/13 A3002 RMK AO2 T02420140,KFWS,2021-10-04T00:55:00Z,32.57,-97.3,24.2,14.0,320,5,,10.0,30.02067,,,TRUE,TRUE,,,,,,,CLR,,,,,,,,VFR,,,,,,,,,,,,METAR,211.0
KFWC 040055Z AUTO 00000KT 20/18 A2989 RMK AO1 T01960180 PWINO,KFWC,2021-10-04T00:55:00Z,38.38,-88.42,19.6,18.0,0,0,,,29.890747,,,TRUE,TRUE,,,,,TRUE,,,,,,,,,,,,,,,,,,,,,,METAR,131.0
KFWB 040055Z AUTO 00000KT 10SM CLR 18/17 A3001 RMK AO2,KFWB,2021-10-04T00:55:00Z,36.7,-93.4,18.0,17.0,0,0,,10.0,30.008858,,,TRUE,TRUE,,,,,,,CLR,,,,,,,,VFR,,,,,,,,,,,,METAR,392.0
KFVX 040055Z AUTO 00000KT 10SM SCT080 21/18 A2996 RMK AO2 T02090179,KFVX,2021-10-04T00:55:00Z,37.35,-78.43,20.9,17.9,0,0,,10.0,29.958662,,,TRUE,TRUE,,,,,,,SCT,8000,,,,,,,VFR,,,,,,,,,,,,METAR,129.0
KFSW 040055Z AUTO 00000KT 10SM 18/16 A2991 RMK AO2,KFSW,2021-10-04T00:55:00Z,40.67,-91.32,18.0,16.0,0,0,,10.0,29.911417,,,TRUE,TRUE,,,,,,,,,,,,,,,,,,,,,,,,,,,METAR,219.0
KFSO 040055Z AUTO 00000KT 7SM BKN006 OVC047 14/13 A2999 RMK AO2 T01400134,KFSO,2021-10-04T00:55:00Z,44.93,-73.1,14.0,13.4,0,0,,7.0,29.991142,,,TRUE,TRUE,,,,,,,BKN,600,OVC,4700,,,,,IFR,,,,,,,,,,,,METAR,70.0
KFRR 040055Z AUTO 10SM OVC090 23/18 A2991 RMK AO1,KFRR,2021-10-04T00:55:00Z,38.92,-78.25,23.0,18.0,,,,10.0,29.911417,,,TRUE,TRUE,,,,,,,OVC,9000,,,,,,,VFR,,,,,,,,,,,,SPECI,213.0
KFRH 040055Z AUTO 24003KT 10SM BKN070 OVC120 20/16 A2989 RMK AO1,KFRH,2021-10-04T00:55:00Z,38.5,-86.63,20.0,16.0,240,3,,10.0,29.890747,,,TRUE,TRUE,,,,,,,BKN,7000,OVC,12000,,,,,VFR,,,,,,,,,,,,METAR,241.0
KFQD 040055Z AUTO 24004KT 10SM RA SCT080 OVC110 19/19 A3006 RMK AO2 P0010,KFQD,2021-10-04T00:55:00Z,35.42,-81.93,19.0,19.0,240,4,,10.0,30.059055,,,TRUE,TRUE,,,,,,RA,SCT,8000,OVC,11000,,,,,VFR,,,,,,0.1,,,,,,METAR,325.0
KFPY 040055Z AUTO 00000KT 10SM CLR 24/23 A3002 RMK AO2 T02410230,KFPY,2021-10-04T00:55:00Z,30.07,-83.57,24.1,23.0,0,0,,10.0,30.02067,,,TRUE,TRUE,,,,,,,CLR,,,,,,,,VFR,,,,,,,,,,,,METAR,12.0
KFPK 040055Z AUTO 00000KT 7SM -RA SCT060 SCT110 19/18 A2980 RMK AO2 T01910179,KFPK,2021-10-04T00:55:00Z,42.57,-84.82,19.1,17.9,0,0,,7.0,29.799213,,,TRUE,TRUE,,,,,,-RA,SCT,6000,SCT,11000,,,,,VFR,,,,,,,,,,,,METAR,269.0
KFOA 040055Z AUTO 23005KT 10SM CLR 20/17 A2990 RMK AO2,KFOA,2021-10-04T00:55:00Z,38.67,-88.45,20.0,17.0,230,5,,10.0,29.899607,,,TRUE,TRUE,,,,,,,CLR,,,,,,,,VFR,,,,,,,,,,,,METAR,141.0
KFMH 040055Z 05005KT 10SM FEW005 BKN080 17/17 A2997,KFMH,2021-10-04T00:55:00Z,41.65,-70.52,17.0,17.0,50,5,,10.0,29.970472,,,,,,,,,,,FEW,500,BKN,8000,,,,,VFR,,,,,,,,,,,,METAR,35.0
KFME 040055Z AUTO 00000KT 10SM CLR 20/19 A2995 RMK AO1,KFME,2021-10-04T00:55:00Z,39.08,-76.77,20.0,19.0,0,0,,10.0,29.949802,,,TRUE,TRUE,,,,,,,CLR,,,,,,,,VFR,,,,,,,,,,,,METAR,43.0
KFLY 040055Z AUTO 06005KT 10SM CLR 16/M07 A3028 RMK AO2 T01561071,KFLY,2021-10-04T00:55:00Z,38.95,-104.57,15.6,-7.1,60,5,,10.0,30.280512,,,TRUE,TRUE,,,,,,,CLR,,,,,,,,VFR,,,,,,,,,,,,METAR,2096.0
KFKS 040055Z AUTO 14003KT 10SM -DZ SCT065 SCT075 SCT120 18/17 A2985 RMK AO2 T01770171,KFKS,2021-10-04T00:55:00Z,44.63,-86.2,17.7,17.1,140,3,,10.0,29.84941,,,TRUE,TRUE,,,,,,-DZ,SCT,6500,SCT,7500,SCT,12000,,,VFR,,,,,,,,,,,,METAR,189.0
KFKR 040055Z AUTO 28005KT 10SM FEW028 FEW041 BKN075 17/17 A2985 RMK AO2,KFKR,2021-10-04T00:55:00Z,40.27,-86.57,17.0,17.0,280,5,,10.0,29.84941,,,TRUE,TRUE,,,,,,,FEW,2800,FEW,4100,BKN,7500,,,VFR,,,,,,,,,,,,METAR,260.0
KFKN 040055Z AUTO 00000KT 10SM CLR 21/19 A3000 RMK AO2 T02110185,KFKN,2021-10-04T00:55:00Z,36.7,-76.9,21.1,18.5,0,0,,10.0,30.0,,,TRUE,TRUE,,,,,,,CLR,,,,,,,,VFR,,,,,,,,,,,,METAR,9.0
KFKA 040055Z AUTO 35007KT 10SM BKN026 17/13 A2996 RMK AO2 T01660127,KFKA,2021-10-04T00:55:00Z,43.68,-92.17,16.6,12.7,350,7,,10.0,29.958662,,,TRUE,TRUE,,,,,,,BKN,2600,,,,,,,MVFR,,,,,,,,,,,,METAR,388.0
KFHB 040055Z AUTO 17003KT 10SM CLR 24/20 A3002 RMK AO2 T02440203,KFHB,2021-10-04T00:55:00Z,30.62,-81.47,24.4,20.3,170,3,,10.0,30.02067,,,TRUE,TRUE,,,,,,,CLR,,,,,,,,VFR,,,,,,,,,,,,METAR,4.0
KFGX 040055Z AUTO 19006KT 10SM BKN014 BKN110 17/17 A2993 RMK AO2 T01730171,KFGX,2021-10-04T00:55:00Z,38.55,-83.75,17.3,17.1,190,6,,10.0,29.929134,,,TRUE,TRUE,,,,,,,BKN,1400,BKN,11000,,,,,MVFR,,,,,,,,,,,,SPECI,279.0
KFGN 040055Z AUTO 16007KT 10SM CLR 16/12 A2994 RMK AO2,KFGN,2021-10-04T00:55:00Z,49.32,-94.9,16.0,12.0,160,7,,10.0,29.940945,,,TRUE,TRUE,,,,,,,CLR,,,,,,,,VFR,,,,,,,,,,,,METAR,327.0
KFFX 040055Z AUTO 34003KT 10SM OVC007 18/18 A2983 RMK AO2 T01820175,KFFX,2021-10-04T00:55:00Z,43.43,-86.0,18.2,17.5,340,3,,10.0,29.828741,,,TRUE,TRUE,,,,,,,OVC,700,,,,,,,IFR,,,,,,,,,,,,METAR,234.0
KFFM 040055Z AUTO 00000KT 10SM CLR 18/07 A2994 RMK AO2,KFFM,2021-10-04T00:55:00Z,46.28,-96.15,18.0,7.0,0,0,,10.0,29.940945,,,TRUE,TRUE,,,,,,,CLR,,,,,,,,VFR,,,,,,,,,,,,METAR,362.0
KFFL 040055Z AUTO 31007KT 10SM CLR 18/09 A2991 RMK A01,KFFL,2021-10-04T00:55:00Z,41.05,-91.97,18.0,9.0,310,7,,10.0,29.911417,,,TRUE,TRUE,,,,,,,CLR,,,,,,,,VFR,,,,,,,,,,,,METAR,240.0
KFFA 040055Z AUTO 19005KT 10SM SCT049 22/17 A3003 RMK AO2 T02200168,KFFA,2021-10-04T00:55:00Z,36.02,-75.67,22.0,16.8,190,5,,10.0,30.029528,,,TRUE,TRUE,,,,,,,SCT,4900,,,,,,,VFR,,,,,,,,,,,,SPECI,2.0
KFET 040055Z AUTO 00000KT 10SM CLR 18/08 A3001 RMK AO2 T01810079,KFET,2021-10-04T00:55:00Z,41.45,-96.52,18.1,7.9,0,0,,10.0,30.008858,,,TRUE,TRUE,,,,,,,CLR,,,,,,,,VFR,,,,,,,,,,,,METAR,366.0
KFBR 040055Z AUTO 27007KT 10SM CLR 18/M11 A3031 RMK AO2 T01831110,KFBR,2021-10-04T00:55:00Z,41.4,-110.4,18.3,-11.0,270,7,,10.0,30.31004,,,TRUE,TRUE,,,,,,,CLR,,,,,,,,VFR,,,,,,,,,,,,METAR,2140.0
KFBL 040055Z AUTO 00000KT 10SM CLR 15/09 A2997 RMK AO2,KFBL,2021-10-04T00:55:00Z,44.33,-93.32,15.0,9.0,0,0,,10.0,29.970472,,,TRUE,TRUE,,,,,,,CLR,,,,,,,,VFR,,,,,,,,,,,,METAR,318.0
KF70 040055Z AUTO 19009G16KT 10SM CLR 30/01 A2992 RMK AO2,KF70,2021-10-04T00:55:00Z,33.57,-117.13,30.0,1.0,190,9,16,10.0,29.920275,,,TRUE,TRUE,,,,,,,CLR,,,,,,,,VFR,,,,,,,,,,,,METAR,406.0
KF46 040055Z AUTO 00000KT 10SM CLR 23/15 A3001 RMK AO2 T02330151,KF46,2021-10-04T00:55:00Z,32.93,-96.43,23.3,15.1,0,0,,10.0,30.008858,,,TRUE,TRUE,,,,,,,CLR,,,,,,,,VFR,,,,,,,,,,,,METAR,175.0
KF44 040055Z AUTO 00000KT 10SM SCT070 SCT085 24/16 A2997 RMK AO2,KF44,2021-10-04T00:55:00Z,32.17,-95.83,24.0,16.0,0,0,,10.0,29.970472,,,TRUE,TRUE,,,,,,,SCT,7000,SCT,8500,,,,,VFR,,,,,,,,,,,,METAR,137.0
KF17 040055Z AUTO 00000KT 10SM CLR 24/21 A2997 RMK AO2,KF17,2021-10-04T00:55:00Z,31.83,-94.15,24.0,21.0,0,0,,10.0,29.970472,,,TRUE,TRUE,,,,,,,CLR,,,,,,,,VFR,,,,,,,,,,,,METAR,93.0
KF05 040055Z AUTO 12003KT 10SM CLR 25/11 A3005 RMK AO2 T02460109,KF05,2021-10-04T00:55:00Z,34.23,-99.28,24.6,10.9,120,3,,10.0,30.050198,,,TRUE,TRUE,,,,,,,CLR,,,,,,,,VFR,,,,,,,,,,,,METAR,384.0
KF00 040055Z AUTO 00000KT 10SM CLR 20/17 A3001 RMK AO2 T02010170,KF00,2021-10-04T00:55:00Z,33.62,-96.18,20.1,17.0,0,0,,10.0,30.008858,,,TRUE,TRUE,,,,,,,CLR,,,,,,,,VFR,,,,,,,,,,,,METAR,189.0
KEZZ 040055Z AUTO 30003KT 10SM CLR 19/10 A2998 RMK AO2 T01920100,KEZZ,2021-10-04T00:55:00Z,39.72,-94.28,19.2,10.0,300,3,,10.0,29.97933,,,TRUE,TRUE,,,,,,,CLR,,,,,,,,VFR,,,,,,,,,,,,METAR,317.0
KEZM 040055Z AUTO 00000KT 10SM CLR 22/20 A3001 RMK AO2 LTG DSNT NW T02200204,KEZM,2021-10-04T00:55:00Z,32.22,-83.13,22.0,20.4,0,0,,10.0,30.008858,,,TRUE,TRUE,,,,,,,CLR,,,,,,,,VFR,,,,,,,,,,,,METAR,86.0
KEZF 040055Z AUTO 20006KT 10SM OVC100 25/18 A2992 RMK AO2 T02450180,KEZF,2021-10-04T00:55:00Z,38.27,-77.45,24.5,18.0,200,6,,10.0,29.920275,,,TRUE,TRUE,,,,,,,OVC,10000,,,,,,,VFR,,,,,,,,,,,,METAR,26.0
KEYF 040055Z AUTO 17006KT 10SM CLR 21/17 A3005 RMK AO2 T02080170,KEYF,2021-10-04T00:55:00Z,34.6,-78.58,20.8,17.0,170,6,,10.0,30.050198,,,TRUE,TRUE,,,,,,,CLR,,,,,,,,VFR,,,,,,,,,,,,METAR,39.0
KEXX 040055Z AUTO 00000KT 10SM CLR 21/19 A3001 RMK AO2 T02110194,KEXX,2021-10-04T00:55:00Z,35.78,-80.3,21.1,19.4,0,0,,10.0,30.008858,,,TRUE,TRUE,,,,,,,CLR,,,,,,,,VFR,,,,,,,,,,,,METAR,221.0
KEVU 040055Z AUTO 32004KT 10SM CLR 19/06 A2998 RMK AO2 T01950065,KEVU,2021-10-04T00:55:00Z,40.35,-94.92,19.5,6.5,320,4,,10.0,29.97933,,,TRUE,TRUE,,,,,,,CLR,,,,,,,,VFR,,,,,,,,,,,,METAR,351.0
KEVM 040055Z AUTO 00000KT 2SM BR CLR 11/11 A3000 RMK AO2 VIS 3/4V5,KEVM,2021-10-04T00:55:00Z,47.42,-92.5,11.0,11.0,0,0,,2.0,30.0,,,TRUE,TRUE,,,,,,BR,CLR,,,,,,,,IFR,,,,,,,,,,,,METAR,419.0
KETN 040055Z AUTO 03003KT 10SM CLR 19/16 A3006 RMK AO2 T01900157,KETN,2021-10-04T00:55:00Z,32.42,-98.82,19.0,15.7,30,3,,10.0,30.059055,,,TRUE,TRUE,,,,,,,CLR,,,,,,,,VFR,,,,,,,,,,,,METAR,445.0
KETC 040055Z AUTO 17005KT 10SM CLR 22/18 A3001 RMK AO2 T02250180,KETC,2021-10-04T00:55:00Z,35.93,-77.55,22.5,18.0,170,5,,10.0,30.008858,,,TRUE,TRUE,,,,,,,CLR,,,,,,,,VFR,,,,,,,,,,,,METAR,15.0
KETB 040055Z AUTO 08003KT 10SM SCT060 OVC120 17/16 A2985 RMK AO2,KETB,2021-10-04T00:55:00Z,43.42,-88.13,17.0,16.0,80,3,,10.0,29.84941,,,TRUE,TRUE,,,,,,,SCT,6000,OVC,12000,,,,,VFR,,,,,,,,,,,,METAR,269.0
KERY 040055Z AUTO 07006KT 10SM OVC004 16/16 A2991 RMK AO2 T01600158,KERY,2021-10-04T00:55:00Z,46.3,-85.45,16.0,15.8,70,6,,10.0,29.911417,,,TRUE,TRUE,,,,,,,OVC,400,,,,,,,LIFR,,,,,,,,,,,,METAR,261.0
KERV 040055Z AUTO 04005KT 10SM BKN065 OVC085 26/18 A3004 RMK AO2 T02550176,KERV,2021-10-04T00:55:00Z,29.98,-99.08,25.5,17.6,40,5,,10.0,30.041338,,,TRUE,TRUE,,,,,,,BKN,6500,OVC,8500,,,,,VFR,,,,,,,,,,,,METAR,483.0
KEQA 040055Z AUTO 00000KT 10SM CLR 20/10 A3002 RMK AO2,KEQA,2021-10-04T00:55:00Z,37.78,-96.82,20.0,10.0,0,0,,10.0,30.02067,,,TRUE,TRUE,,,,,,,CLR,,,,,,,,VFR,,,,,,,,,,,,METAR,422.0
KEOK 040055Z AUTO 23004KT 10SM 18/18 A2991 RMK AO2 PWINO,KEOK,2021-10-04T00:55:00Z,40.47,-91.42,18.0,18.0,230,4,,10.0,29.911417,,,TRUE,TRUE,,,,,TRUE,,,,,,,,,,,,,,,,,,,,,,METAR,206.0
KENL 040055Z AUTO 25005KT 10SM BKN080 20/18 A2991 RMK AO2 T02030179,KENL,2021-10-04T00:55:00Z,38.52,-89.1,20.3,17.9,250,5,,10.0,29.911417,,,TRUE,TRUE,,,,,,,BKN,8000,,,,,,,VFR,,,,,,,,,,,,METAR,161.0
KEMM 040055Z AUTO 32008G15KT 10SM CLR 15/M10 A3030 RMK AO2,KEMM,2021-10-04T00:55:00Z,41.82,-110.55,15.0,-10.0,320,8,15,10.0,30.301182,,,TRUE,TRUE,,,,,,,CLR,,,,,,,,VFR,,,,,,,,,,,,METAR,2219.0
KEMK 040055Z AUTO 10SM 27/22 A2996 RMK A01,KEMK,2021-10-04T00:55:00Z,27.82,-94.32,27.0,22.0,,,,10.0,29.958662,,,TRUE,TRUE,,,,,,,,,,,,,,,,,,,,,,,,,,,METAR,20.0
KELO 040055Z AUTO 00000KT 10SM CLR 12/12 A2999 RMK AO2,KELO,2021-10-04T00:55:00Z,47.82,-91.83,12.0,12.0,0,0,,10.0,29.991142,,,TRUE,TRUE,,,,,,,CLR,,,,,,,,VFR,,,,,,,,,,,,METAR,438.0
KELK 040055Z AUTO 00000KT 10SM CLR 22/11 A3010 RMK AO2 T02220109,KELK,2021-10-04T00:55:00Z,35.43,-99.4,22.2,10.9,0,0,,10.0,30.100393,,,TRUE,TRUE,,,,,,,CLR,,,,,,,,VFR,,,,,,,,,,,,METAR,603.0
KELA 040055Z AUTO 00000KT 10SM CLR 25/23 A2996 RMK AO2 T02530231,KELA,2021-10-04T00:55:00Z,29.6,-96.32,25.3,23.1,0,0,,10.0,29.958662,,,TRUE,TRUE,,,,,,,CLR,,,,,,,,VFR,,,,,,,,,,,,METAR,56.0
KEKX 040055Z AUTO 22005KT 10SM SCT036 SCT046 BKN050 18/18 A2991 RMK AO2 LTG DSNT N AND S T01840181,KEKX,2021-10-04T00:55:00Z,,,18.4,18.1,220,5,,10.0,29.911417,,,TRUE,TRUE,,,,,,,SCT,3600,SCT,4600,BKN,5000,,,VFR,,,,,,,,,,,,METAR,
KEIK 040055Z AUTO 00000KT 10SM CLR 19/M03 A3017 RMK AO2 T01911028 PWINO,KEIK,2021-10-04T00:55:00Z,40.02,-105.05,19.1,-2.8,0,0,,10.0,30.171259,,,TRUE,TRUE,,,,,TRUE,,CLR,,,,,,,,VFR,,,,,,,,,,,,METAR,1551.0
KEHO 040055Z AUTO 30005KT 10SM SCT046 SCT055 BKN090 22/19 A3004 RMK AO2 T02210185,KEHO,2021-10-04T00:55:00Z,35.25,-81.6,22.1,18.5,300,5,,10.0,30.041338,,,TRUE,TRUE,,,,,,,SCT,4600,SCT,5500,BKN,9000,,,VFR,,,,,,,,,,,,METAR,261.0
KEGV 040055Z AUTO 34007KT 10SM OVC009 14/14 A2993 RMK AO2 T01420140,KEGV,2021-10-04T00:55:00Z,45.93,-89.27,14.2,14.0,340,7,,10.0,29.929134,,,TRUE,TRUE,,,,,,,OVC,900,,,,,,,IFR,,,,,,,,,,,,METAR,499.0
KEFT 040055Z AUTO 34008KT 7SM -DZ SCT014 BKN042 OVC048 19/17 A2987 RMK AO2 T01850165,KEFT,2021-10-04T00:55:00Z,42.62,-89.6,18.5,16.5,340,8,,7.0,29.870079,,,TRUE,TRUE,,,,,,-DZ,SCT,1400,BKN,4200,OVC,4800,,,VFR,,,,,,,,,,,,METAR,332.0
KEFK 040055Z AUTO 00000KT 10SM OVC030 13/12 A3002 RMK AO2 T01280115,KEFK,2021-10-04T00:55:00Z,44.88,-72.23,12.8,11.5,0,0,,10.0,30.02067,,,TRUE,TRUE,,,,,,,OVC,3000,,,,,,,MVFR,,,,,,,,,,,,METAR,282.0
KEDN 040055Z AUTO 00000KT 10SM -DZ SCT100 23/20 A3001 RMK AO2 T02280204,KEDN,2021-10-04T00:55:00Z,31.3,-85.9,22.8,20.4,0,0,,10.0,30.008858,,,TRUE,TRUE,,,,,,-DZ,SCT,10000,,,,,,,VFR,,,,,,,,,,,,METAR,103.0
KEDJ 040055Z AUTO 21007KT 10SM FEW048 19/17 A2988 RMK AO1,KEDJ,2021-10-04T00:55:00Z,40.37,-83.82,19.0,17.0,210,7,,10.0,29.878937,,,TRUE,TRUE,,,,,,,FEW,4800,,,,,,,VFR,,,,,,,,,,,,METAR,341.0
KEDE 040055Z AUTO 20009KT 10SM CLR 24/20 A3004 RMK AO2 T02350200,KEDE,2021-10-04T00:55:00Z,36.03,-76.57,23.5,20.0,200,9,,10.0,30.041338,,,TRUE,TRUE,,,,,,,CLR,,,,,,,,VFR,,,,,,,,,,,,METAR,4.0
KEDC 040055Z AUTO 04006KT 10SM 25/17 A2997 RMK AO2,KEDC,2021-10-04T00:55:00Z,30.4,-97.57,25.0,17.0,40,6,,10.0,29.970472,,,TRUE,TRUE,,,,,,,,,,,,,,,,,,,,,,,,,,,METAR,184.0
KECU 040055Z AUTO 00000KT 10SM BKN055 BKN065 OVC110 23/17 A3012 RMK AO2,KECU,2021-10-04T00:55:00Z,29.95,-100.17,23.0,17.0,0,0,,10.0,30.121063,,,TRUE,TRUE,,,,,,,BKN,5500,BKN,6500,OVC,11000,,,VFR,,,,,,,,,,,,METAR,725.0
KEBS 040055Z AUTO 32006KT CLR 14/08 A2995 RMK AO2,KEBS,2021-10-04T00:55:00Z,42.43,-93.87,14.0,8.0,320,6,,,29.949802,,,TRUE,TRUE,,,,,,,CLR,,,,,,,,,,,,,,,,,,,,METAR,340.0
KEBG 040055Z AUTO 09003KT 10SM SCT120 27/24 A2995 RMK AO2 T02650242 TSNO,KEBG,2021-10-04T00:55:00Z,26.45,-98.13,26.5,24.2,90,3,,10.0,29.949802,,,TRUE,TRUE,,,TRUE,,,,SCT,12000,,,,,,,VFR,,,,,,,,,,,,METAR,21.0
KEAT 040055Z AUTO 23003KT 10SM CLR 22/04 A2996 RMK AO2 SLP142 T02220039,KEAT,2021-10-04T00:55:00Z,47.4,-120.2,22.2,3.9,230,3,,10.0,29.958662,1014.2,,TRUE,TRUE,,,,,,,CLR,,,,,,,,VFR,,,,,,,,,,,,METAR,375.0
KEAN 040055Z AUTO 34003KT 10SM 19/M06 A3014 RMK AO2 T01861061,KEAN,2021-10-04T00:55:00Z,42.05,-104.93,18.6,-6.1,340,3,,10.0,30.138779,,,TRUE,TRUE,,,,,,,,,,,,,,,,,,,,,,,,,,,METAR,1452.0
KE42 040055Z AUTO 08008KT 10SM CLR 20/08 A3011 RMK AO2 T02040075,KE42,2021-10-04T00:55:00Z,36.22,-101.2,20.4,7.5,80,8,,10.0,30.109253,,,TRUE,TRUE,,,,,,,CLR,,,,,,,,VFR,,,,,,,,,,,,METAR,942.0
KE41 040055Z AUTO 04004KT 10SM SCT090 23/14 A3012 RMK AO2 T02350138,KE41,2021-10-04T00:55:00Z,31.2,-101.47,23.5,13.8,40,4,,10.0,30.121063,,,TRUE,TRUE,,,,,,,SCT,9000,,,,,,,VFR,,,,,,,,,,,,METAR,825.0
KE38 040055Z AUTO 07005KT 10SM CLR 23/08 A3024 RMK AO2 T02300075,KE38,2021-10-04T00:55:00Z,30.38,-103.68,23.0,7.5,70,5,,10.0,30.239174,,,TRUE,TRUE,,,,,,,CLR,,,,,,,,VFR,,,,,,,,,,,,METAR,1372.0
KE16 040055Z AUTO 32009G14KT 10SM CLR 32/00 A2988 RMK AO2,KE16,2021-10-04T00:55:00Z,37.08,-121.6,32.0,0.0,320,9,14,10.0,29.878937,,,TRUE,TRUE,,,,,,,CLR,,,,,,,,VFR,,,,,,,,,,,,METAR,84.0
KE11 040055Z AUTO 05005KT 10SM CLR 21/09 A3014 RMK AO2 T02110085,KE11,2021-10-04T00:55:00Z,32.33,-102.53,21.1,8.5,50,5,,10.0,30.138779,,,TRUE,TRUE,,,,,,,CLR,,,,,,,,VFR,,,,,,,,,,,,METAR,966.0
KDZJ 040055Z AUTO 00000KT 7SM BR SCT021 BKN028 OVC043 18/18 A3008 RMK AO2 T01850184,KDZJ,2021-10-04T00:55:00Z,34.85,-84.0,18.5,18.4,0,0,,7.0,30.079725,,,TRUE,TRUE,,,,,,BR,SCT,2100,BKN,2800,OVC,4300,,,MVFR,,,,,,,,,,,,METAR,578.0
KDZB 040055Z AUTO 00000KT SCT065 26/16 A3002 RMK AO2 T02570163 PWINO,KDZB,2021-10-04T00:55:00Z,30.53,-98.37,25.7,16.3,0,0,,,30.02067,,,TRUE,TRUE,,,,,TRUE,,SCT,6500,,,,,,,,,,,,,,,,,,,METAR,329.0
KDYT 040055Z AUTO VRB04KT 10SM OVC005 15/14 A2997 RMK AO2,KDYT,2021-10-04T00:55:00Z,46.72,-92.03,15.0,14.0,0,4,,10.0,29.970472,,,TRUE,TRUE,,,,,,,OVC,500,,,,,,,IFR,,,,,,,,,,,,METAR,185.0
KDYB 040055Z AUTO 00000KT 3SM BR FEW018 FEW024 FEW037 21/21 A3003 RMK AO2,KDYB,2021-10-04T00:55:00Z,33.07,-80.28,21.0,21.0,0,0,,3.0,30.029528,,,TRUE,TRUE,,,,,,BR,FEW,1800,FEW,2400,FEW,3700,,,MVFR,,,,,,,,,,,,METAR,15.0
KDYA 040055Z AUTO 7SM SCT016 BKN120 23/23 A2997 RMK AO2 T02250225,KDYA,2021-10-04T00:55:00Z,32.47,-87.95,22.5,22.5,,,,7.0,29.970472,,,TRUE,TRUE,,,,,,,SCT,1600,BKN,12000,,,,,VFR,,,,,,,,,,,,METAR,33.0
KDXX 040055Z AUTO 33003KT 10SM CLR 17/06 A3000 RMK AO2,KDXX,2021-10-04T00:55:00Z,44.98,-96.18,17.0,6.0,330,3,,10.0,30.0,,,TRUE,TRUE,,,,,,,CLR,,,,,,,,VFR,,,,,,,,,,,,METAR,327.0
KDWX 040055Z AUTO 15009KT 10SM CLR 17/M03 A3030 RMK AO2 T01731033,KDWX,2021-10-04T00:55:00Z,41.03,-107.5,17.3,-3.3,150,9,,10.0,30.301182,,,TRUE,TRUE,,,,,,,CLR,,,,,,,,VFR,,,,,,,,,,,,METAR,1974.0
KDVO 040055Z AUTO 00000KT 10SM CLR 33/06 A2987 RMK AO2,KDVO,2021-10-04T00:55:00Z,38.15,-122.55,33.0,6.0,0,0,,10.0,29.870079,,,TRUE,TRUE,,,,,,,CLR,,,,,,,,VFR,,,,,,,,,,,,METAR,1.0
KDVK 040055Z AUTO 21005KT 10SM SCT018 SCT023 BKN065 18/18 A2996 RMK AO2,KDVK,2021-10-04T00:55:00Z,37.58,-84.77,18.0,18.0,210,5,,10.0,29.958662,,,TRUE,TRUE,,,,,,,SCT,1800,SCT,2300,BKN,6500,,,VFR,,,,,,,,,,,,METAR,309.0
KDUX 040055Z AUTO 00000KT 10SM CLR 23/03 A3013 RMK AO2 T02310030,KDUX,2021-10-04T00:55:00Z,35.85,-102.02,23.1,3.0,0,0,,10.0,30.129921,,,TRUE,TRUE,,,,,,,CLR,,,,,,,,VFR,,,,,,,,,,,,METAR,1129.0
KDUH 040055Z AUTO 29005KT 10SM SCT019 BKN023 OVC095 22/20 A2982 RMK AO2 T02150196,KDUH,2021-10-04T00:55:00Z,41.73,-83.65,21.5,19.6,290,5,,10.0,29.819881,,,TRUE,TRUE,,,,,,,SCT,1900,BKN,2300,OVC,9500,,,MVFR,,,,,,,,,,,,METAR,203.0
KDUA 040055Z AUTO 00000KT 4SM HZ CLR 23/12 A3003 RMK AO2,KDUA,2021-10-04T00:55:00Z,33.95,-96.4,23.0,12.0,0,0,,4.0,30.029528,,,TRUE,TRUE,,,,,,HZ,CLR,,,,,,,,MVFR,,,,,,,,,,,,METAR,209.0
KDTL 040055Z AUTO 00000KT 10SM FEW030 14/07 A2998 RMK AO2,KDTL,2021-10-04T00:55:00Z,46.82,-95.88,14.0,7.0,0,0,,10.0,29.97933,,,TRUE,TRUE,,,,,,,FEW,3000,,,,,,,VFR,,,,,,,,,,,,METAR,425.0
KDTA 040055Z AUTO 06005KT 10SM CLR 22/M02 A3016 RMK AO1,KDTA,2021-10-04T00:55:00Z,39.38,-112.5,22.0,-2.0,60,5,,10.0,30.159449,,,TRUE,TRUE,,,,,,,CLR,,,,,,,,VFR,,,,,,,,,,,,METAR,1452.0
KDRM 040055Z AUTO 08007KT 050V120 5SM BR OVC005 16/16 A2990 RMK AO2 T01600160 P0001,KDRM,2021-10-04T00:55:00Z,46.0,-83.75,16.0,16.0,80,7,,5.0,29.899607,,,TRUE,TRUE,,,,,,BR,OVC,500,,,,,,,IFR,,,,,,0.01,,,,,,METAR,201.0
KDRI 040055Z AUTO 00000KT 10SM CLR 24/23 A2997 RMK AO2 T02380231,KDRI,2021-10-04T00:55:00Z,30.83,-93.33,23.8,23.1,0,0,,10.0,29.970472,,,TRUE,TRUE,,,,,,,CLR,,,,,,,,VFR,,,,,,,,,,,,METAR,59.0
KDQH 040055Z AUTO 00000KT 10SM CLR 24/20 A3003 RMK AO2 T02380204,KDQH,2021-10-04T00:55:00Z,31.48,-82.87,23.8,20.4,0,0,,10.0,30.029528,,,TRUE,TRUE,,,,,,,CLR,,,,,,,,VFR,,,,,,,,,,,,METAR,76.0
KDPL 040055Z 10SM CLR 21/17 A3005 RMK AO2,KDPL,2021-10-04T00:55:00Z,35.0,-77.97,21.0,17.0,,,,10.0,30.050198,,,,TRUE,,,,,,,CLR,,,,,,,,VFR,,,,,,,,,,,,METAR,39.0
KDNV 040055Z AUTO 26004KT 5SM BR SCT050 BKN055 BKN090 19/18 A2986 RMK AO2 T01880183,KDNV,2021-10-04T00:55:00Z,40.2,-87.6,18.8,18.3,260,4,,5.0,29.861221,,,TRUE,TRUE,,,,,,BR,SCT,5000,BKN,5500,BKN,9000,,,MVFR,,,,,,,,,,,,METAR,208.0
KDNS 040055Z AUTO 00000KT 10SM CLR 16/08 A3000 RMK AO2,KDNS,2021-10-04T00:55:00Z,41.98,-95.37,16.0,8.0,0,0,,10.0,30.0,,,TRUE,TRUE,,,,,,,CLR,,,,,,,,VFR,,,,,,,,,,,,METAR,382.0
KDNN 040055Z AUTO 00000KT 10SM BKN036 OVC080 21/21 A3003 RMK AO2,KDNN,2021-10-04T00:55:00Z,34.72,-84.87,21.0,21.0,0,0,,10.0,30.029528,,,TRUE,TRUE,,,,,,,BKN,3600,OVC,8000,,,,,VFR,,,,,,,,,,,,METAR,216.0
KDNA 040055Z AUTO 00000KT 10SM CLR 25/07 A3013 RMK AO2,KDNA,2021-10-04T00:55:00Z,31.88,-106.7,25.0,7.0,0,0,,10.0,30.129921,,,TRUE,TRUE,,,,,,,CLR,,,,,,,,VFR,,,,,,,,,,,,METAR,1254.0
KDMW 040055Z AUTO 17004KT 10SM SCT060 BKN070 OVC100 24/19 A2993 RMK AO2,KDMW,2021-10-04T00:55:00Z,39.6,-77.0,24.0,19.0,170,4,,10.0,29.929134,,,TRUE,TRUE,,,,,,,SCT,6000,BKN,7000,OVC,10000,,,VFR,,,,,,,,,,,,METAR,239.0
KDLZ 040055Z AUTO 19004KT 10SM CLR 22/21 A2989 RMK AO2,KDLZ,2021-10-04T00:55:00Z,40.28,-83.12,22.0,21.0,190,4,,10.0,29.890747,,,TRUE,TRUE,,,,,,,CLR,,,,,,,,VFR,,,,,,,,,,,,METAR,287.0
KDLO 040055Z AUTO 01005KT 10SM CLR 29/02 A2987 RMK AO2 T02860017,KDLO,2021-10-04T00:55:00Z,35.75,-119.23,28.6,1.7,10,5,,10.0,29.870079,,,TRUE,TRUE,,,,,,,CLR,,,,,,,,VFR,,,,,,,,,,,,METAR,97.0
KDLL 040055Z AUTO 32007KT 10SM BKN016 OVC021 18/16 A2988 RMK AO2 T01800155,KDLL,2021-10-04T00:55:00Z,43.52,-89.77,18.0,15.5,320,7,,10.0,29.878937,,,TRUE,TRUE,,,,,,,BKN,1600,OVC,2100,,,,,MVFR,,,,,,,,,,,,SPECI,297.0
KDKR 040055Z AUTO 00000KT 10SM FEW290 FEW310 23/19 A2997 RMK AO2,KDKR,2021-10-04T00:55:00Z,31.3,-95.4,23.0,19.0,0,0,,10.0,29.970472,,,TRUE,TRUE,,,,,,,FEW,29000,FEW,31000,,,,,VFR,,,,,,,,,,,,METAR,105.0
KDKB 040055Z 00000KT 4SM -RA SCT020 BKN030 OVC060 A2985 RMK AO2 LTG DSNT N P0005,KDKB,2021-10-04T00:55:00Z,41.93,-88.7,,,0,0,,4.0,29.84941,,,,TRUE,,,,,,-RA,SCT,2000,BKN,3000,OVC,6000,,,MVFR,,,,,,0.05,,,,,,METAR,277.0
KDEH 040055Z AUTO 35007KT 10SM BKN023 OVC038 18/16 A2992 RMK AO2,KDEH,2021-10-04T00:55:00Z,43.27,-91.73,18.0,16.0,350,7,,10.0,29.920275,,,TRUE,TRUE,,,,,,,BKN,2300,OVC,3800,,,,,MVFR,,,,,,,,,,,,METAR,348.0
KDCY 040055Z AUTO 26003KT 10SM SCT085 19/17 A2987 RMK AO2 LTG DSNT E T01940165,KDCY,2021-10-04T00:55:00Z,38.7,-87.13,19.4,16.5,260,3,,10.0,29.870079,,,TRUE,TRUE,,,,,,,SCT,8500,,,,,,,VFR,,,,,,,,,,,,METAR,143.0
KDCM 040055Z AUTO 00000KT 10SM CLR 22/15 A3004 RMK AO2 LTG DSNT W,KDCM,2021-10-04T00:55:00Z,34.78,-81.2,22.0,15.0,0,0,,10.0,30.041338,,,TRUE,TRUE,,,,,,,CLR,,,,,,,,VFR,,,,,,,,,,,,METAR,191.0
KDBN 040055Z AUTO 00000KT 10SM SCT090 22/21 A3003 RMK AO2 LTG DSNT NW,KDBN,2021-10-04T00:55:00Z,32.57,-82.98,22.0,21.0,0,0,,10.0,30.029528,,,TRUE,TRUE,,,,,,,SCT,9000,,,,,,,VFR,,,,,,,,,,,,METAR,90.0
KD95 040055Z AUTO 00000KT 10SM -RA SCT040 BKN050 BKN085 19/19 A2984 RMK AO2 T01850185 P0004,KD95,2021-10-04T00:55:00Z,43.07,-83.27,18.5,18.5,0,0,,10.0,29.840551,,,TRUE,TRUE,,,,,,-RA,SCT,4000,BKN,5000,BKN,8500,,,VFR,,,,,,0.04,,,,,,METAR,253.0
KD60 040055Z AUTO 26004KT 10SM CLR 18/M03 A2996 RMK AO2,KD60,2021-10-04T00:55:00Z,48.38,-102.9,18.0,-3.0,260,4,,10.0,29.958662,,,TRUE,TRUE,,,,,,,CLR,,,,,,,,VFR,,,,,,,,,,,,METAR,682.0
KD57 040055Z AUTO 26006KT 10SM CLR 15/M03 A2995 RMK AO2,KD57,2021-10-04T00:55:00Z,46.82,-101.87,15.0,-3.0,260,6,,10.0,29.949802,,,TRUE,TRUE,,,,,,,CLR,,,,,,,,VFR,,,,,,,,,,,,METAR,636.0
KD55 040055Z AUTO 18010KT 10SM CLR 18/08 A2990 RMK AO2,KD55,2021-10-04T00:55:00Z,48.75,-98.4,18.0,8.0,180,10,,10.0,29.899607,,,TRUE,TRUE,,,,,,,CLR,,,,,,,,VFR,,,,,,,,,,,,METAR,488.0
KD50 040055Z AUTO 27004KT 3SM HZ CLR 15/M03 A2992 RMK AO2,KD50,2021-10-04T00:55:00Z,48.93,-103.3,15.0,-3.0,270,4,,3.0,29.920275,,,TRUE,TRUE,,,,,,HZ,CLR,,,,,,,,MVFR,,,,,,,,,,,,SPECI,591.0
KD39 040055Z AUTO 00000KT 10SM CLR 15/12 A2998 RMK AO2 T01540116,KD39,2021-10-04T00:55:00Z,45.7,-94.93,15.4,11.6,0,0,,10.0,29.97933,,,TRUE,TRUE,,,,,,,CLR,,,,,,,,VFR,,,,,,,,,,,,METAR,378.0
KD25 040055Z AUTO 34004KT 10SM OVC006 13/13 A2996 RMK AO2 T01280128,KD25,2021-10-04T00:55:00Z,46.12,-89.88,12.8,12.8,340,4,,10.0,29.958662,,,TRUE,TRUE,,,,,,,OVC,600,,,,,,,IFR,,,,,,,,,,,,METAR,490.0
KCZL 040055Z AUTO 00000KT 10SM OVC040 20/20 A3003 RMK AO2,KCZL,2021-10-04T00:55:00Z,34.47,-84.93,20.0,20.0,0,0,,10.0,30.029528,,,TRUE,TRUE,,,,,,,OVC,4000,,,,,,,VFR,,,,,,,,,,,,METAR,197.0
KCYD 040055Z AUTO 17014KT 10SM SCT017 25/23 A2999 RMK A02 T02500226,KCYD,2021-10-04T00:55:00Z,28.17,-89.22,25.0,22.6,170,14,,10.0,29.991142,,,TRUE,TRUE,,,,,,,SCT,1700,,,,,,,VFR,,,,,,,,,,,,METAR,30.0
KCXU 040055Z AUTO 00000KT 7SM CLR 22/21 A3003 RMK AO1 T02150205,KCXU,2021-10-04T00:55:00Z,31.22,-84.23,21.5,20.5,0,0,,7.0,30.029528,,,TRUE,TRUE,,,,,,,CLR,,,,,,,,VFR,,,,,,,,,,,,METAR,48.0
KCXE 040055Z AUTO 00000KT 10SM CLR 20/18 A2999 RMK AO1 T02000178,KCXE,2021-10-04T00:55:00Z,36.78,-78.5,20.0,17.8,0,0,,10.0,29.991142,,,TRUE,TRUE,,,,,,,CLR,,,,,,,,VFR,,,,,,,,,,,,METAR,154.0
KCWV 040055Z AUTO 00000KT 10SM CLR 22/21 A3002 RMK AO2 T02210209,KCWV,2021-10-04T00:55:00Z,32.2,-81.87,22.1,20.9,0,0,,10.0,30.02067,,,TRUE,TRUE,,,,,,,CLR,,,,,,,,VFR,,,,,,,,,,,,METAR,32.0
KCWF 040055Z 23004KT 10SM SCT070 25/21 A2995,KCWF,2021-10-04T00:55:00Z,30.22,-93.15,25.0,21.0,230,4,,10.0,29.949802,,,,,,,,,,,SCT,7000,,,,,,,VFR,,,,,,,,,,,,METAR,4.0
KCWC 040055Z AUTO 03010KT 10SM CLR 25/10 A3004 RMK AO2 T02490099,KCWC,2021-10-04T00:55:00Z,33.85,-98.48,24.9,9.9,30,10,,10.0,30.041338,,,TRUE,TRUE,,,,,,,CLR,,,,,,,,VFR,,,,,,,,,,,,METAR,304.0
KCVX 040055Z AUTO 07007KT 10SM OVC004 18/16 A2986 RMK AO2 T01750161,KCVX,2021-10-04T00:55:00Z,45.3,-85.27,17.5,16.1,70,7,,10.0,29.861221,,,TRUE,TRUE,,,,,,,OVC,400,,,,,,,LIFR,,,,,,,,,,,,METAR,196.0
KCVH 040055Z AUTO 24008G13KT 10SM CLR 28/03 A2988 RMK A01,KCVH,2021-10-04T00:55:00Z,36.9,-121.42,28.0,3.0,240,8,13,10.0,29.878937,,,TRUE,TRUE,,,,,,,CLR,,,,,,,,VFR,,,,,,,,,,,,METAR,68.0
KCUH 040055Z AUTO 00000KT 10SM CLR 17/14 A3001 RMK AO2 T01660140,KCUH,2021-10-04T00:55:00Z,35.95,-96.77,16.6,14.0,0,0,,10.0,30.008858,,,TRUE,TRUE,,,,,,,CLR,,,,,,,,VFR,,,,,,,,,,,,METAR,274.0
KCTZ 040055Z AUTO 18003KT 10SM CLR 22/18 A3005 RMK AO2 T02190181,KCTZ,2021-10-04T00:55:00Z,34.98,-78.37,21.9,18.1,180,3,,10.0,30.050198,,,TRUE,TRUE,,,,,,,CLR,,,,,,,,VFR,,,,,,,,,,,,METAR,43.0
KCTY 040055Z AUTO 00000KT 10SM CLR 24/23 A3001 RMK AO2 T02400228,KCTY,2021-10-04T00:55:00Z,29.63,-83.1,24.0,22.8,0,0,,10.0,30.008858,,,TRUE,TRUE,,,,,,,CLR,,,,,,,,VFR,,,,,,,,,,,,METAR,12.0
KCTJ 040055Z AUTO 00000KT 10SM OVC070 20/19 A3007 RMK AO2 T02030188,KCTJ,2021-10-04T00:55:00Z,33.63,-85.15,20.3,18.8,0,0,,10.0,30.070866,,,TRUE,TRUE,,,,,,,OVC,7000,,,,,,,VFR,,,,,,,,,,,,METAR,351.0
KCSQ 040055Z AUTO 32004KT 10SM CLR 17/08 A2998 RMK AO2,KCSQ,2021-10-04T00:55:00Z,41.02,-94.37,17.0,8.0,320,4,,10.0,29.97933,,,TRUE,TRUE,,,,,,,CLR,,,,,,,,VFR,,,,,,,,,,,,METAR,394.0
KCQW 040055Z AUTO 19005KT 10SM CLR 23/18 A3002 RMK AO2 PWINO,KCQW,2021-10-04T00:55:00Z,34.72,-79.95,23.0,18.0,190,5,,10.0,30.02067,,,TRUE,TRUE,,,,,TRUE,,CLR,,,,,,,,VFR,,,,,,,,,,,,METAR,67.0
KCQM 040055Z AUTO 00000KT 4SM BR BKN039 13/12 A2999 RMK AO2 P0001,KCQM,2021-10-04T00:55:00Z,47.82,-92.68,13.0,12.0,0,0,,4.0,29.991142,,,TRUE,TRUE,,,,,,BR,BKN,3900,,,,,,,MVFR,,,,,,0.01,,,,,,METAR,406.0
KCQF 040055Z AUTO 00000KT 10SM RA SCT015 BKN028 OVC075 23/22 A2998 RMK AO2 P0002,KCQF,2021-10-04T00:55:00Z,30.47,-87.88,23.0,22.0,0,0,,10.0,29.97933,,,TRUE,TRUE,,,,,,RA,SCT,1500,BKN,2800,OVC,7500,,,MVFR,,,,,,0.02,,,,,,METAR,21.0
KCQB 040055Z AUTO 00000KT 10SM CLR 20/14 A3003 RMK AO2 T01990136,KCQB,2021-10-04T00:55:00Z,35.72,-96.82,19.9,13.6,0,0,,10.0,30.029528,,,TRUE,TRUE,,,,,,,CLR,,,,,,,,VFR,,,,,,,,,,,,METAR,298.0
KCPU 040055Z AUTO 00000KT 10SM CLR 27/01 A2996 RMK AO2 T02670011,KCPU,2021-10-04T00:55:00Z,38.15,-120.65,26.7,1.1,0,0,,10.0,29.958662,,,TRUE,TRUE,,,,,,,CLR,,,,,,,,VFR,,,,,,,,,,,,METAR,400.0
KCPT 040055Z AUTO 36005KT 10SM CLR 24/16 A3002 RMK A01,KCPT,2021-10-04T00:55:00Z,32.35,-97.43,24.0,16.0,360,5,,10.0,30.02067,,,TRUE,TRUE,,,,,,,CLR,,,,,,,,VFR,,,,,,,,,,,,METAR,260.0
KCPF 040055Z AUTO 20004KT 10SM OVC095 18/18 A2998 RMK AO2,KCPF,2021-10-04T00:55:00Z,37.38,-83.27,18.0,18.0,200,4,,10.0,29.97933,,,TRUE,TRUE,,,,,,,OVC,9500,,,,,,,VFR,,,,,,,,,,,,SPECI,382.0
KCPC 040055Z AUTO 16003KT 10SM OVC095 22/17 A3006 RMK AO2 T02220167,KCPC,2021-10-04T00:55:00Z,34.28,-78.72,22.2,16.7,160,3,,10.0,30.059055,,,TRUE,TRUE,,,,,,,OVC,9500,,,,,,,VFR,,,,,,,,,,,,METAR,27.0
KCOQ 040055Z AUTO 00000KT M1/4SM FG OVC002 14/13 A2997 RMK AO2 TSNO,KCOQ,2021-10-04T00:55:00Z,46.7,-92.5,14.0,13.0,0,0,,0.25,29.970472,,,TRUE,TRUE,,,TRUE,,,FG,OVC,200,,,,,,,LIFR,,,,,,,,,,,,METAR,390.0
KCOM 040055Z AUTO 00000KT 10SM CLR 23/15 A3007 RMK AO2 T02300146,KCOM,2021-10-04T00:55:00Z,31.83,-99.4,23.0,14.6,0,0,,10.0,30.070866,,,TRUE,TRUE,,,,,,,CLR,,,,,,,,VFR,,,,,,,,,,,,METAR,516.0
KCNW 040055Z 36004KT 10SM SKC 24/17 A2999,KCNW,2021-10-04T00:55:00Z,31.63,-97.07,24.0,17.0,360,4,,10.0,29.991142,,,,,,,,,,,SKC,,,,,,,,VFR,,,,,,,,,,,,METAR,139.0
KCNK 040055Z AUTO 00000KT 10SM CLR 21/06 A3003 RMK AO2 SLP162 T02060061 $,KCNK,2021-10-04T00:55:00Z,39.55,-97.65,20.6,6.1,0,0,,10.0,30.029528,1016.2,,TRUE,TRUE,TRUE,,,,,,CLR,,,,,,,,VFR,,,,,,,,,,,,METAR,445.0
KCNI 040055Z AUTO 00000KT 1/4SM FG OVC001 20/20 A3005 RMK AO2,KCNI,2021-10-04T00:55:00Z,34.32,-84.42,20.0,20.0,0,0,,0.25,30.050198,,,TRUE,TRUE,,,,,,FG,OVC,100,,,,,,,LIFR,,,,,,,,,,,,METAR,371.0
KCNC 040055Z AUTO 32003KT 10SM CLR 17/09 A2994 RMK AO2,KCNC,2021-10-04T00:55:00Z,41.02,-93.37,17.0,9.0,320,3,,10.0,29.940945,,,TRUE,TRUE,,,,,,,CLR,,,,,,,,VFR,,,,,,,,,,,,METAR,319.0
KCNB 040055Z AUTO 32003KT 10SM CLR 17/09 A3000 RMK AO2 T01730094,KCNB,2021-10-04T00:55:00Z,44.73,-96.27,17.3,9.4,320,3,,10.0,30.0,,,TRUE,TRUE,,,,,,,CLR,,,,,,,,VFR,,,,,,,,,,,,METAR,363.0
KCMD 040055Z AUTO 15003KT 10SM -DZ BKN008 SCT016 21/19 A3001 RMK AO2 LTG DSNT W P0005 T02050192,KCMD,2021-10-04T00:55:00Z,34.27,-86.85,20.5,19.2,150,3,,10.0,30.008858,,,TRUE,TRUE,,,,,,-DZ,BKN,800,SCT,1600,,,,,IFR,,,,,,0.05,,,,,,METAR,294.0
KCMA 040055Z 25006KT 10SM CLR 25/12 A2987 RMK AO2 SLP123 T02500122,KCMA,2021-10-04T00:55:00Z,34.22,-119.1,25.0,12.2,250,6,,10.0,29.870079,1012.3,,,TRUE,,,,,,,CLR,,,,,,,,VFR,,,,,,,,,,,,METAR,20.0
KCLW 040055Z AUTO 01003KT 10SM CLR 26/21 A2999 RMK AO2,KCLW,2021-10-04T00:55:00Z,27.98,-82.75,26.0,21.0,10,3,,10.0,29.991142,,,TRUE,TRUE,,,,,,,CLR,,,,,,,,VFR,,,,,,,,,,,,METAR,21.0
KCLS 040055Z AUTO 03009KT 10SM BKN045 16/13 A3008 RMK AO2,KCLS,2021-10-04T00:55:00Z,46.68,-122.98,16.0,13.0,30,9,,10.0,30.079725,,,TRUE,TRUE,,,,,,,BKN,4500,,,,,,,VFR,,,,,,,,,,,,METAR,52.0
KCLK 040055Z AUTO 09006KT 3/4SM HZ VV005 21/11 A3006 RMK AO2,KCLK,2021-10-04T00:55:00Z,35.53,-98.93,21.0,11.0,90,6,,0.75,30.059055,,,TRUE,TRUE,,,,,,HZ,OVX,0,,,,,,,LIFR,,,,,,,,,,,500,SPECI,489.0
KCKZ 040055Z AUTO 00000KT 10SM FEW040 FEW047 19/19 A2994 RMK AO2,KCKZ,2021-10-04T00:55:00Z,40.38,-75.28,19.0,19.0,0,0,,10.0,29.940945,,,TRUE,TRUE,,,,,,,FEW,4000,FEW,4700,,,,,VFR,,,,,,,,,,,,METAR,160.0
KCKP 040055Z AUTO 00000KT 10SM CLR 15/10 A2999 RMK AO2 T01450104,KCKP,2021-10-04T00:55:00Z,42.73,-95.55,14.5,10.4,0,0,,10.0,29.991142,,,TRUE,TRUE,,,,,,,CLR,,,,,,,,VFR,,,,,,,,,,,,METAR,369.0
KCKN 040055Z AUTO 15005KT 10SM CLR 16/09 A2995 RMK AO2 PWINO,KCKN,2021-10-04T00:55:00Z,47.85,-96.62,16.0,9.0,150,5,,10.0,29.949802,,,TRUE,TRUE,,,,,TRUE,,CLR,,,,,,,,VFR,,,,,,,,,,,,METAR,272.0
KCKM 040055Z AUTO 00000KT 10SM CLR 23/21 A2994 RMK A01,KCKM,2021-10-04T00:55:00Z,34.3,-90.52,23.0,21.0,0,0,,10.0,29.940945,,,TRUE,TRUE,,,,,,,CLR,,,,,,,,VFR,,,,,,,,,,,,METAR,52.0
KCKI 040055Z AUTO 00000KT 10SM OVC080 21/20 A3004 RMK AO2,KCKI,2021-10-04T00:55:00Z,33.72,-79.85,21.0,20.0,0,0,,10.0,30.041338,,,TRUE,TRUE,,,,,,,OVC,8000,,,,,,,VFR,,,,,,,,,,,,METAR,19.0
KCKF 040055Z AUTO 26004KT 10SM BKN120 21/19 A3001 RMK AO2 LTG DSNT N T02050191,KCKF,2021-10-04T00:55:00Z,31.98,-83.77,20.5,19.1,260,4,,10.0,30.008858,,,TRUE,TRUE,,,,,,,BKN,12000,,,,,,,VFR,,,,,,,,,,,,METAR,92.0
KCKC 040055Z AUTO 00000KT 10SM OVC009 12/12 A2999 RMK AO2,KCKC,2021-10-04T00:55:00Z,47.83,-90.38,12.0,12.0,0,0,,10.0,29.991142,,,TRUE,TRUE,,,,,,,OVC,900,,,,,,,IFR,,,,,,,,,,,,METAR,544.0
KCJR 040055Z AUTO 19003KT 10SM OVC095 24/18 A2994 RMK AO2 T02430178,KCJR,2021-10-04T00:55:00Z,38.53,-77.87,24.3,17.8,190,3,,10.0,29.940945,,,TRUE,TRUE,,,,,,,OVC,9500,,,,,,,VFR,,,,,,,,,,,,METAR,90.0
KCIR 040055Z AUTO 27003KT 19/17 A2992 RMK AO2 T01850170,KCIR,2021-10-04T00:55:00Z,37.07,-89.22,18.5,17.0,270,3,,,29.920275,,,TRUE,TRUE,,,,,,,,,,,,,,,,,,,,,,,,,,,METAR,96.0
KCIN 040055Z AUTO 32006KT 10SM CLR 16/08 A2997 RMK AO2,KCIN,2021-10-04T00:55:00Z,42.03,-94.78,16.0,8.0,320,6,,10.0,29.970472,,,TRUE,TRUE,,,,,,,CLR,,,,,,,,VFR,,,,,,,,,,,,METAR,365.0
KCII 040055Z AUTO 00000KT 10SM 21/M04 A3000 RMK A01 Choteau ,KCII,2021-10-04T00:55:00Z,47.83,-112.17,21.0,-4.0,0,0,,10.0,30.0,,,TRUE,TRUE,,,,,,,,,,,,,,,,,,,,,,,,,,,METAR,1202.0
KCIC 040055Z 16005KT 10SM BKN120 29/05 A2989 RMK FUHZ ALQDS,KCIC,2021-10-04T00:55:00Z,39.78,-121.85,29.0,5.0,160,5,,10.0,29.890747,,,,,,,,,,,BKN,12000,,,,,,,VFR,,,,,,,,,,,,METAR,72.0
KCHK 040055Z AUTO 06004KT 10SM CLR 20/11 A3002 RMK AO2,KCHK,2021-10-04T00:55:00Z,35.1,-97.97,20.0,11.0,60,4,,10.0,30.02067,,,TRUE,TRUE,,,,,,,CLR,,,,,,,,VFR,,,,,,,,,,,,METAR,346.0
KCGS 040055Z AUTO 00000KT 10SM SCT100 23/19 A2992 RMK AO1 T02320188,KCGS,2021-10-04T00:55:00Z,38.98,-76.92,23.2,18.8,0,0,,10.0,29.920275,,,TRUE,TRUE,,,,,,,SCT,10000,,,,,,,VFR,,,,,,,,,,,,METAR,15.0
KCGE 040055Z AUTO 15003KT 10SM CLR 22/22 A2994 RMK A01,KCGE,2021-10-04T00:55:00Z,38.53,-76.03,22.0,22.0,150,3,,10.0,29.940945,,,TRUE,TRUE,,,,,,,CLR,,,,,,,,VFR,,,,,,,,,,,,METAR,5.0
KCGC 040055Z AUTO 00000KT 10SM CLR 24/22 A3001 RMK AO2,KCGC,2021-10-04T00:55:00Z,28.87,-82.57,24.0,22.0,0,0,,10.0,30.008858,,,TRUE,TRUE,,,,,,,CLR,,,,,,,,VFR,,,,,,,,,,,,METAR,3.0
KCFS 040055Z AUTO 00000KT 10SM SCT050 19/19 A2983 RMK AO2 T01910185,KCFS,2021-10-04T00:55:00Z,43.47,-83.45,19.1,18.5,0,0,,10.0,29.828741,,,TRUE,TRUE,,,,,,,SCT,5000,,,,,,,VFR,,,,,,,,,,,,METAR,214.0
KCFJ 040055Z AUTO 00000KT 10SM BKN032 BKN045 BKN050 17/16 A2986 RMK AO2 T01740161,KCFJ,2021-10-04T00:55:00Z,39.98,-86.92,17.4,16.1,0,0,,10.0,29.861221,,,TRUE,TRUE,,,,,,,BKN,3200,BKN,4500,BKN,5000,,,VFR,,,,,,,,,,,,METAR,243.0
KCFE 040055Z AUTO 01004KT 7SM BKN029 BKN038 OVC050 15/10 A2997 RMK AO2,KCFE,2021-10-04T00:55:00Z,45.17,-93.85,15.0,10.0,10,4,,7.0,29.970472,,,TRUE,TRUE,,,,,,,BKN,2900,BKN,3800,OVC,5000,,,MVFR,,,,,,,,,,,,METAR,292.0
KCFD 040055Z AUTO 36004KT 10SM CLR 25/17 A2998 RMK AO2 T02530165,KCFD,2021-10-04T00:55:00Z,30.72,-96.33,25.3,16.5,360,4,,10.0,29.97933,,,TRUE,TRUE,,,,,,,CLR,,,,,,,,VFR,,,,,,,,,,,,METAR,106.0
KCEY 040055Z AUTO 25005KT 10SM CLR 21/17 A2993 RMK AO1,KCEY,2021-10-04T00:55:00Z,36.67,-88.37,21.0,17.0,250,5,,10.0,29.929134,,,TRUE,TRUE,,,,,,,CLR,,,,,,,,VFR,,,,,,,,,,,,METAR,172.0
KCDN 040055Z AUTO 00000KT 10SM CLR 23/19 A3003 RMK AO2,KCDN,2021-10-04T00:55:00Z,34.28,-80.57,23.0,19.0,0,0,,10.0,30.029528,,,TRUE,TRUE,,,,,,,CLR,,,,,,,,VFR,,,,,,,,,,,,METAR,90.0
KCDI 040055Z AUTO 00000KT 10SM BKN013 OVC038 20/19 A2990 RMK AO2 T01950188,KCDI,2021-10-04T00:55:00Z,39.97,-81.58,19.5,18.8,0,0,,10.0,29.899607,,,TRUE,TRUE,,,,,,,BKN,1300,OVC,3800,,,,,MVFR,,,,,,,,,,,,METAR,241.0
KCDH 040055Z AUTO 00000KT 10SM BKN065 BKN075 OVC090 23/22 A2994 RMK AO2,KCDH,2021-10-04T00:55:00Z,33.62,-92.77,23.0,22.0,0,0,,10.0,29.940945,,,TRUE,TRUE,,,,,,,BKN,6500,BKN,7500,OVC,9000,,,VFR,,,,,,,,,,,,METAR,38.0
KCDA 040055Z AUTO 36003KT 7SM -DZ BKN006 OVC021 12/12 A3002 RMK AO2 T01210117,KCDA,2021-10-04T00:55:00Z,44.57,-72.02,12.1,11.7,360,3,,7.0,30.02067,,,TRUE,TRUE,,,,,,-DZ,BKN,600,OVC,2100,,,,,IFR,,,,,,,,,,,,METAR,357.0
KCCY 040055Z AUTO 02005KT 10SM CLR 16/14 A2995 RMK AO2,KCCY,2021-10-04T00:55:00Z,43.07,-92.62,16.0,14.0,20,5,,10.0,29.949802,,,TRUE,TRUE,,,,,,,CLR,,,,,,,,VFR,,,,,,,,,,,,METAR,340.0
KCCU 040055Z AUTO 27009KT 10SM CLR 07/M07 A3060 RMK AO2,KCCU,2021-10-04T00:55:00Z,39.48,-106.15,7.0,-7.0,270,9,,10.0,30.59941,,,TRUE,TRUE,,,,,,,CLR,,,,,,,,VFR,,,,,,,,,,,,METAR,3672.0
KCCO 040055Z AUTO 00000KT 10SM OVC090 20/20 A3004 RMK AO2 T02000195,KCCO,2021-10-04T00:55:00Z,33.32,-84.77,20.0,19.5,0,0,,10.0,30.041338,,,TRUE,TRUE,,,,,,,OVC,9000,,,,,,,VFR,,,,,,,,,,,,METAR,290.0
KCCA 040055Z AUTO 00000KT 9SM CLR 19/17 A2998 RMK AO2,KCCA,2021-10-04T00:55:00Z,35.6,-92.45,19.0,17.0,0,0,,9.0,29.97933,,,TRUE,TRUE,,,,,,,CLR,,,,,,,,VFR,,,,,,,,,,,,SPECI,152.0
KCBK 040055Z AUTO 14005KT 10SM CLR 18/05 A3008 RMK AO2 T01820052,KCBK,2021-10-04T00:55:00Z,39.43,-101.05,18.2,5.2,140,5,,10.0,30.079725,,,TRUE,TRUE,,,,,,,CLR,,,,,,,,VFR,,,,,,,,,,,,METAR,970.0
KCBF 040055Z AUTO 32004KT 10SM CLR 19/04 A2999 RMK AO2,KCBF,2021-10-04T00:55:00Z,41.27,-95.77,19.0,4.0,320,4,,10.0,29.991142,,,TRUE,TRUE,,,,,,,CLR,,,,,,,,VFR,,,,,,,,,,,,METAR,379.0
KCBE 040055Z AUTO 00000KT 10SM OVC090 21/18 A2996 RMK AO2 T02070185,KCBE,2021-10-04T00:55:00Z,39.62,-78.77,20.7,18.5,0,0,,10.0,29.958662,,,TRUE,TRUE,,,,,,,OVC,9000,,,,,,,VFR,,,,,,,,,,,,METAR,226.0
KCAV 040055Z AUTO 33005KT 10SM BKN032 BKN039 15/07 A2996 RMK A01,KCAV,2021-10-04T00:55:00Z,42.75,-93.77,15.0,7.0,330,5,,10.0,29.958662,,,TRUE,TRUE,,,,,,,BKN,3200,BKN,3900,,,,,VFR,,,,,,,,,,,,METAR,352.0
KCAO 040055Z AUTO 11003KT 10SM CLR 18/06 A3018 RMK AO2 SLP184 T01780056,KCAO,2021-10-04T00:55:00Z,36.45,-103.15,17.8,5.6,110,3,,10.0,30.180119,1018.4,,TRUE,TRUE,,,,,,,CLR,,,,,,,,VFR,,,,,,,,,,,,METAR,1517.0
KCAD 040055Z AUTO 35006KT 10SM DZ BKN070 OVC080 17/16 A2984 RMK AO2 T01650159,KCAD,2021-10-04T00:55:00Z,44.27,-85.42,16.5,15.9,350,6,,10.0,29.840551,,,TRUE,TRUE,,,,,,DZ,BKN,7000,OVC,8000,,,,,VFR,,,,,,,,,,,,METAR,397.0
KC99 040055Z AUTO 30010G15KT 10SM CLR 06/M06 A3053 RMK AO2,KC99,2021-10-04T00:55:00Z,39.87,-105.55,6.0,-6.0,300,10,15,10.0,30.528543,,,TRUE,TRUE,,,,,,,CLR,,,,,,,,VFR,,,,,,,,,,,,METAR,3334.0
KC75 040055Z AUTO 00000KT 10SM OVC050 20/17 A2985 RMK AO2 T02030174 PWINO,KC75,2021-10-04T00:55:00Z,41.02,-89.38,20.3,17.4,0,0,,10.0,29.84941,,,TRUE,TRUE,,,,,TRUE,,OVC,5000,,,,,,,VFR,,,,,,,,,,,,METAR,166.0
KC65 040055Z AUTO 00000KT 10SM OVC005 18/18 A2983 RMK A01,KC65,2021-10-04T00:55:00Z,41.37,-86.3,18.0,18.0,0,0,,10.0,29.828741,,,TRUE,TRUE,,,,,,,OVC,500,,,,,,,IFR,,,,,,,,,,,,METAR,241.0
KC35 040055Z AUTO 32006KT 10SM BKN014 OVC026 18/18 A2989 RMK AO2 T01790179 PWINO,KC35,2021-10-04T00:55:00Z,43.53,-89.98,17.9,17.9,320,6,,10.0,29.890747,,,TRUE,TRUE,,,,,TRUE,,BKN,1400,OVC,2600,,,,,MVFR,,,,,,,,,,,,METAR,272.0
KC29 040055Z AUTO 31008KT 10SM BKN029 OVC036 20/17 A2988 RMK AO1 T01950169,KC29,2021-10-04T00:55:00Z,43.12,-89.53,19.5,16.9,310,8,,10.0,29.878937,,,TRUE,TRUE,,,,,,,BKN,2900,OVC,3600,,,,,MVFR,,,,,,,,,,,,METAR,282.0
KC09 040055Z AUTO 28005KT 10SM SCT050 BKN060 OVC085 20/18 A2982 RMK AO2 T02000178,KC09,2021-10-04T00:55:00Z,41.43,-88.42,20.0,17.8,280,5,,10.0,29.819881,,,TRUE,TRUE,,,,,,,SCT,5000,BKN,6000,OVC,8500,,,VFR,,,,,,,,,,,,METAR,179.0
KC07 040055Z AUTO 32003KT 10SM CLR 07/M03 A3053 RMK AO2,KC07,2021-10-04T00:55:00Z,40.35,-106.7,7.0,-3.0,320,3,,10.0,30.528543,,,TRUE,TRUE,,,,,,,CLR,,,,,,,,VFR,,,,,,,,,,,,METAR,3224.0
KBYY 040055Z AUTO 14004KT 10SM CLR 23/22 A2997 RMK AO2 T02400227,KBYY,2021-10-04T00:55:00Z,28.97,-95.87,24.0,22.7,140,4,,10.0,29.970472,,,TRUE,TRUE,,,,,,,CLR,,,,,,,,VFR,,,,,,,,,,,,METAR,12.0
KBYL 040055Z AUTO 12004KT 10SM FEW040 SCT050 18/18 A2998 RMK AO1 P0001,KBYL,2021-10-04T00:55:00Z,36.8,-84.2,18.0,18.0,120,4,,10.0,29.97933,,,TRUE,TRUE,,,,,,,FEW,4000,SCT,5000,,,,,VFR,,,,,,0.01,,,,,,METAR,355.0
KBXK 040055Z AUTO 00000KT 9SM 33/07 A2988 RMK A01,KBXK,2021-10-04T00:55:00Z,33.42,-112.68,33.0,7.0,0,0,,9.0,29.878937,,,TRUE,TRUE,,,,,,,,,,,,,,,,,,,,,,,,,,,METAR,303.0
KBXA 040055Z AUTO 00000KT 10SM CLR 24/22 A2997 RMK AO2 T02350218,KBXA,2021-10-04T00:55:00Z,30.82,-89.87,23.5,21.8,0,0,,10.0,29.970472,,,TRUE,TRUE,,,,,,,CLR,,,,,,,,VFR,,,,,,,,,,,,METAR,35.0
KBWW 040055Z AUTO 24005KT 10SM CLR 20/M06 A3001 RMK AO2,KBWW,2021-10-04T00:55:00Z,46.17,-103.3,20.0,-6.0,240,5,,10.0,30.008858,,,TRUE,TRUE,,,,,,,CLR,,,,,,,,VFR,,,,,,,,,,,,METAR,911.0
KBWD 040055Z AUTO 06003KT 3SM CLR 23/15 A3005 RMK AO1,KBWD,2021-10-04T00:55:00Z,31.8,-98.95,23.0,15.0,60,3,,3.0,30.050198,,,TRUE,TRUE,,,,,,,CLR,,,,,,,,MVFR,,,,,,,,,,,,METAR,420.0
KBVU 040055Z AUTO 02005KT 10SM CLR 31/M00 A2995 RMK AO2,KBVU,2021-10-04T00:55:00Z,35.95,-114.87,31.0,0.0,20,5,,10.0,29.949802,,,TRUE,TRUE,,,,,,,CLR,,,,,,,,VFR,,,,,,,,,,,,METAR,654.0
KBVS 040055Z AUTO 00000KT 7SM OVC045 14/09 A3012 RMK A01,KBVS,2021-10-04T00:55:00Z,48.47,-122.42,14.0,9.0,0,0,,7.0,30.121063,,,TRUE,TRUE,,,,,,,OVC,4500,,,,,,,VFR,,,,,,,,,,,,METAR,31.0
KBVN 040055Z AUTO 00000KT 10SM CLR 16/10 A3003 RMK AO2 T01600100,KBVN,2021-10-04T00:55:00Z,41.73,-98.05,16.0,10.0,0,0,,10.0,30.029528,,,TRUE,TRUE,,,,,,,CLR,,,,,,,,VFR,,,,,,,,,,,,METAR,547.0
KBVI 040055Z AUTO 16003KT 3SM BR BKN009 20/18 A2991 RMK AO2 T01970180,KBVI,2021-10-04T00:55:00Z,40.77,-80.37,19.7,18.0,160,3,,3.0,29.911417,,,TRUE,TRUE,,,,,,BR,BKN,900,,,,,,,IFR,,,,,,,,,,,,METAR,387.0
KBUU 040055Z AUTO 00000KT 10SM 18/17 A2985 RMK AO2 T01800171 PWINO,KBUU,2021-10-04T00:55:00Z,42.68,-88.3,18.0,17.1,0,0,,10.0,29.84941,,,TRUE,TRUE,,,,,TRUE,,,,,,,,,,,,,,,,,,,,,,METAR,238.0
KBTA 040055Z AUTO 33006KT 10SM CLR 19/07 A3001 RMK AO2 T01900068,KBTA,2021-10-04T00:55:00Z,41.42,-96.12,19.0,6.8,330,6,,10.0,30.008858,,,TRUE,TRUE,,,,,,,CLR,,,,,,,,VFR,,,,,,,,,,,,METAR,400.0
KBRY 040055Z AUTO 17004KT 10SM CLR 19/19 A2990 RMK AO1,KBRY,2021-10-04T00:55:00Z,37.82,-85.5,19.0,19.0,170,4,,10.0,29.899607,,,TRUE,TRUE,,,,,,,CLR,,,,,,,,VFR,,,,,,,,,,,,METAR,192.0
KBQX 040055Z AUTO 09004KT 10SM CLR 28/23 A2998 RMK A01,KBQX,2021-10-04T00:55:00Z,28.5,-95.72,28.0,23.0,90,4,,10.0,29.97933,,,TRUE,TRUE,,,,,,,CLR,,,,,,,,VFR,,,,,,,,,,,,METAR,34.0
KBQK 040055Z AUTO 16005KT 10SM CLR 25/22 A3002 RMK AO2 T02500219,KBQK,2021-10-04T00:55:00Z,31.25,-81.47,25.0,21.9,160,5,,10.0,30.02067,,,TRUE,TRUE,,,,,,,CLR,,,,,,,,VFR,,,,,,,,,,,,METAR,7.0
KBPG 040055Z AUTO 10SM CLR 22/08 A3011 RMK AO2 T02230077,KBPG,2021-10-04T00:55:00Z,32.22,-101.52,22.3,7.7,,,,10.0,30.109253,,,TRUE,TRUE,,,,,,,CLR,,,,,,,,VFR,,,,,,,,,,,,METAR,782.0
KBPC 040055Z AUTO 00000KT 10SM CLR 22/04 A3010 RMK AO2,KBPC,2021-10-04T00:55:00Z,35.88,-101.03,22.0,4.0,0,0,,10.0,30.100393,,,TRUE,TRUE,,,,,,,CLR,,,,,,,,VFR,,,,,,,,,,,,METAR,844.0
KBOW 040055Z AUTO 08007KT 10SM CLR 25/17 A3001 RMK AO2,KBOW,2021-10-04T00:55:00Z,27.93,-81.77,25.0,17.0,80,7,,10.0,30.008858,,,TRUE,TRUE,,,,,,,CLR,,,,,,,,VFR,,,,,,,,,,,,METAR,38.0
KBNW 040055Z AUTO 31005KT 10SM CLR 18/07 A2997 RMK AO2,KBNW,2021-10-04T00:55:00Z,42.03,-93.83,18.0,7.0,310,5,,10.0,29.970472,,,TRUE,TRUE,,,,,,,CLR,,,,,,,,VFR,,,,,,,,,,,,METAR,350.0
KBNL 040055Z AUTO 00000KT 10SM FEW050 SCT060 23/20 A3002 RMK AO2,KBNL,2021-10-04T00:55:00Z,33.25,-81.38,23.0,20.0,0,0,,10.0,30.02067,,,TRUE,TRUE,,,,,,,FEW,5000,SCT,6000,,,,,VFR,,,,,,,,,,,,SPECI,76.0
KBMT 040055Z AUTO 00000KT 10SM CLR 27/24 A2995 RMK AO2 T02670240,KBMT,2021-10-04T00:55:00Z,30.07,-94.22,26.7,24.0,0,0,,10.0,29.949802,,,TRUE,TRUE,,,,,,,CLR,,,,,,,,VFR,,,,,,,,,,,,METAR,8.0
KBMC 040055Z AUTO 00000KT 10SM CLR 23/M09 A3016 RMK AO1 T02291092,KBMC,2021-10-04T00:55:00Z,41.55,-112.07,22.9,-9.2,0,0,,10.0,30.159449,,,TRUE,TRUE,,,,,,,CLR,,,,,,,,VFR,,,,,,,,,,,,METAR,1289.0
KBKT 040055Z AUTO 20006KT 10SM CLR 20/17 A2999 RMK AO1 T01990170,KBKT,2021-10-04T00:55:00Z,37.07,-77.95,19.9,17.0,200,6,,10.0,29.991142,,,TRUE,TRUE,,,,,,,CLR,,,,,,,,VFR,,,,,,,,,,,,METAR,134.0
KBKS 040055Z AUTO 00000KT 10SM CLR 25/22 A2995 RMK AO2 T02450215,KBKS,2021-10-04T00:55:00Z,27.2,-98.12,24.5,21.5,0,0,,10.0,29.949802,,,TRUE,TRUE,,,,,,,CLR,,,,,,,,VFR,,,,,,,,,,,,METAR,34.0
KBKN 040055Z AUTO 32003KT 10SM CLR A3002 RMK AO2,KBKN,2021-10-04T00:55:00Z,36.75,-97.35,,,320,3,,10.0,30.02067,,,TRUE,TRUE,,,,,,,CLR,,,,,,,,VFR,,,,,,,,,,,,METAR,208.0
KBKD 040055Z AUTO 00000KT 10SM CLR 24/12 A3005 RMK AO2 T02400122,KBKD,2021-10-04T00:55:00Z,32.72,-98.88,24.0,12.2,0,0,,10.0,30.050198,,,TRUE,TRUE,,,,,,,CLR,,,,,,,,VFR,,,,,,,,,,,,METAR,383.0
KBJI 040055Z AUTO 00000KT 10SM CLR 12/09 A2998 RMK AO2 T01200091,KBJI,2021-10-04T00:55:00Z,47.5,-94.92,12.0,9.1,0,0,,10.0,29.97933,,,TRUE,TRUE,,,,,,,CLR,,,,,,,,VFR,,,,,,,,,,,,METAR,422.0
KBIJ 040055Z AUTO 00000KT 10SM -RA BKN110 21/20 A3002 RMK AO2,KBIJ,2021-10-04T00:55:00Z,31.4,-84.9,21.0,20.0,0,0,,10.0,30.02067,,,TRUE,TRUE,,,,,,-RA,BKN,11000,,,,,,,VFR,,,,,,,,,,,,METAR,63.0
KBIE 040055Z AUTO 00000KT 1 3/4SM HZ VV007 19/05 A3002 RMK AO2 VIS 1/2V5 T01850046,KBIE,2021-10-04T00:55:00Z,40.28,-96.75,18.5,4.6,0,0,,1.75,30.02067,,,TRUE,TRUE,,,,,,HZ,OVX,0,,,,,,,LIFR,,,,,,,,,,,700,METAR,398.0
KBHC 040055Z AUTO 00000KT 10SM CLR 22/21 A3001 RMK AO2,KBHC,2021-10-04T00:55:00Z,31.72,-82.4,22.0,21.0,0,0,,10.0,30.008858,,,TRUE,TRUE,,,,,,,CLR,,,,,,,,VFR,,,,,,,,,,,,METAR,61.0
KBEC 040055Z AUTO 00000KT 10SM SCT120 22/08 A3003 RMK AO2 T02160080,KBEC,2021-10-04T00:55:00Z,37.7,-97.22,21.6,8.0,0,0,,10.0,30.029528,,,TRUE,TRUE,,,,,,,SCT,12000,,,,,,,VFR,,,,,,,,,,,,METAR,421.0
KBEA 040055Z AUTO 11003KT 10SM SCT060 27/26 A2995 RMK AO2 T02700257,KBEA,2021-10-04T00:55:00Z,28.37,-97.78,27.0,25.7,110,3,,10.0,29.949802,,,TRUE,TRUE,,,,,,,SCT,6000,,,,,,,VFR,,,,,,,,,,,,SPECI,83.0
KBDU 040055Z AUTO 24003KT 10SM CLR 20/03 A3018 RMK AO2,KBDU,2021-10-04T00:55:00Z,40.03,-105.23,20.0,3.0,240,3,,10.0,30.180119,,,TRUE,TRUE,,,,,,,CLR,,,,,,,,VFR,,,,,,,,,,,,METAR,1614.0
KBDH 040055Z AUTO 00000KT 10SM CLR 17/09 A3001 RMK AO2,KBDH,2021-10-04T00:55:00Z,45.12,-95.13,17.0,9.0,0,0,,10.0,30.008858,,,TRUE,TRUE,,,,,,,CLR,,,,,,,,VFR,,,,,,,,,,,,METAR,341.0
KBDG 040055Z AUTO 20004KT 10SM 19/03 A3031 RMK AO1 T01880029,KBDG,2021-10-04T00:55:00Z,37.58,-109.47,18.8,2.9,200,4,,10.0,30.31004,,,TRUE,TRUE,,,,,,,,,,,,,,,,,,,,,,,,,,,METAR,1778.0
KBCK 040055Z AUTO 32005KT 10SM BKN025 BKN029 OVC040 18/15 A2991 RMK AO2 T01820149,KBCK,2021-10-04T00:55:00Z,44.25,-90.85,18.2,14.9,320,5,,10.0,29.911417,,,TRUE,TRUE,,,,,,,BKN,2500,BKN,2900,OVC,4000,,,MVFR,,,,,,,,,,,,METAR,256.0
KBCB 040055Z AUTO 00000KT 7SM OVC095 18/18 A3008 RMK AO2 T01800180,KBCB,2021-10-04T00:55:00Z,37.22,-80.42,18.0,18.0,0,0,,7.0,30.079725,,,TRUE,TRUE,,,,,,,OVC,9500,,,,,,,VFR,,,,,,,,,,,,METAR,642.0
KBBP 040055Z AUTO 16005KT 10SM CLR 22/19 A3003 RMK AO2,KBBP,2021-10-04T00:55:00Z,34.62,-79.73,22.0,19.0,160,5,,10.0,30.029528,,,TRUE,TRUE,,,,,,,CLR,,,,,,,,VFR,,,,,,,,,,,,SPECI,44.0
KBBD 040055Z AUTO 10SM 22/16 RMK AO2 PWINO TSNO,KBBD,2021-10-04T00:55:00Z,31.18,-99.32,22.0,16.0,,,,10.0,,,,TRUE,TRUE,,,TRUE,,TRUE,,,,,,,,,,,,,,,,,,,,,,METAR,554.0
KBAX 040055Z AUTO 00000KT 5SM BR BKN006 OVC009 19/19 A2985 RMK AO2 T01870187,KBAX,2021-10-04T00:55:00Z,43.78,-82.98,18.7,18.7,0,0,,5.0,29.84941,,,TRUE,TRUE,,,,,,BR,BKN,600,OVC,900,,,,,IFR,,,,,,,,,,,,METAR,229.0
KBAM 040055Z AUTO 35006KT 10SM CLR 25/M10 A3012 RMK AO1,KBAM,2021-10-04T00:55:00Z,,,25.0,-10.0,350,6,,10.0,30.121063,,,TRUE,TRUE,,,,,,,CLR,,,,,,,,VFR,,,,,,,,,,,,METAR,
KBAC 040055Z AUTO 20004KT 10SM CLR 16/07 A2997 RMK AO2,KBAC,2021-10-04T00:55:00Z,46.93,-98.02,16.0,7.0,200,4,,10.0,29.970472,,,TRUE,TRUE,,,,,,,CLR,,,,,,,,VFR,,,,,,,,,,,,METAR,423.0
KAZE 040055Z AUTO 00000KT 10SM SCT080 24/21 A3000 RMK AO2 T02350209,KAZE,2021-10-04T00:55:00Z,31.88,-82.65,23.5,20.9,0,0,,10.0,30.0,,,TRUE,TRUE,,,,,,,SCT,8000,,,,,,,VFR,,,,,,,,,,,,METAR,78.0
KAZC 040055Z AUTO 06016G23KT 10SM CLR 21/05 A3020 RMK AO2,KAZC,2021-10-04T00:55:00Z,36.97,-113.02,21.0,5.0,60,16,23,10.0,30.200787,,,TRUE,TRUE,,,,,,,CLR,,,,,,,,VFR,,,,,,,,,,,,METAR,1476.0
KAYS 040055Z AUTO 16004KT 10SM SCT065 25/22 A3002 RMK AO2 T02500221,KAYS,2021-10-04T00:55:00Z,31.25,-82.4,25.0,22.1,160,4,,10.0,30.02067,,,TRUE,TRUE,,,,,,,SCT,6500,,,,,,,VFR,,,,,,,,,,,,METAR,42.0
KAXX 040055Z AUTO 00000KT 10SM CLR 11/02 A3039 RMK AO2 T01050022,KAXX,2021-10-04T00:55:00Z,36.42,-105.28,10.5,2.2,0,0,,10.0,30.389763,,,TRUE,TRUE,,,,,,,CLR,,,,,,,,VFR,,,,,,,,,,,,METAR,2543.0
KAXV 040055Z AUTO 27013G20KT 10SM -RA SCT015 BKN021 BKN028 19/16 A2987 RMK AO2,KAXV,2021-10-04T00:55:00Z,40.5,-84.3,19.0,16.0,270,13,20,10.0,29.870079,,,TRUE,TRUE,,,,,,-RA,SCT,1500,BKN,2100,BKN,2800,,,MVFR,,,,,,,,,,,,METAR,278.0
KAXS 040055Z AUTO 12004KT 10SM CLR 24/11 A3006 RMK AO2 T02390113,KAXS,2021-10-04T00:55:00Z,34.7,-99.33,23.9,11.3,120,4,,10.0,30.059055,,,TRUE,TRUE,,,,,,,CLR,,,,,,,,VFR,,,,,,,,,,,,METAR,433.0
KAXH 040055Z AUTO 00000KT 10SM OVC110 25/24 A2996 RMK AO2 T02450236,KAXH,2021-10-04T00:55:00Z,29.52,-95.48,24.5,23.6,0,0,,10.0,29.958662,,,TRUE,TRUE,,,,,,,OVC,11000,,,,,,,VFR,,,,,,,,,,,,METAR,18.0
KAXA 040055Z AUTO 33006KT 10SM CLR 17/07 A2996 RMK A01,KAXA,2021-10-04T00:55:00Z,43.07,-94.27,17.0,7.0,330,6,,10.0,29.958662,,,TRUE,TRUE,,,,,,,CLR,,,,,,,,VFR,,,,,,,,,,,,METAR,371.0
KAWG 040055Z AUTO 29006KT 10SM CLR 18/12 A2989 RMK AO2,KAWG,2021-10-04T00:55:00Z,41.27,-91.67,18.0,12.0,290,6,,10.0,29.890747,,,TRUE,TRUE,,,,,,,CLR,,,,,,,,VFR,,,,,,,,,,,,METAR,229.0
KAVQ 040055Z AUTO 06004KT 10SM CLR 32/03 A2991 RMK AO2 T03190025,KAVQ,2021-10-04T00:55:00Z,32.4,-111.22,31.9,2.5,60,4,,10.0,29.911417,,,TRUE,TRUE,,,,,,,CLR,,,,,,,,VFR,,,,,,,,,,,,METAR,618.0
KAVC 040055Z AUTO 00000KT 10SM CLR 18/17 A3005 RMK AO2 T01820171,KAVC,2021-10-04T00:55:00Z,36.68,-78.05,18.2,17.1,0,0,,10.0,30.050198,,,TRUE,TRUE,,,,,,,CLR,,,,,,,,VFR,,,,,,,,,,,,METAR,119.0
KAUN 040055Z AUTO 00000KT 10SM CLR 27/02 A2996 RMK A01,KAUN,2021-10-04T00:55:00Z,38.95,-121.08,27.0,2.0,0,0,,10.0,29.958662,,,TRUE,TRUE,,,,,,,CLR,,,,,,,,VFR,,,,,,,,,,,,METAR,453.0
KAUM 040055Z AUTO 02004KT 10SM CLR 17/13 A2996 RMK AO2,KAUM,2021-10-04T00:55:00Z,43.67,-92.92,17.0,13.0,20,4,,10.0,29.958662,,,TRUE,TRUE,,,,,,,CLR,,,,,,,,VFR,,,,,,,,,,,,METAR,376.0
KAUH 040055Z AUTO 00000KT 10SM CLR 18/08 A3003 RMK AO2 T01780078,KAUH,2021-10-04T00:55:00Z,40.88,-98.0,17.8,7.8,0,0,,10.0,30.029528,,,TRUE,TRUE,,,,,,,CLR,,,,,,,,VFR,,,,,,,,,,,,METAR,549.0
KATS 040055Z AUTO 00000KT 10SM CLR 23/10 A3015 RMK AO2,KATS,2021-10-04T00:55:00Z,32.85,-104.47,23.0,10.0,0,0,,10.0,30.15059,,,TRUE,TRUE,,,,,,,CLR,,,,,,,,VFR,,,,,,,,,,,,METAR,1073.0
KATP 040055Z AUTO 16006KT 10SM SCT024 SCT030 BKN037 28/23 A2996 RMK A01,KATP,2021-10-04T00:55:00Z,27.2,-90.03,28.0,23.0,160,6,,10.0,29.958662,,,TRUE,TRUE,,,,,,,SCT,2400,SCT,3000,BKN,3700,,,VFR,,,,,,,,,,,,METAR,50.0
KASW 040055Z AUTO 00000KT 7SM -RA SCT008 BKN075 OVC110 17/16 A2983 RMK AO2 P0001,KASW,2021-10-04T00:55:00Z,41.27,-85.83,17.0,16.0,0,0,,7.0,29.828741,,,TRUE,TRUE,,,,,,-RA,SCT,800,BKN,7500,OVC,11000,,,VFR,,,,,,0.01,,,,,,METAR,253.0
KAST 040055Z AUTO 32011KT 10SM CLR 14/07 A3008 RMK AO2 SLP185 T01390067,KAST,2021-10-04T00:55:00Z,46.15,-123.88,13.9,6.7,320,11,,10.0,30.079725,1018.5,,TRUE,TRUE,,,,,,,CLR,,,,,,,,VFR,,,,,,,,,,,,METAR,3.0
KASN 040055Z AUTO 00000KT 10SM SCT065 SCT080 SCT120 20/20 A3001 RMK AO2 LTG DSNT NW T02010200,KASN,2021-10-04T00:55:00Z,33.57,-86.05,20.1,20.0,0,0,,10.0,30.008858,,,TRUE,TRUE,,,,,,,SCT,6500,SCT,8000,SCT,12000,,,VFR,,,,,,,,,,,,METAR,159.0
KASL 040055Z AUTO 00000KT 10SM CLR 21/18 A2998 RMK AO1 T02110178,KASL,2021-10-04T00:55:00Z,32.52,-94.3,21.1,17.8,0,0,,10.0,29.97933,,,TRUE,TRUE,,,,,,,CLR,,,,,,,,VFR,,,,,,,,,,,,METAR,104.0
KASJ 040055Z AUTO 18007KT 10SM CLR 21/19 A3001 RMK AO2 T02120186,KASJ,2021-10-04T00:55:00Z,36.28,-77.17,21.2,18.6,180,7,,10.0,30.008858,,,TRUE,TRUE,,,,,,,CLR,,,,,,,,VFR,,,,,,,,,,,,METAR,20.0
KARW 040055Z AUTO 00000KT 10SM CLR 22/20 A3002 RMK AO2,KARW,2021-10-04T00:55:00Z,32.42,-80.63,22.0,20.0,0,0,,10.0,30.02067,,,TRUE,TRUE,,,,,,,CLR,,,,,,,,VFR,,,,,,,,,,,,METAR,2.0
KARV 040055Z AUTO 36008KT 10SM BKN008 BKN013 OVC070 14/07 A2994 RMK AO2 T01420069,KARV,2021-10-04T00:55:00Z,45.92,-89.72,14.2,6.9,360,8,,10.0,29.940945,,,TRUE,TRUE,,,,,,,BKN,800,BKN,1300,OVC,7000,,,IFR,,,,,,,,,,,,METAR,494.0
KAQX 040055Z AUTO 00000KT 10SM CLR 23/22 A3001 RMK AO2,KAQX,2021-10-04T00:55:00Z,32.98,-81.27,23.0,22.0,0,0,,10.0,30.008858,,,TRUE,TRUE,,,,,,,CLR,,,,,,,,VFR,,,,,,,,,,,,METAR,48.0
KAQO 040055Z AUTO 33003KT 10SM CLR 25/17 A3001 RMK AO2,KAQO,2021-10-04T00:55:00Z,30.78,-98.67,25.0,17.0,330,3,,10.0,30.008858,,,TRUE,TRUE,,,,,,,CLR,,,,,,,,VFR,,,,,,,,,,,,METAR,334.0
KAPY 040055Z AUTO 14011KT 10SM SCT049 BKN060 OVC070 29/22 A2996 RMK AO2 T02910219 TSNO,KAPY,2021-10-04T00:55:00Z,26.97,-99.25,29.1,21.9,140,11,,10.0,29.958662,,,TRUE,TRUE,,,TRUE,,,,SCT,4900,BKN,6000,OVC,7000,,,VFR,,,,,,,,,,,,METAR,129.0
KAPS 040055Z AUTO 00000KT 10SM SCT027 SCT050 25/24 A2995 RMK AO2 T02470235,KAPS,2021-10-04T00:55:00Z,30.08,-90.58,24.7,23.5,0,0,,10.0,29.949802,,,TRUE,TRUE,,,,,,,SCT,2700,SCT,5000,,,,,VFR,,,,,,,,,,,,METAR,1.0
KANW 040055Z AUTO 00000KT 10SM CLR 18/08 A3003 RMK AO2 T01750078,KANW,2021-10-04T00:55:00Z,42.57,-100.0,17.5,7.8,0,0,,10.0,30.029528,,,TRUE,TRUE,,,,,,,CLR,,,,,,,,VFR,,,,,,,,,,,,METAR,788.0
KANQ 040055Z AUTO 00000KT 7SM -RA FEW040 BKN075 OVC110 17/17 A2982 RMK AO2 LTG DSNT N AND SE P0002,KANQ,2021-10-04T00:55:00Z,41.63,-85.08,17.0,17.0,0,0,,7.0,29.819881,,,TRUE,TRUE,,,,,,-RA,FEW,4000,BKN,7500,OVC,11000,,,VFR,,,,,,0.02,,,,,,METAR,299.0
KANK 040055Z AUTO 25004KT 10SM CLR 18/00 A3037 RMK AO1 T01791003,KANK,2021-10-04T00:55:00Z,38.53,-106.05,17.9,-0.3,250,4,,10.0,30.369095,,,TRUE,TRUE,,,,,,,CLR,,,,,,,,VFR,,,,,,,,,,,,METAR,2293.0
KANJ 040055Z AUTO 07003KT 10SM OVC017 18/14 A2991 RMK AO2 SLP123 T01780144,KANJ,2021-10-04T00:55:00Z,46.47,-84.37,17.8,14.4,70,3,,10.0,29.911417,1012.3,,TRUE,TRUE,,,,,,,OVC,1700,,,,,,,MVFR,,,,,,,,,,,,METAR,220.0
KAMN 040055Z AUTO 36003KT 10SM BKN007 OVC026 19/19 A2983 RMK AO2 T01900190,KAMN,2021-10-04T00:55:00Z,43.32,-84.68,19.0,19.0,360,3,,10.0,29.828741,,,TRUE,TRUE,,,,,,,BKN,700,OVC,2600,,,,,IFR,,,,,,,,,,,,METAR,228.0
KALX 040055Z AUTO 00000KT 10SM SCT090 22/21 A3001 RMK AO2 LTG DSNT NW T02150210,KALX,2021-10-04T00:55:00Z,32.92,-85.97,21.5,21.0,0,0,,10.0,30.008858,,,TRUE,TRUE,,,,,,,SCT,9000,,,,,,,VFR,,,,,,,,,,,,METAR,198.0
KALM 040055Z AUTO 00000KT 10SM CLR 24/07 A3015 RMK AO2,KALM,2021-10-04T00:55:00Z,32.83,-105.98,24.0,7.0,0,0,,10.0,30.15059,,,TRUE,TRUE,,,,,,,CLR,,,,,,,,VFR,,,,,,,,,,,,METAR,1267.0
KAJZ 040055Z AUTO 28004KT 10SM CLR 23/00 A3019 RMK AO2 T02310000 PWINO,KAJZ,2021-10-04T00:55:00Z,38.78,-108.07,23.1,0.0,280,4,,10.0,30.188976,,,TRUE,TRUE,,,,,TRUE,,CLR,,,,,,,,VFR,,,,,,,,,,,,METAR,1583.0
KAJR 040055Z AUTO 00000KT 5SM BR SCT017 SCT024 BKN065 20/19 A3005 RMK AO2 T02030192,KAJR,2021-10-04T00:55:00Z,34.5,-83.55,20.3,19.2,0,0,,5.0,30.050198,,,TRUE,TRUE,,,,,,BR,SCT,1700,SCT,2400,BKN,6500,,,MVFR,,,,,,,,,,,,METAR,441.0
KAJG 040055Z AUTO 27005KT 10SM SCT038 SCT070 SCT090 21/17 A2988 RMK AO2 LTG DSNT E P0001 T02110173,KAJG,2021-10-04T00:55:00Z,38.62,-87.73,21.1,17.3,270,5,,10.0,29.878937,,,TRUE,TRUE,,,,,,,SCT,3800,SCT,7000,SCT,9000,,,VFR,,,,,,0.01,,,,,,METAR,130.0
KAIO 040055Z AUTO 00000KT 10SM CLR 17/09 A2997 RMK AO2,KAIO,2021-10-04T00:55:00Z,41.4,-95.03,17.0,9.0,0,0,,10.0,29.970472,,,TRUE,TRUE,,,,,,,CLR,,,,,,,,VFR,,,,,,,,,,,,METAR,349.0
KAIK 040055Z AUTO 00000KT 10SM CLR 21/18 A3004 RMK AO2 T02140182,KAIK,2021-10-04T00:55:00Z,33.65,-81.68,21.4,18.2,0,0,,10.0,30.041338,,,TRUE,TRUE,,,,,,,CLR,,,,,,,,VFR,,,,,,,,,,,,METAR,155.0
KAIG 040055Z AUTO 35006KT 10SM BKN011 OVC016 16/16 A2991 RMK AO2 T01610156,KAIG,2021-10-04T00:55:00Z,45.15,-89.12,16.1,15.6,350,6,,10.0,29.911417,,,TRUE,TRUE,,,,,,,BKN,1100,OVC,1600,,,,,MVFR,,,,,,,,,,,,METAR,462.0
KAHQ 040055Z AUTO 00000KT 10SM CLR 16/07 A3001 RMK AO2 T01630074,KAHQ,2021-10-04T00:55:00Z,41.23,-96.6,16.3,7.4,0,0,,10.0,30.008858,,,TRUE,TRUE,,,,,,,CLR,,,,,,,,VFR,,,,,,,,,,,,METAR,372.0
KAGI 040055Z AUTO 00000KT 10SM CLR 28/22 A2995 RMK AO2 T02780217,KAGI,2021-10-04T00:55:00Z,,,27.8,21.7,0,0,,10.0,29.949802,,,TRUE,TRUE,,,,,,,CLR,,,,,,,,VFR,,,,,,,,,,,,METAR,
KAFP 040055Z AUTO 16004KT 10SM SCT065 23/17 A3001 RMK AO2 T02290173,KAFP,2021-10-04T00:55:00Z,35.02,-80.08,22.9,17.3,160,4,,10.0,30.008858,,,TRUE,TRUE,,,,,,,SCT,6500,,,,,,,VFR,,,,,,,,,,,,METAR,91.0
KAFO 040055Z AUTO 35004KT 10SM CLR 14/M05 A3025 RMK AO2,KAFO,2021-10-04T00:55:00Z,42.72,-110.95,14.0,-5.0,350,4,,10.0,30.250984,,,TRUE,TRUE,,,,,,,CLR,,,,,,,,VFR,,,,,,,,,,,,METAR,1881.0
KAFK 040055Z AUTO 33003KT 10SM CLR 20/04 A3000 RMK AO2 T01970041,KAFK,2021-10-04T00:55:00Z,40.6,-95.85,19.7,4.1,330,3,,10.0,30.0,,,TRUE,TRUE,,,,,,,CLR,,,,,,,,VFR,,,,,,,,,,,,METAR,353.0
KAEL 040055Z AUTO 00000KT 10SM CLR 15/08 A2997 RMK AO2,KAEL,2021-10-04T00:55:00Z,43.68,-93.37,15.0,8.0,0,0,,10.0,29.970472,,,TRUE,TRUE,,,,,,,CLR,,,,,,,,VFR,,,,,,,,,,,,METAR,382.0
KAEJ 040055Z AUTO 26003KT 10SM CLR 11/04 A3033 RMK AO2 T01140037,KAEJ,2021-10-04T00:55:00Z,38.82,-106.12,11.4,3.7,260,3,,10.0,30.33071,,,TRUE,TRUE,,,,,,,CLR,,,,,,,,VFR,,,,,,,,,,,,METAR,2420.0
KADU 040055Z AUTO 00000KT 10SM CLR 13/11 A3000 RMK AO2 PWINO,KADU,2021-10-04T00:55:00Z,41.7,-94.92,13.0,11.0,0,0,,10.0,30.0,,,TRUE,TRUE,,,,,TRUE,,CLR,,,,,,,,VFR,,,,,,,,,,,,METAR,391.0
KADM 040055Z AUTO 00000KT 10SM CLR 20/12 A3001 RMK AO2,KADM,2021-10-04T00:55:00Z,34.3,-97.02,20.0,12.0,0,0,,10.0,30.008858,,,TRUE,TRUE,,,,,,,CLR,,,,,,,,VFR,,,,,,,,,,,,METAR,223.0
KADC 040055Z AUTO 00000KT 10SM CLR 13/08 A2999 RMK AO2,KADC,2021-10-04T00:55:00Z,46.45,-95.22,13.0,8.0,0,0,,10.0,29.991142,,,TRUE,TRUE,,,,,,,CLR,,,,,,,,VFR,,,,,,,,,,,,METAR,416.0
KACQ 040055Z AUTO 36005KT CLR 13/07 A2998 RMK AO2 PWINO,KACQ,2021-10-04T00:55:00Z,44.07,-93.55,13.0,7.0,360,5,,,29.97933,,,TRUE,TRUE,,,,,TRUE,,CLR,,,,,,,,,,,,,,,,,,,,METAR,339.0
KACJ 040055Z AUTO 27005KT 22/20 A3005 RMK AO2 LTG DSNT NE PWINO,KACJ,2021-10-04T00:55:00Z,32.12,-84.18,22.0,20.0,270,5,,,30.050198,,,TRUE,TRUE,,,,,TRUE,,,,,,,,,,,,,,,,,,,,,,METAR,140.0
KACB 040055Z AUTO 00000KT 2 1/2SM +RA BKN026 BKN048 OVC060 18/18 A2986 RMK AO2 T01780175,KACB,2021-10-04T00:55:00Z,44.98,-85.2,17.8,17.5,0,0,,2.5,29.861221,,,TRUE,TRUE,,,,,,+RA,BKN,2600,BKN,4800,OVC,6000,,,IFR,,,,,,,,,,,,METAR,189.0
KAAT 040055Z AUTO 27004KT 10SM CLR 25/M05 A3006 RMK AO2 SLP155 T02501050,KAAT,2021-10-04T00:55:00Z,41.48,-120.57,25.0,-5.0,270,4,,10.0,30.059055,1015.5,,TRUE,TRUE,,,,,,,CLR,,,,,,,,VFR,,,,,,,,,,,,METAR,1336.0
KAAS 040055Z AUTO 17005KT 10SM BKN009 20/20 A2999 RMK AO1,KAAS,2021-10-04T00:55:00Z,37.35,-85.32,20.0,20.0,170,5,,10.0,29.991142,,,TRUE,TRUE,,,,,,,BKN,900,,,,,,,IFR,,,,,,,,,,,,METAR,270.0
KAAA 040055Z AUTO 26003KT 10SM CLR 20/20 A2988 RMK AO2 T02020198,KAAA,2021-10-04T00:55:00Z,40.17,-89.33,20.2,19.8,260,3,,10.0,29.878937,,,TRUE,TRUE,,,,,,,CLR,,,,,,,,VFR,,,,,,,,,,,,METAR,179.0
KA39 040055Z AUTO 00000KT 10SM BKN100 BKN120 32/06 A2992 RMK AO2,KA39,2021-10-04T00:55:00Z,32.98,-111.92,32.0,6.0,0,0,,10.0,29.920275,,,TRUE,TRUE,,,,,,,BKN,10000,BKN,12000,,,,,VFR,,,,,,,,,,,,METAR,391.0
K9V9 040055Z AUTO 00000KT 10SM CLR 16/10 A3000 RMK AO2 T01550100,K9V9,2021-10-04T00:55:00Z,43.77,-99.32,15.5,10.0,0,0,,10.0,30.0,,,TRUE,TRUE,,,,,,,CLR,,,,,,,,VFR,,,,,,,,,,,,METAR,511.0
K9S5 040055Z AUTO 00000KT 10SM 21/M03 A3004 RMK Three Forks ,K9S5,2021-10-04T00:55:00Z,,,21.0,-3.0,0,0,,10.0,30.041338,,,TRUE,,,,,,,,,,,,,,,,,,,,,,,,,,,,METAR,
K9S2 040055Z AUTO 19006KT 18/M04 A2994 RMK Scobey ,K9S2,2021-10-04T00:55:00Z,48.8,-105.43,18.0,-4.0,190,6,,,29.940945,,,TRUE,,,,,,,,,,,,,,,,,,,,,,,,,,,,METAR,742.0
K9MN 040055Z AUTO 36004KT 10SM CLR 17/13 A2996 RMK AO1 T01670131,K9MN,2021-10-04T00:55:00Z,44.02,-92.48,16.7,13.1,360,4,,10.0,29.958662,,,TRUE,TRUE,,,,,,,CLR,,,,,,,,VFR,,,,,,,,,,,,METAR,308.0
K9A5 040055Z AUTO 00000KT 5SM SCT005 BKN047 BKN100 19/19 A3002 RMK AO2 T01940194,K9A5,2021-10-04T00:55:00Z,34.68,-85.28,19.4,19.4,0,0,,5.0,30.02067,,,TRUE,TRUE,,,,,,,SCT,500,BKN,4700,BKN,10000,,,MVFR,,,,,,,,,,,,METAR,234.0
K8B0 040055Z AUTO 00000KT 10SM BKN005 BKN009 OVC016 10/09 A3004 RMK AO2,K8B0,2021-10-04T00:55:00Z,,,10.0,9.0,0,0,,10.0,30.041338,,,TRUE,TRUE,,,,,,,BKN,500,BKN,900,OVC,1600,,,IFR,,,,,,,,,,,,METAR,
K82V 040055Z AUTO 34004KT 10SM CLR 16/M07 A3017 RMK AO2,K82V,2021-10-04T00:55:00Z,41.15,-104.13,16.0,-7.0,340,4,,10.0,30.171259,,,TRUE,TRUE,,,,,,,CLR,,,,,,,,VFR,,,,,,,,,,,,METAR,1563.0
K82C 040055Z AUTO 31006KT 10SM BKN029 OVC034 18/17 A2988 RMK AO2 T01810166,K82C,2021-10-04T00:55:00Z,43.83,-90.13,18.1,16.6,310,6,,10.0,29.878937,,,TRUE,TRUE,,,,,,,BKN,2900,OVC,3400,,,,,MVFR,,,,,,,,,,,,METAR,273.0
K81R 040055Z AUTO 01006KT 10SM CLR 24/15 A3005 RMK AO2 T02400149,K81R,2021-10-04T00:55:00Z,31.23,-98.72,24.0,14.9,10,6,,10.0,30.050198,,,TRUE,TRUE,,,,,,,CLR,,,,,,,,VFR,,,,,,,,,,,,METAR,381.0
K7W6 040055Z AUTO 20003KT 10SM CLR 20/16 A3004 RMK AO2 T02040160,K7W6,2021-10-04T00:55:00Z,35.55,-75.95,20.4,16.0,200,3,,10.0,30.041338,,,TRUE,TRUE,,,,,,,CLR,,,,,,,,VFR,,,,,,,,,,,,METAR,1.0
K7W4 040055Z AUTO 21007KT 10SM BKN100 23/18 A2995 RMK AO1 T02250177,K7W4,2021-10-04T00:55:00Z,37.97,-77.75,22.5,17.7,210,7,,10.0,29.949802,,,TRUE,TRUE,,,,,,,BKN,10000,,,,,,,VFR,,,,,,,,,,,,SPECI,115.0
K7L2 040055Z AUTO 16012KT 10SM CLR 20/06 A2997 RMK AO2,K7L2,2021-10-04T00:55:00Z,46.22,-100.25,20.0,6.0,160,12,,10.0,29.970472,,,TRUE,TRUE,,,,,,,CLR,,,,,,,,VFR,,,,,,,,,,,,METAR,541.0
K7BM 040055Z AUTO 27004KT 10SM CLR 12/M02 A3045 RMK AO2,K7BM,2021-10-04T00:55:00Z,38.78,-106.22,12.0,-2.0,270,4,,10.0,30.448818,,,TRUE,TRUE,,,,,,,CLR,,,,,,,,VFR,,,,,,,,,,,,METAR,2996.0
K77S 040055Z AUTO 33004KT 10SM CLR 20/09 A3000 RMK A01,K77S,2021-10-04T00:55:00Z,43.93,-123.0,20.0,9.0,330,4,,10.0,30.0,,,TRUE,TRUE,,,,,,,CLR,,,,,,,,VFR,,,,,,,,,,,,METAR,161.0
K6S8 040055Z AUTO 24007KT 10SM 21/M09 A3003 RMK A01 LAUREL,K6S8,2021-10-04T00:55:00Z,45.7,-108.77,21.0,-9.0,240,7,,10.0,30.029528,,,TRUE,TRUE,,,,,,,,,,,,,,,,,,,,,,,,,,,SPECI,1072.0
K6S5 040055Z AUTO 02006KT 10SM CLR 19/04 A3003 RMK AO2 Hamilton ,K6S5,2021-10-04T00:55:00Z,46.25,-114.13,19.0,4.0,20,6,,10.0,30.029528,,,TRUE,TRUE,,,,,,,CLR,,,,,,,,VFR,,,,,,,,,,,,METAR,1112.0
K6S2 040055Z AUTO 33011G17KT 7SM CLR 14/11 A3002 RMK AO2 T01420110,K6S2,2021-10-04T00:55:00Z,43.98,-124.12,14.2,11.0,330,11,17,7.0,30.02067,,,TRUE,TRUE,,,,,,,CLR,,,,,,,,VFR,,,,,,,,,,,,METAR,16.0
K6R3 040055Z AUTO 00000KT 7SM CLR 24/24 A2997 RMK AO2 T02350235,K6R3,2021-10-04T00:55:00Z,30.35,-95.0,23.5,23.5,0,0,,7.0,29.970472,,,TRUE,TRUE,,,,,,,CLR,,,,,,,,VFR,,,,,,,,,,,,METAR,44.0
K6P9 040055Z AUTO 00000KT 10SM CLR 19/16 A3006 RMK AO2 T01860159,K6P9,2021-10-04T00:55:00Z,32.43,-98.6,18.6,15.9,0,0,,10.0,30.059055,,,TRUE,TRUE,,,,,,,CLR,,,,,,,,VFR,,,,,,,,,,,,METAR,451.0
K6L4 040055Z AUTO 00000KT 8SM FEW013 SCT070 BKN085 18/18 A2998 RMK AO2,K6L4,2021-10-04T00:55:00Z,37.85,-81.92,18.0,18.0,0,0,,8.0,29.97933,,,TRUE,TRUE,,,,,,,FEW,1300,SCT,7000,BKN,8500,,,VFR,,,,,,,,,,,,METAR,504.0
K6I2 040055Z AUTO 17005KT 10SM FEW012 20/20 A2994 RMK AO2,K6I2,2021-10-04T00:55:00Z,37.63,-85.25,20.0,20.0,170,5,,10.0,29.940945,,,TRUE,TRUE,,,,,,,FEW,1200,,,,,,,VFR,,,,,,,,,,,,METAR,258.0
K6B0 040055Z AUTO 00000KT 3/4SM BR OVC002 14/14 A2998 RMK AO2 T01370137,K6B0,2021-10-04T00:55:00Z,43.98,-73.1,13.7,13.7,0,0,,0.75,29.97933,,,TRUE,TRUE,,,,,,BR,OVC,200,,,,,,,LIFR,,,,,,,,,,,,METAR,149.0
K6A2 040055Z AUTO 00000KT 10SM SCT028 SCT037 BKN120 20/20 A3004 RMK AO2 LTG DSNT SE,K6A2,2021-10-04T00:55:00Z,33.23,-84.27,20.0,20.0,0,0,,10.0,30.041338,,,TRUE,TRUE,,,,,,,SCT,2800,SCT,3700,BKN,12000,,,VFR,,,,,,,,,,,,METAR,290.0
K6A1 040055Z AUTO 22003KT 10SM BKN043 BKN050 OVC070 20/18 A3004 RMK AO2 LTG DSNT N AND NE T01980181,K6A1,2021-10-04T00:55:00Z,32.57,-84.25,19.8,18.1,220,3,,10.0,30.041338,,,TRUE,TRUE,,,,,,,BKN,4300,BKN,5000,OVC,7000,,,VFR,,,,,,,,,,,,METAR,198.0
K66R 040055Z AUTO 00000KT 10SM CLR 24/23 A2997 RMK AO2 T02440225,K66R,2021-10-04T00:55:00Z,29.65,-96.52,24.4,22.5,0,0,,10.0,29.970472,,,TRUE,TRUE,,,,,,,CLR,,,,,,,,VFR,,,,,,,,,,,,METAR,70.0
K5SM 040055Z AUTO 27005KT 10SM CLR 06/M02 A3055 RMK AO2,K5SM,2021-10-04T00:55:00Z,39.43,-107.38,6.0,-2.0,270,5,,10.0,30.549213,,,TRUE,TRUE,,,,,,,CLR,,,,,,,,VFR,,,,,,,,,,,,METAR,3229.0
K5R8 040055Z AUTO 00000KT 10SM CLR 23/21 A2995 RMK AO2 T02290211,K5R8,2021-10-04T00:55:00Z,30.43,-93.47,22.9,21.1,0,0,,10.0,29.949802,,,TRUE,TRUE,,,,,,,CLR,,,,,,,,VFR,,,,,,,,,,,,METAR,26.0
K5M9 040055Z AUTO 00000KT 10SM CLR 19/17 A2992 RMK AO2 T01860169,K5M9,2021-10-04T00:55:00Z,37.33,-88.12,18.6,16.9,0,0,,10.0,29.920275,,,TRUE,TRUE,,,,,,,CLR,,,,,,,,VFR,,,,,,,,,,,,METAR,199.0
K5H4 040055Z AUTO 26006KT 10SM CLR 20/02 A2992 RMK AO2,K5H4,2021-10-04T00:55:00Z,47.78,-99.93,20.0,2.0,260,6,,10.0,29.920275,,,TRUE,TRUE,,,,,,,CLR,,,,,,,,VFR,,,,,,,,,,,,METAR,490.0
K5C1 040055Z AUTO 00000KT 10SM CLR 23/18 A3002 RMK AO1,K5C1,2021-10-04T00:55:00Z,29.72,-98.7,23.0,18.0,0,0,,10.0,30.02067,,,TRUE,TRUE,,,,,,,CLR,,,,,,,,VFR,,,,,,,,,,,,METAR,422.0
K5A6 040055Z AUTO 00000KT 10SM SCT027 SCT035 OVC110 23/22 A2994 RMK AO2 T02250222,K5A6,2021-10-04T00:55:00Z,33.47,-89.73,22.5,22.2,0,0,,10.0,29.940945,,,TRUE,TRUE,,,,,,,SCT,2700,SCT,3500,OVC,11000,,,VFR,,,,,,,,,,,,METAR,109.0
K57C 040055Z AUTO 00000KT 10SM VCTS BKN026 BKN031 OVC110 19/19 A2984 RMK AO2 LTG DSNT NW T01870186,K57C,2021-10-04T00:55:00Z,42.8,-88.37,18.7,18.6,0,0,,10.0,29.840551,,,TRUE,TRUE,,,,,,VCTS,BKN,2600,BKN,3100,OVC,11000,,,MVFR,,,,,,,,,,,,METAR,454.0
K54J 040055Z AUTO 00000KT 10SM CLR 22/20 A3000 RMK AO2 T02170202,K54J,2021-10-04T00:55:00Z,30.73,-86.15,21.7,20.2,0,0,,10.0,30.0,,,TRUE,TRUE,,,,,,,CLR,,,,,,,,VFR,,,,,,,,,,,,METAR,87.0
K4V0 040055Z AUTO 00000KT 10SM CLR 18/03 A3020 RMK AO2 T01830027,K4V0,2021-10-04T00:55:00Z,40.1,-108.77,18.3,2.7,0,0,,10.0,30.200787,,,TRUE,TRUE,,,,,,,CLR,,,,,,,,VFR,,,,,,,,,,,,METAR,1602.0
K4S2 040055Z AUTO 32012G18KT 10SM CLR 19/11 A2998 RMK AO2,K4S2,2021-10-04T00:55:00Z,45.68,-121.55,19.0,11.0,320,12,18,10.0,29.97933,,,TRUE,TRUE,,,,,,,CLR,,,,,,,,VFR,,,,,,,,,,,,METAR,183.0
K4S1 040055Z AUTO 35008G15KT 4SM HZ CLR 15/11 A2994 RMK AO2,K4S1,2021-10-04T00:55:00Z,42.42,-124.42,15.0,11.0,350,8,15,4.0,29.940945,,,TRUE,TRUE,,,,,,HZ,CLR,,,,,,,,MVFR,,,,,,,,,,,,METAR,7.0
K4R5 040055Z AUTO 06003KT 7SM OVC004 13/13 A2998 RMK AO2 T01340131,K4R5,2021-10-04T00:55:00Z,46.78,-90.77,13.4,13.1,60,3,,7.0,29.97933,,,TRUE,TRUE,,,,,,,OVC,400,,,,,,,LIFR,,,,,,,,,,,,METAR,195.0
K4O4 040055Z AUTO 00000KT 10SM CLR 21/17 A2998 RMK AO2,K4O4,2021-10-04T00:55:00Z,33.92,-94.87,21.0,17.0,0,0,,10.0,29.97933,,,TRUE,TRUE,,,,,,,CLR,,,,,,,,VFR,,,,,,,,,,,,METAR,148.0
K4M9 040055Z AUTO 28006KT 10SM CLR 21/20 A2995 RMK AO2 PWINO,K4M9,2021-10-04T00:55:00Z,36.4,-90.65,21.0,20.0,280,6,,10.0,29.949802,,,TRUE,TRUE,,,,,TRUE,,CLR,,,,,,,,VFR,,,,,,,,,,,,METAR,86.0
K4I3 040055Z AUTO 18003KT 3SM BR 18/18 A2991 RMK AO2 SKY OBSCURED,K4I3,2021-10-04T00:55:00Z,40.33,-82.53,18.0,18.0,180,3,,3.0,29.911417,,,TRUE,TRUE,,,,,,BR,,,,,,,,,,,,,,,,,,,,,METAR,361.0
K4F2 040055Z AUTO 00000KT 10SM CLR 22/19 A2996 RMK AO2 T02190187,K4F2,2021-10-04T00:55:00Z,32.18,-94.3,21.9,18.7,0,0,,10.0,29.958662,,,TRUE,TRUE,,,,,,,CLR,,,,,,,,VFR,,,,,,,,,,,,METAR,76.0
K4BM 040055Z AUTO 30004KT 10SM SCT065 SCT080 08/M07 A3057 RMK AO2,K4BM,2021-10-04T00:55:00Z,39.05,-105.52,8.0,-7.0,300,4,,10.0,30.569881,,,TRUE,TRUE,,,,,,,SCT,6500,SCT,8000,,,,,VFR,,,,,,,,,,,,METAR,3432.0
K4A9 040055Z AUTO 00000KT 7SM SCT046 SCT075 OVC080 20/19 A3000 RMK AO2 LTG DSNT W T01980193,K4A9,2021-10-04T00:55:00Z,34.47,-85.72,19.8,19.3,0,0,,7.0,30.0,,,TRUE,TRUE,,,,,,,SCT,4600,SCT,7500,OVC,8000,,,VFR,,,,,,,,,,,,METAR,273.0
K4A6 040055Z AUTO 00000KT 8SM BKN013 BKN031 OVC100 21/21 A2999 RMK AO2 P0001,K4A6,2021-10-04T00:55:00Z,34.68,-86.0,21.0,21.0,0,0,,8.0,29.991142,,,TRUE,TRUE,,,,,,,BKN,1300,BKN,3100,OVC,10000,,,MVFR,,,,,,0.01,,,,,,METAR,191.0
K49A 040055Z AUTO 00000KT 10SM SCT043 BKN060 OVC080 19/18 A3008 RMK AO2 T01880180,K49A,2021-10-04T00:55:00Z,34.63,-84.53,18.8,18.0,0,0,,10.0,30.079725,,,TRUE,TRUE,,,,,,,SCT,4300,BKN,6000,OVC,8000,,,VFR,,,,,,,,,,,,METAR,449.0
K48A 040055Z AUTO 24005KT 10SM CLR 23/21 A3002 RMK AO2 LTG DSNT NW T02270210,K48A,2021-10-04T00:55:00Z,32.4,-83.27,22.7,21.0,240,5,,10.0,30.02067,,,TRUE,TRUE,,,,,,,CLR,,,,,,,,VFR,,,,,,,,,,,,METAR,115.0
K46D 040055Z AUTO 19007KT 10SM CLR 16/10 A2994 RMK AO2,K46D,2021-10-04T00:55:00Z,47.45,-99.15,16.0,10.0,190,7,,10.0,29.940945,,,TRUE,TRUE,,,,,,,CLR,,,,,,,,VFR,,,,,,,,,,,,METAR,488.0
K42J 040055Z AUTO 00000KT 10SM FEW048 BKN055 23/21 A3001 RMK A01,K42J,2021-10-04T00:55:00Z,29.85,-82.05,23.0,21.0,0,0,,10.0,30.008858,,,TRUE,TRUE,,,,,,,FEW,4800,BKN,5500,,,,,VFR,,,,,,,,,,,,METAR,57.0
K41U 040055Z AUTO 00000KT 10SM OVC100 22/M01 A3020 RMK AO1 T02171006 PNO,K41U,2021-10-04T00:55:00Z,39.33,-111.6,21.7,-0.6,0,0,,10.0,30.200787,,,TRUE,TRUE,,,,,,,OVC,10000,,,,,,,VFR,,,,,,,,,,,,METAR,1676.0
K3T5 040055Z AUTO 00000KT 5SM HZ CLR 25/21 A2995 RMK AO2 T02500208,K3T5,2021-10-04T00:55:00Z,29.9,-96.95,25.0,20.8,0,0,,5.0,29.949802,,,TRUE,TRUE,,,,,,HZ,CLR,,,,,,,,MVFR,,,,,,,,,,,,METAR,96.0
K3R7 040055Z AUTO 00000KT 10SM CLR 26/25 A2994 RMK AO2 T02570246,K3R7,2021-10-04T00:55:00Z,30.25,-92.67,25.7,24.6,0,0,,10.0,29.940945,,,TRUE,TRUE,,,,,,,CLR,,,,,,,,VFR,,,,,,,,,,,,METAR,5.0
K3N8 040055Z AUTO 21003KT 10SM CLR 16/06 A2997 RMK AO2 T01630060,K3N8,2021-10-04T00:55:00Z,47.25,-95.92,16.3,6.0,210,3,,10.0,29.970472,,,TRUE,TRUE,,,,,,,CLR,,,,,,,,VFR,,,,,,,,,,,,METAR,379.0
K3LF 040055Z AUTO 26006KT 10SM OVC075 19/18 A2992 RMK AO2 T01920178,K3LF,2021-10-04T00:55:00Z,39.17,-89.67,19.2,17.8,260,6,,10.0,29.920275,,,TRUE,TRUE,,,,,,,OVC,7500,,,,,,,VFR,,,,,,,,,,,,METAR,207.0
K3K3 040055Z AUTO 00000KT 10SM CLR 17/08 A3011 RMK AO2,K3K3,2021-10-04T00:55:00Z,38.0,-101.75,17.0,8.0,0,0,,10.0,30.109253,,,TRUE,TRUE,,,,,,,CLR,,,,,,,,VFR,,,,,,,,,,,,METAR,1010.0
K3J7 040055Z AUTO 00000KT 10SM CLR 22/20 A3002 RMK AO2,K3J7,2021-10-04T00:55:00Z,33.6,-83.13,22.0,20.0,0,0,,10.0,30.02067,,,TRUE,TRUE,,,,,,,CLR,,,,,,,,VFR,,,,,,,,,,,,METAR,207.0
K3I2 040055Z AUTO 19005KT 10SM SCT010 BKN014 20/20 A2994 RMK AO2 T01970197,K3I2,2021-10-04T00:55:00Z,38.92,-82.1,19.7,19.7,190,5,,10.0,29.940945,,,TRUE,TRUE,,,,,,,SCT,1000,BKN,1400,,,,,MVFR,,,,,,,,,,,,METAR,195.0
K3F3 040055Z AUTO 00000KT 10SM CLR 23/19 A2999 RMK AO2 T02290190,K3F3,2021-10-04T00:55:00Z,32.07,-93.77,22.9,19.0,0,0,,10.0,29.991142,,,TRUE,TRUE,,,,,,,CLR,,,,,,,,VFR,,,,,,,,,,,,METAR,96.0
K3D2 040055Z AUTO 00000KT 5SM RA OVC005 17/17 A2986 RMK AO2 P0002 T01680167,K3D2,2021-10-04T00:55:00Z,45.13,-87.18,16.8,16.7,0,0,,5.0,29.861221,,,TRUE,TRUE,,,,,,RA,OVC,500,,,,,,,IFR,,,,,,0.02,,,,,,METAR,233.0
K35A 040055Z AUTO 00000KT 10SM CLR 22/19 A3006 RMK A02 LTG DSNT N T02160189,K35A,2021-10-04T00:55:00Z,34.68,-81.63,21.6,18.9,0,0,,10.0,30.059055,,,TRUE,TRUE,,,,,,,CLR,,,,,,,,VFR,,,,,,,,,,,,METAR,186.0
K33V 040055Z AUTO 24005KT 10SM CLR 12/M01 A3038 RMK AO2 T01241014,K33V,2021-10-04T00:55:00Z,40.75,-106.28,12.4,-1.4,240,5,,10.0,30.380905,,,TRUE,TRUE,,,,,,,CLR,,,,,,,,VFR,,,,,,,,,,,,METAR,2486.0
K2W6 040055Z AUTO 19003KT 10SM CLR 22/17 A2996 RMK AO1,K2W6,2021-10-04T00:55:00Z,38.32,-76.55,22.0,17.0,190,3,,10.0,29.958662,,,TRUE,TRUE,,,,,,,CLR,,,,,,,,VFR,,,,,,,,,,,,METAR,40.0
K2V5 040055Z AUTO 04008KT 10SM CLR 21/M04 A3008 RMK AO2,K2V5,2021-10-04T00:55:00Z,40.1,-102.25,21.0,-4.0,40,8,,10.0,30.079725,,,TRUE,TRUE,,,,,,,CLR,,,,,,,,VFR,,,,,,,,,,,,METAR,1117.0
K2R9 040055Z AUTO 06003KT 10SM CLR 28/19 A2997 RMK AO2 T02770187,K2R9,2021-10-04T00:55:00Z,28.82,-97.87,27.7,18.7,60,3,,10.0,29.970472,,,TRUE,TRUE,,,,,,,CLR,,,,,,,,VFR,,,,,,,,,,,,METAR,88.0
K2P2 040055Z AUTO 06005KT 3SM +RA SCT005 BKN026 OVC034 17/17 A2986 RMK AO2 P0116 T01670167,K2P2,2021-10-04T00:55:00Z,45.38,-86.92,16.7,16.7,60,5,,3.0,29.861221,,,TRUE,TRUE,,,,,,+RA,SCT,500,BKN,2600,OVC,3400,,,MVFR,,,,,,1.16,,,,,,METAR,182.0
K2J9 040055Z AUTO 11003KT 10SM FEW041 FEW110 22/22 A3002 RMK AO2,K2J9,2021-10-04T00:55:00Z,30.6,-84.55,22.0,22.0,110,3,,10.0,30.02067,,,TRUE,TRUE,,,,,,,FEW,4100,FEW,11000,,,,,VFR,,,,,,,,,,,,METAR,62.0
K2J5 040055Z AUTO 10SM 22/20 A3002 RMK AO2 T02250195,K2J5,2021-10-04T00:55:00Z,32.9,-81.97,22.5,19.5,,,,10.0,30.02067,,,TRUE,TRUE,,,,,,,,,,,,,,,,,,,,,,,,,,,METAR,72.0
K2J3 040055Z AUTO 00000KT 10SM CLR 23/21 A3002 RMK AO2 T02290215,K2J3,2021-10-04T00:55:00Z,32.98,-82.38,22.9,21.5,0,0,,10.0,30.02067,,,TRUE,TRUE,,,,,,,CLR,,,,,,,,VFR,,,,,,,,,,,,METAR,97.0
K2IS 040055Z AUTO 09005KT 10SM CLR 24/20 A3000 RMK AO2 T02380202,K2IS,2021-10-04T00:55:00Z,26.73,-81.05,23.8,20.2,90,5,,10.0,30.0,,,TRUE,TRUE,,,,,,,CLR,,,,,,,,VFR,,,,,,,,,,,,METAR,5.0
K2I0 040055Z AUTO 00000KT 10SM OVC095 21/17 A2991 RMK AO2 T02100171,K2I0,2021-10-04T00:55:00Z,37.35,-87.4,21.0,17.1,0,0,,10.0,29.911417,,,TRUE,TRUE,,,,,,,OVC,9500,,,,,,,VFR,,,,,,,,,,,,METAR,127.0
K2G9 040055Z AUTO 24006KT 7SM RA BKN022 BKN028 OVC060 17/16 A2998 RMK AO2,K2G9,2021-10-04T00:55:00Z,40.03,-79.02,17.0,16.0,240,6,,7.0,29.97933,,,TRUE,TRUE,,,,,,RA,BKN,2200,BKN,2800,OVC,6000,,,MVFR,,,,,,,,,,,,METAR,677.0
K2G4 040055Z AUTO 23005KT 10SM SCT065 16/16 A3001 RMK AO1,K2G4,2021-10-04T00:55:00Z,39.58,-79.33,16.0,16.0,230,5,,10.0,30.008858,,,TRUE,TRUE,,,,,,,SCT,6500,,,,,,,VFR,,,,,,,,,,,,METAR,908.0
K2D5 040055Z AUTO 21006KT 10SM CLR 18/06 A2998 RMK AO2,K2D5,2021-10-04T00:55:00Z,46.17,-98.08,18.0,6.0,210,6,,10.0,29.97933,,,TRUE,TRUE,,,,,,,CLR,,,,,,,,VFR,,,,,,,,,,,,METAR,407.0
K2C8 040055Z AUTO 15006KT 10SM FEW034 FEW041 BKN050 20/06 A2988 RMK AO2,K2C8,2021-10-04T00:55:00Z,48.78,-97.63,20.0,6.0,150,6,,10.0,29.878937,,,TRUE,TRUE,,,,,,,FEW,3400,FEW,4100,BKN,5000,,,VFR,,,,,,,,,,,,SPECI,271.0
K28J 040055Z AUTO 11005KT 10SM BKN075 22/17 A3001 RMK AO2,K28J,2021-10-04T00:55:00Z,29.65,-81.68,22.0,17.0,110,5,,10.0,30.008858,,,TRUE,TRUE,,,,,,,BKN,7500,,,,,,,VFR,,,,,,,,,,,,METAR,9.0
K27K 040055Z AUTO 18003KT 10SM SCT011 SCT060 OVC080 18/18 A2992 RMK AO1,K27K,2021-10-04T00:55:00Z,38.23,-84.43,18.0,18.0,180,3,,10.0,29.920275,,,TRUE,TRUE,,,,,,,SCT,1100,SCT,6000,OVC,8000,,,VFR,,,,,,,,,,,,METAR,283.0
K24J 040055Z AUTO 00000KT 10SM CLR 24/23 A3001 RMK A01,K24J,2021-10-04T00:55:00Z,30.3,-83.03,24.0,23.0,0,0,,10.0,30.008858,,,TRUE,TRUE,,,,,,,CLR,,,,,,,,VFR,,,,,,,,,,,,METAR,30.0
K24A 040055Z AUTO 12004KT 7SM -RA BR SCT021 BKN035 OVC070 16/16 A3011 RMK AO2 LTG DSNT NW P0002 T01620160,K24A,2021-10-04T00:55:00Z,35.32,-83.2,16.2,16.0,120,4,,7.0,30.109253,,,TRUE,TRUE,,,,,,-RA BR,SCT,2100,BKN,3500,OVC,7000,,,VFR,,,,,,0.02,,,,,,METAR,864.0
K22N 040055Z AUTO 00000KT 7SM BKN048 BKN070 18/17 A2993 RMK AO2,K22N,2021-10-04T00:55:00Z,40.8,-75.77,18.0,17.0,0,0,,7.0,29.929134,,,TRUE,TRUE,,,,,,,BKN,4800,BKN,7000,,,,,VFR,,,,,,,,,,,,METAR,159.0
K21D 040055Z AUTO 00000KT 10SM CLR 14/13 A2997 RMK AO2,K21D,2021-10-04T00:55:00Z,45.0,-92.85,14.0,13.0,0,0,,10.0,29.970472,,,TRUE,TRUE,,,,,,,CLR,,,,,,,,VFR,,,,,,,,,,,,METAR,281.0
K20V 040055Z AUTO 35003KT 10SM BKN095 15/00 A3033 RMK AO2,K20V,2021-10-04T00:55:00Z,40.05,-106.37,15.0,0.0,350,3,,10.0,30.33071,,,TRUE,TRUE,,,,,,,BKN,9500,,,,,,,VFR,,,,,,,,,,,,METAR,2259.0
K20U 040055Z AUTO 26005KT 9SM CLR 18/M06 A3001 RMK AO2,K20U,2021-10-04T00:55:00Z,46.93,-103.98,18.0,-6.0,260,5,,9.0,30.008858,,,TRUE,TRUE,,,,,,,CLR,,,,,,,,VFR,,,,,,,,,,,,METAR,839.0
K1V6 040055Z AUTO 09007KT 10SM CLR 22/01 A3016 RMK AO2,K1V6,2021-10-04T00:55:00Z,38.43,-105.1,22.0,1.0,90,7,,10.0,30.159449,,,TRUE,TRUE,,,,,,,CLR,,,,,,,,VFR,,,,,,,,,,,,METAR,1658.0
K1S5 040055Z AUTO 00000KT 10SM CLR 23/06 A2996 RMK AO2 T02300056,K1S5,2021-10-04T00:55:00Z,46.33,-119.97,23.0,5.6,0,0,,10.0,29.958662,,,TRUE,TRUE,,,,,,,CLR,,,,,,,,VFR,,,,,,,,,,,,SPECI,228.0
K1R8 040055Z AUTO 00000KT 10SM FEW033 FEW042 BKN070 23/22 A2998 RMK AO2,K1R8,2021-10-04T00:55:00Z,,,23.0,22.0,0,0,,10.0,29.97933,,,TRUE,TRUE,,,,,,,FEW,3300,FEW,4200,BKN,7000,,,VFR,,,,,,,,,,,,METAR,
K1R7 040055Z AUTO 00000KT 10SM BKN029 BKN037 OVC047 24/24 A2998 RMK AO2 PWINO,K1R7,2021-10-04T00:55:00Z,31.6,-90.42,24.0,24.0,0,0,,10.0,29.97933,,,TRUE,TRUE,,,,,TRUE,,BKN,2900,BKN,3700,OVC,4700,,,MVFR,,,,,,,,,,,,METAR,142.0
K1P1 040055Z AUTO 00000KT 2 1/2SM BR OVC006 13/12 A3002 RMK AO2 T01250117,K1P1,2021-10-04T00:55:00Z,43.78,-71.75,12.5,11.7,0,0,,2.5,30.02067,,,TRUE,TRUE,,,,,,BR,OVC,600,,,,,,,IFR,,,,,,,,,,,,METAR,155.0
K1K1 040055Z AUTO 27007KT 10SM CLR 19/11 A3003 RMK AO2 T01850108,K1K1,2021-10-04T00:55:00Z,37.77,-97.12,18.5,10.8,270,7,,10.0,30.029528,,,TRUE,TRUE,,,,,,,CLR,,,,,,,,VFR,,,,,,,,,,,,METAR,411.0
K1H2 040055Z AUTO 23003KT 10SM SCT031 BKN050 20/18 A2991 RMK AO2 T01970175,K1H2,2021-10-04T00:55:00Z,39.07,-88.53,19.7,17.5,230,3,,10.0,29.911417,,,TRUE,TRUE,,,,,,,SCT,3100,BKN,5000,,,,,VFR,,,,,,,,,,,,METAR,174.0
K1F0 040055Z AUTO 33004KT 10SM CLR 22/13 A3002 RMK AO2 T02150128,K1F0,2021-10-04T00:55:00Z,34.15,-97.12,21.5,12.8,330,4,,10.0,30.02067,,,TRUE,TRUE,,,,,,,CLR,,,,,,,,VFR,,,,,,,,,,,,METAR,256.0
K1A9 040055Z AUTO 00000KT 7SM SCT090 22/22 A2998 RMK AO2 T02150215,K1A9,2021-10-04T00:55:00Z,32.43,-86.52,21.5,21.5,0,0,,7.0,29.97933,,,TRUE,TRUE,,,,,,,SCT,9000,,,,,,,VFR,,,,,,,,,,,,METAR,65.0
K1A6 040055Z AUTO 18003KT 10SM -RA OVC011 19/19 A3001 RMK AO2 T01860186,K1A6,2021-10-04T00:55:00Z,36.62,-83.73,18.6,18.6,180,3,,10.0,30.008858,,,TRUE,TRUE,,,,,,-RA,OVC,1100,,,,,,,MVFR,,,,,,,,,,,,METAR,348.0
K18H 040055Z AUTO 10SM CLR 28/23 A2994 RMK A01,K18H,2021-10-04T00:55:00Z,26.13,-92.03,28.0,23.0,,,,10.0,29.940945,,,TRUE,TRUE,,,,,,,CLR,,,,,,,,VFR,,,,,,,,,,,,METAR,30.0
K14Y 040055Z AUTO 00000KT 10SM CLR 15/10 A2998 RMK AO2,K14Y,2021-10-04T00:55:00Z,45.9,-94.87,15.0,10.0,0,0,,10.0,29.97933,,,TRUE,TRUE,,,,,,,CLR,,,,,,,,VFR,,,,,,,,,,,,METAR,404.0
K13K 040055Z AUTO 28007KT 10SM CLR 19/12 A3001 RMK AO2 T01890116,K13K,2021-10-04T00:55:00Z,37.85,-96.3,18.9,11.6,280,7,,10.0,30.008858,,,TRUE,TRUE,,,,,,,CLR,,,,,,,,VFR,,,,,,,,,,,,METAR,367.0
K11R 040055Z AUTO 00000KT 10SM CLR 25/19 A2997 RMK AO2 T02540194,K11R,2021-10-04T00:55:00Z,30.22,-96.37,25.4,19.4,0,0,,10.0,29.970472,,,TRUE,TRUE,,,,,,,CLR,,,,,,,,VFR,,,,,,,,,,,,METAR,87.0
K0VG 040055Z AUTO 00000KT 10SM BKN019 BKN033 OVC047 17/17 A3003 RMK AO2,K0VG,2021-10-04T00:55:00Z,36.65,-83.22,17.0,17.0,0,0,,10.0,30.029528,,,TRUE,TRUE,,,,,,,BKN,1900,BKN,3300,OVC,4700,,,MVFR,,,,,,,,,,,,METAR,426.0
K0S9 040055Z AUTO 34004KT 10SM OVC041 13/06 A3011 RMK AO2,K0S9,2021-10-04T00:55:00Z,48.05,-122.82,13.0,6.0,340,4,,10.0,30.109253,,,TRUE,TRUE,,,,,,,OVC,4100,,,,,,,VFR,,,,,,,,,,,,METAR,33.0
K0R4 040055Z AUTO 00000KT 10SM BKN110 23/22 A2995 RMK AO2 T02340221,K0R4,2021-10-04T00:55:00Z,31.57,-91.5,23.4,22.1,0,0,,10.0,29.949802,,,TRUE,TRUE,,,,,,,BKN,11000,,,,,,,VFR,,,,,,,,,,,,METAR,16.0
K0F2 040055Z AUTO 10SM CLR 20/15 A3003 RMK AO2 T02000154,K0F2,2021-10-04T00:55:00Z,33.6,-97.78,20.0,15.4,,,,10.0,30.029528,,,TRUE,TRUE,,,,,,,CLR,,,,,,,,VFR,,,,,,,,,,,,METAR,330.0
K0E0 040055Z AUTO 26005KT 10SM CLR 17/06 A3029 RMK AO2 T01730059 TSNO,K0E0,2021-10-04T00:55:00Z,34.98,-106.0,17.3,5.9,260,5,,10.0,30.28937,,,TRUE,TRUE,,,TRUE,,,,CLR,,,,,,,,VFR,,,,,,,,,,,,METAR,1887.0
K0CO 040055Z AUTO 29008KT 10SM CLR 02/M07 A3061 RMK AO2,K0CO,2021-10-04T00:55:00Z,39.8,-105.77,2.0,-7.0,290,8,,10.0,30.611221,,,TRUE,TRUE,,,,,,,CLR,,,,,,,,VFR,,,,,,,,,,,,METAR,3804.0
K08D 040055Z AUTO 27009KT 10SM CLR 16/M02 A2995 RMK AO2,K08D,2021-10-04T00:55:00Z,48.3,-102.4,16.0,-2.0,270,9,,10.0,29.949802,,,TRUE,TRUE,,,,,,,CLR,,,,,,,,VFR,,,,,,,,,,,,METAR,683.0
K06D 040055Z AUTO 26004KT 10SM CLR 15/03 A2991 RMK AO2,K06D,2021-10-04T00:55:00Z,48.88,-99.62,15.0,3.0,260,4,,10.0,29.911417,,,TRUE,TRUE,,,,,,,CLR,,,,,,,,VFR,,,,,,,,,,,,METAR,554.0
K06C 040055Z AUTO 00000KT 7SM BKN090 20/19 A2983 RMK AO2 P0002 T01960185,K06C,2021-10-04T00:55:00Z,41.98,-88.1,19.6,18.5,0,0,,7.0,29.828741,,,TRUE,TRUE,,,,,,,BKN,9000,,,,,,,VFR,,,,,,0.02,,,,,,METAR,243.0
K04W 040055Z AUTO 00000KT 10SM CLR 12/12 A2997 RMK AO2,K04W,2021-10-04T00:55:00Z,46.02,-92.9,12.0,12.0,0,0,,10.0,29.970472,,,TRUE,TRUE,,,,,,,CLR,,,,,,,,VFR,,,,,,,,,,,,METAR,310.0
K04V 040055Z AUTO 00000KT 10SM CLR 15/01 A3034 RMK AO2,K04V,2021-10-04T00:55:00Z,38.1,-106.17,15.0,1.0,0,0,,10.0,30.339567,,,TRUE,TRUE,,,,,,,CLR,,,,,,,,VFR,,,,,,,,,,,,METAR,2389.0
FJDG 040055Z 13013KT 9999 FEW017 SCT045 BKN080 26/25 A2971 RMK SLP058 P0002 T02610254,FJDG,2021-10-04T00:55:00Z,-7.32,72.42,26.1,25.4,130,13,,6.21,29.71063,1005.8,,,,,,,,,,FEW,1700,SCT,4500,BKN,8000,,,VFR,,,,,,0.02,,,,,,METAR,3.0
EHWO 040055Z AUTO 22009KT 180V250 9999 OVC240 13/09 Q1011 BLU,EHWO,2021-10-04T00:55:00Z,51.45,4.33,13.0,9.0,220,9,,6.21,29.852362,,,TRUE,,,,,,,,OVC,24000,,,,,,,VFR,,,,,,,,,,,,METAR,15.0
EHVK 040055Z AUTO 19010KT 160V230 9999 OVC200 11/10 Q1012 BLU,EHVK,2021-10-04T00:55:00Z,51.65,5.7,11.0,10.0,190,10,,6.21,29.88189,,,TRUE,,,,,,,,OVC,20000,,,,,,,VFR,,,,,,,,,,,,METAR,20.0
EHSC 040055Z AUTO 22031KT 9999 ///////// 15/11 Q1009 W17/H20,EHSC,2021-10-04T00:55:00Z,51.93,3.67,15.0,11.0,220,31,,6.21,29.793306,,,TRUE,,,,,,,,,,,,,,,,,,,,,,,,,,,,METAR,19.0
EHSA 040055Z AUTO 20031KT 9999 ///////// 15/12 Q1009 W17/H20,EHSA,2021-10-04T00:55:00Z,52.0,3.28,15.0,12.0,200,31,,6.21,29.793306,,,TRUE,,,,,,,,,,,,,,,,,,,,,,,,,,,,METAR,18.0
EHRD 040055Z AUTO 21017KT 180V240 9999 NSC 13/10 Q1010 NOSIG,EHRD,2021-10-04T00:55:00Z,51.95,4.45,13.0,10.0,210,17,,6.21,29.822834,,,TRUE,,,TRUE,,,,,CLR,,,,,,,,VFR,,,,,,,,,,,,METAR,-4.0
EHQE 040055Z AUTO 23023KT 9999 FEW019 SCT023 BKN035 16/10 Q1007,EHQE,2021-10-04T00:55:00Z,52.92,4.15,16.0,10.0,230,23,,6.21,29.734253,,,TRUE,,,,,,,,FEW,1900,SCT,2300,BKN,3500,,,VFR,,,,,,,,,,,,METAR,41.0
EHPG 040055Z AUTO 23027KT 9999 SCT018 SCT029 16/11 Q1008,EHPG,2021-10-04T00:55:00Z,52.37,3.35,16.0,11.0,230,27,,6.21,29.763779,,,TRUE,,,,,,,,SCT,1800,SCT,2900,,,,,VFR,,,,,,,,,,,,METAR,24.0
EHMG 040055Z AUTO 23022KT 9999 RA FEW021 SCT027 16/10 Q1008,EHMG,2021-10-04T00:55:00Z,53.62,4.97,16.0,10.0,230,22,,6.21,29.763779,,,TRUE,,,,,,,RA,FEW,2100,SCT,2700,,,,,VFR,,,,,,,,,,,,METAR,30.0
EHMA 040055Z AUTO 21024KT 160V240 9999 NSC 13/11 Q1008,EHMA,2021-10-04T00:55:00Z,53.5,5.95,13.0,11.0,210,24,,6.21,29.763779,,,TRUE,,,,,,,,CLR,,,,,,,,VFR,,,,,,,,,,,,METAR,27.0
EHLW 040055Z AUTO 20011KT 160V230 9999 OVC250 12/11 Q1008 BLU,EHLW,2021-10-04T00:55:00Z,53.22,5.75,12.0,11.0,200,11,,6.21,29.763779,,,TRUE,,,,,,,,OVC,25000,,,,,,,VFR,,,,,,,,,,,,METAR,1.0
EHLE 040055Z AUTO 20010KT 9999 NSC 12/09 Q1010,EHLE,2021-10-04T00:55:00Z,52.45,5.52,12.0,9.0,200,10,,6.21,29.822834,,,TRUE,,,,,,,,CLR,,,,,,,,VFR,,,,,,,,,,,,METAR,-3.0
EHKV 040055Z AUTO 24025KT 9999 SCT019 SCT027 15/11 Q1006,EHKV,2021-10-04T00:55:00Z,53.27,3.63,15.0,11.0,240,25,,6.21,29.704725,,,TRUE,,,,,,,,SCT,1900,SCT,2700,,,,,VFR,,,,,,,,,,,,METAR,28.0
EHKD 040055Z AUTO 22016KT 180V240 9999 FEW015CB SCT017 BKN066 14/12 Q1008 WHT,EHKD,2021-10-04T00:55:00Z,52.92,4.77,14.0,12.0,220,16,,6.21,29.763779,,,TRUE,,,,,,,,FEW,1500,SCT,1700,BKN,6600,,,VFR,,,,,,,,,,,,METAR,1.0
EHJR 040055Z AUTO 23025KT //// // ///////// 15/11 Q//// RE// W17/H22,EHJR,2021-10-04T00:55:00Z,53.22,3.22,15.0,11.0,230,25,,,,,,TRUE,,,,,,,,,,,,,,,,,,,,,,,,,,,,METAR,31.0
EHJA 040055Z AUTO /////KT 9999 FEW015/// 14/11 Q1004,EHJA,2021-10-04T00:55:00Z,53.82,2.95,14.0,11.0,,,,6.21,29.64567,,,TRUE,,,,,,,,FEW,1500,,,,,,,VFR,,,,,,,,,,,,METAR,34.0
EHHW 040055Z AUTO 22025KT 9999 FEW009/// SCT017/// BKN030/// 14/12 Q1008,EHHW,2021-10-04T00:55:00Z,54.03,6.03,14.0,12.0,220,25,,6.21,29.763779,,,TRUE,,,,,,,,FEW,900,SCT,1700,BKN,3000,,,MVFR,,,,,,,,,,,,METAR,10.0
EHGR 040055Z AUTO 20007KT 160V260 9999 OVC220 12/09 Q1011 BLU,EHGR,2021-10-04T00:55:00Z,51.55,4.93,12.0,9.0,200,7,,6.21,29.852362,,,TRUE,,,,,,,,OVC,22000,,,,,,,VFR,,,,,,,,,,,,METAR,12.0
EHGG 040055Z AUTO 20011KT 9999 NSC 11/10 Q1009,EHGG,2021-10-04T00:55:00Z,53.12,6.57,11.0,10.0,200,11,,6.21,29.793306,,,TRUE,,,,,,,,CLR,,,,,,,,VFR,,,,,,,,,,,,METAR,2.0
EHFS 040055Z AUTO 20020KT 9999 NSC 13/10 Q1010,EHFS,2021-10-04T00:55:00Z,51.45,3.6,13.0,10.0,200,20,,6.21,29.822834,,,TRUE,,,,,,,,CLR,,,,,,,,VFR,,,,,,,,,,,,METAR,1.0
EHFD 040055Z AUTO 23025KT 9999 FEW016/// 15/11 Q1004,EHFD,2021-10-04T00:55:00Z,54.85,4.7,15.0,11.0,230,25,,6.21,29.64567,,,TRUE,,,,,,,,FEW,1600,,,,,,,VFR,,,,,,,,,,,,METAR,24.0
EHEH 040055Z AUTO 17008KT 9999 OVC200 11/09 Q1012 BLU,EHEH,2021-10-04T00:55:00Z,51.45,5.38,11.0,9.0,170,8,,6.21,29.88189,,,TRUE,,,,,,,,OVC,20000,,,,,,,VFR,,,,,,,,,,,,METAR,20.0
EHDV 040055Z AUTO 23022KT 9999 SCT016/// SCT032/// 15/10 Q1003,EHDV,2021-10-04T00:55:00Z,54.32,2.93,15.0,10.0,230,22,,6.21,29.616142,,,TRUE,,,,,,,,SCT,1600,SCT,3200,,,,,VFR,,,,,,,,,,,,METAR,36.0
EHDL 040055Z AUTO 19008KT 130V240 9999 OVC210 11/10 Q1011 BLU,EHDL,2021-10-04T00:55:00Z,52.07,5.88,11.0,10.0,190,8,,6.21,29.852362,,,TRUE,,,,,,,,OVC,21000,,,,,,,VFR,,,,,,,,,,,,METAR,49.0
EHBK 040055Z AUTO 19011KT 9999 NSC 12/09 Q1013,EHBK,2021-10-04T00:55:00Z,50.92,5.77,12.0,9.0,190,11,,6.21,29.911417,,,TRUE,,,,,,,,CLR,,,,,,,,VFR,,,,,,,,,,,,METAR,112.0
EHAM 040055Z 21015KT CAVOK 12/10 Q1009 NOSIG,EHAM,2021-10-04T00:55:00Z,52.32,4.78,12.0,10.0,210,15,,6.21,29.793306,,,,,,TRUE,,,,,CAVOK,,,,,,,,VFR,,,,,,,,,,,,METAR,-2.0
EHAK 040055Z AUTO 22029KT 9999 FEW023/// 15/10 Q1002,EHAK,2021-10-04T00:55:00Z,55.38,3.82,15.0,10.0,220,29,,6.21,29.586615,,,TRUE,,,,,,,,FEW,2300,,,,,,,VFR,,,,,,,,,,,,METAR,33.0
EBLB 040055Z AUTO 20003KT 9999 SCT006/// BKN140/// BKN210/// 08/08 Q1014 YLO,EBLB,2021-10-04T00:55:00Z,50.47,6.17,8.0,8.0,200,3,,6.21,29.940945,,,TRUE,,,,,,,,SCT,600,BKN,14000,BKN,21000,,,VFR,,,,,,,,,,,,METAR,563.0
EBFS 040055Z AUTO 20011KT 9999 BKN200/// 10/08 Q1013 BLU,EBFS,2021-10-04T00:55:00Z,50.23,4.65,10.0,8.0,200,11,,6.21,29.911417,,,TRUE,,,,,,,,BKN,20000,,,,,,,VFR,,,,,,,,,,,,METAR,276.0
EBFN 040055Z AUTO 19008KT 9999 FEW037/// SCT074/// 11/09 Q1011 BLU,EBFN,2021-10-04T00:55:00Z,51.08,2.65,11.0,9.0,190,8,,6.21,29.852362,,,TRUE,,,,,,,,FEW,3700,SCT,7400,,,,,VFR,,,,,,,,,,,,METAR,9.0
EBDT 040055Z AUTO 19008KT 9999 BKN230/// 11/09 Q1012 BLU,EBDT,2021-10-04T00:55:00Z,51.02,5.07,11.0,9.0,190,8,,6.21,29.88189,,,TRUE,,,,,,,,BKN,23000,,,,,,,VFR,,,,,,,,,,,,METAR,25.0
EBCV 040055Z AUTO 21011KT 9999 BKN240/// 12/09 Q1013 BLU,EBCV,2021-10-04T00:55:00Z,50.57,3.82,12.0,9.0,210,11,,6.21,29.911417,,,TRUE,,,,,,,,BKN,24000,,,,,,,VFR,,,,,,,,,,,,METAR,56.0
EBBL 040055Z AUTO 19005KT 9999 OVC210/// 11/09 Q1013 BLU,EBBL,2021-10-04T00:55:00Z,51.17,5.47,11.0,9.0,190,5,,6.21,29.911417,,,TRUE,,,,,,,,OVC,21000,,,,,,,VFR,,,,,,,,,,,,METAR,50.0
EBBE 040055Z AUTO 22010KT 9999 BKN210/// 11/09 Q1012 BLU,EBBE,2021-10-04T00:55:00Z,50.75,4.77,11.0,9.0,220,10,,6.21,29.88189,,,TRUE,,,,,,,,BKN,21000,,,,,,,VFR,,,,,,,,,,,,METAR,127.0
PTTP 040054Z 18003KT 12SM -SHRA BKN017TCU OVC120 27/22 A2973 RMK TCU ALQDS SLP066 T02700220,PTTP,2021-10-04T00:54:00Z,6.97,158.22,27.0,22.0,180,3,,12.0,29.731298,1006.6,,,,,,,,,-SHRA,BKN,1700,OVC,12000,,,,,MVFR,,,,,,,,,,,,METAR,36.0
PHOG 040054Z 04019G25KT 10SM FEW030 SCT055 29/19 A2985 RMK AO2 PK WND 05028/0004 SLP111 T02890189,PHOG,2021-10-04T00:54:00Z,20.9,-156.43,28.9,18.9,40,19,25,10.0,29.84941,1011.1,,,TRUE,,,,,,,FEW,3000,SCT,5500,,,,,VFR,,,,,,,,,,,,METAR,14.0
PHMK 040054Z 05011G23KT 10SM SCT045 BKN060 27/19 A2988 RMK AO2 SLP119 T02720194 $,PHMK,2021-10-04T00:54:00Z,21.15,-157.1,27.2,19.4,50,11,23,10.0,29.878937,1011.9,,,TRUE,TRUE,,,,,,SCT,4500,BKN,6000,,,,,VFR,,,,,,,,,,,,METAR,135.0
PGUM 040054Z COR 07018KT 10SM SCT020 SCT029 31/25 A2981 RMK AO2 SLP085 T03110250,PGUM,2021-10-04T00:54:00Z,13.48,144.8,31.1,25.0,70,18,,10.0,29.811024,1008.5,TRUE,,TRUE,,,,,,,SCT,2000,SCT,2900,,,,,VFR,,,,,,,,,,,,METAR,74.0
PGSN 040054Z 10004KT 8SM -RA FEW080 BKN100 OVC110 26/24 A2983 RMK AO2 SLP122 P0018 T02610244,PGSN,2021-10-04T00:54:00Z,15.12,145.72,26.1,24.4,100,4,,8.0,29.828741,1012.2,,,TRUE,,,,,,-RA,FEW,8000,BKN,10000,OVC,11000,,,VFR,,,,,,0.18,,,,,,METAR,65.0
PAKN 040054Z 34011KT 10SM FEW040 05/M05 A3014 RMK AO2 SLP206 T00501050,PAKN,2021-10-04T00:54:00Z,58.68,-156.65,5.0,-5.0,340,11,,10.0,30.138779,1020.6,,,TRUE,,,,,,,FEW,4000,,,,,,,VFR,,,,,,,,,,,,METAR,20.0
PAHN 040054Z AUTO 11006KT 10SM SCT017 OVC025 07/03 A2990 RMK AO2 SLP127 T00670033 TSNO,PAHN,2021-10-04T00:54:00Z,59.25,-135.52,6.7,3.3,110,6,,10.0,29.899607,1012.7,,TRUE,TRUE,,,TRUE,,,,SCT,1700,OVC,2500,,,,,MVFR,,,,,,,,,,,,METAR,15.0
MMQT 040054Z 06012KT 10SM SCT018 BKN090 BKN220 18/13 A3025 RMK 8/468,MMQT,2021-10-04T00:54:00Z,20.62,-100.18,18.0,13.0,60,12,,10.0,30.250984,,,,,,,,,,,SCT,1800,BKN,9000,BKN,22000,,,VFR,,,,,,,,,,,,METAR,1909.0
MMML 040054Z 00000KT 10SM BKN200 35/M03 A2982 RMK 8/008,MMML,2021-10-04T00:54:00Z,32.62,-115.23,35.0,-3.0,0,0,,10.0,29.819881,,,,,,,,,,,BKN,20000,,,,,,,VFR,,,,,,,,,,,,METAR,21.0
MMAS 040054Z 04006KT 9SM SCT100 19/13 A3020 RMK 8/030 HZY CU DSNT ALRD,MMAS,2021-10-04T00:54:00Z,21.7,-102.32,19.0,13.0,40,6,,9.0,30.200787,,,,,,,,,,,SCT,10000,,,,,,,VFR,,,,,,,,,,,,METAR,1866.0
KWLD 040054Z AUTO 00000KT 10SM CLR 19/12 A3003 RMK AO2 SLP165 T01890117,KWLD,2021-10-04T00:54:00Z,37.17,-97.03,18.9,11.7,0,0,,10.0,30.029528,1016.5,,TRUE,TRUE,,,,,,,CLR,,,,,,,,VFR,,,,,,,,,,,,METAR,351.0
KWAL 040054Z AUTO 20008KT 10SM CLR 23/21 A2997 RMK AO2 SLP146 T02280211,KWAL,2021-10-04T00:54:00Z,37.93,-75.47,22.8,21.1,200,8,,10.0,29.970472,1014.6,,TRUE,TRUE,,,,,,,CLR,,,,,,,,VFR,,,,,,,,,,,,METAR,10.0
KVTA 040054Z AUTO 21005KT 10SM CLR 21/18 A2989 RMK AO2 SLP117 T02060178,KVTA,2021-10-04T00:54:00Z,40.02,-82.47,20.6,17.8,210,5,,10.0,29.890747,1011.7,,TRUE,TRUE,,,,,,,CLR,,,,,,,,VFR,,,,,,,,,,,,METAR,268.0
KVSF 040054Z AUTO 00000KT 4SM -RA BR BKN009 BKN013 OVC038 15/14 A2998 RMK AO2 RAB17 SLP154 P0002 T01500144,KVSF,2021-10-04T00:54:00Z,43.35,-72.52,15.0,14.4,0,0,,4.0,29.97933,1015.4,,TRUE,TRUE,,,,,,-RA BR,BKN,900,BKN,1300,OVC,3800,,,IFR,,,,,,0.02,,,,,,METAR,176.0
KVAY 040054Z AUTO VRB03KT 10SM CLR 22/18 A2992 RMK AO2 SLP132 T02220183,KVAY,2021-10-04T00:54:00Z,39.93,-74.83,22.2,18.3,0,3,,10.0,29.920275,1013.2,,TRUE,TRUE,,,,,,,CLR,,,,,,,,VFR,,,,,,,,,,,,METAR,15.0
KUZA 040054Z AUTO 20003KT 10SM FEW060 FEW095 21/18 A3003 RMK AO2 SLP161 T02060178 $,KUZA,2021-10-04T00:54:00Z,34.98,-81.05,20.6,17.8,200,3,,10.0,30.029528,1016.1,,TRUE,TRUE,TRUE,,,,,,FEW,6000,FEW,9500,,,,,VFR,,,,,,,,,,,,METAR,198.0
KUIN 040054Z AUTO 25003KT 3SM HZ FEW055 19/17 A2991 RMK AO2 SLP125 T01940167,KUIN,2021-10-04T00:54:00Z,39.95,-91.2,19.4,16.7,250,3,,3.0,29.911417,1012.5,,TRUE,TRUE,,,,,,HZ,FEW,5500,,,,,,,MVFR,,,,,,,,,,,,METAR,233.0
KTQE 040054Z AUTO 30005KT 10SM CLR 15/09 A2999 RMK AO2 SLP152 T01500089,KTQE,2021-10-04T00:54:00Z,41.77,-96.18,15.0,8.9,300,5,,10.0,29.991142,1015.2,,TRUE,TRUE,,,,,,,CLR,,,,,,,,VFR,,,,,,,,,,,,METAR,312.0
KTAD 040054Z AUTO 17003KT 10SM CLR 19/04 A3022 RMK AO2 SLP182 T01890044,KTAD,2021-10-04T00:54:00Z,37.27,-104.33,18.9,4.4,170,3,,10.0,30.221457,1018.2,,TRUE,TRUE,,,,,,,CLR,,,,,,,,VFR,,,,,,,,,,,,METAR,1751.0
KSYR 040054Z 10006KT 9SM -DZ BKN004 OVC008 17/17 A2990 RMK AO2 RAE26DZB49 SLP120 P0000 T01670167,KSYR,2021-10-04T00:54:00Z,43.12,-76.1,16.7,16.7,100,6,,9.0,29.899607,1012.0,,,TRUE,,,,,,-DZ,BKN,400,OVC,800,,,,,LIFR,,,,,,0.005,,,,,,METAR,125.0
KSUS 040054Z 00000KT 10SM FEW047 SCT060 OVC080 20/18 A2992 RMK AO2 SLP127 T02000183,KSUS,2021-10-04T00:54:00Z,38.65,-90.65,20.0,18.3,0,0,,10.0,29.920275,1012.7,,,TRUE,,,,,,,FEW,4700,SCT,6000,OVC,8000,,,VFR,,,,,,,,,,,,METAR,140.0
KSME 040054Z AUTO 00000KT 10SM BKN100 18/13 A2997 RMK AO2 TSNO,KSME,2021-10-04T00:54:00Z,37.05,-84.62,18.0,13.0,0,0,,10.0,29.970472,,,TRUE,TRUE,,,TRUE,,,,BKN,10000,,,,,,,VFR,,,,,,,,,,,,METAR,279.0
KSLC 040054Z 34009KT 10SM FEW085 22/M01 A3013 RMK AO2 SLP171 T02171011,KSLC,2021-10-04T00:54:00Z,40.77,-111.97,21.7,-1.1,340,9,,10.0,30.129921,1017.1,,,TRUE,,,,,,,FEW,8500,,,,,,,VFR,,,,,,,,,,,,METAR,1286.0
KSJN 040054Z AUTO 33004KT 10SM FEW090 19/06 A3020 RMK AO2 SLP170 T01940061,KSJN,2021-10-04T00:54:00Z,34.52,-109.38,19.4,6.1,330,4,,10.0,30.200787,1017.0,,TRUE,TRUE,,,,,,,FEW,9000,,,,,,,VFR,,,,,,,,,,,,METAR,1747.0
KSET 040054Z AUTO 00000KT 10SM OVC080 21/18 A2991 RMK AO2 SLP127 T02060178 $,KSET,2021-10-04T00:54:00Z,38.93,-90.43,20.6,17.8,0,0,,10.0,29.911417,1012.7,,TRUE,TRUE,TRUE,,,,,,OVC,8000,,,,,,,VFR,,,,,,,,,,,,METAR,133.0
KSBY 040054Z 18005KT 10SM CLR 22/19 A2995 RMK AO2 SLP145 T02170194,KSBY,2021-10-04T00:54:00Z,38.33,-75.5,21.7,19.4,180,5,,10.0,29.949802,1014.5,,,TRUE,,,,,,,CLR,,,,,,,,VFR,,,,,,,,,,,,METAR,14.0
KSBN 040054Z 33004KT 9SM BKN120 18/17 A2983 RMK AO2 SLP098 T01830172 $,KSBN,2021-10-04T00:54:00Z,41.7,-86.32,18.3,17.2,330,4,,9.0,29.828741,1009.8,,,TRUE,TRUE,,,,,,BKN,12000,,,,,,,VFR,,,,,,,,,,,,METAR,236.0
KRST 040054Z 01006KT 10SM CLR 15/12 A2997 RMK AO2 SLP147 T01500122,KRST,2021-10-04T00:54:00Z,43.9,-92.5,15.0,12.2,10,6,,10.0,29.970472,1014.7,,,TRUE,,,,,,,CLR,,,,,,,,VFR,,,,,,,,,,,,METAR,398.0
KRSP 040054Z AUTO VRB06KT 4SM -RA BR SCT043 BKN050 OVC065 19/18 A2998 RMK AO2 RAB15 SLP147 T01940178 PNO $,KRSP,2021-10-04T00:54:00Z,39.65,-77.47,19.4,17.8,0,6,,4.0,29.97933,1014.7,,TRUE,TRUE,TRUE,,,,,-RA BR,SCT,4300,BKN,5000,OVC,6500,,,MVFR,,,,,,,,,,,,METAR,555.0
KROC 040054Z 00000KT 3SM -RA BR SCT016 BKN048 OVC065 18/18 A2988 RMK AO2 SLP118 P0008 T01830183,KROC,2021-10-04T00:54:00Z,43.12,-77.68,18.3,18.3,0,0,,3.0,29.878937,1011.8,,,TRUE,,,,,,-RA BR,SCT,1600,BKN,4800,OVC,6500,,,MVFR,,,,,,0.08,,,,,,METAR,166.0
KROA 040054Z 00000KT 7SM -RA FEW070 OVC085 20/19 A3003 RMK SLP158 P0014 T02000189,KROA,2021-10-04T00:54:00Z,37.32,-79.97,20.0,18.9,0,0,,7.0,30.029528,1015.8,,,,,,,,,-RA,FEW,7000,OVC,8500,,,,,VFR,,,,,,0.14,,,,,,METAR,349.0
KRKS 040054Z AUTO 24006KT 10SM CLR 16/M09 A3027 RMK AO2 SLP204 T01611089,KRKS,2021-10-04T00:54:00Z,41.6,-109.07,16.1,-8.9,240,6,,10.0,30.268702,1020.4,,TRUE,TRUE,,,,,,,CLR,,,,,,,,VFR,,,,,,,,,,,,METAR,2062.0
KRIC 040054Z 18005KT 10SM SCT180 BKN300 22/19 A2997 RMK AO2 SLP150 T02170189,KRIC,2021-10-04T00:54:00Z,37.52,-77.32,21.7,18.9,180,5,,10.0,29.970472,1015.0,,,TRUE,,,,,,,SCT,18000,BKN,30000,,,,,VFR,,,,,,,,,,,,METAR,51.0
KRFD 040054Z 33008KT 10SM FEW030 BKN060 OVC085 21/17 A2986 RMK AO2 RAE2355 SLP107 P0000 T02110172,KRFD,2021-10-04T00:54:00Z,42.2,-89.1,21.1,17.2,330,8,,10.0,29.861221,1010.7,,,TRUE,,,,,,,FEW,3000,BKN,6000,OVC,8500,,,VFR,,,,,,0.005,,,,,,METAR,222.0
KRDG 040054Z 00000KT 10SM OVC060 24/19 A2990 RMK AO2 SLP127 T02390189 $,KRDG,2021-10-04T00:54:00Z,40.37,-75.97,23.9,18.9,0,0,,10.0,29.899607,1012.7,,,TRUE,TRUE,,,,,,OVC,6000,,,,,,,VFR,,,,,,,,,,,,METAR,101.0
KRBL 040054Z AUTO 13007KT 10SM CLR 30/07 A2987 RMK AO2 SLP113 T03000067,KRBL,2021-10-04T00:54:00Z,40.15,-122.25,30.0,6.7,130,7,,10.0,29.870079,1011.3,,TRUE,TRUE,,,,,,,CLR,,,,,,,,VFR,,,,,,,,,,,,METAR,107.0
KPTW 040054Z AUTO 19003KT 6SM HZ SCT065 22/17 A2993 RMK AO2 SLP132 T02170172,KPTW,2021-10-04T00:54:00Z,40.23,-75.55,21.7,17.2,190,3,,6.0,29.929134,1013.2,,TRUE,TRUE,,,,,,HZ,SCT,6500,,,,,,,VFR,,,,,,,,,,,,METAR,88.0
KPNE 040054Z 21005KT 10SM CLR 23/18 A2993 RMK AO2 SLP136 T02330183,KPNE,2021-10-04T00:54:00Z,40.08,-75.02,23.3,18.3,210,5,,10.0,29.929134,1013.6,,,TRUE,,,,,,,CLR,,,,,,,,VFR,,,,,,,,,,,,METAR,32.0
KPLN 040054Z AUTO 09006KT 10SM OVC003 17/16 A2989 RMK AO2 SLP122 T01670161,KPLN,2021-10-04T00:54:00Z,45.57,-84.8,16.7,16.1,90,6,,10.0,29.890747,1012.2,,TRUE,TRUE,,,,,,,OVC,300,,,,,,,LIFR,,,,,,,,,,,,METAR,215.0
KPIA 040054Z 27005KT 10SM SCT042 OVC090 21/17 A2987 RMK AO2 SLP111 T02110172 $,KPIA,2021-10-04T00:54:00Z,40.67,-89.68,21.1,17.2,270,5,,10.0,29.870079,1011.1,,,TRUE,TRUE,,,,,,SCT,4200,OVC,9000,,,,,VFR,,,,,,,,,,,,METAR,200.0
KPHL 040054Z 00000KT 10SM FEW030 SCT250 23/18 A2992 RMK AO2 SLP132 T02280178,KPHL,2021-10-04T00:54:00Z,39.87,-75.23,22.8,17.8,0,0,,10.0,29.920275,1013.2,,,TRUE,,,,,,,FEW,3000,SCT,25000,,,,,VFR,,,,,,,,,,,,METAR,2.0
KPHF 040054Z 20006KT 10SM CLR 23/19 A2998 RMK AO2 SLP152 T02280189,KPHF,2021-10-04T00:54:00Z,37.13,-76.5,22.8,18.9,200,6,,10.0,29.97933,1015.2,,,TRUE,,,,,,,CLR,,,,,,,,VFR,,,,,,,,,,,,METAR,12.0
KORH 040054Z 07006KT 1SM R11/P6000FT -RA BR OVC003 15/14 A3000 RMK AO2 SLP157 P0004 T01500144,KORH,2021-10-04T00:54:00Z,42.27,-71.87,15.0,14.4,70,6,,1.0,30.0,1015.7,,,TRUE,,,,,,-RA BR,OVC,300,,,,,,,LIFR,,,,,,0.04,,,,,,METAR,306.0
KOLS 040054Z AUTO 18003KT 10SM CLR 26/02 A3006 RMK AO2 SLP127 T02610022,KOLS,2021-10-04T00:54:00Z,31.42,-110.85,26.1,2.2,180,3,,10.0,30.059055,1012.7,,TRUE,TRUE,,,,,,,CLR,,,,,,,,VFR,,,,,,,,,,,,METAR,1194.0
KOLM 040054Z 01007KT 10SM SCT013 OVC041 14/12 A3010 RMK AO2 SLP192 T01440117,KOLM,2021-10-04T00:54:00Z,46.97,-122.9,14.4,11.7,10,7,,10.0,30.100393,1019.2,,,TRUE,,,,,,,SCT,1300,OVC,4100,,,,,VFR,,,,,,,,,,,,METAR,58.0
KOFP 040054Z AUTO 19007KT 10SM CLR 24/17 A2997 RMK AO2 SLP146 T02440172,KOFP,2021-10-04T00:54:00Z,37.7,-77.43,24.4,17.2,190,7,,10.0,29.970472,1014.6,,TRUE,TRUE,,,,,,,CLR,,,,,,,,VFR,,,,,,,,,,,,METAR,63.0
KNY0 040054Z AUTO 00000KT 7SM BKN004 OVC008 14/14 A2996 RMK AO2 P0006,KNY0,2021-10-04T00:54:00Z,42.98,-74.33,14.0,14.0,0,0,,7.0,29.958662,,,TRUE,TRUE,,,,,,,BKN,400,OVC,800,,,,,LIFR,,,,,,0.06,,,,,,METAR,266.0
KNAK 040054Z AUTO 17006KT 8SM CLR 23/22 A2992 RMK AO2 SLP132 T02330217,KNAK,2021-10-04T00:54:00Z,38.98,-76.48,23.3,21.7,170,6,,8.0,29.920275,1013.2,,TRUE,TRUE,,,,,,,CLR,,,,,,,,VFR,,,,,,,,,,,,METAR,2.0
KMWN 040054Z 28011KT 0SM -RA FG VV000 06/06 RMK,KMWN,2021-10-04T00:54:00Z,44.27,-71.3,6.0,6.0,280,11,,0.0,,,,,,,,,,,-RA FG,OVX,0,,,,,,,LIFR,,,,,,,,,,,0,METAR,1911.0
KMTP 040054Z AUTO 00000KT 20/19 A2996 RMK AO1 SLP146 T02000189,KMTP,2021-10-04T00:54:00Z,41.07,-71.92,20.0,18.9,0,0,,,29.958662,1014.6,,TRUE,TRUE,,,,,,,,,,,,,,,,,,,,,,,,,,,METAR,2.0
KMRY 040054Z 02003KT 10SM CLR 25/09 A2991 RMK AO2 SLP137 T02500089,KMRY,2021-10-04T00:54:00Z,36.58,-121.85,25.0,8.9,20,3,,10.0,29.911417,1013.7,,,TRUE,,,,,,,CLR,,,,,,,,VFR,,,,,,,,,,,,METAR,51.0
KMOT 040054Z 28007KT 10SM CLR 18/01 A2990 RMK AO2 SLP129 T01830011,KMOT,2021-10-04T00:54:00Z,48.25,-101.27,18.3,1.1,280,7,,10.0,29.899607,1012.9,,,TRUE,,,,,,,CLR,,,,,,,,VFR,,,,,,,,,,,,METAR,507.0
KMKC 040054Z 00000KT 10SM CLR 21/13 A2996 RMK AO2 SLP141 T02060133,KMKC,2021-10-04T00:54:00Z,39.12,-94.6,20.6,13.3,0,0,,10.0,29.958662,1014.1,,,TRUE,,,,,,,CLR,,,,,,,,VFR,,,,,,,,,,,,METAR,228.0
KMIV 040054Z AUTO 00000KT 10SM CLR 19/18 A2994 RMK AO2 SLP136 T01890178 $,KMIV,2021-10-04T00:54:00Z,39.37,-75.08,18.9,17.8,0,0,,10.0,29.940945,1013.6,,TRUE,TRUE,TRUE,,,,,,CLR,,,,,,,,VFR,,,,,,,,,,,,METAR,18.0
KMGJ 040054Z AUTO 00000KT 10SM CLR 16/16 A2992 RMK AO2 SLP132 T01610156,KMGJ,2021-10-04T00:54:00Z,41.52,-74.27,16.1,15.6,0,0,,10.0,29.920275,1013.2,,TRUE,TRUE,,,,,,,CLR,,,,,,,,VFR,,,,,,,,,,,,METAR,106.0
KMEM 040054Z 34007KT 10SM FEW044 23/17 A2993 RMK AO2 SLP133 T02330172,KMEM,2021-10-04T00:54:00Z,35.07,-89.98,23.3,17.2,340,7,,10.0,29.929134,1013.3,,,TRUE,,,,,,,FEW,4400,,,,,,,VFR,,,,,,,,,,,,METAR,78.0
KLYH 040054Z 00000KT 10SM FEW046 SCT060 OVC080 22/19 A2999 RMK AO2 SLP148 T02220194 $,KLYH,2021-10-04T00:54:00Z,37.32,-79.2,22.2,19.4,0,0,,10.0,29.991142,1014.8,,,TRUE,TRUE,,,,,,FEW,4600,SCT,6000,OVC,8000,,,VFR,,,,,,,,,,,,METAR,282.0
KLWT 040054Z AUTO 29004KT 10SM CLR 21/00 A3004 RMK AO2 SLP154 T02060000,KLWT,2021-10-04T00:54:00Z,47.05,-109.47,20.6,0.0,290,4,,10.0,30.041338,1015.4,,TRUE,TRUE,,,,,,,CLR,,,,,,,,VFR,,,,,,,,,,,,METAR,1254.0
KLWM 040054Z 04004KT 10SM BKN023 OVC070 14/13 A3002 RMK AO2 RAE2359 SLP166 P0001 T01440133,KLWM,2021-10-04T00:54:00Z,42.72,-71.13,14.4,13.3,40,4,,10.0,30.02067,1016.6,,,TRUE,,,,,,,BKN,2300,OVC,7000,,,,,MVFR,,,,,,0.01,,,,,,METAR,42.0
KLNK 040054Z 00000KT 10SM CLR 18/06 A3002 RMK AO2 SLP161 T01830061,KLNK,2021-10-04T00:54:00Z,40.85,-96.77,18.3,6.1,0,0,,10.0,30.02067,1016.1,,,TRUE,,,,,,,CLR,,,,,,,,VFR,,,,,,,,,,,,METAR,357.0
KLEX 040054Z 19007KT 10SM BKN110 19/18 A2992 RMK AO2 SLP125 T01940183,KLEX,2021-10-04T00:54:00Z,38.03,-84.6,19.4,18.3,190,7,,10.0,29.920275,1012.5,,,TRUE,,,,,,,BKN,11000,,,,,,,VFR,,,,,,,,,,,,METAR,294.0
KLAF 040054Z AUTO 00000KT 1SM BR FEW100 17/17 A2984 RMK AO2 SLP102 T01720172,KLAF,2021-10-04T00:54:00Z,40.42,-86.93,17.2,17.2,0,0,,1.0,29.840551,1010.2,,TRUE,TRUE,,,,,,BR,FEW,10000,,,,,,,IFR,,,,,,,,,,,,METAR,182.0
KJAN 040054Z 14004KT 10SM BKN035 BKN047 24/21 A2995 RMK AO2 LTG DSNT SE SLP138 T02440211,KJAN,2021-10-04T00:54:00Z,32.32,-90.08,24.4,21.1,140,4,,10.0,29.949802,1013.8,,,TRUE,,,,,,,BKN,3500,BKN,4700,,,,,VFR,,,,,,,,,,,,METAR,92.0
KIZG 040054Z AUTO 00000KT 10SM BKN005 OVC009 12/11 A3005 RMK AO2 CIG 002V008 SLP179 P0001 T01170111,KIZG,2021-10-04T00:54:00Z,43.98,-70.95,11.7,11.1,0,0,,10.0,30.050198,1017.9,,TRUE,TRUE,,,,,,,BKN,500,OVC,900,,,,,IFR,,,,,,0.01,,,,,,METAR,138.0
KISW 040054Z AUTO 33008KT 10SM OVC025 19/16 A2989 RMK AO2 SLP121 T01890156,KISW,2021-10-04T00:54:00Z,44.37,-89.83,18.9,15.6,330,8,,10.0,29.890747,1012.1,,TRUE,TRUE,,,,,,,OVC,2500,,,,,,,MVFR,,,,,,,,,,,,METAR,311.0
KINT 040054Z AUTO 00000KT 10SM OVC090 24/17 A3003 RMK AO2 RAB13E22 SLP158 P0000 T02390172,KINT,2021-10-04T00:54:00Z,36.13,-80.22,23.9,17.2,0,0,,10.0,30.029528,1015.8,,TRUE,TRUE,,,,,,,OVC,9000,,,,,,,VFR,,,,,,0.005,,,,,,METAR,292.0
KINL 040054Z AUTO 00000KT 10SM CLR 11/10 A2997 RMK AO2 SLP155 T01060100,KINL,2021-10-04T00:54:00Z,48.57,-93.4,10.6,10.0,0,0,,10.0,29.970472,1015.5,,TRUE,TRUE,,,,,,,CLR,,,,,,,,VFR,,,,,,,,,,,,METAR,353.0
KIND 040054Z 26009KT 10SM FEW028 SCT042 19/17 A2985 RMK AO2 SLP103 T01940167 $,KIND,2021-10-04T00:54:00Z,39.72,-86.27,19.4,16.7,260,9,,10.0,29.84941,1010.3,,,TRUE,TRUE,,,,,,FEW,2800,SCT,4200,,,,,VFR,,,,,,,,,,,,METAR,242.0
KIMT 040054Z AUTO 00000KT 10SM BKN007 BKN022 OVC027 17/16 A2989 RMK AO2 RAB00E15 CIG 006V012 SLP120 P0000 T01720156,KIMT,2021-10-04T00:54:00Z,45.82,-88.12,17.2,15.6,0,0,,10.0,29.890747,1012.0,,TRUE,TRUE,,,,,,,BKN,700,BKN,2200,OVC,2700,,,IFR,,,,,,0.005,,,,,,METAR,343.0
KILN 040054Z AUTO 20007KT 10SM OVC018 18/17 A2990 RMK AO2 SLP120 T01830172,KILN,2021-10-04T00:54:00Z,39.43,-83.8,18.3,17.2,200,7,,10.0,29.899607,1012.0,,TRUE,TRUE,,,,,,,OVC,1800,,,,,,,MVFR,,,,,,,,,,,,METAR,325.0
KHWD 040054Z 29008KT 10SM CLR 28/12 A2987 RMK AO2 SLP124 T02830117,KHWD,2021-10-04T00:54:00Z,37.67,-122.12,28.3,11.7,290,8,,10.0,29.870079,1012.4,,,TRUE,,,,,,,CLR,,,,,,,,VFR,,,,,,,,,,,,METAR,9.0
KGSO 040054Z 20006KT 10SM SCT050 OVC070 23/18 A3001 RMK AO2 SLP152 T02330178 $,KGSO,2021-10-04T00:54:00Z,36.1,-79.95,23.3,17.8,200,6,,10.0,30.008858,1015.2,,,TRUE,TRUE,,,,,,SCT,5000,OVC,7000,,,,,VFR,,,,,,,,,,,,METAR,275.0
KGED 040054Z AUTO 20004KT 10SM CLR 22/19 A2995 RMK AO2 SLP140 T02220194,KGED,2021-10-04T00:54:00Z,38.68,-75.37,22.2,19.4,200,4,,10.0,29.949802,1014.0,,TRUE,TRUE,,,,,,,CLR,,,,,,,,VFR,,,,,,,,,,,,METAR,15.0
KGCN 040054Z AUTO 08005KT 10SM FEW075 BKN110 18/01 A3027 RMK AO2 SLP198 T01780006,KGCN,2021-10-04T00:54:00Z,35.95,-112.15,17.8,0.6,80,5,,10.0,30.268702,1019.8,,TRUE,TRUE,,,,,,,FEW,7500,BKN,11000,,,,,VFR,,,,,,,,,,,,METAR,1993.0
KGCK 040054Z VRB04KT 10SM CLR 19/08 A3008 RMK AO2 RAB28E40 SLP174 P0000 T01890083,KGCK,2021-10-04T00:54:00Z,37.92,-100.72,18.9,8.3,0,4,,10.0,30.079725,1017.4,,,TRUE,,,,,,,CLR,,,,,,,,VFR,,,,,,0.005,,,,,,METAR,877.0
KFZY 040054Z AUTO 00000KT 7SM -RA OVC004 16/16 A2989 RMK AO2 SLP122 P0001 T01610156,KFZY,2021-10-04T00:54:00Z,43.35,-76.38,16.1,15.6,0,0,,7.0,29.890747,1012.2,,TRUE,TRUE,,,,,,-RA,OVC,400,,,,,,,LIFR,,,,,,0.01,,,,,,METAR,143.0
KFWA 040054Z 17004KT 10SM FEW043 SCT110 BKN190 17/17 A2983 RMK AO2 RAE44 SLP099 P0001 T01720167,KFWA,2021-10-04T00:54:00Z,40.98,-85.2,17.2,16.7,170,4,,10.0,29.828741,1009.9,,,TRUE,,,,,,,FEW,4300,SCT,11000,BKN,19000,,,VFR,,,,,,0.01,,,,,,METAR,243.0
KFIG 040054Z AUTO 00000KT 1 3/4SM BR BKN003 OVC040 18/18 A2994 RMK AO2 SLP136 T01830183,KFIG,2021-10-04T00:54:00Z,41.05,-78.42,18.3,18.3,0,0,,1.75,29.940945,1013.6,,TRUE,TRUE,,,,,,BR,BKN,300,OVC,4000,,,,,LIFR,,,,,,,,,,,,METAR,461.0
KFFZ 040054Z 33003KT 10SM CLR 33/07 A2989 RMK AO2 SLP096 T03330072 $,KFFZ,2021-10-04T00:54:00Z,33.47,-111.72,33.3,7.2,330,3,,10.0,29.890747,1009.6,,,TRUE,TRUE,,,,,,CLR,,,,,,,,VFR,,,,,,,,,,,,METAR,420.0
KEVV 040054Z 00000KT 10SM CLR 19/17 A2990 RMK AO2 SLP120 T01890172 PNO $,KEVV,2021-10-04T00:54:00Z,38.05,-87.52,18.9,17.2,0,0,,10.0,29.899607,1012.0,,,TRUE,TRUE,,,,,,CLR,,,,,,,,VFR,,,,,,,,,,,,METAR,123.0
KEUG 040054Z 03009KT 10SM FEW260 FEW300 21/09 A3001 RMK AO2 SLP162 T02110089,KEUG,2021-10-04T00:54:00Z,44.13,-123.22,21.1,8.9,30,9,,10.0,30.008858,1016.2,,,TRUE,,,,,,,FEW,26000,FEW,30000,,,,,VFR,,,,,,,,,,,,METAR,109.0
KECG 040054Z 19008KT 10SM CLR 23/17 A3002 RMK AO2 SLP165 T02280172,KECG,2021-10-04T00:54:00Z,36.27,-76.18,22.8,17.2,190,8,,10.0,30.02067,1016.5,,,TRUE,,,,,,,CLR,,,,,,,,VFR,,,,,,,,,,,,METAR,2.0
KDYL 040054Z AUTO 19003KT 10SM CLR 22/18 A2992 RMK AO2 SLP128 T02220178,KDYL,2021-10-04T00:54:00Z,40.33,-75.12,22.2,17.8,190,3,,10.0,29.920275,1012.8,,TRUE,TRUE,,,,,,,CLR,,,,,,,,VFR,,,,,,,,,,,,METAR,121.0
KDSV 040054Z AUTO 00000KT 7SM OVC032 19/19 A2987 RMK AO2 SLP123 T01940189 $,KDSV,2021-10-04T00:54:00Z,42.57,-77.72,19.4,18.9,0,0,,7.0,29.870079,1012.3,,TRUE,TRUE,TRUE,,,,,,OVC,3200,,,,,,,VFR,,,,,,,,,,,,METAR,195.0
KDSM 040054Z 33005KT 10SM CLR 20/09 A2994 RMK AO2 SLP134 T02000089,KDSM,2021-10-04T00:54:00Z,41.53,-93.67,20.0,8.9,330,5,,10.0,29.940945,1013.4,,,TRUE,,,,,,,CLR,,,,,,,,VFR,,,,,,,,,,,,METAR,286.0
KDEC 040054Z 28005KT 10SM CLR 19/18 A2989 RMK AO2 SLP117 T01940183,KDEC,2021-10-04T00:54:00Z,39.83,-88.87,19.4,18.3,280,5,,10.0,29.890747,1011.7,,,TRUE,,,,,,,CLR,,,,,,,,VFR,,,,,,,,,,,,METAR,205.0
KDDH 040054Z AUTO 00000KT 5SM -RA BR FEW012 OVC020 16/15 A2997 RMK AO2 SLP147 P0002 T01560150 $,KDDH,2021-10-04T00:54:00Z,42.9,-73.25,15.6,15.0,0,0,,5.0,29.970472,1014.7,,TRUE,TRUE,TRUE,,,,,-RA BR,FEW,1200,OVC,2000,,,,,MVFR,,,,,,0.02,,,,,,METAR,241.0
KCUL 040054Z AUTO 10SM CLR 19/17 A2989 RMK AO2,KCUL,2021-10-04T00:54:00Z,38.08,-88.12,19.0,17.0,,,,10.0,29.890747,,,TRUE,TRUE,,,,,,,CLR,,,,,,,,VFR,,,,,,,,,,,,METAR,116.0
KCRW 040054Z 23006KT 5SM RA BR SCT008 BKN014 OVC055 19/18 A2995 RMK AO2 SLP136 VLY FG P0009 T01890178 $,KCRW,2021-10-04T00:54:00Z,38.38,-81.58,18.9,17.8,230,6,,5.0,29.949802,1013.6,,,TRUE,TRUE,,,,,RA BR,SCT,800,BKN,1400,OVC,5500,,,MVFR,,,,,,0.09,,,,,,METAR,278.0
KCPW 040054Z AUTO 24007KT 10SM BKN070 03/00 A3062 RMK AO2,KCPW,2021-10-04T00:54:00Z,37.45,-106.8,3.0,0.0,240,7,,10.0,30.620079,,,TRUE,TRUE,,,,,,,BKN,7000,,,,,,,VFR,,,,,,,,,,,,METAR,3570.0
KCOU 040054Z 24005KT 10SM OVC070 19/17 A2995 RMK AO2 SLP138 T01940167,KCOU,2021-10-04T00:54:00Z,38.82,-92.22,19.4,16.7,240,5,,10.0,29.949802,1013.8,,,TRUE,,,,,,,OVC,7000,,,,,,,VFR,,,,,,,,,,,,METAR,272.0
KCOS 040054Z 14007KT 10SM FEW100 20/M02 A3024 RMK AO2 SLP187 T02001022 $,KCOS,2021-10-04T00:54:00Z,38.82,-104.68,20.0,-2.2,140,7,,10.0,30.239174,1018.7,,,TRUE,TRUE,,,,,,FEW,10000,,,,,,,VFR,,,,,,,,,,,,METAR,1886.0
KCEU 040054Z AUTO 00000KT 10SM BKN110 19/19 A3004 RMK AO2 SLP166 T01940194,KCEU,2021-10-04T00:54:00Z,34.67,-82.88,19.4,19.4,0,0,,10.0,30.041338,1016.6,,TRUE,TRUE,,,,,,,BKN,11000,,,,,,,VFR,,,,,,,,,,,,METAR,270.0
KCDD 040054Z AUTO 00000KT 10SM CLR 10/09 A3001 RMK AO2,KCDD,2021-10-04T00:54:00Z,48.27,-92.48,10.0,9.0,0,0,,10.0,30.008858,,,TRUE,TRUE,,,,,,,CLR,,,,,,,,VFR,,,,,,,,,,,,METAR,344.0
KCAR 040054Z AUTO 35005KT 10SM OVC047 08/04 A3008 RMK AO2 SLP192 T00830044,KCAR,2021-10-04T00:54:00Z,46.87,-68.02,8.3,4.4,350,5,,10.0,30.079725,1019.2,,TRUE,TRUE,,,,,,,OVC,4700,,,,,,,VFR,,,,,,,,,,,,METAR,189.0
KBWI 040054Z VRB04KT 10SM FEW150 BKN220 BKN250 24/20 A2991 RMK AO2 SLP127 T02390200,KBWI,2021-10-04T00:54:00Z,39.17,-76.68,23.9,20.0,0,4,,10.0,29.911417,1012.7,,,TRUE,,,,,,,FEW,15000,BKN,22000,BKN,25000,,,VFR,,,,,,,,,,,,METAR,42.0
KBUY 040054Z AUTO 00000KT 10SM CLR 22/18 A3000 RMK AO2 SLP154 T02220178,KBUY,2021-10-04T00:54:00Z,36.05,-79.47,22.2,17.8,0,0,,10.0,30.0,1015.4,,TRUE,TRUE,,,,,,,CLR,,,,,,,,VFR,,,,,,,,,,,,METAR,185.0
KBTV 040054Z 33003KT 3SM BR SCT005 OVC013 14/14 A2998 RMK AO2 SLP153 T01440139,KBTV,2021-10-04T00:54:00Z,44.47,-73.15,14.4,13.9,330,3,,3.0,29.97933,1015.3,,,TRUE,,,,,,BR,SCT,500,OVC,1300,,,,,MVFR,,,,,,,,,,,,METAR,101.0
KBOS 040054Z 03008KT 10SM OVC012 17/13 A3000 RMK AO2 SLP158 T01670133,KBOS,2021-10-04T00:54:00Z,42.37,-71.02,16.7,13.3,30,8,,10.0,30.0,1015.8,,,TRUE,,,,,,,OVC,1200,,,,,,,MVFR,,,,,,,,,,,,METAR,4.0
KBKB 040054Z AUTO 00000KT 10SM CLR 24/22 A2993 RMK AO2 SLP160 T02440222 $,KBKB,2021-10-04T00:54:00Z,31.02,-92.92,24.4,22.2,0,0,,10.0,29.929134,1016.0,,TRUE,TRUE,TRUE,,,,,,CLR,,,,,,,,VFR,,,,,,,,,,,,METAR,74.0
KBFL 040054Z 30010KT 3SM HZ FU CLR 31/06 A2987 RMK AO2 SLP107 T03110061,KBFL,2021-10-04T00:54:00Z,35.43,-119.05,31.1,6.1,300,10,,3.0,29.870079,1010.7,,,TRUE,,,,,,HZ FU,CLR,,,,,,,,MVFR,,,,,,,,,,,,METAR,146.0
KAVP 040054Z 04005KT 6SM RA BR SCT046 OVC060 19/17 A2993 RMK AO2 RAB25 SLP130 P0000 T01940172,KAVP,2021-10-04T00:54:00Z,41.33,-75.72,19.4,17.2,40,5,,6.0,29.929134,1013.0,,,TRUE,,,,,,RA BR,SCT,4600,OVC,6000,,,,,VFR,,,,,,0.005,,,,,,METAR,290.0
KAVL 040054Z 15004KT 10SM -RA OVC100 18/17 A3008 RMK AO2 SLP167 P0003 T01780172,KAVL,2021-10-04T00:54:00Z,35.43,-82.53,17.8,17.2,150,4,,10.0,30.079725,1016.7,,,TRUE,,,,,,-RA,OVC,10000,,,,,,,VFR,,,,,,0.03,,,,,,METAR,646.0
KAUW 040054Z AUTO 33013G19KT 10SM OVC018 19/14 A2989 RMK AO2 SLP123 T01890139,KAUW,2021-10-04T00:54:00Z,44.93,-89.62,18.9,13.9,330,13,19,10.0,29.890747,1012.3,,TRUE,TRUE,,,,,,,OVC,1800,,,,,,,MVFR,,,,,,,,,,,,METAR,367.0
KAQP 040054Z AUTO 00000KT 10SM CLR 17/04 A2998 RMK AO2,KAQP,2021-10-04T00:54:00Z,45.22,-96.0,17.0,4.0,0,0,,10.0,29.97933,,,TRUE,TRUE,,,,,,,CLR,,,,,,,,VFR,,,,,,,,,,,,METAR,312.0
KAPN 040054Z AUTO 07005KT 10SM OVC002 16/16 A2988 RMK AO2 RAB25E47 SLP118 P0000 T01610161,KAPN,2021-10-04T00:54:00Z,45.07,-83.57,16.1,16.1,70,5,,10.0,29.878937,1011.8,,TRUE,TRUE,,,,,,,OVC,200,,,,,,,LIFR,,,,,,0.005,,,,,,METAR,208.0
KAPC 040054Z 00000KT 10SM CLR 32/08 A2987 RMK AO2 SLP106 T03170078,KAPC,2021-10-04T00:54:00Z,38.2,-122.28,31.7,7.8,0,0,,10.0,29.870079,1010.6,,,TRUE,,,,,,,CLR,,,,,,,,VFR,,,,,,,,,,,,METAR,5.0
KALO 040054Z AUTO 33004KT 10SM CLR 17/08 A2992 RMK AO2 SLP129 T01670078 $,KALO,2021-10-04T00:54:00Z,42.55,-92.4,16.7,7.8,330,4,,10.0,29.920275,1012.9,,TRUE,TRUE,TRUE,,,,,,CLR,,,,,,,,VFR,,,,,,,,,,,,METAR,264.0
KAKR 040054Z AUTO 20005KT 10SM SCT100 SCT120 21/18 A2988 RMK AO2 SLP112 T02110178,KAKR,2021-10-04T00:54:00Z,41.03,-81.47,21.1,17.8,200,5,,10.0,29.878937,1011.2,,TRUE,TRUE,,,,,,,SCT,10000,SCT,12000,,,,,VFR,,,,,,,,,,,,METAR,319.0
KAKQ 040054Z AUTO 00000KT 10SM CLR 23/19 A2999 RMK AO2 SLP153 T02280194,KAKQ,2021-10-04T00:54:00Z,36.98,-77.0,22.8,19.4,0,0,,10.0,29.991142,1015.3,,TRUE,TRUE,,,,,,,CLR,,,,,,,,VFR,,,,,,,,,,,,METAR,34.0
KAKH 040054Z AUTO 00000KT 10SM FEW055 SCT120 20/19 A3003 RMK AO2 SLP163 T02000189,KAKH,2021-10-04T00:54:00Z,35.2,-81.15,20.0,18.9,0,0,,10.0,30.029528,1016.3,,TRUE,TRUE,,,,,,,FEW,5500,SCT,12000,,,,,VFR,,,,,,,,,,,,METAR,242.0
KAAO 040054Z AUTO 30003KT 10SM CLR 20/09 A3002 RMK AO2 SLP162 T02000089,KAAO,2021-10-04T00:54:00Z,37.75,-97.22,20.0,8.9,300,3,,10.0,30.02067,1016.2,,TRUE,TRUE,,,,,,,CLR,,,,,,,,VFR,,,,,,,,,,,,METAR,429.0
K2V6 040054Z AUTO 21003KT 10SM CLR 17/M13 A3011 RMK AO2,K2V6,2021-10-04T00:54:00Z,40.1,-102.72,17.0,-13.0,210,3,,10.0,30.109253,,,TRUE,TRUE,,,,,,,CLR,,,,,,,,VFR,,,,,,,,,,,,METAR,1257.0
K1V4 040054Z AUTO 13/12 A2999 RMK AO1 SLP154 T01330122,K1V4,2021-10-04T00:54:00Z,44.42,-72.02,13.3,12.2,,,,,29.991142,1015.4,,TRUE,TRUE,,,,,,,,,,,,,,,,,,,,,,,,,,,METAR,213.0
K12N 040054Z AUTO 00000KT 20/19 A2993 RMK AO1 SLP131 T02000189,K12N,2021-10-04T00:54:00Z,41.02,-74.73,20.0,18.9,0,0,,,29.929134,1013.1,,TRUE,TRUE,,,,,,,,,,,,,,,,,,,,,,,,,,,METAR,178.0
TISX 040053Z 07011G19KT 10SM FEW026 SCT033 28/24 A2995 RMK AO2 SLP140 T02830239,TISX,2021-10-04T00:53:00Z,17.7,-64.8,28.3,23.9,70,11,19,10.0,29.949802,1014.0,,,TRUE,,,,,,,FEW,2600,SCT,3300,,,,,VFR,,,,,,,,,,,,METAR,16.0
TIST 040053Z 10011KT 10SM HZ CLR 28/23 A2995 RMK AO2 SLP142 T02830228,TIST,2021-10-04T00:53:00Z,18.33,-64.98,28.3,22.8,100,11,,10.0,29.949802,1014.2,,,TRUE,,,,,,HZ,CLR,,,,,,,,VFR,,,,,,,,,,,,METAR,5.0
PHTO 040053Z 03009KT 10SM FEW030 SCT045 28/20 A2988 RMK AO2 SLP117 T02830200 $,PHTO,2021-10-04T00:53:00Z,19.72,-155.05,28.3,20.0,30,9,,10.0,29.878937,1011.7,,,TRUE,TRUE,,,,,,FEW,3000,SCT,4500,,,,,VFR,,,,,,,,,,,,METAR,9.0
PHNL 040053Z 07016G24KT 10SM FEW024 FEW038 FEW060 30/18 A2987 RMK AO2 SLP114 VCSH N-NE T03000178,PHNL,2021-10-04T00:53:00Z,21.33,-157.93,30.0,17.8,70,16,24,10.0,29.870079,1011.4,,,TRUE,,,,,,,FEW,2400,FEW,3800,FEW,6000,,,VFR,,,,,,,,,,,,METAR,2.0
PHLI 040053Z 03012KT 10SM FEW011 SCT017 OVC034 24/22 A2993 RMK AO2 RAB15E39 SLP131 P0000 T02390222 $,PHLI,2021-10-04T00:53:00Z,21.97,-159.33,23.9,22.2,30,12,,10.0,29.929134,1013.1,,,TRUE,TRUE,,,,,,FEW,1100,SCT,1700,OVC,3400,,,VFR,,,,,,0.005,,,,,,METAR,32.0
PHKO 040053Z AUTO 21010KT 10SM HZ SCT055 30/21 A2982 RMK AO2 SLP096 T03000211 TSNO,PHKO,2021-10-04T00:53:00Z,19.73,-156.05,30.0,21.1,210,10,,10.0,29.819881,1009.6,,TRUE,TRUE,,,TRUE,,,HZ,SCT,5500,,,,,,,VFR,,,,,,,,,,,,METAR,11.0
PHJR 040053Z 04010G17KT 10SM SCT041 SCT050 31/19 A2988 RMK AO2 RAB17E34 SLP123 P0000 T03110194,PHJR,2021-10-04T00:53:00Z,21.32,-158.07,31.1,19.4,40,10,17,10.0,29.878937,1012.3,,,TRUE,,,,,,,SCT,4100,SCT,5000,,,,,VFR,,,,,,0.005,,,,,,METAR,9.0
PGWT 040053Z 07010KT 7SM FEW015 SCT060 OVC100 26/24 A2982,PGWT,2021-10-04T00:53:00Z,14.98,145.62,26.0,24.0,70,10,,7.0,29.819881,,,,,,,,,,,FEW,1500,SCT,6000,OVC,10000,,,VFR,,,,,,,,,,,,METAR,84.0
PAYA 040053Z AUTO 09009KT 10SM BKN029 BKN034 06/03 A2988 RMK AO2 SLP117 T00610028 TSNO,PAYA,2021-10-04T00:53:00Z,59.52,-139.67,6.1,2.8,90,9,,10.0,29.878937,1011.7,,TRUE,TRUE,,,TRUE,,,,BKN,2900,BKN,3400,,,,,MVFR,,,,,,,,,,,,METAR,9.0
PAWI 040053Z AUTO 05003KT 10SM OVC027 M04/M06 A3017 RMK AO2 SLP219 I1007 T10441061 TSNO $,PAWI,2021-10-04T00:53:00Z,70.63,-160.02,-4.4,-6.1,50,3,,10.0,30.171259,1021.9,,TRUE,TRUE,TRUE,,TRUE,,,,OVC,2700,,,,,,,MVFR,,,,,,,,,,,,METAR,12.0
PAWD 040053Z AUTO 01009KT 10SM CLR 09/M04 A2990 RMK AO2 SLP125 T00941044 TSNO,PAWD,2021-10-04T00:53:00Z,60.12,-149.42,9.4,-4.4,10,9,,10.0,29.899607,1012.5,,TRUE,TRUE,,,TRUE,,,,CLR,,,,,,,,VFR,,,,,,,,,,,,METAR,3.0
PAVL 040053Z AUTO 00000KT 10SM FEW060 02/M03 A3007 RMK AO2 SLP183 T00221028 TSNO $,PAVL,2021-10-04T00:53:00Z,67.73,-164.55,2.2,-2.8,0,0,,10.0,30.070866,1018.3,,TRUE,TRUE,TRUE,,TRUE,,,,FEW,6000,,,,,,,VFR,,,,,,,,,,,,METAR,6.0
PATK 040053Z 33008KT 10SM CLR 11/M05 A2991 RMK AO2 SLP132 T01061050,PATK,2021-10-04T00:53:00Z,62.32,-150.1,10.6,-5.0,330,8,,10.0,29.911417,1013.2,,,TRUE,,,,,,,CLR,,,,,,,,VFR,,,,,,,,,,,,METAR,107.0
PASN 040053Z AUTO 22015KT 10SM FEW024 OVC030 08/05 A3015 RMK AO2 SLP210 T00830050 TSNO $,PASN,2021-10-04T00:53:00Z,57.15,-170.22,8.3,5.0,220,15,,10.0,30.15059,1021.0,,TRUE,TRUE,TRUE,,TRUE,,,,FEW,2400,OVC,3000,,,,,MVFR,,,,,,,,,,,,METAR,8.0
PASI 040053Z 14005KT 7SM -RA FEW028 BKN036 BKN050 07/02 A2990 RMK AO2 RAB39 SLP124 P0001 T00720017 $,PASI,2021-10-04T00:53:00Z,57.03,-135.35,7.2,1.7,140,5,,7.0,29.899607,1012.4,,,TRUE,TRUE,,,,,-RA,FEW,2800,BKN,3600,BKN,5000,,,VFR,,,,,,0.01,,,,,,METAR,2.0
PASC 040053Z 00000KT 3SM R06/4500VP6000FT BR FEW003 SCT015 SCT130 M04/M05 A3016 RMK AO2 SLP213 T10391050 $,PASC,2021-10-04T00:53:00Z,70.2,-148.47,-3.9,-5.0,0,0,,3.0,30.159449,1021.3,,,TRUE,TRUE,,,,,BR,FEW,300,SCT,1500,SCT,13000,,,MVFR,,,,,,,,,,,,METAR,17.0
PAPB 040053Z AUTO 21013KT 10SM FEW016 BKN031 09/06 A3018 RMK AO2 SLP208 T00890061 TSNO,PAPB,2021-10-04T00:53:00Z,56.58,-169.67,8.9,6.1,210,13,,10.0,30.180119,1020.8,,TRUE,TRUE,,,TRUE,,,,FEW,1600,BKN,3100,,,,,VFR,,,,,,,,,,,,METAR,33.0
PAOT 040053Z 22006KT 10SM CLR 01/M03 A3008 RMK AO2 SLP185 T00111033,PAOT,2021-10-04T00:53:00Z,66.88,-162.6,1.1,-3.3,220,6,,10.0,30.079725,1018.5,,,TRUE,,,,,,,CLR,,,,,,,,VFR,,,,,,,,,,,,METAR,3.0
PAOR 040053Z 31011G17KT 10SM -SN FEW020 OVC045 01/M04 A2989 RMK AO2 SNE12B49 SLP150 P0000 T00061039,PAOR,2021-10-04T00:53:00Z,62.97,-141.93,0.6,-3.9,310,11,17,10.0,29.890747,1015.0,,,TRUE,,,,,,-SN,FEW,2000,OVC,4500,,,,,VFR,,,,,,0.005,,,,,,METAR,524.0
PAOM 040053Z AUTO 30005KT 10SM BKN033 01/M06 A3016 RMK AO2 SLP214 T00111056 TSNO,PAOM,2021-10-04T00:53:00Z,64.5,-165.43,1.1,-5.6,300,5,,10.0,30.159449,1021.4,,TRUE,TRUE,,,TRUE,,,,BKN,3300,,,,,,,VFR,,,,,,,,,,,,METAR,6.0
PANN 040053Z AUTO 00000KT 10SM OVC048 01/M03 A3005 RMK AO2 SLP185 T00061028 TSNO,PANN,2021-10-04T00:53:00Z,64.55,-149.08,0.6,-2.8,0,0,,10.0,30.050198,1018.5,,TRUE,TRUE,,,TRUE,,,,OVC,4800,,,,,,,VFR,,,,,,,,,,,,METAR,110.0
PANC 040053Z 00000KT 10SM FEW040 FEW200 07/M03 A2993 RMK AO2 SLP138 T00721033,PANC,2021-10-04T00:53:00Z,61.17,-150.02,7.2,-3.3,0,0,,10.0,29.929134,1013.8,,,TRUE,,,,,,,FEW,4000,FEW,20000,,,,,VFR,,,,,,,,,,,,METAR,39.0
PAMR 040053Z 00000KT 10SM CLR 07/M04 A2994 RMK AO2 SLP139 T00671039 $,PAMR,2021-10-04T00:53:00Z,61.22,-149.85,6.7,-3.9,0,0,,10.0,29.940945,1013.9,,,TRUE,TRUE,,,,,,CLR,,,,,,,,VFR,,,,,,,,,,,,METAR,43.0
PAMC 040053Z AUTO VRB06KT 10SM CLR 04/M07 A3012 RMK AO2 SLP205 T00391067 TSNO $,PAMC,2021-10-04T00:53:00Z,62.97,-155.62,3.9,-6.7,0,6,,10.0,30.121063,1020.5,,TRUE,TRUE,TRUE,,TRUE,,,,CLR,,,,,,,,VFR,,,,,,,,,,,,METAR,101.0
PALH 040053Z 34003KT 10SM CLR 07/M04 A2995 RMK AO2 SLP141 T00671039,PALH,2021-10-04T00:53:00Z,61.18,-149.97,6.7,-3.9,340,3,,10.0,29.949802,1014.1,,,TRUE,,,,,,,CLR,,,,,,,,VFR,,,,,,,,,,,,METAR,26.0
PAKV 040053Z AUTO 00000KT 10SM OVC041 03/M07 A3016 RMK AO2 SLP218 T00331067 TSNO $,PAKV,2021-10-04T00:53:00Z,64.33,-158.72,3.3,-6.7,0,0,,10.0,30.159449,1021.8,,TRUE,TRUE,TRUE,,TRUE,,,,OVC,4100,,,,,,,VFR,,,,,,,,,,,,METAR,53.0
PAJN 040053Z 11014KT 10SM FEW006 SCT025 OVC038 06/02 A2992 RMK AO2 RAE21 SLP132 BINOVC P0000 T00560022 $,PAJN,2021-10-04T00:53:00Z,58.35,-134.55,5.6,2.2,110,14,,10.0,29.920275,1013.2,,,TRUE,TRUE,,,,,,FEW,600,SCT,2500,OVC,3800,,,VFR,,,,,,0.005,,,,,,METAR,6.0
PAHO 040053Z 26013KT 10SM CLR 08/M01 A2995 RMK AO2 SLP141 T00831006 $,PAHO,2021-10-04T00:53:00Z,59.63,-151.48,8.3,-0.6,260,13,,10.0,29.949802,1014.1,,,TRUE,TRUE,,,,,,CLR,,,,,,,,VFR,,,,,,,,,,,,METAR,6.0
PAGY 040053Z AUTO 20013KT 10SM FEW055 OVC070 07/03 A2989 RMK AO2 SLP121 T00670033 TSNO,PAGY,2021-10-04T00:53:00Z,59.47,-135.32,6.7,3.3,200,13,,10.0,29.890747,1012.1,,TRUE,TRUE,,,TRUE,,,,FEW,5500,OVC,7000,,,,,VFR,,,,,,,,,,,,METAR,7.0
PAGK 040053Z AUTO 03004KT 10SM OVC070 04/M02 A2990 RMK AO2 SLP149 T00391022 TSNO $,PAGK,2021-10-04T00:53:00Z,62.15,-145.45,3.9,-2.2,30,4,,10.0,29.899607,1014.9,,TRUE,TRUE,TRUE,,TRUE,,,,OVC,7000,,,,,,,VFR,,,,,,,,,,,,METAR,481.0
PAFA 040053Z VRB03KT 5SM -SN BR SCT009 BKN038 BKN050 01/M01 A3003 RMK AO2 SLP177 P0000 T00111006,PAFA,2021-10-04T00:53:00Z,64.8,-147.87,1.1,-0.6,0,3,,5.0,30.029528,1017.7,,,TRUE,,,,,,-SN BR,SCT,900,BKN,3800,BKN,5000,,,MVFR,,,,,,0.005,,,,,,METAR,130.0
PAEN 040053Z 26007KT 10SM CLR 08/M03 A2995 RMK AO2 SLP144 T00781033,PAEN,2021-10-04T00:53:00Z,60.57,-151.25,7.8,-3.3,260,7,,10.0,29.949802,1014.4,,,TRUE,,,,,,,CLR,,,,,,,,VFR,,,,,,,,,,,,METAR,30.0
PAEG 040053Z AUTO 29007KT 10SM BKN021 OVC026 03/M01 A2992 RMK AO2 SLP140 T00281011 TSNO,PAEG,2021-10-04T00:53:00Z,64.78,-141.15,2.8,-1.1,290,7,,10.0,29.920275,1014.0,,TRUE,TRUE,,,TRUE,,,,BKN,2100,OVC,2600,,,,,MVFR,,,,,,,,,,,,METAR,273.0
PAEC 040053Z 36004KT 20SM SCT060 07/M10 A2986 RMK NOSPECI LAST,PAEC,2021-10-04T00:53:00Z,62.88,-149.57,7.0,-10.0,360,4,,20.0,29.861221,,,,,,,,,,,SCT,6000,,,,,,,VFR,,,,,,,,,,,,METAR,389.0
PACV 040053Z 23003KT 10SM FEW040 SCT200 08/M01 A2987 RMK AO2 SLP114 T00831011,PACV,2021-10-04T00:53:00Z,60.5,-145.47,8.3,-1.1,230,3,,10.0,29.870079,1011.4,,,TRUE,,,,,,,FEW,4000,SCT,20000,,,,,VFR,,,,,,,,,,,,METAR,15.0
PACD 040053Z 29008KT 10SM SCT010 OVC043 09/06 A3030 RMK AO2 SLP261 T00890061,PACD,2021-10-04T00:53:00Z,55.22,-162.72,8.9,6.1,290,8,,10.0,30.301182,1026.1,,,TRUE,,,,,,,SCT,1000,OVC,4300,,,,,VFR,,,,,,,,,,,,METAR,23.0
PABT 040053Z VRB03KT 10SM FEW100 FEW180 04/M07 A3004 RMK AO2 SLP187 T00441072 $,PABT,2021-10-04T00:53:00Z,66.92,-151.52,4.4,-7.2,0,3,,10.0,30.041338,1018.7,,,TRUE,TRUE,,,,,,FEW,10000,FEW,18000,,,,,VFR,,,,,,,,,,,,METAR,195.0
PABR 040053Z 03006KT 10SM BKN023 OVC029 M02/M06 A3020 RMK AO2 SLP226 T10171056,PABR,2021-10-04T00:53:00Z,71.28,-156.78,-1.7,-5.6,30,6,,10.0,30.200787,1022.6,,,TRUE,,,,,,,BKN,2300,OVC,2900,,,,,MVFR,,,,,,,,,,,,METAR,6.0
PABI 040053Z 29008KT 9SM OVC039 M01/M03 A3002 RMK AO2 SNE53 SLP190 P0000 T10111033,PABI,2021-10-04T00:53:00Z,64.0,-145.72,-1.1,-3.3,290,8,,9.0,30.02067,1019.0,,,TRUE,,,,,,,OVC,3900,,,,,,,VFR,,,,,,0.005,,,,,,METAR,388.0
PABE 040053Z 26003KT 10SM OVC027 02/M05 A3023 RMK AO2 SLP244 T00221050 $,PABE,2021-10-04T00:53:00Z,60.78,-161.83,2.2,-5.0,260,3,,10.0,30.230314,1024.4,,,TRUE,TRUE,,,,,,OVC,2700,,,,,,,MVFR,,,,,,,,,,,,METAR,28.0
PAAQ 040053Z 16003KT 10SM SCT026 06/M01 A2994 RMK AO2 SLP141 T00611011 $,PAAQ,2021-10-04T00:53:00Z,61.6,-149.08,6.1,-1.1,160,3,,10.0,29.940945,1014.1,,,TRUE,TRUE,,,,,,SCT,2600,,,,,,,VFR,,,,,,,,,,,,METAR,68.0
KZZV 040053Z AUTO 19003KT 10SM FEW013 SCT075 BKN090 20/19 A2990 RMK AO2 RAB28E40 SLP118 P0002 T02000194,KZZV,2021-10-04T00:53:00Z,39.95,-81.9,20.0,19.4,190,3,,10.0,29.899607,1011.8,,TRUE,TRUE,,,,,,,FEW,1300,SCT,7500,BKN,9000,,,VFR,,,,,,0.02,,,,,,METAR,268.0
KYKM 040053Z 17003KT 10SM CLR 22/09 A2997 RMK AO2 RAB46E52 SLP147 P0000 T02220089,KYKM,2021-10-04T00:53:00Z,46.57,-120.53,22.2,8.9,170,3,,10.0,29.970472,1014.7,,,TRUE,,,,,,,CLR,,,,,,,,VFR,,,,,,0.005,,,,,,METAR,319.0
KYIP 040053Z 15003KT 10SM BKN049 22/18 A2983 RMK AO2 LTG DSNT S AND SW SLP094 T02170178 $,KYIP,2021-10-04T00:53:00Z,42.23,-83.53,21.7,17.8,150,3,,10.0,29.828741,1009.4,,,TRUE,TRUE,,,,,,BKN,4900,,,,,,,VFR,,,,,,,,,,,,METAR,215.0
KXVG 040053Z AUTO 00000KT 10SM CLR 12/11 A2999 RMK AO2,KXVG,2021-10-04T00:53:00Z,46.98,-94.2,12.0,11.0,0,0,,10.0,29.991142,,,TRUE,TRUE,,,,,,,CLR,,,,,,,,VFR,,,,,,,,,,,,METAR,407.0
KXNA 040053Z 29004KT 10SM BKN055 18/16 A3002 RMK AO2 SLP158 T01830156,KXNA,2021-10-04T00:53:00Z,36.28,-94.3,18.3,15.6,290,4,,10.0,30.02067,1015.8,,,TRUE,,,,,,,BKN,5500,,,,,,,VFR,,,,,,,,,,,,METAR,390.0
KWVI 040053Z AUTO 21006KT 10SM CLR 19/14 A2990 RMK AO2 SLP123 T01890139,KWVI,2021-10-04T00:53:00Z,36.93,-121.78,18.9,13.9,210,6,,10.0,29.899607,1012.3,,TRUE,TRUE,,,,,,,CLR,,,,,,,,VFR,,,,,,,,,,,,METAR,47.0
KWST 040053Z AUTO 00000KT 10SM -RA OVC055 17/17 A2996 RMK AO2 RAB31 SLP143 P0000 T01720172 $,KWST,2021-10-04T00:53:00Z,41.35,-71.8,17.2,17.2,0,0,,10.0,29.958662,1014.3,,TRUE,TRUE,TRUE,,,,,-RA,OVC,5500,,,,,,,VFR,,,,,,0.005,,,,,,METAR,20.0
KWRL 040053Z AUTO 00000KT 10SM CLR 18/M07 A3007 RMK AO2 SLP174 T01831067,KWRL,2021-10-04T00:53:00Z,43.97,-107.95,18.3,-6.7,0,0,,10.0,30.070866,1017.4,,TRUE,TRUE,,,,,,,CLR,,,,,,,,VFR,,,,,,,,,,,,METAR,1281.0
KVUO 040053Z AUTO 31006KT 10SM CLR 18/12 A3003 RMK AO2 SLP168 T01830117,KVUO,2021-10-04T00:53:00Z,45.62,-122.65,18.3,11.7,310,6,,10.0,30.029528,1016.8,,TRUE,TRUE,,,,,,,CLR,,,,,,,,VFR,,,,,,,,,,,,METAR,7.0
KVRB 040053Z 05003KT 10SM BKN040 OVC050 25/19 A3000 RMK AO2 SLP159 T02500194,KVRB,2021-10-04T00:53:00Z,27.65,-80.42,25.0,19.4,50,3,,10.0,30.0,1015.9,,,TRUE,,,,,,,BKN,4000,OVC,5000,,,,,VFR,,,,,,,,,,,,METAR,7.0
KVLD 040053Z 00000KT 10SM CLR 24/22 A3002 RMK AO2 SLP170 T02390217,KVLD,2021-10-04T00:53:00Z,30.78,-83.27,23.9,21.7,0,0,,10.0,30.02067,1017.0,,,TRUE,,,,,,,CLR,,,,,,,,VFR,,,,,,,,,,,,METAR,59.0
KVIH 040053Z AUTO 25006KT 10SM CLR 18/17 A2997 RMK AO2 SLP143 T01780167,KVIH,2021-10-04T00:53:00Z,38.13,-91.77,17.8,16.7,250,6,,10.0,29.970472,1014.3,,TRUE,TRUE,,,,,,,CLR,,,,,,,,VFR,,,,,,,,,,,,METAR,342.0
KVGT 040053Z 20003KT 10SM CLR 32/00 A2993 RMK AO2 SLP132 T03220000 $,KVGT,2021-10-04T00:53:00Z,36.22,-115.2,32.2,0.0,200,3,,10.0,29.929134,1013.2,,,TRUE,TRUE,,,,,,CLR,,,,,,,,VFR,,,,,,,,,,,,METAR,664.0
KVEL 040053Z AUTO 00000KT 10SM CLR 20/04 A3020 RMK AO2 SLP191 T02000044,KVEL,2021-10-04T00:53:00Z,40.45,-109.52,20.0,4.4,0,0,,10.0,30.200787,1019.1,,TRUE,TRUE,,,,,,,CLR,,,,,,,,VFR,,,,,,,,,,,,METAR,1604.0
KVCB 040053Z AUTO 13005KT 10SM CLR 29/07 A2989 RMK AO2 SLP120 T02940067,KVCB,2021-10-04T00:53:00Z,38.38,-121.95,29.4,6.7,130,5,,10.0,29.890747,1012.0,,TRUE,TRUE,,,,,,,CLR,,,,,,,,VFR,,,,,,,,,,,,METAR,30.0
KUUU 040053Z AUTO 08004KT 10SM -RA OVC055 17/16 A2996 RMK AO2 RAB07 SLP144 P0000 T01720161,KUUU,2021-10-04T00:53:00Z,41.53,-71.28,17.2,16.1,80,4,,10.0,29.958662,1014.4,,TRUE,TRUE,,,,,,-RA,OVC,5500,,,,,,,VFR,,,,,,0.005,,,,,,METAR,45.0
KUTS 040053Z AUTO 00000KT 10SM CLR 25/18 A2997 RMK AO2 SLP143 T02500183,KUTS,2021-10-04T00:53:00Z,30.75,-95.58,25.0,18.3,0,0,,10.0,29.970472,1014.3,,TRUE,TRUE,,,,,,,CLR,,,,,,,,VFR,,,,,,,,,,,,METAR,103.0
KUNV 040053Z 00000KT 4SM BR BCFG SCT001 SCT035 BKN055 18/18 A2994,KUNV,2021-10-04T00:53:00Z,40.85,-77.83,18.0,18.0,0,0,,4.0,29.940945,,,,,,,,,,BR BCFG,SCT,100,SCT,3500,BKN,5500,,,MVFR,,,,,,,,,,,,METAR,365.0
KUNO 040053Z AUTO 26005KT 10SM CLR 18/16 A3000 RMK AO2 SLP149 T01830161,KUNO,2021-10-04T00:53:00Z,36.88,-91.9,18.3,16.1,260,5,,10.0,30.0,1014.9,,TRUE,TRUE,,,,,,,CLR,,,,,,,,VFR,,,,,,,,,,,,METAR,376.0
KUIL 040053Z AUTO 33006KT 10SM CLR 12/07 A3012 RMK AO2 SLP201 T01170067,KUIL,2021-10-04T00:53:00Z,47.93,-124.55,11.7,6.7,330,6,,10.0,30.121063,1020.1,,TRUE,TRUE,,,,,,,CLR,,,,,,,,VFR,,,,,,,,,,,,METAR,58.0
KUAO 040053Z 03005KT 10SM CLR 21/12 A3003 RMK AO2 SLP168 T02060117 $,KUAO,2021-10-04T00:53:00Z,45.25,-122.77,20.6,11.7,30,5,,10.0,30.029528,1016.8,,,TRUE,TRUE,,,,,,CLR,,,,,,,,VFR,,,,,,,,,,,,METAR,60.0
KTYS 040053Z 18004KT 10SM SCT045 BKN050 19/19 A2998 RMK AO2 RAB21E39 SLP146 P0000 T01940189,KTYS,2021-10-04T00:53:00Z,35.82,-83.98,19.4,18.9,180,4,,10.0,29.97933,1014.6,,,TRUE,,,,,,,SCT,4500,BKN,5000,,,,,VFR,,,,,,0.005,,,,,,METAR,300.0
KTYR 040053Z 00000KT 10SM CLR 24/17 A2998 RMK AO2 SLP144 T02390172 $,KTYR,2021-10-04T00:53:00Z,32.37,-95.4,23.9,17.2,0,0,,10.0,29.97933,1014.4,,,TRUE,TRUE,,,,,,CLR,,,,,,,,VFR,,,,,,,,,,,,METAR,161.0
KTXK 040053Z 00000KT 10SM CLR 25/17 A2997 RMK AO2 SLP143 T02500172 $,KTXK,2021-10-04T00:53:00Z,33.45,-93.98,25.0,17.2,0,0,,10.0,29.970472,1014.3,,,TRUE,TRUE,,,,,,CLR,,,,,,,,VFR,,,,,,,,,,,,METAR,118.0
KTWF 040053Z 00000KT 10SM CLR 20/M02 A3012 RMK AO2 SLP166 T02001017,KTWF,2021-10-04T00:53:00Z,42.48,-114.48,20.0,-1.7,0,0,,10.0,30.121063,1016.6,,,TRUE,,,,,,,CLR,,,,,,,,VFR,,,,,,,,,,,,METAR,1269.0
KTVR 040053Z AUTO 00000KT 10SM CLR 24/22 A2994 RMK AO2 SLP145 T02390217,KTVR,2021-10-04T00:53:00Z,32.35,-91.03,23.9,21.7,0,0,,10.0,29.940945,1014.5,,TRUE,TRUE,,,,,,,CLR,,,,,,,,VFR,,,,,,,,,,,,METAR,25.0
KTVL 040053Z AUTO 00000KT 10SM CLR 17/M01 A3020 RMK AO2 SLP200 T01721011,KTVL,2021-10-04T00:53:00Z,38.9,-120.0,17.2,-1.1,0,0,,10.0,30.200787,1020.0,,TRUE,TRUE,,,,,,,CLR,,,,,,,,VFR,,,,,,,,,,,,METAR,1907.0
KTUS 040053Z 02004KT 10SM CLR 32/06 A2997 RMK AO2 SLP106 T03170061,KTUS,2021-10-04T00:53:00Z,32.13,-110.95,31.7,6.1,20,4,,10.0,29.970472,1010.6,,,TRUE,,,,,,,CLR,,,,,,,,VFR,,,,,,,,,,,,METAR,776.0
KTUP 040053Z 00000KT 10SM CLR 23/20 A2994 RMK AO2 SLP135 T02280200,KTUP,2021-10-04T00:53:00Z,34.27,-88.77,22.8,20.0,0,0,,10.0,29.940945,1013.5,,,TRUE,,,,,,,CLR,,,,,,,,VFR,,,,,,,,,,,,METAR,107.0
KTUL 040053Z 31004KT 10SM FEW250 22/15 A2999 RMK AO2 SLP152 T02170150,KTUL,2021-10-04T00:53:00Z,36.2,-95.88,21.7,15.0,310,4,,10.0,29.991142,1015.2,,,TRUE,,,,,,,FEW,25000,,,,,,,VFR,,,,,,,,,,,,METAR,196.0
KTTN 040053Z 18004KT 10SM CLR 22/19 A2991 RMK AO2 SLP123 T02170189,KTTN,2021-10-04T00:53:00Z,40.28,-74.82,21.7,18.9,180,4,,10.0,29.911417,1012.3,,,TRUE,,,,,,,CLR,,,,,,,,VFR,,,,,,,,,,,,METAR,58.0
KTTD 040053Z 31005KT 10SM CLR 21/12 A3002 RMK AO2 SLP166 T02060117,KTTD,2021-10-04T00:53:00Z,45.55,-122.42,20.6,11.7,310,5,,10.0,30.02067,1016.6,,,TRUE,,,,,,,CLR,,,,,,,,VFR,,,,,,,,,,,,METAR,8.0
KTRL 040053Z AUTO 35004KT 10SM CLR 26/15 A3000 RMK AO2 SLP152 T02560150,KTRL,2021-10-04T00:53:00Z,32.72,-96.27,25.6,15.0,350,4,,10.0,30.0,1015.2,,TRUE,TRUE,,,,,,,CLR,,,,,,,,VFR,,,,,,,,,,,,METAR,144.0
KTRI 040053Z 00000KT 3SM BR FEW005 SCT070 19/18 A3002 RMK AO2 SLP146 T01890178 $,KTRI,2021-10-04T00:53:00Z,36.48,-82.4,18.9,17.8,0,0,,3.0,30.02067,1014.6,,,TRUE,TRUE,,,,,BR,FEW,500,SCT,7000,,,,,MVFR,,,,,,,,,,,,METAR,456.0
KTPA 040053Z 02008KT 10SM FEW180 BKN300 26/22 A2999 RMK AO2 SLP155 T02560222 $,KTPA,2021-10-04T00:53:00Z,27.97,-82.53,25.6,22.2,20,8,,10.0,29.991142,1015.5,,,TRUE,TRUE,,,,,,FEW,18000,BKN,30000,,,,,VFR,,,,,,,,,,,,METAR,2.0
KTOR 040053Z AUTO 00000KT 10SM CLR 23/M04 A3009 RMK AO2 SLP171 T02281044,KTOR,2021-10-04T00:53:00Z,42.07,-104.15,22.8,-4.4,0,0,,10.0,30.088583,1017.1,,TRUE,TRUE,,,,,,,CLR,,,,,,,,VFR,,,,,,,,,,,,METAR,1285.0
KTOP 040053Z AUTO 00000KT 10SM CLR 17/12 A2998 RMK AO2 SLP146 T01720117,KTOP,2021-10-04T00:53:00Z,39.07,-95.63,17.2,11.7,0,0,,10.0,29.97933,1014.6,,TRUE,TRUE,,,,,,,CLR,,,,,,,,VFR,,,,,,,,,,,,METAR,268.0
KTMB 040053Z 06003KT 10SM SCT090 25/21 A2998 RMK AO2 SLP151 T02500206,KTMB,2021-10-04T00:53:00Z,25.65,-80.43,25.0,20.6,60,3,,10.0,29.97933,1015.1,,,TRUE,,,,,,,SCT,9000,,,,,,,VFR,,,,,,,,,,,,METAR,2.0
KTLH 040053Z 00000KT 10SM SCT250 23/21 A3001 RMK AO2 SLP160 T02280211 $,KTLH,2021-10-04T00:53:00Z,30.4,-84.35,22.8,21.1,0,0,,10.0,30.008858,1016.0,,,TRUE,TRUE,,,,,,SCT,25000,,,,,,,VFR,,,,,,,,,,,,METAR,17.0
KTKI 040053Z 06004KT 10SM CLR 22/13 A3000 RMK AO2 SLP160 T02220133,KTKI,2021-10-04T00:53:00Z,33.18,-96.58,22.2,13.3,60,4,,10.0,30.0,1016.0,,,TRUE,,,,,,,CLR,,,,,,,,VFR,,,,,,,,,,,,METAR,173.0
KTHV 040053Z AUTO 20004KT 10SM BKN075 23/17 A2991 RMK AO2 SLP128 T02280167,KTHV,2021-10-04T00:53:00Z,39.92,-76.88,22.8,16.7,200,4,,10.0,29.911417,1012.8,,TRUE,TRUE,,,,,,,BKN,7500,,,,,,,VFR,,,,,,,,,,,,METAR,141.0
KTDZ 040053Z AUTO 22008KT 10SM -RA FEW036 FEW060 BKN110 21/17 A2984 RMK AO2 LTG DSNT N AND SE AND S RAB28 SLP100 P0000 T02060167,KTDZ,2021-10-04T00:53:00Z,41.57,-83.48,20.6,16.7,220,8,,10.0,29.840551,1010.0,,TRUE,TRUE,,,,,,-RA,FEW,3600,FEW,6000,BKN,11000,,,VFR,,,,,,0.005,,,,,,METAR,189.0
KTCL 040053Z 00000KT 10SM FEW017 FEW033 SCT065 23/22 A2998 RMK AO2 SLP150 T02330217 $,KTCL,2021-10-04T00:53:00Z,33.22,-87.62,23.3,21.7,0,0,,10.0,29.97933,1015.0,,,TRUE,TRUE,,,,,,FEW,1700,FEW,3300,SCT,6500,,,VFR,,,,,,,,,,,,METAR,48.0
KTCC 040053Z AUTO 19004KT 10SM CLR 22/08 A3012 RMK AO2 SLP162 T02170078,KTCC,2021-10-04T00:53:00Z,35.18,-103.6,21.7,7.8,190,4,,10.0,30.121063,1016.2,,TRUE,TRUE,,,,,,,CLR,,,,,,,,VFR,,,,,,,,,,,,METAR,1233.0
KSWO 040053Z 33003KT 10SM CLR 20/10 A3002 RMK AO2 SLP157 T02000100,KSWO,2021-10-04T00:53:00Z,36.17,-97.08,20.0,10.0,330,3,,10.0,30.02067,1015.7,,,TRUE,,,,,,,CLR,,,,,,,,VFR,,,,,,,,,,,,METAR,293.0
KSTS 040053Z 21005KT 10SM CLR 31/05 A2987 RMK AO2 SLP108 T03110050,KSTS,2021-10-04T00:53:00Z,38.5,-122.82,31.1,5.0,210,5,,10.0,29.870079,1010.8,,,TRUE,,,,,,,CLR,,,,,,,,VFR,,,,,,,,,,,,METAR,35.0
KSTP 040053Z 00000KT 10SM CLR 17/14 A2996 RMK AO2 SLP143 T01670139,KSTP,2021-10-04T00:53:00Z,44.93,-93.05,16.7,13.9,0,0,,10.0,29.958662,1014.3,,,TRUE,,,,,,,CLR,,,,,,,,VFR,,,,,,,,,,,,METAR,213.0
KSTJ 040053Z AUTO 02004KT 10SM CLR 15/08 A2998 RMK AO2 SLP149 T01500083,KSTJ,2021-10-04T00:53:00Z,39.77,-94.92,15.0,8.3,20,4,,10.0,29.97933,1014.9,,TRUE,TRUE,,,,,,,CLR,,,,,,,,VFR,,,,,,,,,,,,METAR,247.0
KSTC 040053Z 04003KT 10SM CLR 13/11 A2997 RMK AO2 SLP160 T01330111 $,KSTC,2021-10-04T00:53:00Z,45.55,-94.05,13.3,11.1,40,3,,10.0,29.970472,1016.0,,,TRUE,TRUE,,,,,,CLR,,,,,,,,VFR,,,,,,,,,,,,METAR,302.0
KSSI 040053Z AUTO 18006KT 10SM CLR 26/22 A3001 RMK AO2 SLP165 T02560222,KSSI,2021-10-04T00:53:00Z,31.15,-81.38,25.6,22.2,180,6,,10.0,30.008858,1016.5,,TRUE,TRUE,,,,,,,CLR,,,,,,,,VFR,,,,,,,,,,,,METAR,6.0
KSSF 040053Z 09003KT 10SM CLR 29/19 A2995 RMK AO2 SLP132 T02890194 $,KSSF,2021-10-04T00:53:00Z,29.33,-98.47,28.9,19.4,90,3,,10.0,29.949802,1013.2,,,TRUE,TRUE,,,,,,CLR,,,,,,,,VFR,,,,,,,,,,,,METAR,175.0
KSRQ 040053Z 07004KT 10SM CLR 27/19 A2996 RMK AO2 SLP144 T02720189,KSRQ,2021-10-04T00:53:00Z,27.4,-82.57,27.2,18.9,70,4,,10.0,29.958662,1014.4,,,TRUE,,,,,,,CLR,,,,,,,,VFR,,,,,,,,,,,,METAR,5.0
KSPW 040053Z AUTO 00000KT 10SM CLR 15/08 A2999 RMK AO2 SLP157 T01500083,KSPW,2021-10-04T00:53:00Z,43.17,-95.22,15.0,8.3,0,0,,10.0,29.991142,1015.7,,TRUE,TRUE,,,,,,,CLR,,,,,,,,VFR,,,,,,,,,,,,METAR,407.0
KSPG 040053Z AUTO 36009KT 10SM CLR 28/22 A2997 RMK AO2 SLP147 T02780222,KSPG,2021-10-04T00:53:00Z,27.77,-82.63,27.8,22.2,360,9,,10.0,29.970472,1014.7,,TRUE,TRUE,,,,,,,CLR,,,,,,,,VFR,,,,,,,,,,,,METAR,1.0
KSPB 040053Z AUTO 36010KT 10SM CLR 18/12 A3003 RMK AO2 SLP170 T01780117,KSPB,2021-10-04T00:53:00Z,45.77,-122.87,17.8,11.7,360,10,,10.0,30.029528,1017.0,,TRUE,TRUE,,,,,,,CLR,,,,,,,,VFR,,,,,,,,,,,,METAR,15.0
KSNY 040053Z AUTO 03005KT 10SM CLR 17/M04 A3010 RMK AO2 SLP185 T01671044,KSNY,2021-10-04T00:53:00Z,41.1,-102.98,16.7,-4.4,30,5,,10.0,30.100393,1018.5,,TRUE,TRUE,,,,,,,CLR,,,,,,,,VFR,,,,,,,,,,,,METAR,1307.0
KSNS 040053Z 34007KT 10SM CLR 24/09 A2989 RMK AO2 SLP131 T02390094,KSNS,2021-10-04T00:53:00Z,36.67,-121.6,23.9,9.4,340,7,,10.0,29.890747,1013.1,,,TRUE,,,,,,,CLR,,,,,,,,VFR,,,,,,,,,,,,METAR,20.0
KSNA 040053Z 26004KT 10SM FEW210 FEW250 28/08 A2987 RMK AO2 SLP113 T02780083,KSNA,2021-10-04T00:53:00Z,33.67,-117.87,27.8,8.3,260,4,,10.0,29.870079,1011.3,,,TRUE,,,,,,,FEW,21000,FEW,25000,,,,,VFR,,,,,,,,,,,,METAR,14.0
KSMQ 040053Z AUTO 00000KT 6SM BR SCT049 BKN065 20/19 A2990 RMK AO2 RAB2355E06 SLP125 P0000 T02000194,KSMQ,2021-10-04T00:53:00Z,40.62,-74.67,20.0,19.4,0,0,,6.0,29.899607,1012.5,,TRUE,TRUE,,,,,,BR,SCT,4900,BKN,6500,,,,,VFR,,,,,,0.005,,,,,,METAR,30.0
KSMF 040053Z 16006KT 10SM SCT250 31/02 A2987 RMK AO2 SLP113 T03110022,KSMF,2021-10-04T00:53:00Z,38.7,-121.6,31.1,2.2,160,6,,10.0,29.870079,1011.3,,,TRUE,,,,,,,SCT,25000,,,,,,,VFR,,,,,,,,,,,,METAR,7.0
KSLN 040053Z 29003KT 10SM CLR 21/11 A3002 RMK AO2 SLP161 T02060106,KSLN,2021-10-04T00:53:00Z,38.8,-97.65,20.6,10.6,290,3,,10.0,30.02067,1016.1,,,TRUE,,,,,,,CLR,,,,,,,,VFR,,,,,,,,,,,,METAR,377.0
KSJC 040053Z 33008KT 10SM FEW050 BKN080 31/06 A2987 RMK AO2 SLP113 FU FEW050 FU BKN080 T03060061,KSJC,2021-10-04T00:53:00Z,37.37,-121.92,30.6,6.1,330,8,,10.0,29.870079,1011.3,,,TRUE,,,,,,,FEW,5000,BKN,8000,,,,,VFR,,,,,,,,,,,,METAR,13.0
KSIY 040053Z AUTO 32005KT 10SM CLR 29/01 A2996 RMK AO2 SLP137 T02940011 $,KSIY,2021-10-04T00:53:00Z,41.77,-122.47,29.4,1.1,320,5,,10.0,29.958662,1013.7,,TRUE,TRUE,TRUE,,,,,,CLR,,,,,,,,VFR,,,,,,,,,,,,METAR,807.0
KSHR 040053Z AUTO 00000KT 10SM CLR 15/02 A3006 RMK AO2 SLP176 T01500017,KSHR,2021-10-04T00:53:00Z,44.77,-106.97,15.0,1.7,0,0,,10.0,30.059055,1017.6,,TRUE,TRUE,,,,,,,CLR,,,,,,,,VFR,,,,,,,,,,,,METAR,1212.0
KSHN 040053Z AUTO 08004KT 10SM FEW012 OVC037 14/12 A3009 RMK AO2 SLP189 T01390117 $,KSHN,2021-10-04T00:53:00Z,47.23,-123.13,13.9,11.7,80,4,,10.0,30.088583,1018.9,,TRUE,TRUE,TRUE,,,,,,FEW,1200,OVC,3700,,,,,VFR,,,,,,,,,,,,METAR,84.0
KSGR 040053Z 00000KT 10SM OVC110 27/22 A2995 RMK AO2 SLP143 T02670222,KSGR,2021-10-04T00:53:00Z,29.62,-95.65,26.7,22.2,0,0,,10.0,29.949802,1014.3,,,TRUE,,,,,,,OVC,11000,,,,,,,VFR,,,,,,,,,,,,METAR,22.0
KSFF 040053Z 25004KT 10SM CLR 21/04 A3001 RMK AO2 SLP158 T02060039,KSFF,2021-10-04T00:53:00Z,47.68,-117.32,20.6,3.9,250,4,,10.0,30.008858,1015.8,,,TRUE,,,,,,,CLR,,,,,,,,VFR,,,,,,,,,,,,METAR,593.0
KSFB 040053Z 05005KT 10SM CLR 23/20 A3001 RMK AO2 SLP162 T02330200,KSFB,2021-10-04T00:53:00Z,28.77,-81.23,23.3,20.0,50,5,,10.0,30.008858,1016.2,,,TRUE,,,,,,,CLR,,,,,,,,VFR,,,,,,,,,,,,METAR,16.0
KSEG 040053Z AUTO 00000KT 8SM SCT048 BKN060 OVC085 18/17 A2992 RMK AO2 RAE47 SLP132 P0001 T01780172 $,KSEG,2021-10-04T00:53:00Z,40.82,-76.87,17.8,17.2,0,0,,8.0,29.920275,1013.2,,TRUE,TRUE,TRUE,,,,,,SCT,4800,BKN,6000,OVC,8500,,,VFR,,,,,,0.01,,,,,,METAR,136.0
KSEA 040053Z 02007KT 10SM OVC014 13/10 A3011 RMK AO2 SLP203 T01330100,KSEA,2021-10-04T00:53:00Z,47.45,-122.32,13.3,10.0,20,7,,10.0,30.109253,1020.3,,,TRUE,,,,,,,OVC,1400,,,,,,,MVFR,,,,,,,,,,,,METAR,115.0
KSDM 040053Z 32003KT 10SM CLR 28/M01 A2990 RMK AO2 SLP121 T02831006 $,KSDM,2021-10-04T00:53:00Z,32.58,-117.0,28.3,-0.6,320,3,,10.0,29.899607,1012.1,,,TRUE,TRUE,,,,,,CLR,,,,,,,,VFR,,,,,,,,,,,,METAR,161.0
KSDL 040053Z 22004KT 10SM CLR 33/07 A2991 RMK AO2 SLP104 T03280067,KSDL,2021-10-04T00:53:00Z,33.62,-111.92,32.8,6.7,220,4,,10.0,29.911417,1010.4,,,TRUE,,,,,,,CLR,,,,,,,,VFR,,,,,,,,,,,,METAR,438.0
KSDB 040053Z AUTO 19010KT 10SM CLR 26/M03 A3011 RMK AO2 SLP139 T02611033 $,KSDB,2021-10-04T00:53:00Z,34.75,-118.72,26.1,-3.3,190,10,,10.0,30.109253,1013.9,,TRUE,TRUE,TRUE,,,,,,CLR,,,,,,,,VFR,,,,,,,,,,,,METAR,1377.0
KSBA 040053Z 22006KT 10SM CLR 22/14 A2987 RMK AO2 SLP113 T02220139 $,KSBA,2021-10-04T00:53:00Z,34.43,-119.85,22.2,13.9,220,6,,10.0,29.870079,1011.3,,,TRUE,TRUE,,,,,,CLR,,,,,,,,VFR,,,,,,,,,,,,METAR,2.0
KSAV 040053Z 19003KT 10SM BKN220 24/21 A3003 RMK AO2 SLP167 T02390206,KSAV,2021-10-04T00:53:00Z,32.12,-81.2,23.9,20.6,190,3,,10.0,30.029528,1016.7,,,TRUE,,,,,,,BKN,22000,,,,,,,VFR,,,,,,,,,,,,METAR,10.0
KSAF 040053Z 24006KT 10SM CLR 17/04 A3027 RMK AO2 SLP188 T01720039,KSAF,2021-10-04T00:53:00Z,35.62,-106.1,17.2,3.9,240,6,,10.0,30.268702,1018.8,,,TRUE,,,,,,,CLR,,,,,,,,VFR,,,,,,,,,,,,METAR,1918.0
KSAC 040053Z 20004KT 10SM CLR 29/07 A2988 RMK AO2 SLP116 T02940067,KSAC,2021-10-04T00:53:00Z,38.5,-121.5,29.4,6.7,200,4,,10.0,29.878937,1011.6,,,TRUE,,,,,,,CLR,,,,,,,,VFR,,,,,,,,,,,,METAR,5.0
KRXE 040053Z AUTO 00000KT 10SM CLR 20/M05 A3018 RMK AO2 SLP207 T02001050,KRXE,2021-10-04T00:53:00Z,43.83,-111.8,20.0,-5.0,0,0,,10.0,30.180119,1020.7,,TRUE,TRUE,,,,,,,CLR,,,,,,,,VFR,,,,,,,,,,,,METAR,1483.0
KRWL 040053Z AUTO 23007KT 10SM CLR 16/M05 A3027 RMK AO2 SLP199 T01561050,KRWL,2021-10-04T00:53:00Z,41.8,-107.2,15.6,-5.0,230,7,,10.0,30.268702,1019.9,,TRUE,TRUE,,,,,,,CLR,,,,,,,,VFR,,,,,,,,,,,,METAR,2066.0
KRWI 040053Z AUTO 18006KT 10SM CLR 23/17 A3001 RMK AO2 SLP162 T02280172 $,KRWI,2021-10-04T00:53:00Z,35.85,-77.9,22.8,17.2,180,6,,10.0,30.008858,1016.2,,TRUE,TRUE,TRUE,,,,,,CLR,,,,,,,,VFR,,,,,,,,,,,,METAR,46.0
KRWF 040053Z AUTO 00000KT 10SM CLR 19/07 A2997 RMK AO2 SLP148 T01940072,KRWF,2021-10-04T00:53:00Z,44.55,-95.08,19.4,7.2,0,0,,10.0,29.970472,1014.8,,TRUE,TRUE,,,,,,,CLR,,,,,,,,VFR,,,,,,,,,,,,METAR,312.0
KRVS 040053Z 31003KT 10SM CLR 19/15 A2999 RMK AO2 SLP164 T01940150,KRVS,2021-10-04T00:53:00Z,36.05,-95.98,19.4,15.0,310,3,,10.0,29.991142,1016.4,,,TRUE,,,,,,,CLR,,,,,,,,VFR,,,,,,,,,,,,METAR,191.0
KRUE 040053Z AUTO 34004KT 10SM FEW050 23/15 A2996 RMK AO2 SLP140 T02330150 $,KRUE,2021-10-04T00:53:00Z,35.25,-93.1,23.3,15.0,340,4,,10.0,29.958662,1014.0,,TRUE,TRUE,TRUE,,,,,,FEW,5000,,,,,,,VFR,,,,,,,,,,,,METAR,119.0
KRTN 040053Z AUTO 20005KT 10SM CLR 16/05 A3025 RMK AO2 SLP196 T01560050 $,KRTN,2021-10-04T00:53:00Z,36.73,-104.5,15.6,5.0,200,5,,10.0,30.250984,1019.6,,TRUE,TRUE,TRUE,,,,,,CLR,,,,,,,,VFR,,,,,,,,,,,,METAR,1939.0
KRSW 040053Z 12003KT 10SM CLR 26/21 A2998 RMK AO2 SLP148 T02560206,KRSW,2021-10-04T00:53:00Z,26.53,-81.75,25.6,20.6,120,3,,10.0,29.97933,1014.8,,,TRUE,,,,,,,CLR,,,,,,,,VFR,,,,,,,,,,,,METAR,8.0
KRSL 040053Z AUTO 11007KT 10SM CLR 20/07 A3004 RMK AO2 SLP168 T02000067,KRSL,2021-10-04T00:53:00Z,38.87,-98.82,20.0,6.7,110,7,,10.0,30.041338,1016.8,,TRUE,TRUE,,,,,,,CLR,,,,,,,,VFR,,,,,,,,,,,,METAR,569.0
KRQE 040053Z AUTO 14004KT 10SM CLR 18/02 A3029 RMK AO2 SLP182 T01830022,KRQE,2021-10-04T00:53:00Z,35.65,-109.07,18.3,2.2,140,4,,10.0,30.28937,1018.2,,TRUE,TRUE,,,,,,,CLR,,,,,,,,VFR,,,,,,,,,,,,METAR,2056.0
KRNT 040053Z 03005KT 10SM BKN020 OVC041 14/10 A3011 RMK AO2 SLP200 T01390100,KRNT,2021-10-04T00:53:00Z,47.5,-122.22,13.9,10.0,30,5,,10.0,30.109253,1020.0,,,TRUE,,,,,,,BKN,2000,OVC,4100,,,,,MVFR,,,,,,,,,,,,METAR,7.0
KRNM 040053Z 28006KT 10SM CLR 27/01 A2995 RMK AO2 SLP130 T02670006,KRNM,2021-10-04T00:53:00Z,33.03,-116.92,26.7,0.6,280,6,,10.0,29.949802,1013.0,,,TRUE,,,,,,,CLR,,,,,,,,VFR,,,,,,,,,,,,METAR,423.0
KRMG 040053Z AUTO 00000KT 10SM FEW041 BKN050 OVC070 21/19 A3000 RMK AO2 SLP152 T02110194,KRMG,2021-10-04T00:53:00Z,34.35,-85.17,21.1,19.4,0,0,,10.0,30.0,1015.2,,TRUE,TRUE,,,,,,,FEW,4100,BKN,5000,OVC,7000,,,VFR,,,,,,,,,,,,METAR,196.0
KRME 040053Z 10005KT 8SM -RA OVC016 16/16 A2993 RMK AO2 SLP134 P0005 T01610156 $,KRME,2021-10-04T00:53:00Z,43.22,-75.4,16.1,15.6,100,5,,8.0,29.929134,1013.4,,,TRUE,TRUE,,,,,-RA,OVC,1600,,,,,,,MVFR,,,,,,0.05,,,,,,METAR,146.0
KRKP 040053Z AUTO 14006KT 10SM CLR 27/23 A2995 RMK AO2 SLP145 T02720233,KRKP,2021-10-04T00:53:00Z,28.08,-97.05,27.2,23.3,140,6,,10.0,29.949802,1014.5,,TRUE,TRUE,,,,,,,CLR,,,,,,,,VFR,,,,,,,,,,,,METAR,8.0
KRIW 040053Z AUTO 06007KT 10SM CLR 17/M07 A3015 RMK AO2 SLP174 T01721067,KRIW,2021-10-04T00:53:00Z,43.07,-108.43,17.2,-6.7,60,7,,10.0,30.15059,1017.4,,TRUE,TRUE,,,,,,,CLR,,,,,,,,VFR,,,,,,,,,,,,METAR,1662.0
KRIL 040053Z AUTO 26007KT 10SM CLR 20/01 A3020 RMK AO2 SLP192 T02000011,KRIL,2021-10-04T00:53:00Z,39.53,-107.73,20.0,1.1,260,7,,10.0,30.200787,1019.2,,TRUE,TRUE,,,,,,,CLR,,,,,,,,VFR,,,,,,,,,,,,METAR,1683.0
KRHI 040053Z AUTO 35006KT 10SM OVC010 15/13 A2994 RMK AO2 CIG 009V014 SLP138 T01500133,KRHI,2021-10-04T00:53:00Z,45.63,-89.48,15.0,13.3,350,6,,10.0,29.940945,1013.8,,TRUE,TRUE,,,,,,,OVC,1000,,,,,,,MVFR,,,,,,,,,,,,METAR,493.0
KRDD 040053Z 15010KT 10SM CLR 31/03 A2986 RMK AO2 SLP106 T03110033,KRDD,2021-10-04T00:53:00Z,40.52,-122.3,31.1,3.3,150,10,,10.0,29.861221,1010.6,,,TRUE,,,,,,,CLR,,,,,,,,VFR,,,,,,,,,,,,METAR,152.0
KRBG 040053Z AUTO 01004KT 10SM CLR 21/11 A2999 RMK AO2 SLP154 T02110111,KRBG,2021-10-04T00:53:00Z,43.23,-123.35,21.1,11.1,10,4,,10.0,29.991142,1015.4,,TRUE,TRUE,,,,,,,CLR,,,,,,,,VFR,,,,,,,,,,,,METAR,152.0
KRBD 040053Z 36004KT 10SM CLR 23/13 A3000 RMK AO2 SLP151 T02330133,KRBD,2021-10-04T00:53:00Z,32.68,-96.87,23.3,13.3,360,4,,10.0,30.0,1015.1,,,TRUE,,,,,,,CLR,,,,,,,,VFR,,,,,,,,,,,,METAR,200.0
KRAL 040053Z 28015KT 10SM CLR 31/00 A2987 RMK AO2 SLP099 T03110000 $,KRAL,2021-10-04T00:53:00Z,33.95,-117.45,31.1,0.0,280,15,,10.0,29.870079,1009.9,,,TRUE,TRUE,,,,,,CLR,,,,,,,,VFR,,,,,,,,,,,,METAR,254.0
KRAC 040053Z AUTO 00000KT 5SM RA BR OVC100 18/17 A2985 RMK AO2 SLP106 P0010 T01830172,KRAC,2021-10-04T00:53:00Z,42.77,-87.82,18.3,17.2,0,0,,5.0,29.84941,1010.6,,TRUE,TRUE,,,,,,RA BR,OVC,10000,,,,,,,MVFR,,,,,,0.1,,,,,,METAR,203.0
KPWA 040053Z 04003KT 10SM CLR 22/09 A3003 RMK AO2 SLP161 T02170089,KPWA,2021-10-04T00:53:00Z,35.53,-97.65,21.7,8.9,40,3,,10.0,30.029528,1016.1,,,TRUE,,,,,,,CLR,,,,,,,,VFR,,,,,,,,,,,,METAR,390.0
KPUW 040053Z AUTO 00000KT 10SM CLR 19/M01 A3005 RMK AO2 SLP176 T01941006,KPUW,2021-10-04T00:53:00Z,46.75,-117.12,19.4,-0.6,0,0,,10.0,30.050198,1017.6,,TRUE,TRUE,,,,,,,CLR,,,,,,,,VFR,,,,,,,,,,,,METAR,774.0
KPUC 040053Z AUTO 13003KT 10SM CLR 20/00 A3023 RMK AO2 SLP198 T02000000,KPUC,2021-10-04T00:53:00Z,39.62,-110.75,20.0,0.0,130,3,,10.0,30.230314,1019.8,,TRUE,TRUE,,,,,,,CLR,,,,,,,,VFR,,,,,,,,,,,,METAR,1777.0
KPUB 040053Z 15004KT 10SM CLR 22/03 A3013 RMK AO2 SLP166 T02220033,KPUB,2021-10-04T00:53:00Z,38.28,-104.5,22.2,3.3,150,4,,10.0,30.129921,1016.6,,,TRUE,,,,,,,CLR,,,,,,,,VFR,,,,,,,,,,,,METAR,1441.0
KPTK 040053Z 17005KT 10SM FEW035 SCT065 OVC110 18/16 A2983 RMK AO2 RAE38 TSE19 SLP091 P0033 T01830161 $,KPTK,2021-10-04T00:53:00Z,42.67,-83.42,18.3,16.1,170,5,,10.0,29.828741,1009.1,,,TRUE,TRUE,,,,,,FEW,3500,SCT,6500,OVC,11000,,,VFR,,,,,,0.33,,,,,,METAR,295.0
KPSX 040053Z AUTO 16004KT 10SM OVC110 25/23 A2996 RMK AO2 SLP144 T02500233,KPSX,2021-10-04T00:53:00Z,28.72,-96.25,25.0,23.3,160,4,,10.0,29.958662,1014.4,,TRUE,TRUE,,,,,,,OVC,11000,,,,,,,VFR,,,,,,,,,,,,METAR,4.0
KPSP 040053Z 11010KT 10SM CLR 36/01 A2984 RMK AO2 SLP099 T03610006 $,KPSP,2021-10-04T00:53:00Z,33.82,-116.5,36.1,0.6,110,10,,10.0,29.840551,1009.9,,,TRUE,TRUE,,,,,,CLR,,,,,,,,VFR,,,,,,,,,,,,METAR,123.0
KPSC 040053Z 09004KT 10SM CLR 24/03 A2997 RMK AO2 SLP146 T02440028,KPSC,2021-10-04T00:53:00Z,46.27,-119.12,24.4,2.8,90,4,,10.0,29.970472,1014.6,,,TRUE,,,,,,,CLR,,,,,,,,VFR,,,,,,,,,,,,METAR,121.0
KPRC 040053Z 16006KT 10SM CLR 22/04 A3016 RMK AO2 SLP155 T02170039,KPRC,2021-10-04T00:53:00Z,34.65,-112.42,21.7,3.9,160,6,,10.0,30.159449,1015.5,,,TRUE,,,,,,,CLR,,,,,,,,VFR,,,,,,,,,,,,METAR,1528.0
KPRB 040053Z AUTO 18009KT 10SM CLR 29/M01 A2989 RMK AO2 SLP114 T02941011,KPRB,2021-10-04T00:53:00Z,35.67,-120.63,29.4,-1.1,180,9,,10.0,29.890747,1011.4,,TRUE,TRUE,,,,,,,CLR,,,,,,,,VFR,,,,,,,,,,,,METAR,249.0
KPQL 040053Z AUTO 14004KT 10SM SCT060 24/23 A2996 RMK AO2 RAB37E48 SLP147 P0000 T02440233 TSNO,KPQL,2021-10-04T00:53:00Z,30.47,-88.53,24.4,23.3,140,4,,10.0,29.958662,1014.7,,TRUE,TRUE,,,TRUE,,,,SCT,6000,,,,,,,VFR,,,,,,0.005,,,,,,METAR,4.0
KPOU 040053Z AUTO 00000KT 10SM BKN042 OVC050 18/17 A2992 RMK AO2 SLP127 T01830167,KPOU,2021-10-04T00:53:00Z,41.63,-73.88,18.3,16.7,0,0,,10.0,29.920275,1012.7,,TRUE,TRUE,,,,,,,BKN,4200,OVC,5000,,,,,VFR,,,,,,,,,,,,METAR,45.0
KPOF 040053Z AUTO 00000KT 10SM SCT070 19/17 A2993 RMK AO2 SLP132 T01890172,KPOF,2021-10-04T00:53:00Z,36.77,-90.32,18.9,17.2,0,0,,10.0,29.929134,1013.2,,TRUE,TRUE,,,,,,,SCT,7000,,,,,,,VFR,,,,,,,,,,,,METAR,99.0
KPNS 040053Z 15005KT 10SM FEW065 SCT095 BKN120 25/23 A2998 RMK AO2 RAE05 SLP152 P0000 T02500233,KPNS,2021-10-04T00:53:00Z,30.48,-87.18,25.0,23.3,150,5,,10.0,29.97933,1015.2,,,TRUE,,,,,,,FEW,6500,SCT,9500,BKN,12000,,,VFR,,,,,,0.005,,,,,,METAR,34.0
KPNC 040053Z AUTO A3001 RMK AO2 SLPNO PWINO $,KPNC,2021-10-04T00:53:00Z,36.73,-97.1,,,,,,,30.008858,,,TRUE,TRUE,TRUE,,,,TRUE,,,,,,,,,,,,,,,,,,,,,,METAR,304.0
KPMP 040053Z AUTO 05005KT 10SM CLR 27/18 A2998 RMK AO2 SLP154 T02670183,KPMP,2021-10-04T00:53:00Z,26.25,-80.12,26.7,18.3,50,5,,10.0,29.97933,1015.4,,TRUE,TRUE,,,,,,,CLR,,,,,,,,VFR,,,,,,,,,,,,METAR,4.0
KPMD 040053Z 22008KT 10SM CLR 30/M02 A2997 RMK AO2 SLP127 T03001022 $,KPMD,2021-10-04T00:53:00Z,34.63,-118.08,30.0,-2.2,220,8,,10.0,29.970472,1012.7,,,TRUE,TRUE,,,,,,CLR,,,,,,,,VFR,,,,,,,,,,,,METAR,764.0
KPKD 040053Z AUTO 11004KT 10SM CLR 16/10 A2998 RMK AO2 SLP158 T01610100,KPKD,2021-10-04T00:53:00Z,46.9,-95.07,16.1,10.0,110,4,,10.0,29.97933,1015.8,,TRUE,TRUE,,,,,,,CLR,,,,,,,,VFR,,,,,,,,,,,,METAR,439.0
KPKB 040053Z 19006KT 10SM -RA BKN013 OVC120 20/18 A2992 RMK AO2 SLP127 P0002 T02000183 $,KPKB,2021-10-04T00:53:00Z,39.35,-81.43,20.0,18.3,190,6,,10.0,29.920275,1012.7,,,TRUE,TRUE,,,,,-RA,BKN,1300,OVC,12000,,,,,MVFR,,,,,,0.02,,,,,,METAR,245.0
KPIR 040053Z AUTO 13006KT 10SM CLR 18/09 A2998 RMK AO2 SLP150 T01830089,KPIR,2021-10-04T00:53:00Z,44.38,-100.28,18.3,8.9,130,6,,10.0,29.97933,1015.0,,TRUE,TRUE,,,,,,,CLR,,,,,,,,VFR,,,,,,,,,,,,METAR,524.0
KPIL 040053Z AUTO 04005KT 10SM FEW018 FEW027 27/23 A2994 RMK AO2 SLP137 T02720233,KPIL,2021-10-04T00:53:00Z,26.17,-97.33,27.2,23.3,40,5,,10.0,29.940945,1013.7,,TRUE,TRUE,,,,,,,FEW,1800,FEW,2700,,,,,VFR,,,,,,,,,,,,METAR,5.0
KPIH 040053Z 00000KT 10SM CLR 21/M04 A3015 RMK AO2 SLP194 T02111044,KPIH,2021-10-04T00:53:00Z,42.92,-112.57,21.1,-4.4,0,0,,10.0,30.15059,1019.4,,,TRUE,,,,,,,CLR,,,,,,,,VFR,,,,,,,,,,,,METAR,1357.0
KPIE 040053Z 36006KT 10SM CLR 27/22 A2999 RMK AO2 SLP154 T02720217,KPIE,2021-10-04T00:53:00Z,27.92,-82.68,27.2,21.7,360,6,,10.0,29.991142,1015.4,,,TRUE,,,,,,,CLR,,,,,,,,VFR,,,,,,,,,,,,METAR,1.0
KPGD 040053Z AUTO 08005KT 10SM SCT075 26/21 A2999 RMK AO2 SLP154 T02560211,KPGD,2021-10-04T00:53:00Z,26.92,-82.0,25.6,21.1,80,5,,10.0,29.991142,1015.4,,TRUE,TRUE,,,,,,,SCT,7500,,,,,,,VFR,,,,,,,,,,,,METAR,7.0
KPGA 040053Z AUTO 02004KT 10SM CLR 26/03 A3012 RMK AO2 SLP148 T02560033,KPGA,2021-10-04T00:53:00Z,36.92,-111.45,25.6,3.3,20,4,,10.0,30.121063,1014.8,,TRUE,TRUE,,,,,,,CLR,,,,,,,,VFR,,,,,,,,,,,,METAR,1310.0
KPDX 040053Z 32008KT 10SM FEW035 SCT300 19/12 A3003 RMK AO2 SLP168 T01890122,KPDX,2021-10-04T00:53:00Z,45.6,-122.62,18.9,12.2,320,8,,10.0,30.029528,1016.8,,,TRUE,,,,,,,FEW,3500,SCT,30000,,,,,VFR,,,,,,,,,,,,METAR,7.0
KPDT 040053Z 01003KT 10SM CLR 22/01 A3000 RMK AO2 SLP148 T02170006,KPDT,2021-10-04T00:53:00Z,45.7,-118.83,21.7,0.6,10,3,,10.0,30.0,1014.8,,,TRUE,,,,,,,CLR,,,,,,,,VFR,,,,,,,,,,,,METAR,453.0
KPDK 040053Z 00000KT 6SM BR FEW080 BKN110 20/19 A3003 RMK AO2 SLP158 T02000194,KPDK,2021-10-04T00:53:00Z,33.88,-84.3,20.0,19.4,0,0,,6.0,30.029528,1015.8,,,TRUE,,,,,,BR,FEW,8000,BKN,11000,,,,,VFR,,,,,,,,,,,,METAR,299.0
KPBI 040053Z 08008KT 10SM FEW035 FEW250 27/18 A3000 RMK AO2 SLP157 T02720183,KPBI,2021-10-04T00:53:00Z,26.68,-80.1,27.2,18.3,80,8,,10.0,30.0,1015.7,,,TRUE,,,,,,,FEW,3500,FEW,25000,,,,,VFR,,,,,,,,,,,,METAR,4.0
KPBG 040053Z AUTO 32003KT 10SM BKN010 BKN014 OVC027 13/13 A2998 RMK AO2 SLP154 T01330128,KPBG,2021-10-04T00:53:00Z,44.65,-73.47,13.3,12.8,320,3,,10.0,29.97933,1015.4,,TRUE,TRUE,,,,,,,BKN,1000,BKN,1400,OVC,2700,,,MVFR,,,,,,,,,,,,METAR,61.0
KPBF 040053Z AUTO 07003KT 10SM -RA SCT047 OVC065 25/21 A2995 RMK AO2 RAB52 SLP140 P0000 T02500206,KPBF,2021-10-04T00:53:00Z,34.18,-91.93,25.0,20.6,70,3,,10.0,29.949802,1014.0,,TRUE,TRUE,,,,,,-RA,SCT,4700,OVC,6500,,,,,VFR,,,,,,0.005,,,,,,METAR,63.0
KPAH 040053Z 00000KT 10SM CLR 19/17 A2991 RMK AO2 SLP124 T01940167 $,KPAH,2021-10-04T00:53:00Z,37.07,-88.77,19.4,16.7,0,0,,10.0,29.911417,1012.4,,,TRUE,TRUE,,,,,,CLR,,,,,,,,VFR,,,,,,,,,,,,METAR,125.0
KPAE 040053Z 00000KT 10SM OVC035 12/07 A3012 RMK AO2 SLP200 T01220072,KPAE,2021-10-04T00:53:00Z,47.92,-122.28,12.2,7.2,0,0,,10.0,30.121063,1020.0,,,TRUE,,,,,,,OVC,3500,,,,,,,VFR,,,,,,,,,,,,METAR,166.0
KP68 040053Z AUTO 03003KT 23/M13 A3016 RMK AO1 SLP160 T02281128,KP68,2021-10-04T00:53:00Z,39.6,-116.0,22.8,-12.8,30,3,,,30.159449,1016.0,,TRUE,TRUE,,,,,,,,,,,,,,,,,,,,,,,,,,,METAR,1813.0
KOXB 040053Z AUTO A2997 RMK AO2 SLP150 PWINO FZRANO,KOXB,2021-10-04T00:53:00Z,38.32,-75.12,,,,,,,29.970472,1015.0,,TRUE,TRUE,,,,TRUE,TRUE,,,,,,,,,,,,,,,,,,,,,,METAR,2.0
KOWD 040053Z 02005KT 10SM OVC012 17/14 A2999 RMK AO2 RAB2357E48 SLP154 P0001 T01670144,KOWD,2021-10-04T00:53:00Z,42.18,-71.17,16.7,14.4,20,5,,10.0,29.991142,1015.4,,,TRUE,,,,,,,OVC,1200,,,,,,,MVFR,,,,,,0.01,,,,,,METAR,14.0
KOWA 040053Z AUTO 00000KT 10SM CLR 12/08 A2997 RMK AO2,KOWA,2021-10-04T00:53:00Z,44.12,-93.25,12.0,8.0,0,0,,10.0,29.970472,,,TRUE,TRUE,,,,,,,CLR,,,,,,,,VFR,,,,,,,,,,,,METAR,345.0
KOVS 040053Z AUTO 32003KT 10SM OVC036 20/16 A2989 RMK AO2 SLP121 T02000156,KOVS,2021-10-04T00:53:00Z,43.15,-90.68,20.0,15.6,320,3,,10.0,29.890747,1012.1,,TRUE,TRUE,,,,,,,OVC,3600,,,,,,,VFR,,,,,,,,,,,,METAR,205.0
KOVE 040053Z AUTO 17004KT 10SM CLR 30/06 A2989 RMK AO2 SLP123 T03000061,KOVE,2021-10-04T00:53:00Z,39.5,-121.62,30.0,6.1,170,4,,10.0,29.890747,1012.3,,TRUE,TRUE,,,,,,,CLR,,,,,,,,VFR,,,,,,,,,,,,METAR,56.0
KOTM 040053Z AUTO 31006KT 10SM CLR 17/08 A2992 RMK AO2 SLP129 T01720083,KOTM,2021-10-04T00:53:00Z,41.1,-92.45,17.2,8.3,310,6,,10.0,29.920275,1012.9,,TRUE,TRUE,,,,,,,CLR,,,,,,,,VFR,,,,,,,,,,,,METAR,254.0
KOSU 040053Z 20007KT 10SM OVC070 21/18 A2989 RMK AO2 SLP117 T02060183,KOSU,2021-10-04T00:53:00Z,40.08,-83.08,20.6,18.3,200,7,,10.0,29.890747,1011.7,,,TRUE,,,,,,,OVC,7000,,,,,,,VFR,,,,,,,,,,,,METAR,276.0
KOSH 040053Z 06003KT 6SM -RA BR BKN005 OVC019 19/19 A2985 RMK AO2 RAB18 CIG 003V008 SLP101 P0004 T01890189,KOSH,2021-10-04T00:53:00Z,43.98,-88.55,18.9,18.9,60,3,,6.0,29.84941,1010.1,,,TRUE,,,,,,-RA BR,BKN,500,OVC,1900,,,,,IFR,,,,,,0.04,,,,,,METAR,239.0
KORL 040053Z 07005KT 10SM CLR 24/21 A3001 RMK AO2 SLP166 T02440206,KORL,2021-10-04T00:53:00Z,28.55,-81.33,24.4,20.6,70,5,,10.0,30.008858,1016.6,,,TRUE,,,,,,,CLR,,,,,,,,VFR,,,,,,,,,,,,METAR,32.0
KORB 040053Z AUTO 00000KT 10SM SCT040 13/12 A2997 RMK AO2,KORB,2021-10-04T00:53:00Z,48.02,-92.87,13.0,12.0,0,0,,10.0,29.970472,,,TRUE,TRUE,,,,,,,SCT,4000,,,,,,,VFR,,,,,,,,,,,,METAR,407.0
KOQT 040053Z AUTO 00000KT 10SM BKN017 OVC023 21/19 A3000 RMK AO2 SLP147 T02060189 $,KOQT,2021-10-04T00:53:00Z,36.02,-84.23,20.6,18.9,0,0,,10.0,30.0,1014.7,,TRUE,TRUE,TRUE,,,,,,BKN,1700,OVC,2300,,,,,MVFR,,,,,,,,,,,,METAR,276.0
KOPF 040053Z 05004KT 10SM CLR 27/19 A2999 RMK AO2 SLP155 T02670194,KOPF,2021-10-04T00:53:00Z,25.92,-80.28,26.7,19.4,50,4,,10.0,29.991142,1015.5,,,TRUE,,,,,,,CLR,,,,,,,,VFR,,,,,,,,,,,,METAR,1.0
KONT 040053Z 24009KT 10SM FEW250 32/M01 A2988 RMK AO2 SLP101 T03221006,KONT,2021-10-04T00:53:00Z,34.05,-117.58,32.2,-0.6,240,9,,10.0,29.878937,1010.1,,,TRUE,,,,,,,FEW,25000,,,,,,,VFR,,,,,,,,,,,,METAR,279.0
KONO 040053Z AUTO 00000KT 10SM CLR 26/03 A3002 RMK AO2 SLP160 T02560033,KONO,2021-10-04T00:53:00Z,44.02,-117.02,25.6,3.3,0,0,,10.0,30.02067,1016.0,,TRUE,TRUE,,,,,,,CLR,,,,,,,,VFR,,,,,,,,,,,,METAR,668.0
KOMK 040053Z AUTO 17004KT 10SM CLR 22/04 A2995 RMK AO2 SLP140 T02170044,KOMK,2021-10-04T00:53:00Z,48.47,-119.52,21.7,4.4,170,4,,10.0,29.949802,1014.0,,TRUE,TRUE,,,,,,,CLR,,,,,,,,VFR,,,,,,,,,,,,METAR,395.0
KOLF 040053Z AUTO 00000KT 7SM CLR 18/M03 A2993 RMK AO2 SLP139 T01781028,KOLF,2021-10-04T00:53:00Z,48.1,-105.58,17.8,-2.8,0,0,,7.0,29.929134,1013.9,,TRUE,TRUE,,,,,,,CLR,,,,,,,,VFR,,,,,,,,,,,,METAR,605.0
KOJC 040053Z 00000KT 10SM CLR 19/13 A2998 RMK AO2 SLP145 T01940133 $,KOJC,2021-10-04T00:53:00Z,38.85,-94.73,19.4,13.3,0,0,,10.0,29.97933,1014.5,,,TRUE,TRUE,,,,,,CLR,,,,,,,,VFR,,,,,,,,,,,,METAR,328.0
KOGD 040053Z 01005KT 10SM -RA CLR 22/M02 A3016 RMK AO2 RAB40 SLP177 P0000 T02221022,KOGD,2021-10-04T00:53:00Z,41.2,-112.02,22.2,-2.2,10,5,,10.0,30.159449,1017.7,,,TRUE,,,,,,-RA,CLR,,,,,,,,VFR,,,,,,0.005,,,,,,METAR,1356.0
KOGB 040053Z AUTO 13004KT 10SM CLR 22/19 A3004 RMK AO2 SLP169 T02170194 TSNO,KOGB,2021-10-04T00:53:00Z,33.47,-80.85,21.7,19.4,130,4,,10.0,30.041338,1016.9,,TRUE,TRUE,,,TRUE,,,,CLR,,,,,,,,VFR,,,,,,,,,,,,METAR,59.0
KODX 040053Z AUTO 22003KT 10SM CLR 16/10 A3002 RMK AO2 SLP171 T01560100 $,KODX,2021-10-04T00:53:00Z,41.62,-98.95,15.6,10.0,220,3,,10.0,30.02067,1017.1,,TRUE,TRUE,TRUE,,,,,,CLR,,,,,,,,VFR,,,,,,,,,,,,METAR,628.0
KODO 040053Z AUTO 05006KT 10SM CLR 24/07 A3012 RMK AO2 SLP164 T02390072,KODO,2021-10-04T00:53:00Z,31.92,-102.4,23.9,7.2,50,6,,10.0,30.121063,1016.4,,TRUE,TRUE,,,,,,,CLR,,,,,,,,VFR,,,,,,,,,,,,METAR,912.0
KOAK 040053Z 31010KT 10SM FEW050 SCT150 26/12 A2989 RMK AO2 SLP121 FU FEW050 FU SCT150 HZ ALQDS T02560122,KOAK,2021-10-04T00:53:00Z,37.72,-122.23,25.6,12.2,310,10,,10.0,29.890747,1012.1,,,TRUE,,,,,,,FEW,5000,SCT,15000,,,,,VFR,,,,,,,,,,,,METAR,3.0
KNUI 040053Z AUTO 20006KT 9SM CLR 26/19 A2994 RMK AO2 SLP138 T02610189,KNUI,2021-10-04T00:53:00Z,38.15,-76.43,26.1,18.9,200,6,,9.0,29.940945,1013.8,,TRUE,TRUE,,,,,,,CLR,,,,,,,,VFR,,,,,,,,,,,,METAR,4.0
KNSI 040053Z AUTO 21006KT CLR 24/09 A2989 RMK AO2 RAE53 SLP114 P0000 T02440094 $,KNSI,2021-10-04T00:53:00Z,33.23,-119.45,24.4,9.4,210,6,,,29.890747,1011.4,,TRUE,TRUE,TRUE,,,,,,CLR,,,,,,,,,,,,,,0.005,,,,,,METAR,161.0
KNQX 040053Z 08008KT 10SM FEW028 SCT095 BKN250 29/22 A2995 RMK AO2 SLP141 OCNL LTGICCC DSNT N CB DSNT N T2 SET T02940222 $,KNQX,2021-10-04T00:53:00Z,24.57,-81.67,29.4,22.2,80,8,,10.0,29.949802,1014.1,,,TRUE,TRUE,,,,,,FEW,2800,SCT,9500,BKN,25000,,,VFR,,,,,,,,,,,,SPECI,2.0
KNIP 040053Z 11005KT 10SM BKN045 BKN080 BKN120 24/21 A3002 RMK AO2 SLP161 T02440211,KNIP,2021-10-04T00:53:00Z,30.23,-81.67,24.4,21.1,110,5,,10.0,30.02067,1016.1,,,TRUE,,,,,,,BKN,4500,BKN,8000,BKN,12000,,,VFR,,,,,,,,,,,,METAR,3.0
KNEW 040053Z AUTO 18004KT 10SM CLR 26/23 A2995 RMK AO2 SLP134 T02610228,KNEW,2021-10-04T00:53:00Z,30.05,-90.03,26.1,22.8,180,4,,10.0,29.949802,1013.4,,TRUE,TRUE,,,,,,,CLR,,,,,,,,VFR,,,,,,,,,,,,METAR,1.0
KMYV 040053Z AUTO 16003KT 10SM CLR 29/04 A2987 RMK AO2 SLP119 T02940044,KMYV,2021-10-04T00:53:00Z,39.1,-121.57,29.4,4.4,160,3,,10.0,29.870079,1011.9,,TRUE,TRUE,,,,,,,CLR,,,,,,,,VFR,,,,,,,,,,,,METAR,18.0
KMYF 040053Z 31005KT 10SM CLR 29/03 A2990 RMK AO2 SLP121 T02940028,KMYF,2021-10-04T00:53:00Z,32.82,-117.13,29.4,2.8,310,5,,10.0,29.899607,1012.1,,,TRUE,,,,,,,CLR,,,,,,,,VFR,,,,,,,,,,,,METAR,128.0
KMWT 040053Z AUTO 00000KT 10SM CLR 19/17 A2997 RMK AO2 SLP142 T01940167,KMWT,2021-10-04T00:53:00Z,34.55,-93.58,19.4,16.7,0,0,,10.0,29.970472,1014.2,,TRUE,TRUE,,,,,,,CLR,,,,,,,,VFR,,,,,,,,,,,,METAR,220.0
KMWL 040053Z AUTO 00000KT 10SM CLR 22/14 A3002 RMK AO2 SLP155 T02220139,KMWL,2021-10-04T00:53:00Z,32.78,-98.07,22.2,13.9,0,0,,10.0,30.02067,1015.5,,TRUE,TRUE,,,,,,,CLR,,,,,,,,VFR,,,,,,,,,,,,METAR,288.0
KMVY 040053Z 04003KT 10SM OVC007 18/18 A2996 RMK AO2 RAB06E30 CIG 006V012 SLP144 P0000 T01830178,KMVY,2021-10-04T00:53:00Z,41.4,-70.62,18.3,17.8,40,3,,10.0,29.958662,1014.4,,,TRUE,,,,,,,OVC,700,,,,,,,IFR,,,,,,0.005,,,,,,METAR,18.0
KMTO 040053Z AUTO 24003KT 10SM FEW060 SCT080 20/17 A2987 RMK AO2 SLP111 T02000172 $,KMTO,2021-10-04T00:53:00Z,39.47,-88.27,20.0,17.2,240,3,,10.0,29.870079,1011.1,,TRUE,TRUE,TRUE,,,,,,FEW,6000,SCT,8000,,,,,VFR,,,,,,,,,,,,METAR,216.0
KMTJ 040053Z AUTO 30003KT 10SM CLR 19/03 A3024 RMK AO2 SLP191 T01890028,KMTJ,2021-10-04T00:53:00Z,38.5,-107.9,18.9,2.8,300,3,,10.0,30.239174,1019.1,,TRUE,TRUE,,,,,,,CLR,,,,,,,,VFR,,,,,,,,,,,,METAR,1755.0
KMTH 040053Z AUTO 07006KT 10SM CLR 27/21 A2996 RMK AO2 SLP143 T02670211,KMTH,2021-10-04T00:53:00Z,24.73,-81.05,26.7,21.1,70,6,,10.0,29.958662,1014.3,,TRUE,TRUE,,,,,,,CLR,,,,,,,,VFR,,,,,,,,,,,,METAR,1.0
KMSY 040053Z 17003KT 10SM FEW025 SCT095 SCT250 26/23 A2994 RMK AO2 SLP141 T02560228 $,KMSY,2021-10-04T00:53:00Z,30.0,-90.25,25.6,22.8,170,3,,10.0,29.940945,1014.1,,,TRUE,TRUE,,,,,,FEW,2500,SCT,9500,SCT,25000,,,VFR,,,,,,,,,,,,METAR,0.0
KMSS 040053Z AUTO 06006KT 10SM OVC026 13/12 A2999 RMK AO2 SLP156 T01330117 $,KMSS,2021-10-04T00:53:00Z,44.93,-74.85,13.3,11.7,60,6,,10.0,29.991142,1015.6,,TRUE,TRUE,TRUE,,,,,,OVC,2600,,,,,,,MVFR,,,,,,,,,,,,METAR,60.0
KMSP 040053Z 05003KT 10SM CLR 18/11 A2996 RMK AO2 SLP144 T01780106,KMSP,2021-10-04T00:53:00Z,44.88,-93.23,17.8,10.6,50,3,,10.0,29.958662,1014.4,,,TRUE,,,,,,,CLR,,,,,,,,VFR,,,,,,,,,,,,METAR,255.0
KMSO 040053Z 34008KT 10SM CLR 22/M01 A3002 RMK AO2 SLP162 T02221006,KMSO,2021-10-04T00:53:00Z,46.92,-114.1,22.2,-0.6,340,8,,10.0,30.02067,1016.2,,,TRUE,,,,,,,CLR,,,,,,,,VFR,,,,,,,,,,,,METAR,974.0
KMSN 040053Z 31005KT 10SM SCT020 BKN027 BKN046 20/16 A2985 RMK AO2 LTG DSNT E SLP107 T02000161,KMSN,2021-10-04T00:53:00Z,43.13,-89.35,20.0,16.1,310,5,,10.0,29.84941,1010.7,,,TRUE,,,,,,,SCT,2000,BKN,2700,BKN,4600,,,MVFR,,,,,,,,,,,,METAR,262.0
KMSL 040053Z AUTO 00000KT 10SM OVC100 22/19 A2995 RMK AO2 SLP136 T02220189,KMSL,2021-10-04T00:53:00Z,34.75,-87.6,22.2,18.9,0,0,,10.0,29.949802,1013.6,,TRUE,TRUE,,,,,,,OVC,10000,,,,,,,VFR,,,,,,,,,,,,METAR,170.0
KMRB 040053Z AUTO 00000KT 10SM OVC095 22/18 A2990 RMK AO2 SLP121 T02170178 $,KMRB,2021-10-04T00:53:00Z,39.4,-77.98,21.7,17.8,0,0,,10.0,29.899607,1012.1,,TRUE,TRUE,TRUE,,,,,,OVC,9500,,,,,,,VFR,,,,,,,,,,,,METAR,165.0
KMPO 040053Z AUTO 11003KT 10SM -RA FEW043 BKN060 OVC070 17/17 A2997 RMK AO2 RAB47 SLP145 P0000 T01720172,KMPO,2021-10-04T00:53:00Z,41.13,-75.38,17.2,17.2,110,3,,10.0,29.970472,1014.5,,TRUE,TRUE,,,,,,-RA,FEW,4300,BKN,6000,OVC,7000,,,VFR,,,,,,0.005,,,,,,METAR,576.0
KMOD 040053Z 35004KT 5SM HZ CLR 28/04 A2988 RMK AO2 SLP117 T02780039,KMOD,2021-10-04T00:53:00Z,37.62,-120.95,27.8,3.9,350,4,,5.0,29.878937,1011.7,,,TRUE,,,,,,HZ,CLR,,,,,,,,MVFR,,,,,,,,,,,,METAR,25.0
KMNN 040053Z AUTO 19006KT 7SM FEW018 SCT070 19/18 A2988 RMK AO2 SLP114 T01940183 $,KMNN,2021-10-04T00:53:00Z,40.62,-83.07,19.4,18.3,190,6,,7.0,29.878937,1011.4,,TRUE,TRUE,TRUE,,,,,,FEW,1800,SCT,7000,,,,,VFR,,,,,,,,,,,,METAR,301.0
KMMV 040053Z AUTO 01007KT 10SM CLR 21/12 A3001 RMK AO2 SLP163 T02110122,KMMV,2021-10-04T00:53:00Z,45.2,-123.13,21.1,12.2,10,7,,10.0,30.008858,1016.3,,TRUE,TRUE,,,,,,,CLR,,,,,,,,VFR,,,,,,,,,,,,METAR,48.0
KMMK 040053Z AUTO 00000KT 10SM OVC043 20/15 A2995 RMK AO2 SLP139 T02000150,KMMK,2021-10-04T00:53:00Z,41.52,-72.83,20.0,15.0,0,0,,10.0,29.949802,1013.9,,TRUE,TRUE,,,,,,,OVC,4300,,,,,,,VFR,,,,,,,,,,,,METAR,30.0
KMLU 040053Z 00000KT 10SM CLR 23/22 A2995 RMK AO2 SLP141 T02330222,KMLU,2021-10-04T00:53:00Z,32.52,-92.03,23.3,22.2,0,0,,10.0,29.949802,1014.1,,,TRUE,,,,,,,CLR,,,,,,,,VFR,,,,,,,,,,,,METAR,22.0
KMLT 040053Z AUTO 00000KT 10SM OVC070 11/07 A3008 RMK AO2 SLP192 T01110072 TSNO,KMLT,2021-10-04T00:53:00Z,45.65,-68.7,11.1,7.2,0,0,,10.0,30.079725,1019.2,,TRUE,TRUE,,,TRUE,,,,OVC,7000,,,,,,,VFR,,,,,,,,,,,,METAR,121.0
KMLS 040053Z AUTO 16004KT 10SM CLR 23/M04 A2997 RMK AO2 SLP143 T02331044,KMLS,2021-10-04T00:53:00Z,46.43,-105.88,23.3,-4.4,160,4,,10.0,29.970472,1014.3,,TRUE,TRUE,,,,,,,CLR,,,,,,,,VFR,,,,,,,,,,,,METAR,800.0
KMLP 040053Z AUTO VRB03KT 10SM CLR 11/M05 A3015 RMK AO2 SLP144 T01111050,KMLP,2021-10-04T00:53:00Z,47.45,-115.67,11.1,-5.0,0,3,,10.0,30.15059,1014.4,,TRUE,TRUE,,,,,,,CLR,,,,,,,,VFR,,,,,,,,,,,,METAR,1837.0
KMLC 040053Z AUTO 00000KT 10SM FEW065 FEW090 19/16 A3001 RMK AO2 SLP156 T01940156,KMLC,2021-10-04T00:53:00Z,34.88,-95.78,19.4,15.6,0,0,,10.0,30.008858,1015.6,,TRUE,TRUE,,,,,,,FEW,6500,FEW,9000,,,,,VFR,,,,,,,,,,,,METAR,231.0
KMLB 040053Z 06008KT 10SM CLR 26/18 A3000 RMK AO2 SLP157 T02610178,KMLB,2021-10-04T00:53:00Z,28.1,-80.65,26.1,17.8,60,8,,10.0,30.0,1015.7,,,TRUE,,,,,,,CLR,,,,,,,,VFR,,,,,,,,,,,,METAR,7.0
KMKO 040053Z AUTO 00000KT 10SM CLR 21/16 A3000 RMK AO2 SLP153 T02060156,KMKO,2021-10-04T00:53:00Z,35.65,-95.37,20.6,15.6,0,0,,10.0,30.0,1015.3,,TRUE,TRUE,,,,,,,CLR,,,,,,,,VFR,,,,,,,,,,,,METAR,184.0
KMKL 040053Z AUTO 00000KT 10SM CLR 19/17 A2994 RMK AO2 SLP134 T01940172 $,KMKL,2021-10-04T00:53:00Z,35.6,-88.92,19.4,17.2,0,0,,10.0,29.940945,1013.4,,TRUE,TRUE,TRUE,,,,,,CLR,,,,,,,,VFR,,,,,,,,,,,,METAR,130.0
KMIW 040053Z AUTO 32005KT 10SM CLR 16/08 A2993 RMK AO2 SLP132 T01560078 $,KMIW,2021-10-04T00:53:00Z,42.12,-92.92,15.6,7.8,320,5,,10.0,29.929134,1013.2,,TRUE,TRUE,TRUE,,,,,,CLR,,,,,,,,VFR,,,,,,,,,,,,METAR,296.0
KMIE 040053Z 10003KT 10SM OVC015 19/17 A2984 RMK AO2 SLP097 T01940172,KMIE,2021-10-04T00:53:00Z,40.23,-85.4,19.4,17.2,100,3,,10.0,29.840551,1009.7,,,TRUE,,,,,,,OVC,1500,,,,,,,MVFR,,,,,,,,,,,,METAR,286.0
KMIC 040053Z 35004KT 10SM CLR 17/09 A2995 RMK AO2 SLP143 T01720089,KMIC,2021-10-04T00:53:00Z,45.07,-93.35,17.2,8.9,350,4,,10.0,29.949802,1014.3,,,TRUE,,,,,,,CLR,,,,,,,,VFR,,,,,,,,,,,,METAR,263.0
KMIA 040053Z 06005KT 10SM FEW030 FEW080 FEW250 27/20 A2998 RMK AO2 SLP153 T02720200 $,KMIA,2021-10-04T00:53:00Z,25.8,-80.32,27.2,20.0,60,5,,10.0,29.97933,1015.3,,,TRUE,TRUE,,,,,,FEW,3000,FEW,8000,FEW,25000,,,VFR,,,,,,,,,,,,METAR,1.0
KMHT 040053Z 07006KT 10SM -RA OVC007 14/12 A3000 RMK AO2 RAB49 SLP170 P0000 T01440122,KMHT,2021-10-04T00:53:00Z,42.93,-71.43,14.4,12.2,70,6,,10.0,30.0,1017.0,,,TRUE,,,,,,-RA,OVC,700,,,,,,,IFR,,,,,,0.005,,,,,,METAR,68.0
KMHE 040053Z AUTO 00000KT 10SM CLR 19/06 A3000 RMK AO2 SLP158 T01890061,KMHE,2021-10-04T00:53:00Z,43.77,-98.03,18.9,6.1,0,0,,10.0,30.0,1015.8,,TRUE,TRUE,,,,,,,CLR,,,,,,,,VFR,,,,,,,,,,,,METAR,397.0
KMGY 040053Z AUTO 18007KT 10SM FEW010 BKN021 OVC026 19/17 A2988 RMK AO2 SLP112 T01940172,KMGY,2021-10-04T00:53:00Z,39.6,-84.23,19.4,17.2,180,7,,10.0,29.878937,1011.2,,TRUE,TRUE,,,,,,,FEW,1000,BKN,2100,OVC,2600,,,MVFR,,,,,,,,,,,,METAR,290.0
KMGW 040053Z 00000KT 7SM FEW027 BKN035 OVC046 19/19 A2995 RMK AO2 RAE2357 SLP136 BC VLY FG P0000 T01940189,KMGW,2021-10-04T00:53:00Z,39.65,-79.92,19.4,18.9,0,0,,7.0,29.949802,1013.6,,,TRUE,,,,,,,FEW,2700,BKN,3500,OVC,4600,,,VFR,,,,,,0.005,,,,,,METAR,375.0
KMGM 040053Z 15004KT 10SM SCT080 23/21 A2999 RMK AO2 SLP151 T02330206 $,KMGM,2021-10-04T00:53:00Z,32.3,-86.4,23.3,20.6,150,4,,10.0,29.991142,1015.1,,,TRUE,TRUE,,,,,,SCT,8000,,,,,,,VFR,,,,,,,,,,,,METAR,64.0
KMFR 040053Z 00000KT 10SM CLR 28/07 A2993 RMK AO2 SLP128 T02780072,KMFR,2021-10-04T00:53:00Z,42.38,-122.87,27.8,7.2,0,0,,10.0,29.929134,1012.8,,,TRUE,,,,,,,CLR,,,,,,,,VFR,,,,,,,,,,,,METAR,397.0
KMFE 040053Z 16004KT 10SM -RA FEW026 FEW110 25/24 A2995 RMK AO2 RAB2357 SLP139 P0001 T02500239,KMFE,2021-10-04T00:53:00Z,26.18,-98.25,25.0,23.9,160,4,,10.0,29.949802,1013.9,,,TRUE,,,,,,-RA,FEW,2600,FEW,11000,,,,,VFR,,,,,,0.01,,,,,,METAR,29.0
KMDW 040053Z 00000KT 10SM FEW046 BKN110 BKN250 22/16 A2982 RMK AO2 SLP091 T02220156,KMDW,2021-10-04T00:53:00Z,41.78,-87.75,22.2,15.6,0,0,,10.0,29.819881,1009.1,,,TRUE,,,,,,,FEW,4600,BKN,11000,BKN,25000,,,VFR,,,,,,,,,,,,METAR,186.0
KMCW 040053Z AUTO 33005KT 10SM CLR 14/06 A2997 RMK AO2 SLP143 T01390056 $,KMCW,2021-10-04T00:53:00Z,43.15,-93.33,13.9,5.6,330,5,,10.0,29.970472,1014.3,,TRUE,TRUE,TRUE,,,,,,CLR,,,,,,,,VFR,,,,,,,,,,,,METAR,363.0
KMCO 040053Z 06006KT 10SM FEW055 BKN250 25/19 A3001 RMK AO2 SLP161 T02500189,KMCO,2021-10-04T00:53:00Z,28.42,-81.33,25.0,18.9,60,6,,10.0,30.008858,1016.1,,,TRUE,,,,,,,FEW,5500,BKN,25000,,,,,VFR,,,,,,,,,,,,METAR,27.0
KMCN 040053Z AUTO 24005KT 10SM SCT090 23/20 A3002 RMK AO2 LTG DSNT N AND NW SLP163 T02330200,KMCN,2021-10-04T00:53:00Z,32.68,-83.65,23.3,20.0,240,5,,10.0,30.02067,1016.3,,TRUE,TRUE,,,,,,,SCT,9000,,,,,,,VFR,,,,,,,,,,,,METAR,104.0
KMCK 040053Z AUTO 12006KT 10SM CLR 20/05 A3004 RMK AO2 SLP167 T02000050,KMCK,2021-10-04T00:53:00Z,40.2,-100.58,20.0,5.0,120,6,,10.0,30.041338,1016.7,,TRUE,TRUE,,,,,,,CLR,,,,,,,,VFR,,,,,,,,,,,,METAR,780.0
KMCI 040053Z 33005KT 10SM CLR 21/09 A2998 RMK AO2 SLP144 T02110094 $,KMCI,2021-10-04T00:53:00Z,39.3,-94.73,21.1,9.4,330,5,,10.0,29.97933,1014.4,,,TRUE,TRUE,,,,,,CLR,,,,,,,,VFR,,,,,,,,,,,,METAR,308.0
KMCE 040053Z AUTO 34004KT 4SM HZ CLR 27/07 A2988 RMK AO2 SLP117 T02670072,KMCE,2021-10-04T00:53:00Z,37.28,-120.5,26.7,7.2,340,4,,4.0,29.878937,1011.7,,TRUE,TRUE,,,,,,HZ,CLR,,,,,,,,MVFR,,,,,,,,,,,,METAR,49.0
KMAI 040053Z AUTO 15004KT 10SM CLR 23/21 A3000 RMK AO2 SLP156 T02330211,KMAI,2021-10-04T00:53:00Z,30.83,-85.18,23.3,21.1,150,4,,10.0,30.0,1015.6,,TRUE,TRUE,,,,,,,CLR,,,,,,,,VFR,,,,,,,,,,,,METAR,33.0
KMAF 040053Z 06006KT 10SM CLR 23/08 A3011 RMK AO2 SLP163 T02280083,KMAF,2021-10-04T00:53:00Z,31.95,-102.2,22.8,8.3,60,6,,10.0,30.109253,1016.3,,,TRUE,,,,,,,CLR,,,,,,,,VFR,,,,,,,,,,,,METAR,874.0
KMAE 040053Z AUTO 35004KT 1 3/4SM HZ CLR 27/07 A2989 RMK AO2 SLP121 T02670067,KMAE,2021-10-04T00:53:00Z,36.98,-120.12,26.7,6.7,350,4,,1.75,29.890747,1012.1,,TRUE,TRUE,,,,,,HZ,CLR,,,,,,,,IFR,,,,,,,,,,,,METAR,77.0
KLXV 040053Z AUTO 35006KT 10SM CLR 09/M06 A3045 RMK AO2 SLP221 T00941056,KLXV,2021-10-04T00:53:00Z,39.23,-106.32,9.4,-5.6,350,6,,10.0,30.448818,1022.1,,TRUE,TRUE,,,,,,,CLR,,,,,,,,VFR,,,,,,,,,,,,METAR,3027.0
KLXT 040053Z AUTO 32003KT 10SM CLR 20/13 A2998 RMK AO2 SLP146 T02000133 $,KLXT,2021-10-04T00:53:00Z,38.97,-94.37,20.0,13.3,320,3,,10.0,29.97933,1014.6,,TRUE,TRUE,TRUE,,,,,,CLR,,,,,,,,VFR,,,,,,,,,,,,METAR,306.0
KLWV 040053Z AUTO 32004KT 10SM FEW042 SCT055 OVC085 20/19 A2988 RMK AO2 RAB32E51 SLP116 P0002 T02000189 $,KLWV,2021-10-04T00:53:00Z,38.77,-87.6,20.0,18.9,320,4,,10.0,29.878937,1011.6,,TRUE,TRUE,TRUE,,,,,,FEW,4200,SCT,5500,OVC,8500,,,VFR,,,,,,0.02,,,,,,METAR,128.0
KLWD 040053Z AUTO 31006KT 10SM CLR 17/08 A2996 RMK AO2 SLP144 T01720078 $,KLWD,2021-10-04T00:53:00Z,40.63,-93.9,17.2,7.8,310,6,,10.0,29.958662,1014.4,,TRUE,TRUE,TRUE,,,,,,CLR,,,,,,,,VFR,,,,,,,,,,,,METAR,345.0
KLVM 040053Z AUTO 20007KT 10SM CLR 17/M06 A3008 RMK AO2 SLP168 T01671061 $,KLVM,2021-10-04T00:53:00Z,45.7,-110.43,16.7,-6.1,200,7,,10.0,30.079725,1016.8,,TRUE,TRUE,TRUE,,,,,,CLR,,,,,,,,VFR,,,,,,,,,,,,METAR,1418.0
KLVK 040053Z 06007KT 10SM CLR 30/04 A2988 RMK AO2 SLP114 T03000039,KLVK,2021-10-04T00:53:00Z,37.7,-121.82,30.0,3.9,60,7,,10.0,29.878937,1011.4,,,TRUE,,,,,,,CLR,,,,,,,,VFR,,,,,,,,,,,,METAR,120.0
KLVJ 040053Z AUTO 18004KT 10SM OVC095 26/22 A2997 RMK AO2 SLP147 T02610222,KLVJ,2021-10-04T00:53:00Z,29.52,-95.25,26.1,22.2,180,4,,10.0,29.970472,1014.7,,TRUE,TRUE,,,,,,,OVC,9500,,,,,,,VFR,,,,,,,,,,,,METAR,11.0
KLUK 040053Z 19005KT 10SM OVC018 19/18 A2988 RMK AO2 SLP117 T01940183,KLUK,2021-10-04T00:53:00Z,39.1,-84.42,19.4,18.3,190,5,,10.0,29.878937,1011.7,,,TRUE,,,,,,,OVC,1800,,,,,,,MVFR,,,,,,,,,,,,METAR,144.0
KLSE 040053Z 33010KT 10SM BKN028 OVC040 19/16 A2991 RMK AO2 SLP123 T01890156,KLSE,2021-10-04T00:53:00Z,43.88,-91.25,18.9,15.6,330,10,,10.0,29.911417,1012.3,,,TRUE,,,,,,,BKN,2800,OVC,4000,,,,,MVFR,,,,,,,,,,,,METAR,198.0
KLPR 040053Z AUTO 21005KT 10SM OVC065 21/19 A2986 RMK AO2 SLP108 T02110189,KLPR,2021-10-04T00:53:00Z,41.35,-82.18,21.1,18.9,210,5,,10.0,29.861221,1010.8,,TRUE,TRUE,,,,,,,OVC,6500,,,,,,,VFR,,,,,,,,,,,,METAR,241.0
KLOU 040053Z 17005KT 10SM FEW041 FEW049 FEW080 21/19 A2988 RMK AO2 LTG DSNT N SLP113 T02060194 $,KLOU,2021-10-04T00:53:00Z,38.22,-85.67,20.6,19.4,170,5,,10.0,29.878937,1011.3,,,TRUE,TRUE,,,,,,FEW,4100,FEW,4900,FEW,8000,,,VFR,,,,,,,,,,,,METAR,165.0
KLOL 040053Z AUTO 14003KT 10SM CLR 26/M09 A3006 RMK AO2 SLP161 T02611089,KLOL,2021-10-04T00:53:00Z,40.07,-118.57,26.1,-8.9,140,3,,10.0,30.059055,1016.1,,TRUE,TRUE,,,,,,,CLR,,,,,,,,VFR,,,,,,,,,,,,METAR,1191.0
KLNS 040053Z 19006KT 10SM BKN070 23/17 A2991 RMK AO2 SLP125 T02330172,KLNS,2021-10-04T00:53:00Z,40.12,-76.3,23.3,17.2,190,6,,10.0,29.911417,1012.5,,,TRUE,,,,,,,BKN,7000,,,,,,,VFR,,,,,,,,,,,,METAR,122.0
KLND 040053Z AUTO 00000KT 10SM CLR 19/M08 A3017 RMK AO2 SLP171 T01941078,KLND,2021-10-04T00:53:00Z,42.82,-108.73,19.4,-7.8,0,0,,10.0,30.171259,1017.1,,TRUE,TRUE,,,,,,,CLR,,,,,,,,VFR,,,,,,,,,,,,METAR,1700.0
KLMT 040053Z 28004KT 10SM CLR 26/M01 A3004 RMK AO2 SLP148 T02561006 $,KLMT,2021-10-04T00:53:00Z,42.15,-121.72,25.6,-0.6,280,4,,10.0,30.041338,1014.8,,,TRUE,TRUE,,,,,,CLR,,,,,,,,VFR,,,,,,,,,,,,METAR,1246.0
KLLQ 040053Z AUTO 26003KT 10SM CLR 21/20 A2995 RMK AO2 SLP138 T02110200,KLLQ,2021-10-04T00:53:00Z,33.63,-91.75,21.1,20.0,260,3,,10.0,29.949802,1013.8,,TRUE,TRUE,,,,,,,CLR,,,,,,,,VFR,,,,,,,,,,,,METAR,86.0
KLKV 040053Z AUTO 19005KT 10SM CLR 24/M06 A3009 RMK AO2 SLP178 T02441056,KLKV,2021-10-04T00:53:00Z,42.17,-120.4,24.4,-5.6,190,5,,10.0,30.088583,1017.8,,TRUE,TRUE,,,,,,,CLR,,,,,,,,VFR,,,,,,,,,,,,METAR,1440.0
KLIT 040053Z 31004KT 10SM FEW050 23/16 A2995 RMK AO2 SLP143 T02330156 $,KLIT,2021-10-04T00:53:00Z,34.73,-92.23,23.3,15.6,310,4,,10.0,29.949802,1014.3,,,TRUE,TRUE,,,,,,FEW,5000,,,,,,,VFR,,,,,,,,,,,,METAR,77.0
KLHX 040053Z AUTO 17005KT 10SM CLR 23/06 A3012 RMK AO2 SLP160 T02330061,KLHX,2021-10-04T00:53:00Z,38.05,-103.52,23.3,6.1,170,5,,10.0,30.121063,1016.0,,TRUE,TRUE,,,,,,,CLR,,,,,,,,VFR,,,,,,,,,,,,METAR,1289.0
KLHQ 040053Z AUTO 19003KT 10SM SCT090 19/18 A2991 RMK AO2 SLP124 T01890178,KLHQ,2021-10-04T00:53:00Z,39.75,-82.67,18.9,17.8,190,3,,10.0,29.911417,1012.4,,TRUE,TRUE,,,,,,,SCT,9000,,,,,,,VFR,,,,,,,,,,,,METAR,259.0
KLGB 040053Z 30011KT 10SM CLR 28/04 A2986 RMK AO2 SLP112 T02830039,KLGB,2021-10-04T00:53:00Z,33.82,-118.15,28.3,3.9,300,11,,10.0,29.861221,1011.2,,,TRUE,,,,,,,CLR,,,,,,,,VFR,,,,,,,,,,,,METAR,10.0
KLFT 040053Z 00000KT 10SM FEW039 SCT055 26/24 A2994 RMK AO2 SLP138 T02560239,KLFT,2021-10-04T00:53:00Z,30.2,-91.97,25.6,23.9,0,0,,10.0,29.940945,1013.8,,,TRUE,,,,,,,FEW,3900,SCT,5500,,,,,VFR,,,,,,,,,,,,METAR,9.0
KLFK 040053Z AUTO 00000KT 10SM CLR 24/18 A2996 RMK AO2 SLP141 T02440178,KLFK,2021-10-04T00:53:00Z,31.23,-94.75,24.4,17.8,0,0,,10.0,29.958662,1014.1,,TRUE,TRUE,,,,,,,CLR,,,,,,,,VFR,,,,,,,,,,,,METAR,87.0
KLEE 040053Z AUTO 08005KT 10SM CLR 26/21 A3001 RMK AO2 SLP162 T02610206,KLEE,2021-10-04T00:53:00Z,28.82,-81.82,26.1,20.6,80,5,,10.0,30.008858,1016.2,,TRUE,TRUE,,,,,,,CLR,,,,,,,,VFR,,,,,,,,,,,,METAR,21.0
KLEB 040053Z 05006KT 10SM OVC010 16/12 A2998 RMK AO2 SLP149 T01560122,KLEB,2021-10-04T00:53:00Z,43.63,-72.3,15.6,12.2,50,6,,10.0,29.97933,1014.9,,,TRUE,,,,,,,OVC,1000,,,,,,,MVFR,,,,,,,,,,,,METAR,169.0
KLCH 040053Z 11005KT 10SM SCT043 SCT050 BKN070 25/22 A2995 RMK AO2 LTG DSNT S SLP149 T02500222,KLCH,2021-10-04T00:53:00Z,30.13,-93.22,25.0,22.2,110,5,,10.0,29.949802,1014.9,,,TRUE,,,,,,,SCT,4300,SCT,5000,BKN,7000,,,VFR,,,,,,,,,,,,METAR,2.0
KLBX 040053Z AUTO 00000KT 7SM FEW110 23/21 A2995 RMK AO2 RAE21 SLP142 P0003 T02330211,KLBX,2021-10-04T00:53:00Z,29.12,-95.47,23.3,21.1,0,0,,7.0,29.949802,1014.2,,TRUE,TRUE,,,,,,,FEW,11000,,,,,,,VFR,,,,,,0.03,,,,,,METAR,4.0
KLBF 040053Z AUTO 11005KT 10SM CLR 16/09 A3004 RMK AO2 SLP173 T01560089,KLBF,2021-10-04T00:53:00Z,41.12,-100.67,15.6,8.9,110,5,,10.0,30.041338,1017.3,,TRUE,TRUE,,,,,,,CLR,,,,,,,,VFR,,,,,,,,,,,,METAR,843.0
KLBB 040053Z 00000KT 10SM FEW120 FEW160 22/07 A3014 RMK AO2 SLP172 T02220072 $,KLBB,2021-10-04T00:53:00Z,33.67,-101.82,22.2,7.2,0,0,,10.0,30.138779,1017.2,,,TRUE,TRUE,,,,,,FEW,12000,FEW,16000,,,,,VFR,,,,,,,,,,,,METAR,996.0
KLAX 040053Z 25009KT 10SM FEW180 FEW250 23/14 A2988 RMK AO2 SLP117 T02330144,KLAX,2021-10-04T00:53:00Z,33.93,-118.38,23.3,14.4,250,9,,10.0,29.878937,1011.7,,,TRUE,,,,,,,FEW,18000,FEW,25000,,,,,VFR,,,,,,,,,,,,METAR,30.0
KLAW 040053Z AUTO 08006KT 10SM CLR 22/13 A3003 RMK AO2 SLP164 T02170128,KLAW,2021-10-04T00:53:00Z,34.55,-98.42,21.7,12.8,80,6,,10.0,30.029528,1016.4,,TRUE,TRUE,,,,,,,CLR,,,,,,,,VFR,,,,,,,,,,,,METAR,328.0
KLAR 040053Z AUTO 32008KT 10SM CLR 13/M07 A3029 RMK AO2 SLP203 T01331067,KLAR,2021-10-04T00:53:00Z,41.32,-105.67,13.3,-6.7,320,8,,10.0,30.28937,1020.3,,TRUE,TRUE,,,,,,,CLR,,,,,,,,VFR,,,,,,,,,,,,METAR,2217.0
KLAA 040053Z AUTO 12008KT 10SM CLR 20/03 A3009 RMK AO2 SLP166 T02000033,KLAA,2021-10-04T00:53:00Z,38.07,-102.68,20.0,3.3,120,8,,10.0,30.088583,1016.6,,TRUE,TRUE,,,,,,,CLR,,,,,,,,VFR,,,,,,,,,,,,METAR,1129.0
KJLN 040053Z 19003KT 10SM FEW065 19/16 A3000 RMK AO2 SLP153 T01890161 $,KJLN,2021-10-04T00:53:00Z,37.15,-94.5,18.9,16.1,190,3,,10.0,30.0,1015.3,,,TRUE,TRUE,,,,,,FEW,6500,,,,,,,VFR,,,,,,,,,,,,METAR,297.0
KJKL 040053Z AUTO 18003KT 8SM SCT002 BKN045 BKN055 18/17 A2997 RMK AO2 SLP137 T01830167,KJKL,2021-10-04T00:53:00Z,37.6,-83.32,18.3,16.7,180,3,,8.0,29.970472,1013.7,,TRUE,TRUE,,,,,,,SCT,200,BKN,4500,BKN,5500,,,VFR,,,,,,,,,,,,METAR,414.0
KJER 040053Z AUTO 00000KT 10SM CLR 23/M06 A3011 RMK AO2 SLP174 T02281061,KJER,2021-10-04T00:53:00Z,42.72,-114.45,22.8,-6.1,0,0,,10.0,30.109253,1017.4,,TRUE,TRUE,,,,,,,CLR,,,,,,,,VFR,,,,,,,,,,,,METAR,1226.0
KJEF 040053Z 00000KT 10SM BKN070 21/16 A2995 RMK AO2 SLP128 T02110161 $,KJEF,2021-10-04T00:53:00Z,38.6,-92.15,21.1,16.1,0,0,,10.0,29.949802,1012.8,,,TRUE,TRUE,,,,,,BKN,7000,,,,,,,VFR,,,,,,,,,,,,METAR,167.0
KJBR 040053Z AUTO 29003KT 10SM CLR 22/17 A2995 RMK AO2 SLP138 T02170172 $,KJBR,2021-10-04T00:53:00Z,35.83,-90.65,21.7,17.2,290,3,,10.0,29.949802,1013.8,,TRUE,TRUE,TRUE,,,,,,CLR,,,,,,,,VFR,,,,,,,,,,,,METAR,79.0
KIXD 040053Z 00000KT 10SM CLR 20/12 A2999 RMK AO2 SLP147 T02000117,KIXD,2021-10-04T00:53:00Z,38.82,-94.88,20.0,11.7,0,0,,10.0,29.991142,1014.7,,,TRUE,,,,,,,CLR,,,,,,,,VFR,,,,,,,,,,,,METAR,322.0
KIWI 040053Z AUTO 00000KT 10SM SCT032 BKN040 OVC047 12/11 A3006 RMK AO2 RAE37 SLP180 P0003 T01170111,KIWI,2021-10-04T00:53:00Z,43.97,-69.72,11.7,11.1,0,0,,10.0,30.059055,1018.0,,TRUE,TRUE,,,,,,,SCT,3200,BKN,4000,OVC,4700,,,VFR,,,,,,0.03,,,,,,METAR,16.0
KITR 040053Z AUTO 21008KT 10SM CLR 18/M01 A3012 RMK AO2 SLP178 T01831011,KITR,2021-10-04T00:53:00Z,39.23,-102.28,18.3,-1.1,210,8,,10.0,30.121063,1017.8,,TRUE,TRUE,,,,,,,CLR,,,,,,,,VFR,,,,,,,,,,,,METAR,1285.0
KIPL 040053Z AUTO 27003KT 10SM CLR 34/02 A2980 RMK AO2 SLP093 T03440017,KIPL,2021-10-04T00:53:00Z,32.83,-115.58,34.4,1.7,270,3,,10.0,29.799213,1009.3,,TRUE,TRUE,,,,,,,CLR,,,,,,,,VFR,,,,,,,,,,,,METAR,-16.0
KINK 040053Z AUTO 02004KT 10SM CLR 26/08 A3008 RMK AO2 SLP152 T02610078,KINK,2021-10-04T00:53:00Z,31.78,-103.2,26.1,7.8,20,4,,10.0,30.079725,1015.2,,TRUE,TRUE,,,,,,,CLR,,,,,,,,VFR,,,,,,,,,,,,METAR,857.0
KIML 040053Z AUTO 00000KT 10SM CLR 14/01 A3005 RMK AO2 RAB26E51 SLP175 P0000 T01440011,KIML,2021-10-04T00:53:00Z,40.52,-101.62,14.4,1.1,0,0,,10.0,30.050198,1017.5,,TRUE,TRUE,,,,,,,CLR,,,,,,,,VFR,,,,,,0.005,,,,,,METAR,997.0
KILM 040053Z 17003KT 10SM OVC070 23/18 A3004 RMK AO2 SLP173 T02280178,KILM,2021-10-04T00:53:00Z,34.27,-77.9,22.8,17.8,170,3,,10.0,30.041338,1017.3,,,TRUE,,,,,,,OVC,7000,,,,,,,VFR,,,,,,,,,,,,METAR,9.0
KIDA 040053Z 17003KT 10SM CLR 21/M04 A3018 RMK AO2 SLP206 T02111039,KIDA,2021-10-04T00:53:00Z,43.52,-112.07,21.1,-3.9,170,3,,10.0,30.180119,1020.6,,,TRUE,,,,,,,CLR,,,,,,,,VFR,,,,,,,,,,,,METAR,1444.0
KICT 040053Z 29003KT 6SM HZ CLR 18/11 A3003 RMK AO2 SLP163 T01780106,KICT,2021-10-04T00:53:00Z,37.65,-97.43,17.8,10.6,290,3,,6.0,30.029528,1016.3,,,TRUE,,,,,,HZ,CLR,,,,,,,,VFR,,,,,,,,,,,,METAR,428.0
KICR 040053Z AUTO 08006KT 10SM CLR 18/09 A3001 RMK AO2 SLP160 T01830094,KICR,2021-10-04T00:53:00Z,43.38,-99.85,18.3,9.4,80,6,,10.0,30.008858,1016.0,,TRUE,TRUE,,,,,,,CLR,,,,,,,,VFR,,,,,,,,,,,,METAR,618.0
KIAH 040053Z 06003KT 10SM FEW100 SCT150 BKN250 24/22 A2995 RMK AO2 SLP141 T02440217,KIAH,2021-10-04T00:53:00Z,30.0,-95.37,24.4,21.7,60,3,,10.0,29.949802,1014.1,,,TRUE,,,,,,,FEW,10000,SCT,15000,BKN,25000,,,VFR,,,,,,,,,,,,METAR,27.0
KIAG 040053Z 15003KT 5SM -RA BR OVC005 20/18 A2985 RMK AO2 SLP107 P0000 T02000183,KIAG,2021-10-04T00:53:00Z,43.12,-78.93,20.0,18.3,150,3,,5.0,29.84941,1010.7,,,TRUE,,,,,,-RA BR,OVC,500,,,,,,,IFR,,,,,,0.005,,,,,,METAR,179.0
KHZY 040053Z AUTO 19007KT 10SM FEW021 SCT048 20/18 A2988 RMK AO2 SLP114 T02000183,KHZY,2021-10-04T00:53:00Z,41.78,-80.7,20.0,18.3,190,7,,10.0,29.878937,1011.4,,TRUE,TRUE,,,,,,,FEW,2100,SCT,4800,,,,,VFR,,,,,,,,,,,,METAR,279.0
KHYR 040053Z AUTO 04003KT 10SM BKN010 OVC015 15/13 A2998 RMK AO2 CIG 009V012 SLP154 T01500133,KHYR,2021-10-04T00:53:00Z,46.02,-91.45,15.0,13.3,40,3,,10.0,29.97933,1015.4,,TRUE,TRUE,,,,,,,BKN,1000,OVC,1500,,,,,MVFR,,,,,,,,,,,,METAR,369.0
KHWO 040053Z AUTO 05004KT 10SM CLR 26/19 A3000 RMK AO2 SLP157 T02560189,KHWO,2021-10-04T00:53:00Z,26.0,-80.23,25.6,18.9,50,4,,10.0,30.0,1015.7,,TRUE,TRUE,,,,,,,CLR,,,,,,,,VFR,,,,,,,,,,,,METAR,2.0
KHVR 040053Z AUTO 28007KT 10SM CLR 21/M03 A2992 RMK AO2 SLP129 T02061028,KHVR,2021-10-04T00:53:00Z,48.55,-109.77,20.6,-2.8,280,7,,10.0,29.920275,1012.9,,TRUE,TRUE,,,,,,,CLR,,,,,,,,VFR,,,,,,,,,,,,METAR,789.0
KHVN 040053Z 00000KT 10SM FEW050 BKN080 22/19 A2994 RMK AO2 SLP136 T02170189,KHVN,2021-10-04T00:53:00Z,41.27,-72.88,21.7,18.9,0,0,,10.0,29.940945,1013.6,,,TRUE,,,,,,,FEW,5000,BKN,8000,,,,,VFR,,,,,,,,,,,,METAR,4.0
KHUL 040053Z AUTO 00000KT CLR 06/04 A3006 RMK AO2 SLP183 T00560044 $,KHUL,2021-10-04T00:53:00Z,46.12,-67.8,5.6,4.4,0,0,,,30.059055,1018.3,,TRUE,TRUE,TRUE,,,,,,CLR,,,,,,,,,,,,,,,,,,,,METAR,148.0
KHUF 040053Z 00000KT 10SM CLR 19/18 A2987 RMK AO2 SLP110 T01940178,KHUF,2021-10-04T00:53:00Z,39.45,-87.32,19.4,17.8,0,0,,10.0,29.870079,1011.0,,,TRUE,,,,,,,CLR,,,,,,,,VFR,,,,,,,,,,,,METAR,174.0
KHSV 040053Z 18005KT 10SM SCT036 21/20 A2997 RMK AO2 SLP142 T02110200,KHSV,2021-10-04T00:53:00Z,34.65,-86.78,21.1,20.0,180,5,,10.0,29.970472,1014.2,,,TRUE,,,,,,,SCT,3600,,,,,,,VFR,,,,,,,,,,,,METAR,190.0
KHSI 040053Z AUTO 12003KT 10SM CLR 18/07 A3005 RMK AO2 SLP173 T01830067,KHSI,2021-10-04T00:53:00Z,40.6,-98.43,18.3,6.7,120,3,,10.0,30.050198,1017.3,,TRUE,TRUE,,,,,,,CLR,,,,,,,,VFR,,,,,,,,,,,,METAR,592.0
KHRO 040053Z AUTO 00000KT 10SM CLR 18/15 A3002 RMK AO2 SLP156 T01780150 PWINO $,KHRO,2021-10-04T00:53:00Z,36.27,-93.15,17.8,15.0,0,0,,10.0,30.02067,1015.6,,TRUE,TRUE,TRUE,,,,TRUE,,CLR,,,,,,,,VFR,,,,,,,,,,,,METAR,417.0
KHRI 040053Z AUTO 05004KT 10SM CLR 23/07 A2996 RMK AO2 SLP143 T02330067,KHRI,2021-10-04T00:53:00Z,45.83,-119.27,23.3,6.7,50,4,,10.0,29.958662,1014.3,,TRUE,TRUE,,,,,,,CLR,,,,,,,,VFR,,,,,,,,,,,,METAR,194.0
KHQM 040053Z AUTO 32004KT 10SM CLR 15/08 A3010 RMK AO2 SLP197 T01500078,KHQM,2021-10-04T00:53:00Z,46.97,-123.93,15.0,7.8,320,4,,10.0,30.100393,1019.7,,TRUE,TRUE,,,,,,,CLR,,,,,,,,VFR,,,,,,,,,,,,METAR,4.0
KHOU 040053Z 05004KT 10SM FEW020 FEW035 SCT100 BKN250 30/20 A2995 RMK AO2 SLP145 T03000200,KHOU,2021-10-04T00:53:00Z,29.63,-95.28,30.0,20.0,50,4,,10.0,29.949802,1014.5,,,TRUE,,,,,,,FEW,2000,FEW,3500,SCT,10000,BKN,25000,VFR,,,,,,,,,,,,METAR,13.0
KHOT 040053Z AUTO 01003KT 10SM CLR 22/16 A2997 RMK AO2 SLP144 T02220161 $,KHOT,2021-10-04T00:53:00Z,34.48,-93.1,22.2,16.1,10,3,,10.0,29.970472,1014.4,,TRUE,TRUE,TRUE,,,,,,CLR,,,,,,,,VFR,,,,,,,,,,,,METAR,153.0
KHLN 040053Z 19004KT 10SM CLR 23/M04 A3004 RMK AO2 SLP170 T02281039,KHLN,2021-10-04T00:53:00Z,46.6,-111.98,22.8,-3.9,190,4,,10.0,30.041338,1017.0,,,TRUE,,,,,,,CLR,,,,,,,,VFR,,,,,,,,,,,,METAR,1178.0
KHLG 040053Z AUTO 15005KT 7SM FEW018 SCT047 BKN055 19/18 A2991 RMK AO2 SLP125 T01940183,KHLG,2021-10-04T00:53:00Z,40.17,-80.65,19.4,18.3,150,5,,7.0,29.911417,1012.5,,TRUE,TRUE,,,,,,,FEW,1800,SCT,4700,BKN,5500,,,VFR,,,,,,,,,,,,METAR,365.0
KHLC 040053Z AUTO 10004KT 10SM CLR 18/08 A3005 RMK AO2 SLP170 T01830078 $,KHLC,2021-10-04T00:53:00Z,39.37,-99.83,18.3,7.8,100,4,,10.0,30.050198,1017.0,,TRUE,TRUE,TRUE,,,,,,CLR,,,,,,,,VFR,,,,,,,,,,,,METAR,667.0
KHKY 040053Z AUTO 27006KT 10SM BKN060 BKN080 22/19 A3004 RMK AO2 SLP152 T02170189,KHKY,2021-10-04T00:53:00Z,35.75,-81.38,21.7,18.9,270,6,,10.0,30.041338,1015.2,,TRUE,TRUE,,,,,,,BKN,6000,BKN,8000,,,,,VFR,,,,,,,,,,,,METAR,357.0
KHKS 040053Z 00000KT 10SM CLR 26/22 A2995 RMK AO2 LTG DSNT SE SLP135 T02560217,KHKS,2021-10-04T00:53:00Z,32.33,-90.22,25.6,21.7,0,0,,10.0,29.949802,1013.5,,,TRUE,,,,,,,CLR,,,,,,,,VFR,,,,,,,,,,,,METAR,103.0
KHKA 040053Z AUTO 27004KT 10SM CLR 22/17 A2993 RMK AO2 SLP133 T02170167 $,KHKA,2021-10-04T00:53:00Z,35.93,-89.83,21.7,16.7,270,4,,10.0,29.929134,1013.3,,TRUE,TRUE,TRUE,,,,,,CLR,,,,,,,,VFR,,,,,,,,,,,,METAR,78.0
KHJO 040053Z AUTO 35003KT 4SM HZ CLR 28/10 A2988 RMK AO2 SLP118 T02780100,KHJO,2021-10-04T00:53:00Z,36.32,-119.62,27.8,10.0,350,3,,4.0,29.878937,1011.8,,TRUE,TRUE,,,,,,HZ,CLR,,,,,,,,MVFR,,,,,,,,,,,,METAR,73.0
KHIO 040053Z 29006KT 10SM CLR 18/12 A3003 RMK AO2 SLP169 T01830122,KHIO,2021-10-04T00:53:00Z,45.55,-122.95,18.3,12.2,290,6,,10.0,30.029528,1016.9,,,TRUE,,,,,,,CLR,,,,,,,,VFR,,,,,,,,,,,,METAR,62.0
KHIB 040053Z AUTO 00000KT 10SM CLR 11/10 A2998 RMK AO2 SLP160 T01060100,KHIB,2021-10-04T00:53:00Z,47.38,-92.83,10.6,10.0,0,0,,10.0,29.97933,1016.0,,TRUE,TRUE,,,,,,,CLR,,,,,,,,VFR,,,,,,,,,,,,METAR,409.0
KHHR 040053Z 25009KT 10SM CLR 25/10 A2988 RMK AO2 SLP116 T02500100 $,KHHR,2021-10-04T00:53:00Z,33.92,-118.33,25.0,10.0,250,9,,10.0,29.878937,1011.6,,,TRUE,TRUE,,,,,,CLR,,,,,,,,VFR,,,,,,,,,,,,METAR,21.0
KHGR 040053Z 06003KT 10SM SCT060 OVC090 22/20 A2992 RMK AO2 RAE09 SLP136 P0001 T02170200 $,KHGR,2021-10-04T00:53:00Z,39.7,-77.73,21.7,20.0,60,3,,10.0,29.920275,1013.6,,,TRUE,TRUE,,,,,,SCT,6000,OVC,9000,,,,,VFR,,,,,,0.01,,,,,,METAR,206.0
KHFD 040053Z 03003KT 10SM OVC047 18/16 A2995 RMK AO2 SLP141 T01830161,KHFD,2021-10-04T00:53:00Z,41.73,-72.65,18.3,16.1,30,3,,10.0,29.949802,1014.1,,,TRUE,,,,,,,OVC,4700,,,,,,,VFR,,,,,,,,,,,,METAR,3.0
KHEI 040053Z AUTO 00000KT 10SM CLR 17/M02 A3000 RMK AO2 SLP160 T01721017,KHEI,2021-10-04T00:53:00Z,46.02,-102.65,17.2,-1.7,0,0,,10.0,30.0,1016.0,,TRUE,TRUE,,,,,,,CLR,,,,,,,,VFR,,,,,,,,,,,,METAR,824.0
KHBR 040053Z AUTO 12005KT 10SM CLR 22/12 A3004 RMK AO2 SLP164 T02170122,KHBR,2021-10-04T00:53:00Z,34.98,-99.05,21.7,12.2,120,5,,10.0,30.041338,1016.4,,TRUE,TRUE,,,,,,,CLR,,,,,,,,VFR,,,,,,,,,,,,METAR,475.0
KHBG 040053Z AUTO 00000KT 10SM CLR 23/21 A2995 RMK AO2 SLP140 T02330211,KHBG,2021-10-04T00:53:00Z,31.27,-89.25,23.3,21.1,0,0,,10.0,29.949802,1014.0,,TRUE,TRUE,,,,,,,CLR,,,,,,,,VFR,,,,,,,,,,,,METAR,45.0
KHAO 040053Z AUTO 00000KT 10SM BKN017 BKN026 OVC033 20/18 A2988 RMK AO2 SLP115 T02000183,KHAO,2021-10-04T00:53:00Z,39.37,-84.52,20.0,18.3,0,0,,10.0,29.878937,1011.5,,TRUE,TRUE,,,,,,,BKN,1700,BKN,2600,OVC,3300,,,MVFR,,,,,,,,,,,,METAR,185.0
KGZH 040053Z AUTO 00000KT 10SM SCT120 23/21 A3000 RMK AO2 SLP154 T02280206,KGZH,2021-10-04T00:53:00Z,31.42,-87.05,22.8,20.6,0,0,,10.0,30.0,1015.4,,TRUE,TRUE,,,,,,,SCT,12000,,,,,,,VFR,,,,,,,,,,,,METAR,77.0
KGWO 040053Z AUTO 00000KT 10SM FEW041 BKN050 24/22 A2993 RMK AO2 RAB2357E04 SLP134 P0000 T02390217,KGWO,2021-10-04T00:53:00Z,33.5,-90.08,23.9,21.7,0,0,,10.0,29.929134,1013.4,,TRUE,TRUE,,,,,,,FEW,4100,BKN,5000,,,,,VFR,,,,,,0.005,,,,,,METAR,42.0
KGVL 040053Z AUTO 9SM FEW015 SCT021 OVC095 21/19 A3006 RMK AO2 RAE47 SLP167 P0000 T02060189,KGVL,2021-10-04T00:53:00Z,34.27,-83.83,20.6,18.9,,,,9.0,30.059055,1016.7,,TRUE,TRUE,,,,,,,FEW,1500,SCT,2100,OVC,9500,,,VFR,,,,,,0.005,,,,,,METAR,387.0
KGUY 040053Z AUTO 09008KT 10SM CLR 23/05 A3009 RMK AO2 SLP160 T02330050,KGUY,2021-10-04T00:53:00Z,36.68,-101.5,23.3,5.0,90,8,,10.0,30.088583,1016.0,,TRUE,TRUE,,,,,,,CLR,,,,,,,,VFR,,,,,,,,,,,,METAR,950.0
KGUP 040053Z AUTO 08005KT 10SM SCT085 18/06 A3027 RMK AO2 SLP161 T01830061,KGUP,2021-10-04T00:53:00Z,35.52,-108.8,18.3,6.1,80,5,,10.0,30.268702,1016.1,,TRUE,TRUE,,,,,,,SCT,8500,,,,,,,VFR,,,,,,,,,,,,METAR,1972.0
KGTF 040053Z 24011KT 10SM CLR 21/01 A2999 RMK AO2 SLP138 T02060006,KGTF,2021-10-04T00:53:00Z,47.47,-111.38,20.6,0.6,240,11,,10.0,29.991142,1013.8,,,TRUE,,,,,,,CLR,,,,,,,,VFR,,,,,,,,,,,,METAR,1117.0
KGSP 040053Z 00000KT 10SM FEW060 20/17 A3005 RMK AO2 RAE12 SLP167 P0002 T02000172,KGSP,2021-10-04T00:53:00Z,34.9,-82.22,20.0,17.2,0,0,,10.0,30.050198,1016.7,,,TRUE,,,,,,,FEW,6000,,,,,,,VFR,,,,,,0.02,,,,,,METAR,285.0
KGSH 040053Z AUTO 00000KT 10SM -RA BKN120 17/16 A2983 RMK AO2 SLP097 P0000 T01720161,KGSH,2021-10-04T00:53:00Z,41.53,-85.78,17.2,16.1,0,0,,10.0,29.828741,1009.7,,TRUE,TRUE,,,,,,-RA,BKN,12000,,,,,,,VFR,,,,,,0.005,,,,,,METAR,252.0
KGRR 040053Z 02003KT 10SM SCT006 BKN020 BKN150 19/18 A2982 RMK AO2 SLP094 T01890183,KGRR,2021-10-04T00:53:00Z,42.88,-85.52,18.9,18.3,20,3,,10.0,29.819881,1009.4,,,TRUE,,,,,,,SCT,600,BKN,2000,BKN,15000,,,MVFR,,,,,,,,,,,,METAR,239.0
KGRI 040053Z 11004KT 10SM CLR 18/09 A3004 RMK AO2 SLP176 T01780089,KGRI,2021-10-04T00:53:00Z,40.97,-98.32,17.8,8.9,110,4,,10.0,30.041338,1017.6,,,TRUE,,,,,,,CLR,,,,,,,,VFR,,,,,,,,,,,,METAR,562.0
KGPT 040053Z 00000KT 10SM BKN085 BKN110 26/23 A2994 RMK AO2 SLP139 T02560228,KGPT,2021-10-04T00:53:00Z,30.42,-89.08,25.6,22.8,0,0,,10.0,29.940945,1013.9,,,TRUE,,,,,,,BKN,8500,BKN,11000,,,,,VFR,,,,,,,,,,,,METAR,5.0
KGOK 040053Z AUTO 00000KT 10SM CLR 18/ A3003 RMK AO2 SLP165 T0178 $,KGOK,2021-10-04T00:53:00Z,35.85,-97.4,17.8,,0,0,,10.0,30.029528,1016.5,,TRUE,TRUE,TRUE,,,,,,CLR,,,,,,,,VFR,,,,,,,,,,,,METAR,326.0
KGNV 040053Z 00000KT 10SM CLR 23/22 A3004 RMK AO2 SLP170 T02330217,KGNV,2021-10-04T00:53:00Z,29.7,-82.28,23.3,21.7,0,0,,10.0,30.041338,1017.0,,,TRUE,,,,,,,CLR,,,,,,,,VFR,,,,,,,,,,,,METAR,41.0
KGMU 040053Z 28003KT 10SM -RA SCT060 BKN120 21/18 A3005 RMK AO2 RAB25 SLP169 P0000 T02110183,KGMU,2021-10-04T00:53:00Z,34.85,-82.35,21.1,18.3,280,3,,10.0,30.050198,1016.9,,,TRUE,,,,,,-RA,SCT,6000,BKN,12000,,,,,VFR,,,,,,0.005,,,,,,METAR,309.0
KGLH 040053Z AUTO 00000KT 10SM CLR 23/21 A2993 RMK AO2 SLP140 T02330211,KGLH,2021-10-04T00:53:00Z,33.47,-90.98,23.3,21.1,0,0,,10.0,29.929134,1014.0,,TRUE,TRUE,,,,,,,CLR,,,,,,,,VFR,,,,,,,,,,,,METAR,40.0
KGLD 040053Z AUTO 16009KT 10SM CLR 16/02 A3008 RMK AO2 SLP179 T01610022,KGLD,2021-10-04T00:53:00Z,39.37,-101.7,16.1,2.2,160,9,,10.0,30.079725,1017.9,,TRUE,TRUE,,,,,,,CLR,,,,,,,,VFR,,,,,,,,,,,,METAR,1111.0
KGKY 040053Z 34006KT 10SM CLR 26/14 A3000 RMK AO2 SLP150 T02560139 $,KGKY,2021-10-04T00:53:00Z,32.67,-97.1,25.6,13.9,340,6,,10.0,30.0,1015.0,,,TRUE,TRUE,,,,,,CLR,,,,,,,,VFR,,,,,,,,,,,,METAR,189.0
KGKJ 040053Z AUTO VRB04KT 10SM BKN007 BKN014 OVC048 19/18 A2990 RMK AO2 CIG 006V010 SLP120 T01890178,KGKJ,2021-10-04T00:53:00Z,41.63,-80.22,18.9,17.8,0,4,,10.0,29.899607,1012.0,,TRUE,TRUE,,,,,,,BKN,700,BKN,1400,OVC,4800,,,IFR,,,,,,,,,,,,METAR,428.0
KGJT 040053Z 34004KT 10SM CLR 21/04 A3017 RMK AO2 SLP175 T02060039,KGJT,2021-10-04T00:53:00Z,39.13,-108.53,20.6,3.9,340,4,,10.0,30.171259,1017.5,,,TRUE,,,,,,,CLR,,,,,,,,VFR,,,,,,,,,,,,METAR,1475.0
KGIF 040053Z AUTO 09009KT 10SM CLR 27/17 A3001 RMK AO2 SLP160 T02670167,KGIF,2021-10-04T00:53:00Z,28.07,-81.75,26.7,16.7,90,9,,10.0,30.008858,1016.0,,TRUE,TRUE,,,,,,,CLR,,,,,,,,VFR,,,,,,,,,,,,METAR,44.0
KGGW 040053Z AUTO 13004KT 10SM CLR 22/M03 A2992 RMK AO2 SLP133 T02221033,KGGW,2021-10-04T00:53:00Z,48.22,-106.62,22.2,-3.3,130,4,,10.0,29.920275,1013.3,,TRUE,TRUE,,,,,,,CLR,,,,,,,,VFR,,,,,,,,,,,,METAR,698.0
KGGG 040053Z 00000KT 10SM CLR 24/16 A2996 RMK AO2 SLP140 T02440161,KGGG,2021-10-04T00:53:00Z,32.38,-94.72,24.4,16.1,0,0,,10.0,29.958662,1014.0,,,TRUE,,,,,,,CLR,,,,,,,,VFR,,,,,,,,,,,,METAR,107.0
KGFK 040053Z 15008KT 6SM FU HZ CLR 16/08 A2991 RMK AO2 SLP134 T01610083,KGFK,2021-10-04T00:53:00Z,47.95,-97.18,16.1,8.3,150,8,,6.0,29.911417,1013.4,,,TRUE,,,,,,FU HZ,CLR,,,,,,,,VFR,,,,,,,,,,,,METAR,256.0
KGEZ 040053Z AUTO 23005KT 10SM CLR 19/18 A2984 RMK AO2 SLP101 T01940183,KGEZ,2021-10-04T00:53:00Z,39.58,-85.8,19.4,18.3,230,5,,10.0,29.840551,1010.1,,TRUE,TRUE,,,,,,,CLR,,,,,,,,VFR,,,,,,,,,,,,METAR,245.0
KGEY 040053Z AUTO 18003KT 10SM CLR 23/M07 A3005 RMK AO2 RAB22E32 SLP163 P0000 T02281067,KGEY,2021-10-04T00:53:00Z,44.52,-108.08,22.8,-6.7,180,3,,10.0,30.050198,1016.3,,TRUE,TRUE,,,,,,,CLR,,,,,,,,VFR,,,,,,0.005,,,,,,METAR,1191.0
KGEG 040053Z 20004KT 10SM FEW060 FEW200 SCT250 19/04 A3002 RMK AO2 SLP162 T01940039,KGEG,2021-10-04T00:53:00Z,47.62,-117.53,19.4,3.9,200,4,,10.0,30.02067,1016.2,,,TRUE,,,,,,,FEW,6000,FEW,20000,SCT,25000,,,VFR,,,,,,,,,,,,METAR,718.0
KGCC 040053Z AUTO 21004KT 10SM CLR 11/M04 A3009 RMK AO2 SLP188 T01111044,KGCC,2021-10-04T00:53:00Z,44.33,-105.55,11.1,-4.4,210,4,,10.0,30.088583,1018.8,,TRUE,TRUE,,,,,,,CLR,,,,,,,,VFR,,,,,,,,,,,,METAR,1328.0
KGAG 040053Z AUTO 07004KT 10SM CLR 22/09 A3007 RMK AO2 SLP168 T02220089,KGAG,2021-10-04T00:53:00Z,36.3,-99.77,22.2,8.9,70,4,,10.0,30.070866,1016.8,,TRUE,TRUE,,,,,,,CLR,,,,,,,,VFR,,,,,,,,,,,,METAR,670.0
KFYV 040053Z 00000KT 10SM CLR 18/16 A3002 RMK AO2 SLP156 T01830161,KFYV,2021-10-04T00:53:00Z,36.02,-94.17,18.3,16.1,0,0,,10.0,30.02067,1015.6,,,TRUE,,,,,,,CLR,,,,,,,,VFR,,,,,,,,,,,,METAR,377.0
KFXE 040053Z 05003KT 10SM CLR 27/19 A2998 RMK AO2 SLP155 T02670194,KFXE,2021-10-04T00:53:00Z,26.2,-80.18,26.7,19.4,50,3,,10.0,29.97933,1015.5,,,TRUE,,,,,,,CLR,,,,,,,,VFR,,,,,,,,,,,,METAR,3.0
KFWN 040053Z AUTO 00000KT 10SM FEW100 18/17 A2994 RMK AO2 SLP138 T01780167,KFWN,2021-10-04T00:53:00Z,41.2,-74.63,17.8,16.7,0,0,,10.0,29.940945,1013.8,,TRUE,TRUE,,,,,,,FEW,10000,,,,,,,VFR,,,,,,,,,,,,METAR,129.0
KFVE 040053Z AUTO 01006KT 10SM OVC039 08/04 A3008 RMK AO2 SLP191 T00780039,KFVE,2021-10-04T00:53:00Z,47.28,-68.3,7.8,3.9,10,6,,10.0,30.079725,1019.1,,TRUE,TRUE,,,,,,,OVC,3900,,,,,,,VFR,,,,,,,,,,,,METAR,299.0
KFUL 040053Z VRB03KT 10SM CLR 31/11 A2985 RMK AO2 SLP107 T03060106,KFUL,2021-10-04T00:53:00Z,33.87,-117.98,30.6,10.6,0,3,,10.0,29.84941,1010.7,,,TRUE,,,,,,,CLR,,,,,,,,VFR,,,,,,,,,,,,METAR,23.0
KFTY 040053Z 00000KT 9SM OVC085 21/20 A3002 RMK AO2 SLP158 P0002 T02110200 $,KFTY,2021-10-04T00:53:00Z,33.78,-84.52,21.1,20.0,0,0,,9.0,30.02067,1015.8,,,TRUE,TRUE,,,,,,OVC,8500,,,,,,,VFR,,,,,,0.02,,,,,,METAR,245.0
KFTW 040053Z 32004KT 10SM CLR 24/13 A3000 RMK AO2 SLP152 T02390133 $,KFTW,2021-10-04T00:53:00Z,32.83,-97.37,23.9,13.3,320,4,,10.0,30.0,1015.2,,,TRUE,TRUE,,,,,,CLR,,,,,,,,VFR,,,,,,,,,,,,METAR,213.0
KFST 040053Z AUTO 07005KT 10SM CLR 25/08 A3011 RMK AO2 SLP156 T02500078,KFST,2021-10-04T00:53:00Z,30.92,-102.92,25.0,7.8,70,5,,10.0,30.109253,1015.6,,TRUE,TRUE,,,,,,,CLR,,,,,,,,VFR,,,,,,,,,,,,METAR,917.0
KFSM 040053Z 33004KT 10SM CLR 23/15 A2998 RMK AO2 SLP148 T02330150,KFSM,2021-10-04T00:53:00Z,35.33,-94.37,23.3,15.0,330,4,,10.0,29.97933,1014.8,,,TRUE,,,,,,,CLR,,,,,,,,VFR,,,,,,,,,,,,METAR,136.0
KFRG 040053Z AUTO 15004KT 8SM CLR 21/19 A2993 RMK AO2 SLP135 T02060189,KFRG,2021-10-04T00:53:00Z,40.73,-73.42,20.6,18.9,150,4,,8.0,29.929134,1013.5,,TRUE,TRUE,,,,,,,CLR,,,,,,,,VFR,,,,,,,,,,,,METAR,23.0
KFPR 040053Z 03003KT 10SM CLR 24/17 A3000 RMK AO2 SLP157 T02440172,KFPR,2021-10-04T00:53:00Z,27.5,-80.38,24.4,17.2,30,3,,10.0,30.0,1015.7,,,TRUE,,,,,,,CLR,,,,,,,,VFR,,,,,,,,,,,,METAR,7.0
KFOZ 040053Z AUTO 00000KT 10SM CLR 12/10 A3004 RMK AO2,KFOZ,2021-10-04T00:53:00Z,47.77,-93.65,12.0,10.0,0,0,,10.0,30.041338,,,TRUE,TRUE,,,,,,,CLR,,,,,,,,VFR,,,,,,,,,,,,METAR,412.0
KFOE 040053Z 29003KT 10SM CLR 23/08 A2998 RMK AO2 SLP139 T02280078 $,KFOE,2021-10-04T00:53:00Z,38.93,-95.65,22.8,7.8,290,3,,10.0,29.97933,1013.9,,,TRUE,TRUE,,,,,,CLR,,,,,,,,VFR,,,,,,,,,,,,METAR,315.0
KFNT 040053Z 00000KT 10SM SCT009 BKN095 19/18 A2983 RMK AO2 SLP098 T01890183,KFNT,2021-10-04T00:53:00Z,42.97,-83.75,18.9,18.3,0,0,,10.0,29.828741,1009.8,,,TRUE,,,,,,,SCT,900,BKN,9500,,,,,VFR,,,,,,,,,,,,METAR,235.0
KFNB 040053Z AUTO 31003KT 10SM CLR 19/07 A2999 RMK AO2 SLP150 T01890072,KFNB,2021-10-04T00:53:00Z,40.07,-95.58,18.9,7.2,310,3,,10.0,29.991142,1015.0,,TRUE,TRUE,,,,,,,CLR,,,,,,,,VFR,,,,,,,,,,,,METAR,301.0
KFMY 040053Z 13004KT 10SM FEW070 28/21 A2997 RMK AO2 SLP150 T02780206,KFMY,2021-10-04T00:53:00Z,26.58,-81.87,27.8,20.6,130,4,,10.0,29.970472,1015.0,,,TRUE,,,,,,,FEW,7000,,,,,,,VFR,,,,,,,,,,,,METAR,4.0
KFMN 040053Z 00000KT 10SM CLR 21/04 A3022 RMK AO2 SLP197 T02110039,KFMN,2021-10-04T00:53:00Z,36.75,-108.23,21.1,3.9,0,0,,10.0,30.221457,1019.7,,,TRUE,,,,,,,CLR,,,,,,,,VFR,,,,,,,,,,,,METAR,1677.0
KFLO 040053Z 16003KT 10SM SCT080 23/18 A3003 RMK AO2 SLP167 T02280183,KFLO,2021-10-04T00:53:00Z,34.18,-79.73,22.8,18.3,160,3,,10.0,30.029528,1016.7,,,TRUE,,,,,,,SCT,8000,,,,,,,VFR,,,,,,,,,,,,METAR,43.0
KFLL 040053Z 06005KT 10SM FEW041 26/21 A2998 RMK AO2 SLP150 T02610211,KFLL,2021-10-04T00:53:00Z,26.07,-80.15,26.1,21.1,60,5,,10.0,29.97933,1015.0,,,TRUE,,,,,,,FEW,4100,,,,,,,VFR,,,,,,,,,,,,METAR,1.0
KFHR 040053Z AUTO 16003KT 10SM CLR 13/08 A3012 RMK AO2 SLP201 T01280083 TSNO $,KFHR,2021-10-04T00:53:00Z,48.52,-123.03,12.8,8.3,160,3,,10.0,30.121063,1020.1,,TRUE,TRUE,TRUE,,TRUE,,,,CLR,,,,,,,,VFR,,,,,,,,,,,,METAR,34.0
KFFT 040053Z AUTO 19009KT 3SM +RA BR FEW042 SCT060 OVC100 21/19 A2990 RMK AO2 SLP118 P0000 T02060194 $,KFFT,2021-10-04T00:53:00Z,38.18,-84.9,20.6,19.4,190,9,,3.0,29.899607,1011.8,,TRUE,TRUE,TRUE,,,,,+RA BR,FEW,4200,SCT,6000,OVC,10000,,,MVFR,,,,,,0.005,,,,,,METAR,235.0
KFFC 040053Z AUTO 00000KT 6SM BR BKN100 21/20 A3003 RMK AO2 SLP166 T02060200 $,KFFC,2021-10-04T00:53:00Z,33.35,-84.57,20.6,20.0,0,0,,6.0,30.029528,1016.6,,TRUE,TRUE,TRUE,,,,,BR,BKN,10000,,,,,,,VFR,,,,,,,,,,,,METAR,242.0
KFDR 040053Z AUTO 11004KT 10SM CLR 23/13 A3001 RMK AO2 SLP148 T02330128,KFDR,2021-10-04T00:53:00Z,34.35,-98.98,23.3,12.8,110,4,,10.0,30.008858,1014.8,,TRUE,TRUE,,,,,,,CLR,,,,,,,,VFR,,,,,,,,,,,,METAR,378.0
KFCM 040053Z 33003KT 10SM CLR 17/10 A2995 RMK AO2 SLP143 T01670100 $,KFCM,2021-10-04T00:53:00Z,44.83,-93.47,16.7,10.0,330,3,,10.0,29.949802,1014.3,,,TRUE,TRUE,,,,,,CLR,,,,,,,,VFR,,,,,,,,,,,,METAR,276.0
KFAY 040053Z 18008KT 10SM CLR 23/17 A3002 RMK AO2 SLP161 T02280167,KFAY,2021-10-04T00:53:00Z,34.98,-78.88,22.8,16.7,180,8,,10.0,30.02067,1016.1,,,TRUE,,,,,,,CLR,,,,,,,,VFR,,,,,,,,,,,,METAR,57.0
KFAT 040053Z 32005KT 1 1/2SM HZ FU BKN130 28/05 A2988 RMK AO2 SLP115 FU BKN130 T02830050,KFAT,2021-10-04T00:53:00Z,36.78,-119.72,28.3,5.0,320,5,,1.5,29.878937,1011.5,,,TRUE,,,,,,HZ FU,BKN,13000,,,,,,,IFR,,,,,,,,,,,,METAR,102.0
KFAR 040053Z 12006KT 10SM FU CLR 15/08 A2995 RMK AO2 SLP144 T01500078,KFAR,2021-10-04T00:53:00Z,46.9,-96.82,15.0,7.8,120,6,,10.0,29.949802,1014.4,,,TRUE,,,,,,FU,CLR,,,,,,,,VFR,,,,,,,,,,,,METAR,276.0
KEYW 040053Z AUTO 09008KT 10SM FEW029 28/23 A2996 RMK AO2 SLP143 T02780228,KEYW,2021-10-04T00:53:00Z,24.55,-81.75,27.8,22.8,90,8,,10.0,29.958662,1014.3,,TRUE,TRUE,,,,,,,FEW,2900,,,,,,,VFR,,,,,,,,,,,,METAR,1.0
KEYE 040053Z AUTO 27005KT 10SM FEW036 SCT100 21/17 A2984 RMK AO2 SLP101 T02060167 $,KEYE,2021-10-04T00:53:00Z,39.83,-86.3,20.6,16.7,270,5,,10.0,29.840551,1010.1,,TRUE,TRUE,TRUE,,,,,,FEW,3600,SCT,10000,,,,,VFR,,,,,,,,,,,,METAR,248.0
KEWB 040053Z 03004KT 10SM -RA BR OVC006 17/16 A2996 RMK AO2 RAB48 SLP144 P0000 T01720161 $,KEWB,2021-10-04T00:53:00Z,41.68,-70.95,17.2,16.1,30,4,,10.0,29.958662,1014.4,,,TRUE,TRUE,,,,,-RA BR,OVC,600,,,,,,,IFR,,,,,,0.005,,,,,,METAR,22.0
KEVW 040053Z AUTO 28009KT 10SM CLR 16/M09 A3030 RMK AO2 SLP205 T01611089 $,KEVW,2021-10-04T00:53:00Z,41.27,-111.03,16.1,-8.9,280,9,,10.0,30.301182,1020.5,,TRUE,TRUE,TRUE,,,,,,CLR,,,,,,,,VFR,,,,,,,,,,,,METAR,2178.0
KETH 040053Z AUTO 00000KT 10SM CLR 15/04 A2999 RMK AO2,KETH,2021-10-04T00:53:00Z,45.78,-96.55,15.0,4.0,0,0,,10.0,29.991142,,,TRUE,TRUE,,,,,,,CLR,,,,,,,,VFR,,,,,,,,,,,,METAR,309.0
KESF 040053Z AUTO 00000KT 8SM CLR 23/22 A2994 RMK AO2 SLP137 T02330222,KESF,2021-10-04T00:53:00Z,31.4,-92.28,23.3,22.2,0,0,,8.0,29.940945,1013.7,,TRUE,TRUE,,,,,,,CLR,,,,,,,,VFR,,,,,,,,,,,,METAR,27.0
KEQY 040053Z AUTO 21005KT 10SM BKN050 BKN060 OVC070 24/16 A3001 RMK AO2 SLP165 T02390161,KEQY,2021-10-04T00:53:00Z,35.02,-80.62,23.9,16.1,210,5,,10.0,30.008858,1016.5,,TRUE,TRUE,,,,,,,BKN,5000,BKN,6000,OVC,7000,,,VFR,,,,,,,,,,,,METAR,205.0
KEPH 040053Z AUTO 14005KT 10SM CLR 21/06 A2996 RMK AO2 SLP145 T02060061,KEPH,2021-10-04T00:53:00Z,47.3,-119.52,20.6,6.1,140,5,,10.0,29.958662,1014.5,,TRUE,TRUE,,,,,,,CLR,,,,,,,,VFR,,,,,,,,,,,,METAR,382.0
KENW 040053Z 05003KT 10SM OVC100 19/18 A2984 RMK AO2 RAE28 SLP101 P0002 T01940178,KENW,2021-10-04T00:53:00Z,42.6,-87.93,19.4,17.8,50,3,,10.0,29.840551,1010.1,,,TRUE,,,,,,,OVC,10000,,,,,,,VFR,,,,,,0.02,,,,,,METAR,222.0
KEMP 040053Z AUTO 28003KT 10SM CLR 20/09 A3000 RMK AO2 SLP154 T02000094,KEMP,2021-10-04T00:53:00Z,38.33,-96.2,20.0,9.4,280,3,,10.0,30.0,1015.4,,TRUE,TRUE,,,,,,,CLR,,,,,,,,VFR,,,,,,,,,,,,METAR,366.0
KELY 040053Z AUTO 18007KT 10SM CLR 21/M11 A3019 RMK AO2 SLP169 T02111111,KELY,2021-10-04T00:53:00Z,39.3,-114.85,21.1,-11.1,180,7,,10.0,30.188976,1016.9,,TRUE,TRUE,,,,,,,CLR,,,,,,,,VFR,,,,,,,,,,,,METAR,1906.0
KELN 040053Z AUTO 31014KT 10SM CLR 19/07 A3000 RMK AO2 SLP156 T01890072,KELN,2021-10-04T00:53:00Z,47.03,-120.53,18.9,7.2,310,14,,10.0,30.0,1015.6,,TRUE,TRUE,,,,,,,CLR,,,,,,,,VFR,,,,,,,,,,,,METAR,532.0
KELD 040053Z AUTO 00000KT 10SM CLR 21/20 A2995 RMK AO2 SLP140 T02110200,KELD,2021-10-04T00:53:00Z,33.22,-92.82,21.1,20.0,0,0,,10.0,29.949802,1014.0,,TRUE,TRUE,,,,,,,CLR,,,,,,,,VFR,,,,,,,,,,,,METAR,76.0
KEET 040053Z AUTO 15004KT 10SM FEW012 FEW017 BKN070 22/21 A2999 RMK AO2 SLP149 T02220206,KEET,2021-10-04T00:53:00Z,33.18,-86.78,22.2,20.6,150,4,,10.0,29.991142,1014.9,,TRUE,TRUE,,,,,,,FEW,1200,FEW,1700,BKN,7000,,,VFR,,,,,,,,,,,,METAR,172.0
KEEO 040053Z AUTO 31005KT 10SM CLR 18/01 A3026 RMK AO2 SLP206 T01780006 $,KEEO,2021-10-04T00:53:00Z,40.05,-107.88,17.8,0.6,310,5,,10.0,30.259842,1020.6,,TRUE,TRUE,TRUE,,,,,,CLR,,,,,,,,VFR,,,,,,,,,,,,METAR,1957.0
KECP 040053Z 00000KT 10SM CLR 22/21 A2998 RMK AO2 SLP165 T02220211,KECP,2021-10-04T00:53:00Z,30.35,-85.8,22.2,21.1,0,0,,10.0,29.97933,1016.5,,,TRUE,,,,,,,CLR,,,,,,,,VFR,,,,,,,,,,,,METAR,17.0
KDXR 040053Z 00000KT 10SM -RA BKN040 OVC049 19/16 A2995 RMK AO2 RAB47 SLP139 P0000 T01890161,KDXR,2021-10-04T00:53:00Z,41.37,-73.48,18.9,16.1,0,0,,10.0,29.949802,1013.9,,,TRUE,,,,,,-RA,BKN,4000,OVC,4900,,,,,VFR,,,,,,0.005,,,,,,METAR,138.0
KDWH 040053Z 00000KT 10SM CLR 24/19 A2996 RMK AO2 SLP142 T02390194,KDWH,2021-10-04T00:53:00Z,30.07,-95.55,23.9,19.4,0,0,,10.0,29.958662,1014.2,,,TRUE,,,,,,,CLR,,,,,,,,VFR,,,,,,,,,,,,METAR,46.0
KDVT 040053Z 00000KT 10SM CLR 32/07 A2990 RMK AO2 SLP103 T03220067,KDVT,2021-10-04T00:53:00Z,33.68,-112.07,32.2,6.7,0,0,,10.0,29.899607,1010.3,,,TRUE,,,,,,,CLR,,,,,,,,VFR,,,,,,,,,,,,METAR,454.0
KDVP 040053Z AUTO 00000KT 10SM CLR 17/09 A3001 RMK AO2 T01660087,KDVP,2021-10-04T00:53:00Z,43.98,-95.78,16.6,8.7,0,0,,10.0,30.008858,,,TRUE,TRUE,,,,,,,CLR,,,,,,,,VFR,,,,,,,,,,,,METAR,493.0
KDUJ 040053Z AUTO 23005KT 7SM BKN009 OVC015 19/18 A2993 RMK AO2 CIG 007V012 SLP128 T01890178,KDUJ,2021-10-04T00:53:00Z,41.17,-78.9,18.9,17.8,230,5,,7.0,29.929134,1012.8,,TRUE,TRUE,,,,,,,BKN,900,OVC,1500,,,,,IFR,,,,,,,,,,,,METAR,552.0
KDTW 040053Z 00000KT 10SM FEW026 SCT040 BKN070 OVC180 21/18 A2982 RMK AO2 LTG DSNT SW AND W SLP096 OCNL LTGICCC DSNT NE AND SW-W CB DSNT NE AND SW-W MOV NE T02110178,KDTW,2021-10-04T00:53:00Z,42.23,-83.33,21.1,17.8,0,0,,10.0,29.819881,1009.6,,,TRUE,,,,,,,FEW,2600,SCT,4000,BKN,7000,OVC,18000,VFR,,,,,,,,,,,,METAR,192.0
KDTS 040053Z 15004KT 10SM BKN070 26/21 A2998 RMK AO2 SLP150 T02610211,KDTS,2021-10-04T00:53:00Z,30.4,-86.47,26.1,21.1,150,4,,10.0,29.97933,1015.0,,,TRUE,,,,,,,BKN,7000,,,,,,,VFR,,,,,,,,,,,,METAR,5.0
KDTO 040053Z 00000KT 10SM CLR 22/14 A3001 RMK AO2 SLP157 T02170139,KDTO,2021-10-04T00:53:00Z,33.2,-97.2,21.7,13.9,0,0,,10.0,30.008858,1015.7,,,TRUE,,,,,,,CLR,,,,,,,,VFR,,,,,,,,,,,,METAR,199.0
KDTN 040053Z 03003KT 10SM CLR 23/19 A2995 RMK AO2 SLP140 T02330189,KDTN,2021-10-04T00:53:00Z,32.55,-93.75,23.3,18.9,30,3,,10.0,29.949802,1014.0,,,TRUE,,,,,,,CLR,,,,,,,,VFR,,,,,,,,,,,,METAR,53.0
KDRT 040053Z AUTO 09004KT 10SM CLR 29/18 A2998 RMK AO2 SLP144 T02890183,KDRT,2021-10-04T00:53:00Z,29.37,-100.92,28.9,18.3,90,4,,10.0,29.97933,1014.4,,TRUE,TRUE,,,,,,,CLR,,,,,,,,VFR,,,,,,,,,,,,METAR,303.0
KDRO 040053Z AUTO 17003KT 10SM CLR 17/06 A3029 RMK AO2 SLP215 T01720056,KDRO,2021-10-04T00:53:00Z,37.15,-107.77,17.2,5.6,170,3,,10.0,30.28937,1021.5,,TRUE,TRUE,,,,,,,CLR,,,,,,,,VFR,,,,,,,,,,,,METAR,2021.0
KDNL 040053Z AUTO 00000KT 10SM CLR 26/19 A3003 RMK AO2 SLP163 T02610189,KDNL,2021-10-04T00:53:00Z,33.47,-82.03,26.1,18.9,0,0,,10.0,30.029528,1016.3,,TRUE,TRUE,,,,,,,CLR,,,,,,,,VFR,,,,,,,,,,,,METAR,126.0
KDMO 040053Z AUTO 26004KT 10SM CLR 20/16 A2997 RMK AO2 SLP143 T02000156,KDMO,2021-10-04T00:53:00Z,38.72,-93.17,20.0,15.6,260,4,,10.0,29.970472,1014.3,,TRUE,TRUE,,,,,,,CLR,,,,,,,,VFR,,,,,,,,,,,,METAR,271.0
KDMN 040053Z AUTO 05004KT 10SM CLR 25/06 A3012 RMK AO2 SLP145 T02500056 $,KDMN,2021-10-04T00:53:00Z,32.27,-107.72,25.0,5.6,50,4,,10.0,30.121063,1014.5,,TRUE,TRUE,TRUE,,,,,,CLR,,,,,,,,VFR,,,,,,,,,,,,METAR,1310.0
KDLS 040053Z AUTO 28014KT 10SM CLR 24/11 A2994 RMK AO2 SLP139 T02440106,KDLS,2021-10-04T00:53:00Z,45.62,-121.17,24.4,10.6,280,14,,10.0,29.940945,1013.9,,TRUE,TRUE,,,,,,,CLR,,,,,,,,VFR,,,,,,,,,,,,METAR,71.0
KDLN 040053Z AUTO 20006KT 10SM CLR 19/M06 A3011 RMK AO2 SLP165 T01891056 $,KDLN,2021-10-04T00:53:00Z,45.25,-112.55,18.9,-5.6,200,6,,10.0,30.109253,1016.5,,TRUE,TRUE,TRUE,,,,,,CLR,,,,,,,,VFR,,,,,,,,,,,,METAR,1586.0
KDHT 040053Z AUTO 00000KT 7SM CLR 23/05 A3014 RMK AO2 SLP172 T02280050,KDHT,2021-10-04T00:53:00Z,36.02,-102.55,22.8,5.0,0,0,,7.0,30.138779,1017.2,,TRUE,TRUE,,,,,,,CLR,,,,,,,,VFR,,,,,,,,,,,,METAR,1217.0
KDHN 040053Z AUTO 10005KT 10SM CLR 22/21 A3003 RMK AO2 SLP166 T02170206,KDHN,2021-10-04T00:53:00Z,31.32,-85.45,21.7,20.6,100,5,,10.0,30.029528,1016.6,,TRUE,TRUE,,,,,,,CLR,,,,,,,,VFR,,,,,,,,,,,,METAR,113.0
KDGW 040053Z AUTO 04003KT 10SM CLR 16/M06 A3015 RMK AO2 SLP198 T01561056 $,KDGW,2021-10-04T00:53:00Z,42.8,-105.38,15.6,-5.6,40,3,,10.0,30.15059,1019.8,,TRUE,TRUE,TRUE,,,,,,CLR,,,,,,,,VFR,,,,,,,,,,,,METAR,1503.0
KDFW 040053Z 02004KT 10SM FEW065 BKN250 24/13 A2999 RMK AO2 SLP149 T02440128,KDFW,2021-10-04T00:53:00Z,32.9,-97.02,24.4,12.8,20,4,,10.0,29.991142,1014.9,,,TRUE,,,,,,,FEW,6500,BKN,25000,,,,,VFR,,,,,,,,,,,,METAR,168.0
KDEW 040053Z AUTO 20006KT 10SM CLR 18/06 A3001 RMK AO2 SLP167 T01780056,KDEW,2021-10-04T00:53:00Z,47.97,-117.43,17.8,5.6,200,6,,10.0,30.008858,1016.7,,TRUE,TRUE,,,,,,,CLR,,,,,,,,VFR,,,,,,,,,,,,METAR,672.0
KDEQ 040053Z AUTO 00000KT 10SM CLR 22/17 A2996 RMK AO2 SLP140 T02170167,KDEQ,2021-10-04T00:53:00Z,34.05,-94.4,21.7,16.7,0,0,,10.0,29.958662,1014.0,,TRUE,TRUE,,,,,,,CLR,,,,,,,,VFR,,,,,,,,,,,,METAR,107.0
KDEN 040053Z 12004KT 10SM FEW100 21/M05 A3018 RMK AO2 SLP165 T02111050,KDEN,2021-10-04T00:53:00Z,39.85,-104.65,21.1,-5.0,120,4,,10.0,30.180119,1016.5,,,TRUE,,,,,,,FEW,10000,,,,,,,VFR,,,,,,,,,,,,METAR,1656.0
KDCU 040053Z AUTO 00000KT 9SM FEW020 FEW028 21/20 A2997 RMK AO2 SLP143 T02060200,KDCU,2021-10-04T00:53:00Z,34.65,-86.95,20.6,20.0,0,0,,9.0,29.970472,1014.3,,TRUE,TRUE,,,,,,,FEW,2000,FEW,2800,,,,,VFR,,,,,,,,,,,,METAR,180.0
KDBQ 040053Z 34007KT 10SM CLR 18/15 A2990 RMK AO2 SLP121 T01780150 $,KDBQ,2021-10-04T00:53:00Z,42.4,-90.7,17.8,15.0,340,7,,10.0,29.899607,1012.1,,,TRUE,TRUE,,,,,,CLR,,,,,,,,VFR,,,,,,,,,,,,METAR,317.0
KDAN 040053Z AUTO 20003KT 10SM FEW047 OVC060 23/17 A2999 RMK AO2 SLP147 T02280172,KDAN,2021-10-04T00:53:00Z,36.57,-79.33,22.8,17.2,200,3,,10.0,29.991142,1014.7,,TRUE,TRUE,,,,,,,FEW,4700,OVC,6000,,,,,VFR,,,,,,,,,,,,METAR,170.0
KDAL 040053Z VRB04KT 10SM BKN250 27/13 A3000 RMK AO2 SLP151 T02670128,KDAL,2021-10-04T00:53:00Z,32.85,-96.85,26.7,12.8,0,4,,10.0,30.0,1015.1,,,TRUE,,,,,,,BKN,25000,,,,,,,VFR,,,,,,,,,,,,METAR,148.0
KDAB 040053Z 00000KT 10SM SCT090 SCT150 24/20 A3002 RMK AO2 SLP163 T02390200 $,KDAB,2021-10-04T00:53:00Z,29.18,-81.07,23.9,20.0,0,0,,10.0,30.02067,1016.3,,,TRUE,TRUE,,,,,,SCT,9000,SCT,15000,,,,,VFR,,,,,,,,,,,,METAR,8.0
KCYS 040053Z 34006KT 10SM CLR 19/M07 A3022 RMK AO2 SLP183 T01891072,KCYS,2021-10-04T00:53:00Z,41.15,-104.8,18.9,-7.2,340,6,,10.0,30.221457,1018.3,,,TRUE,,,,,,,CLR,,,,,,,,VFR,,,,,,,,,,,,METAR,1868.0
KCXO 040053Z 00000KT 10SM CLR 22/22 A2997 RMK AO2 SLP144 T02220217,KCXO,2021-10-04T00:53:00Z,30.35,-95.42,22.2,21.7,0,0,,10.0,29.970472,1014.4,,,TRUE,,,,,,,CLR,,,,,,,,VFR,,,,,,,,,,,,METAR,69.0
KCUT 040053Z AUTO 00000KT 10SM CLR 16/M04 A3018 RMK AO2 SLP188 T01561039,KCUT,2021-10-04T00:53:00Z,43.73,-103.62,15.6,-3.9,0,0,,10.0,30.180119,1018.8,,TRUE,TRUE,,,,,,,CLR,,,,,,,,VFR,,,,,,,,,,,,METAR,1700.0
KCUB 040053Z AUTO 00000KT 10SM CLR 24/20 A3003 RMK AO2 SLP166 T02390200,KCUB,2021-10-04T00:53:00Z,33.97,-81.0,23.9,20.0,0,0,,10.0,30.029528,1016.6,,TRUE,TRUE,,,,,,,CLR,,,,,,,,VFR,,,,,,,,,,,,METAR,55.0
KCSV 040053Z AUTO VRB04KT 10SM FEW120 18/18 A3001 RMK AO2 SLP146 T01780178,KCSV,2021-10-04T00:53:00Z,35.95,-85.08,17.8,17.8,0,4,,10.0,30.008858,1014.6,,TRUE,TRUE,,,,,,,FEW,12000,,,,,,,VFR,,,,,,,,,,,,METAR,569.0
KCSM 040053Z AUTO 09004KT 10SM CLR 23/09 A3006 RMK AO2 SLP164 T02280094,KCSM,2021-10-04T00:53:00Z,35.35,-99.2,22.8,9.4,90,4,,10.0,30.059055,1016.4,,TRUE,TRUE,,,,,,,CLR,,,,,,,,VFR,,,,,,,,,,,,METAR,586.0
KCRS 040053Z AUTO 34005KT 10SM CLR 25/15 A2999 RMK AO2 SLP152 T02500150,KCRS,2021-10-04T00:53:00Z,32.03,-96.4,25.0,15.0,340,5,,10.0,29.991142,1015.2,,TRUE,TRUE,,,,,,,CLR,,,,,,,,VFR,,,,,,,,,,,,METAR,136.0
KCRQ 040053Z 22003KT 10SM CLR 28/03 A2989 RMK AO2 SLP117 T02780033,KCRQ,2021-10-04T00:53:00Z,33.13,-117.28,27.8,3.3,220,3,,10.0,29.890747,1011.7,,,TRUE,,,,,,,CLR,,,,,,,,VFR,,,,,,,,,,,,METAR,96.0
KCRG 040053Z 00000KT 10SM FEW100 23/21 A3002 RMK AO2 SLP164 T02280206,KCRG,2021-10-04T00:53:00Z,30.33,-81.52,22.8,20.6,0,0,,10.0,30.02067,1016.4,,,TRUE,,,,,,,FEW,10000,,,,,,,VFR,,,,,,,,,,,,METAR,12.0
KCRE 040053Z AUTO 19007KT 10SM FEW065 FEW080 24/19 A3004 RMK AO1 SLP172 T02440194,KCRE,2021-10-04T00:53:00Z,33.82,-78.72,24.4,19.4,190,7,,10.0,30.041338,1017.2,,TRUE,TRUE,,,,,,,FEW,6500,FEW,8000,,,,,VFR,,,,,,,,,,,,METAR,9.0
KCQC 040053Z AUTO 25007KT 10SM CLR 13/05 A3033 RMK AO2 SLP216 T01330050,KCQC,2021-10-04T00:53:00Z,35.0,-105.67,13.3,5.0,250,7,,10.0,30.33071,1021.6,,TRUE,TRUE,,,,,,,CLR,,,,,,,,VFR,,,,,,,,,,,,METAR,2163.0
KCPS 040053Z 29005KT 10SM FEW039 SCT055 OVC070 19/18 A2992 RMK AO2 RAE13 TSE2356 SLP130 P0009 T01890183,KCPS,2021-10-04T00:53:00Z,38.53,-90.15,18.9,18.3,290,5,,10.0,29.920275,1013.0,,,TRUE,,,,,,,FEW,3900,SCT,5500,OVC,7000,,,VFR,,,,,,0.09,,,,,,METAR,125.0
KCPR 040053Z 31004KT 10SM CLR 13/M04 A3014 RMK AO2 SLP182 T01331039 $,KCPR,2021-10-04T00:53:00Z,42.9,-106.47,13.3,-3.9,310,4,,10.0,30.138779,1018.2,,,TRUE,TRUE,,,,,,CLR,,,,,,,,VFR,,,,,,,,,,,,METAR,1623.0
KCOT 040053Z AUTO 04003KT 10SM CLR 30/17 A2996 RMK AO2 SLP138 T03000172,KCOT,2021-10-04T00:53:00Z,28.45,-99.22,30.0,17.2,40,3,,10.0,29.958662,1013.8,,TRUE,TRUE,,,,,,,CLR,,,,,,,,VFR,,,,,,,,,,,,METAR,144.0
KCNY 040053Z AUTO 31004KT 10SM CLR 22/02 A3015 RMK AO2 SLP175 T02220022,KCNY,2021-10-04T00:53:00Z,38.77,-109.75,22.2,2.2,310,4,,10.0,30.15059,1017.5,,TRUE,TRUE,,,,,,,CLR,,,,,,,,VFR,,,,,,,,,,,,METAR,1392.0
KCNO 040053Z 26013KT 10SM CLR 32/M01 A2988 RMK AO2 SLP113 T03171006,KCNO,2021-10-04T00:53:00Z,33.98,-117.62,31.7,-0.6,260,13,,10.0,29.878937,1011.3,,,TRUE,,,,,,,CLR,,,,,,,,VFR,,,,,,,,,,,,METAR,191.0
KCNM 040053Z AUTO 15005KT 10SM CLR 23/08 A3011 RMK AO2 SLP159 T02330083,KCNM,2021-10-04T00:53:00Z,32.33,-104.25,23.3,8.3,150,5,,10.0,30.109253,1015.9,,TRUE,TRUE,,,,,,,CLR,,,,,,,,VFR,,,,,,,,,,,,METAR,993.0
KCMX 040053Z AUTO 05005KT 5SM RA BR OVC018 15/14 A2993 RMK AO2 SLP136 P0013 T01500139,KCMX,2021-10-04T00:53:00Z,47.17,-88.48,15.0,13.9,50,5,,5.0,29.929134,1013.6,,TRUE,TRUE,,,,,,RA BR,OVC,1800,,,,,,,MVFR,,,,,,0.13,,,,,,METAR,326.0
KCMI 040053Z 24005KT 10SM CLR 19/17 A2987 RMK AO2 SLP111 T01890172,KCMI,2021-10-04T00:53:00Z,40.03,-88.27,18.9,17.2,240,5,,10.0,29.870079,1011.1,,,TRUE,,,,,,,CLR,,,,,,,,VFR,,,,,,,,,,,,METAR,227.0
KCLM 040053Z AUTO 31003KT 10SM OVC035 12/07 A3012 RMK AO2 SLP202 T01220067,KCLM,2021-10-04T00:53:00Z,48.12,-123.5,12.2,6.7,310,3,,10.0,30.121063,1020.2,,TRUE,TRUE,,,,,,,OVC,3500,,,,,,,VFR,,,,,,,,,,,,METAR,81.0
KCLL 040053Z 02006KT 10SM CLR 27/17 A2997 RMK AO2 SLP143 T02720167,KCLL,2021-10-04T00:53:00Z,30.58,-96.37,27.2,16.7,20,6,,10.0,29.970472,1014.3,,,TRUE,,,,,,,CLR,,,,,,,,VFR,,,,,,,,,,,,METAR,96.0
KCKB 040053Z 22006KT 10SM SCT050 BKN095 21/17 A2994 RMK AO2 SLP127 T02060172,KCKB,2021-10-04T00:53:00Z,39.3,-80.22,20.6,17.2,220,6,,10.0,29.940945,1012.7,,,TRUE,,,,,,,SCT,5000,BKN,9500,,,,,VFR,,,,,,,,,,,,METAR,368.0
KCHO 040053Z 21007KT 10SM BKN070 OVC080 25/19 A2995 RMK AO2 SLP134 T02500194,KCHO,2021-10-04T00:53:00Z,38.13,-78.45,25.0,19.4,210,7,,10.0,29.949802,1013.4,,,TRUE,,,,,,,BKN,7000,OVC,8000,,,,,VFR,,,,,,,,,,,,METAR,193.0
KCHA 040053Z 15005KT 7SM SCT026 BKN036 BKN065 21/19 A3000 RMK AO2 SLP152 T02110194 $,KCHA,2021-10-04T00:53:00Z,35.03,-85.2,21.1,19.4,150,5,,7.0,30.0,1015.2,,,TRUE,TRUE,,,,,,SCT,2600,BKN,3600,BKN,6500,,,VFR,,,,,,,,,,,,METAR,203.0
KCGI 040053Z AUTO 26005KT 10SM CLR 19/16 A2992 RMK AO2 SLP128 T01890161,KCGI,2021-10-04T00:53:00Z,37.23,-89.58,18.9,16.1,260,5,,10.0,29.920275,1012.8,,TRUE,TRUE,,,,,,,CLR,,,,,,,,VFR,,,,,,,,,,,,METAR,103.0
KCEZ 040053Z AUTO 21005KT 10SM CLR 17/07 A3025 RMK AO2 SLP202 T01670067,KCEZ,2021-10-04T00:53:00Z,37.3,-108.63,16.7,6.7,210,5,,10.0,30.250984,1020.2,,TRUE,TRUE,,,,,,,CLR,,,,,,,,VFR,,,,,,,,,,,,METAR,1801.0
KCEW 040053Z AUTO 00000KT 10SM SCT065 BKN110 23/22 A3000 RMK AO2 RAB05E32 SLP156 P0001 T02330217,KCEW,2021-10-04T00:53:00Z,30.78,-86.52,23.3,21.7,0,0,,10.0,30.0,1015.6,,TRUE,TRUE,,,,,,,SCT,6500,BKN,11000,,,,,VFR,,,,,,0.01,,,,,,METAR,47.0
KCDW 040053Z 00000KT 10SM BKN075 22/17 A2992 RMK AO2 SLP137 T02220172,KCDW,2021-10-04T00:53:00Z,40.88,-74.28,22.2,17.2,0,0,,10.0,29.920275,1013.7,,,TRUE,,,,,,,BKN,7500,,,,,,,VFR,,,,,,,,,,,,METAR,52.0
KCDS 040053Z AUTO 17006KT 10SM -RA CLR 23/12 A3007 RMK AO2 SLP168 P0000 T02280122,KCDS,2021-10-04T00:53:00Z,34.43,-100.28,22.8,12.2,170,6,,10.0,30.070866,1016.8,,TRUE,TRUE,,,,,,-RA,CLR,,,,,,,,VFR,,,,,,0.005,,,,,,METAR,595.0
KCDR 040053Z AUTO 00000KT 10SM CLR 19/M05 A3005 RMK AO2 SLP179 T01941050,KCDR,2021-10-04T00:53:00Z,42.83,-103.1,19.4,-5.0,0,0,,10.0,30.050198,1017.9,,TRUE,TRUE,,,,,,,CLR,,,,,,,,VFR,,,,,,,,,,,,METAR,1002.0
KCDC 040053Z AUTO 13018G25KT 10SM FEW100 19/M01 A3021 RMK AO2 PK WND 14027/0007 SLP188 T01941006,KCDC,2021-10-04T00:53:00Z,37.7,-113.1,19.4,-0.6,130,18,25,10.0,30.209646,1018.8,,TRUE,TRUE,,,,,,,FEW,10000,,,,,,,VFR,,,,,,,,,,,,METAR,1703.0
KCCR 040053Z 02004KT 10SM FU CLR 32/03 A2987 RMK AO2 SLP102 T03220028,KCCR,2021-10-04T00:53:00Z,38.0,-122.05,32.2,2.8,20,4,,10.0,29.870079,1010.2,,,TRUE,,,,,,FU,CLR,,,,,,,,VFR,,,,,,,,,,,,METAR,6.0
KCAG 040053Z AUTO 27004KT 10SM CLR 14/00 A3026 RMK AO2 SLP230 T01440000,KCAG,2021-10-04T00:53:00Z,40.5,-107.52,14.4,0.0,270,4,,10.0,30.259842,1023.0,,TRUE,TRUE,,,,,,,CLR,,,,,,,,VFR,,,,,,,,,,,,METAR,1888.0
KBYI 040053Z AUTO 00000KT 10SM CLR 19/M01 A3011 RMK AO2 SLP180 T01941006,KBYI,2021-10-04T00:53:00Z,42.55,-113.77,19.4,-0.6,0,0,,10.0,30.109253,1018.0,,TRUE,TRUE,,,,,,,CLR,,,,,,,,VFR,,,,,,,,,,,,METAR,1263.0
KBYG 040053Z AUTO 00000KT 10SM CLR 21/M06 A3013 RMK AO2 SLP163 T02061061,KBYG,2021-10-04T00:53:00Z,44.38,-106.72,20.6,-6.1,0,0,,10.0,30.129921,1016.3,,TRUE,TRUE,,,,,,,CLR,,,,,,,,VFR,,,,,,,,,,,,METAR,1503.0
KBWG 040053Z AUTO 17004KT 10SM CLR 21/19 A2992 RMK AO2 LTG DSNT NE AND E RAE18 SLP126 P0030 T02110189,KBWG,2021-10-04T00:53:00Z,36.97,-86.42,21.1,18.9,170,4,,10.0,29.920275,1012.6,,TRUE,TRUE,,,,,,,CLR,,,,,,,,VFR,,,,,,0.3,,,,,,METAR,159.0
KBVY 040053Z 00000KT 10SM BKN012 OVC085 15/13 A2999 RMK AO2 RAE00 SLP152 P0000 T01500133 $,KBVY,2021-10-04T00:53:00Z,42.58,-70.92,15.0,13.3,0,0,,10.0,29.991142,1015.2,,,TRUE,TRUE,,,,,,BKN,1200,OVC,8500,,,,,MVFR,,,,,,0.005,,,,,,METAR,28.0
KBVO 040053Z AUTO 00000KT 10SM CLR 17/14 A3000 RMK AO2 SLP153 T01720139,KBVO,2021-10-04T00:53:00Z,36.77,-96.02,17.2,13.9,0,0,,10.0,30.0,1015.3,,TRUE,TRUE,,,,,,,CLR,,,,,,,,VFR,,,,,,,,,,,,METAR,210.0
KBUR 040053Z 21007KT 10SM CLR 32/M03 A2988 RMK AO2 SLP103 T03171033,KBUR,2021-10-04T00:53:00Z,34.2,-118.37,31.7,-3.3,210,7,,10.0,29.878937,1010.3,,,TRUE,,,,,,,CLR,,,,,,,,VFR,,,,,,,,,,,,METAR,221.0
KBTR 040053Z 06003KT 10SM BKN032 25/24 A2994 RMK AO2 SLP137 T02500239,KBTR,2021-10-04T00:53:00Z,30.53,-91.15,25.0,23.9,60,3,,10.0,29.940945,1013.7,,,TRUE,,,,,,,BKN,3200,,,,,,,VFR,,,,,,,,,,,,METAR,20.0
KBTM 040053Z AUTO 24004KT 10SM CLR 19/M01 A3014 RMK AO2 SLP189 T01941006 $,KBTM,2021-10-04T00:53:00Z,45.97,-112.5,19.4,-0.6,240,4,,10.0,30.138779,1018.9,,TRUE,TRUE,TRUE,,,,,,CLR,,,,,,,,VFR,,,,,,,,,,,,METAR,1680.0
KBTL 040053Z 00000KT 10SM SCT100 19/18 A2982 RMK AO2 LTG DSNT SW RAB10E37 SLP093 P0000 T01940183,KBTL,2021-10-04T00:53:00Z,42.32,-85.25,19.4,18.3,0,0,,10.0,29.819881,1009.3,,,TRUE,,,,,,,SCT,10000,,,,,,,VFR,,,,,,0.005,,,,,,METAR,282.0
KBRO 040053Z 05004KT 10SM CLR 28/23 A2994 RMK AO2 SLP136 T02780233,KBRO,2021-10-04T00:53:00Z,25.92,-97.42,27.8,23.3,50,4,,10.0,29.940945,1013.6,,,TRUE,,,,,,,CLR,,,,,,,,VFR,,,,,,,,,,,,METAR,6.0
KBRL 040053Z AUTO 28005KT 10SM CLR 19/14 A2989 RMK AO2 SLP120 T01890144,KBRL,2021-10-04T00:53:00Z,40.77,-91.13,18.9,14.4,280,5,,10.0,29.890747,1012.0,,TRUE,TRUE,,,,,,,CLR,,,,,,,,VFR,,,,,,,,,,,,METAR,208.0
KBRD 040053Z AUTO 00000KT 10SM CLR 13/10 A2999 RMK AO2 SLP158 T01330100 TSNO,KBRD,2021-10-04T00:53:00Z,46.4,-94.13,13.3,10.0,0,0,,10.0,29.991142,1015.8,,TRUE,TRUE,,,TRUE,,,,CLR,,,,,,,,VFR,,,,,,,,,,,,METAR,372.0
KBPT 040053Z 20005KT 10SM BKN060 25/24 A2994 RMK AO2 SLP138 T02500239 $,KBPT,2021-10-04T00:53:00Z,29.95,-94.03,25.0,23.9,200,5,,10.0,29.940945,1013.8,,,TRUE,TRUE,,,,,,BKN,6000,,,,,,,VFR,,,,,,,,,,,,METAR,6.0
KBPK 040053Z AUTO 00000KT 10SM CLR 18/15 A2999 RMK AO2 SLP149 T01780150 $,KBPK,2021-10-04T00:53:00Z,36.37,-92.47,17.8,15.0,0,0,,10.0,29.991142,1014.9,,TRUE,TRUE,TRUE,,,,,,CLR,,,,,,,,VFR,,,,,,,,,,,,METAR,279.0
KBPI 040053Z AUTO 01009KT 10SM CLR 16/M10 A3028 RMK AO2 SLP209 T01611100,KBPI,2021-10-04T00:53:00Z,42.58,-110.1,16.1,-10.0,10,9,,10.0,30.280512,1020.9,,TRUE,TRUE,,,,,,,CLR,,,,,,,,VFR,,,,,,,,,,,,METAR,2120.0
KBOI 040053Z 00000KT 10SM CLR 26/M02 A3003 RMK AO2 SLP150 T02611017,KBOI,2021-10-04T00:53:00Z,43.57,-116.23,26.1,-1.7,0,0,,10.0,30.029528,1015.0,,,TRUE,,,,,,,CLR,,,,,,,,VFR,,,,,,,,,,,,METAR,860.0
KBNO 040053Z AUTO 00000KT 10SM CLR 26/M03 A3006 RMK AO2 SLP163 T02611028,KBNO,2021-10-04T00:53:00Z,43.6,-118.95,26.1,-2.8,0,0,,10.0,30.059055,1016.3,,TRUE,TRUE,,,,,,,CLR,,,,,,,,VFR,,,,,,,,,,,,METAR,1263.0
KBNA 040053Z 18005KT 10SM FEW032 SCT043 22/18 A2995 RMK AO2 SLP135 T02170183 $,KBNA,2021-10-04T00:53:00Z,36.12,-86.68,21.7,18.3,180,5,,10.0,29.949802,1013.5,,,TRUE,TRUE,,,,,,FEW,3200,SCT,4300,,,,,VFR,,,,,,,,,,,,METAR,168.0
KBMQ 040053Z AUTO 00000KT 10SM CLR 26/17 A3004 RMK AO2 SLP156 T02610172,KBMQ,2021-10-04T00:53:00Z,30.73,-98.23,26.1,17.2,0,0,,10.0,30.041338,1015.6,,TRUE,TRUE,,,,,,,CLR,,,,,,,,VFR,,,,,,,,,,,,METAR,387.0
KBMG 040053Z 25004KT 10SM CLR 19/17 A2987 RMK AO2 SLP108 T01940167,KBMG,2021-10-04T00:53:00Z,39.15,-86.62,19.4,16.7,250,4,,10.0,29.870079,1010.8,,,TRUE,,,,,,,CLR,,,,,,,,VFR,,,,,,,,,,,,METAR,254.0
KBLI 040053Z 25003KT 10SM BKN043 13/11 A3011 RMK AO2 SLP205 T01330106 $,KBLI,2021-10-04T00:53:00Z,48.8,-122.53,13.3,10.6,250,3,,10.0,30.109253,1020.5,,,TRUE,TRUE,,,,,,BKN,4300,,,,,,,VFR,,,,,,,,,,,,METAR,46.0
KBKV 040053Z 00000KT 10SM FEW055 25/21 A3001 RMK AO2 SLP159 T02500206,KBKV,2021-10-04T00:53:00Z,28.47,-82.45,25.0,20.6,0,0,,10.0,30.008858,1015.9,,,TRUE,,,,,,,FEW,5500,,,,,,,VFR,,,,,,,,,,,,METAR,21.0
KBKL 040053Z 19008KT 10SM SCT090 22/18 A2985 RMK AO2 SLP104 T02220183 $,KBKL,2021-10-04T00:53:00Z,41.53,-81.67,22.2,18.3,190,8,,10.0,29.84941,1010.4,,,TRUE,TRUE,,,,,,SCT,9000,,,,,,,VFR,,,,,,,,,,,,METAR,177.0
KBKE 040053Z AUTO 13007KT 10SM CLR 22/00 A3003 RMK AO2 SLP165 T02220000,KBKE,2021-10-04T00:53:00Z,44.85,-117.82,22.2,0.0,130,7,,10.0,30.029528,1016.5,,TRUE,TRUE,,,,,,,CLR,,,,,,,,VFR,,,,,,,,,,,,METAR,1025.0
KBIV 040053Z AUTO 33004KT 10SM CLR 19/18 A2982 RMK AO2 SLP096 T01940183,KBIV,2021-10-04T00:53:00Z,42.75,-86.1,19.4,18.3,330,4,,10.0,29.819881,1009.6,,TRUE,TRUE,,,,,,,CLR,,,,,,,,VFR,,,,,,,,,,,,METAR,207.0
KBIL 040053Z 25006KT 10SM FEW200 23/M08 A3003 RMK AO2 SLP149 T02281078,KBIL,2021-10-04T00:53:00Z,45.8,-108.55,22.8,-7.8,250,6,,10.0,30.029528,1014.9,,,TRUE,,,,,,,FEW,20000,,,,,,,VFR,,,,,,,,,,,,METAR,1089.0
KBGR 040053Z 00000KT 10SM CLR 09/09 A3005 RMK AO2 SLP174 T00940089,KBGR,2021-10-04T00:53:00Z,44.8,-68.82,9.4,8.9,0,0,,10.0,30.050198,1017.4,,,TRUE,,,,,,,CLR,,,,,,,,VFR,,,,,,,,,,,,METAR,45.0
KBGM 040053Z 17003KT 5SM -RA BR OVC036 16/16 A2992 RMK AO2 RAB52 SLP130 P0000 T01610161,KBGM,2021-10-04T00:53:00Z,42.22,-75.98,16.1,16.1,170,3,,5.0,29.920275,1013.0,,,TRUE,,,,,,-RA BR,OVC,3600,,,,,,,MVFR,,,,,,0.005,,,,,,METAR,485.0
KBFM 040053Z AUTO 14007KT 6SM -RA BR BKN018 BKN028 OVC036 24/23 A2999 RMK AO2 RAB2358E08B15 SLP154 P0024 T02440233,KBFM,2021-10-04T00:53:00Z,30.62,-88.07,24.4,23.3,140,7,,6.0,29.991142,1015.4,,TRUE,TRUE,,,,,,-RA BR,BKN,1800,BKN,2800,OVC,3600,,,MVFR,,,,,,0.24,,,,,,METAR,7.0
KBFI 040053Z VRB03KT 10SM BKN012 OVC018 14/09 A3011 RMK AO2 SLP196 T01390094,KBFI,2021-10-04T00:53:00Z,47.55,-122.32,13.9,9.4,0,3,,10.0,30.109253,1019.6,,,TRUE,,,,,,,BKN,1200,OVC,1800,,,,,MVFR,,,,,,,,,,,,METAR,7.0
KBFF 040053Z AUTO 21003KT 10SM CLR 21/M02 A3009 RMK AO2 SLP170 T02111022,KBFF,2021-10-04T00:53:00Z,41.87,-103.6,21.1,-2.2,210,3,,10.0,30.088583,1017.0,,TRUE,TRUE,,,,,,,CLR,,,,,,,,VFR,,,,,,,,,,,,METAR,1204.0
KBFD 040053Z AUTO 21005KT 4SM -RA BR OVC004 18/16 A2993 RMK AO2 SLP127 P0003 T01830161,KBFD,2021-10-04T00:53:00Z,41.8,-78.63,18.3,16.1,210,5,,4.0,29.929134,1012.7,,TRUE,TRUE,,,,,,-RA BR,OVC,400,,,,,,,LIFR,,,,,,0.03,,,,,,METAR,642.0
KBEH 040053Z AUTO 00000KT 2 1/2SM BR BKN011 OVC047 19/18 A2982 RMK AO2 SLP094 T01940183 $,KBEH,2021-10-04T00:53:00Z,42.13,-86.42,19.4,18.3,0,0,,2.5,29.819881,1009.4,,TRUE,TRUE,TRUE,,,,,BR,BKN,1100,OVC,4700,,,,,IFR,,,,,,,,,,,,METAR,196.0
KBDE 040053Z AUTO 00000KT 10SM CLR 12/09 A2996 RMK AO2 SLP154 T01220094,KBDE,2021-10-04T00:53:00Z,48.73,-94.62,12.2,9.4,0,0,,10.0,29.958662,1015.4,,TRUE,TRUE,,,,,,,CLR,,,,,,,,VFR,,,,,,,,,,,,METAR,330.0
KBCT 040053Z 06007KT 10SM CLR 25/18 A2999,KBCT,2021-10-04T00:53:00Z,26.38,-80.1,25.0,18.0,60,7,,10.0,29.991142,,,,,,,,,,,CLR,,,,,,,,VFR,,,,,,,,,,,,METAR,3.0
KBCE 040053Z AUTO 26004KT 10SM FEW070 SCT100 12/02 A3037 RMK AO2 RAB11E24 SLP220 P0000 T01170022,KBCE,2021-10-04T00:53:00Z,37.7,-112.15,11.7,2.2,260,4,,10.0,30.369095,1022.0,,TRUE,TRUE,,,,,,,FEW,7000,SCT,10000,,,,,VFR,,,,,,0.005,,,,,,METAR,2311.0
KBBW 040053Z AUTO 00000KT 2SM HZ CLR 14/10 A3004 RMK AO2 SLP173 T01390100,KBBW,2021-10-04T00:53:00Z,41.43,-99.63,13.9,10.0,0,0,,2.0,30.041338,1017.3,,TRUE,TRUE,,,,,,HZ,CLR,,,,,,,,IFR,,,,,,,,,,,,METAR,771.0
KAXN 040053Z AUTO 00000KT 10SM CLR 16/11 A3000 RMK AO2 SLP161 T01560106,KAXN,2021-10-04T00:53:00Z,45.87,-95.4,15.6,10.6,0,0,,10.0,30.0,1016.1,,TRUE,TRUE,,,,,,,CLR,,,,,,,,VFR,,,,,,,,,,,,METAR,433.0
KAWM 040053Z AUTO 00000KT 10SM CLR 22/17 A2993 RMK AO2 SLP131 T02220172 $,KAWM,2021-10-04T00:53:00Z,35.13,-90.23,22.2,17.2,0,0,,10.0,29.929134,1013.1,,TRUE,TRUE,TRUE,,,,,,CLR,,,,,,,,VFR,,,,,,,,,,,,METAR,64.0
KAUS 040053Z 05005KT 10SM FEW070 SCT100 BKN200 27/16 A2997 RMK AO2 SLP139 T02720161,KAUS,2021-10-04T00:53:00Z,30.18,-97.68,27.2,16.1,50,5,,10.0,29.970472,1013.9,,,TRUE,,,,,,,FEW,7000,SCT,10000,BKN,20000,,,VFR,,,,,,,,,,,,METAR,148.0
KAUG 040053Z AUTO 00000KT 10SM BKN037 OVC050 12/11 A3005 RMK AO2 SLP176 T01170106,KAUG,2021-10-04T00:53:00Z,44.32,-69.8,11.7,10.6,0,0,,10.0,30.050198,1017.6,,TRUE,TRUE,,,,,,,BKN,3700,OVC,5000,,,,,VFR,,,,,,,,,,,,METAR,107.0
KATY 040053Z AUTO 00000KT 10SM CLR 17/04 A3000 RMK AO2 SLP163 T01670039,KATY,2021-10-04T00:53:00Z,44.9,-97.15,16.7,3.9,0,0,,10.0,30.0,1016.3,,TRUE,TRUE,,,,,,,CLR,,,,,,,,VFR,,,,,,,,,,,,METAR,531.0
KASX 040053Z AUTO 06004KT 4SM BR BKN004 OVC008 14/13 A2999 RMK AO2 SLP158 T01390128,KASX,2021-10-04T00:53:00Z,46.55,-90.92,13.9,12.8,60,4,,4.0,29.991142,1015.8,,TRUE,TRUE,,,,,,BR,BKN,400,OVC,800,,,,,LIFR,,,,,,,,,,,,METAR,249.0
KASE 040053Z 22006KT 10SM CLR 12/00 A3033 RMK AO2 SLP205 T01220000,KASE,2021-10-04T00:53:00Z,39.23,-106.87,12.2,0.0,220,6,,10.0,30.33071,1020.5,,,TRUE,,,,,,,CLR,,,,,,,,VFR,,,,,,,,,,,,METAR,2384.0
KASD 040053Z AUTO 11004KT 10SM OVC060 25/22 A2995 RMK AO2 SLP142 T02500222 TSNO,KASD,2021-10-04T00:53:00Z,30.35,-89.82,25.0,22.2,110,4,,10.0,29.949802,1014.2,,TRUE,TRUE,,,TRUE,,,,OVC,6000,,,,,,,VFR,,,,,,,,,,,,METAR,8.0
KARA 040053Z 10003KT 10SM FEW080 24/24 A2994 RMK AO2 SLP139 T02440239 $,KARA,2021-10-04T00:53:00Z,30.03,-91.88,24.4,23.9,100,3,,10.0,29.940945,1013.9,,,TRUE,TRUE,,,,,,FEW,8000,,,,,,,VFR,,,,,,,,,,,,METAR,5.0
KAPF 040053Z 00000KT 10SM FEW048 OVC090 24/23 A2998 RMK AO2 SLP149 T02440228,KAPF,2021-10-04T00:53:00Z,26.15,-81.77,24.4,22.8,0,0,,10.0,29.97933,1014.9,,,TRUE,,,,,,,FEW,4800,OVC,9000,,,,,VFR,,,,,,,,,,,,METAR,2.0
KAPA 040053Z 00000KT 10SM FEW120 20/M04 A3021 RMK AO2 SLP188 T02001044,KAPA,2021-10-04T00:53:00Z,39.57,-104.85,20.0,-4.4,0,0,,10.0,30.209646,1018.8,,,TRUE,,,,,,,FEW,12000,,,,,,,VFR,,,,,,,,,,,,METAR,1791.0
KAOO 040053Z AUTO 21004KT 10SM OVC070 20/16 A2994 RMK AO2 SLP132 T02000161,KAOO,2021-10-04T00:53:00Z,40.3,-78.32,20.0,16.1,210,4,,10.0,29.940945,1013.2,,TRUE,TRUE,,,,,,,OVC,7000,,,,,,,VFR,,,,,,,,,,,,METAR,450.0
KAOH 040053Z AUTO 19008KT 10SM SCT050 BKN060 21/18 A2985 RMK AO2 LTG DSNT SW-N SLP103 T02060183 $,KAOH,2021-10-04T00:53:00Z,40.7,-84.02,20.6,18.3,190,8,,10.0,29.84941,1010.3,,TRUE,TRUE,TRUE,,,,,,SCT,5000,BKN,6000,,,,,VFR,,,,,,,,,,,,METAR,294.0
KANB 040053Z AUTO 00000KT 10SM OVC100 21/21 A3001 RMK AO2 SLP155 T02110206,KANB,2021-10-04T00:53:00Z,33.58,-85.85,21.1,20.6,0,0,,10.0,30.008858,1015.5,,TRUE,TRUE,,,,,,,OVC,10000,,,,,,,VFR,,,,,,,,,,,,METAR,187.0
KAMW 040053Z AUTO 31006KT 10SM CLR 17/07 A2995 RMK AO2 SLP135 T01720072,KAMW,2021-10-04T00:53:00Z,41.98,-93.62,17.2,7.2,310,6,,10.0,29.949802,1013.5,,TRUE,TRUE,,,,,,,CLR,,,,,,,,VFR,,,,,,,,,,,,METAR,282.0
KAMG 040053Z AUTO 05003KT 10SM FEW085 21/20 A3000 RMK AO2 SLP158 T02060200,KAMG,2021-10-04T00:53:00Z,31.53,-82.5,20.6,20.0,50,3,,10.0,30.0,1015.8,,TRUE,TRUE,,,,,,,FEW,8500,,,,,,,VFR,,,,,,,,,,,,METAR,61.0
KAMA 040053Z 20006KT 10SM CLR 23/05 A3012 RMK AO2 SLP166 T02280050,KAMA,2021-10-04T00:53:00Z,35.22,-101.72,22.8,5.0,200,6,,10.0,30.121063,1016.6,,,TRUE,,,,,,,CLR,,,,,,,,VFR,,,,,,,,,,,,METAR,1102.0
KALW 040053Z 26004KT 10SM CLR 22/01 A2998 RMK AO2 SLP150 T02170006,KALW,2021-10-04T00:53:00Z,46.1,-118.28,21.7,0.6,260,4,,10.0,29.97933,1015.0,,,TRUE,,,,,,,CLR,,,,,,,,VFR,,,,,,,,,,,,METAR,355.0
KALI 040053Z AUTO 14007KT 10SM CLR 27/23 A2995 RMK AO2 SLP138 T02670228 $,KALI,2021-10-04T00:53:00Z,27.73,-98.02,26.7,22.8,140,7,,10.0,29.949802,1013.8,,TRUE,TRUE,TRUE,,,,,,CLR,,,,,,,,VFR,,,,,,,,,,,,METAR,52.0
KAKO 040053Z AUTO 28004KT 10SM CLR 18/M05 A3013 RMK AO2 SLP178 T01781050 PWINO $,KAKO,2021-10-04T00:53:00Z,40.17,-103.22,17.8,-5.0,280,4,,10.0,30.129921,1017.8,,TRUE,TRUE,TRUE,,,,TRUE,,CLR,,,,,,,,VFR,,,,,,,,,,,,METAR,1431.0
KAIA 040053Z AUTO 05005KT 10SM CLR 17/M03 A3008 RMK AO2 SLP181 T01671028,KAIA,2021-10-04T00:53:00Z,42.05,-102.8,16.7,-2.8,50,5,,10.0,30.079725,1018.1,,TRUE,TRUE,,,,,,,CLR,,,,,,,,VFR,,,,,,,,,,,,METAR,1198.0
KAGS 040053Z 00000KT 10SM CLR 22/20 A3001 RMK AO2 SLP159 T02220200,KAGS,2021-10-04T00:53:00Z,33.37,-81.97,22.2,20.0,0,0,,10.0,30.008858,1015.9,,,TRUE,,,,,,,CLR,,,,,,,,VFR,,,,,,,,,,,,METAR,40.0
KAGC 040053Z 19004KT 6SM BR BKN034 BKN042 OVC060 21/18 A2992 RMK AO2 SLP130 T02060183,KAGC,2021-10-04T00:53:00Z,40.35,-79.92,20.6,18.3,190,4,,6.0,29.920275,1013.0,,,TRUE,,,,,,BR,BKN,3400,BKN,4200,OVC,6000,,,VFR,,,,,,,,,,,,METAR,380.0
KAFW 040053Z 34004KT 10SM FEW060 BKN300 24/12 A3000 RMK AO2 SLP150 T02440122 $,KAFW,2021-10-04T00:53:00Z,32.97,-97.32,24.4,12.2,340,4,,10.0,30.0,1015.0,,,TRUE,TRUE,,,,,,FEW,6000,BKN,30000,,,,,VFR,,,,,,,,,,,,METAR,208.0
KAEX 040053Z 00000KT 9SM SCT080 23/22 A2993 RMK AO2 SLP137 T02330222,KAEX,2021-10-04T00:53:00Z,31.33,-92.57,23.3,22.2,0,0,,9.0,29.929134,1013.7,,,TRUE,,,,,,,SCT,8000,,,,,,,VFR,,,,,,,,,,,,METAR,25.0
KADG 040053Z AUTO 00000KT 10SM BKN100 BKN120 18/17 A2983 RMK AO2 LTG DSNT NE AND S RAE27 SLP101 P0002 T01780167,KADG,2021-10-04T00:53:00Z,41.87,-84.08,17.8,16.7,0,0,,10.0,29.828741,1010.1,,TRUE,TRUE,,,,,,,BKN,10000,BKN,12000,,,,,VFR,,,,,,0.02,,,,,,METAR,244.0
KABY 040053Z AUTO 00000KT 10SM SCT110 22/19 A3004 RMK AO2 SLP172 T02220194,KABY,2021-10-04T00:53:00Z,31.53,-84.2,22.2,19.4,0,0,,10.0,30.041338,1017.2,,TRUE,TRUE,,,,,,,SCT,11000,,,,,,,VFR,,,,,,,,,,,,METAR,60.0
KABR 040053Z AUTO 14003KT 6SM HZ CLR 15/06 A2998 RMK AO2 SLP156 T01500061,KABR,2021-10-04T00:53:00Z,45.45,-98.42,15.0,6.1,140,3,,6.0,29.97933,1015.6,,TRUE,TRUE,,,,,,HZ,CLR,,,,,,,,VFR,,,,,,,,,,,,METAR,397.0
KAAF 040053Z AUTO 03003KT 10SM CLR 22/22 A3000 RMK AO2 SLP157 T02220222,KAAF,2021-10-04T00:53:00Z,29.73,-85.03,22.2,22.2,30,3,,10.0,30.0,1015.7,,TRUE,TRUE,,,,,,,CLR,,,,,,,,VFR,,,,,,,,,,,,METAR,5.0
PKMR 040052Z 12006KT 15SM FEW015 BKN300 31/25 A2971 RMK SLP063 T03110247,PKMR,2021-10-04T00:52:00Z,7.08,171.38,31.1,24.7,120,6,,15.0,29.71063,1006.3,,,,,,,,,,FEW,1500,BKN,30000,,,,,VFR,,,,,,,,,,,,METAR,7.0
PATA 040052Z 26004KT 10SM BKN065 03/M04 A3007 RMK AO2 SLP187 T00281039,PATA,2021-10-04T00:52:00Z,65.17,-152.1,2.8,-3.9,260,4,,10.0,30.070866,1018.7,,,TRUE,,,,,,,BKN,6500,,,,,,,VFR,,,,,,,,,,,,METAR,62.0
PALP 040052Z 28003KT 5SM BR FEW001 BKN026 BKN120 M04/M06 A3018,PALP,2021-10-04T00:52:00Z,70.33,-150.93,-4.0,-6.0,280,3,,5.0,30.180119,,,,,,,,,,BR,FEW,100,BKN,2600,BKN,12000,,,MVFR,,,,,,,,,,,,METAR,4.0
PABA 040052Z AUTO 03004KT 10SM OVC023 M01/M02 A3017 RMK AO2 SLP224 T10111022 FZRANO,PABA,2021-10-04T00:52:00Z,70.13,-143.58,-1.1,-2.2,30,4,,10.0,30.171259,1022.4,,TRUE,TRUE,,,,TRUE,,,OVC,2300,,,,,,,MVFR,,,,,,,,,,,,METAR,1.0
MMCS 040052Z 09004KT 10SM FEW030 FEW200 26/07 A3012 RMK 8/102,MMCS,2021-10-04T00:52:00Z,31.63,-106.42,26.0,7.0,90,4,,10.0,30.121063,,,,,,,,,,,FEW,3000,FEW,20000,,,,,VFR,,,,,,,,,,,,METAR,1194.0
KVTN 040052Z AUTO 00000KT 10SM CLR 21/05 A3002 RMK AO2 SLP165 T02110050,KVTN,2021-10-04T00:52:00Z,42.87,-100.55,21.1,5.0,0,0,,10.0,30.02067,1016.5,,TRUE,TRUE,,,,,,,CLR,,,,,,,,VFR,,,,,,,,,,,,METAR,790.0
KTRM 040052Z AUTO 13005KT 10SM CLR 34/04 A2979 RMK AO2 SLP089 T03390039,KTRM,2021-10-04T00:52:00Z,33.63,-116.17,33.9,3.9,130,5,,10.0,29.790354,1008.9,,TRUE,TRUE,,,,,,,CLR,,,,,,,,VFR,,,,,,,,,,,,METAR,-39.0
KTOL 040052Z 23004KT 10SM -RA BKN021 BKN049 BKN100 21/18 A2983 RMK AO2 LTG DSNT ALQDS RAB06 SLP098 P0001 T02110183,KTOL,2021-10-04T00:52:00Z,41.58,-83.8,21.1,18.3,230,4,,10.0,29.828741,1009.8,,,TRUE,,,,,,-RA,BKN,2100,BKN,4900,BKN,10000,,,MVFR,,,,,,0.01,,,,,,METAR,206.0
KSUX 040052Z 25004KT 10SM CLR 16/09 A2999 RMK AO2 SLP157 T01610089,KSUX,2021-10-04T00:52:00Z,42.38,-96.38,16.1,8.9,250,4,,10.0,29.991142,1015.7,,,TRUE,,,,,,,CLR,,,,,,,,VFR,,,,,,,,,,,,METAR,332.0
KSPS 040052Z 04005KT 10SM CLR 23/11 A3002 RMK AO2 SLP158 T02280111,KSPS,2021-10-04T00:52:00Z,33.98,-98.5,22.8,11.1,40,5,,10.0,30.02067,1015.8,,,TRUE,,,,,,,CLR,,,,,,,,VFR,,,,,,,,,,,,METAR,310.0
KSPI 040052Z 28006KT 10SM SCT080 19/17 A2989 RMK AO2 SLP119 T01940167,KSPI,2021-10-04T00:52:00Z,39.85,-89.68,19.4,16.7,280,6,,10.0,29.890747,1011.9,,,TRUE,,,,,,,SCT,8000,,,,,,,VFR,,,,,,,,,,,,METAR,179.0
KSGF 040052Z AUTO 00000KT 10SM CLR 17/15 A2999 RMK AO2 SLP149 T01720150,KSGF,2021-10-04T00:52:00Z,37.23,-93.38,17.2,15.0,0,0,,10.0,29.991142,1014.9,,TRUE,TRUE,,,,,,,CLR,,,,,,,,VFR,,,,,,,,,,,,METAR,387.0
KREO 040052Z AUTO 13004KT 27/M07 A3005 RMK AO1 SLP155 T02671072,KREO,2021-10-04T00:52:00Z,42.58,-117.87,26.7,-7.2,130,4,,,30.050198,1015.5,,TRUE,TRUE,,,,,,,,,,,,,,,,,,,,,,,,,,,METAR,1237.0
KRAP 040052Z 07006KT 10SM CLR 17/M04 A3005 RMK AO2 SLP175 T01721044,KRAP,2021-10-04T00:52:00Z,44.05,-103.05,17.2,-4.4,70,6,,10.0,30.050198,1017.5,,,TRUE,,,,,,,CLR,,,,,,,,VFR,,,,,,,,,,,,METAR,965.0
KPYM 040052Z AUTO 03006KT 10SM OVC006 17/15 A2997 RMK AO2 SLP149 T01670150,KPYM,2021-10-04T00:52:00Z,41.92,-70.73,16.7,15.0,30,6,,10.0,29.970472,1014.9,,TRUE,TRUE,,,,,,,OVC,600,,,,,,,IFR,,,,,,,,,,,,METAR,42.0
KPWK 040052Z 00000KT 10SM FEW120 19/18 A2984 RMK AO2 RAB04E35 SLP102 P0001 T01890183,KPWK,2021-10-04T00:52:00Z,42.12,-87.9,18.9,18.3,0,0,,10.0,29.840551,1010.2,,,TRUE,,,,,,,FEW,12000,,,,,,,VFR,,,,,,0.01,,,,,,METAR,194.0
KPPF 040052Z AUTO 00000KT 10SM CLR 16/13 A3000 RMK AO2 SLP156 T01610133,KPPF,2021-10-04T00:52:00Z,37.33,-95.5,16.1,13.3,0,0,,10.0,30.0,1015.6,,TRUE,TRUE,,,,,,,CLR,,,,,,,,VFR,,,,,,,,,,,,METAR,265.0
KP69 040052Z AUTO 00000KT 16/11 A2998 RMK AO1 SLP151 T01610111 $,KP69,2021-10-04T00:52:00Z,46.15,-115.6,16.1,11.1,0,0,,,29.97933,1015.1,,TRUE,TRUE,TRUE,,,,,,,,,,,,,,,,,,,,,,,,,,METAR,447.0
KORE 040052Z AUTO 00000KT 4SM -RA BR SCT006 OVC012 16/16 A2999 RMK AO2 SLP155 P0006 T01610156,KORE,2021-10-04T00:52:00Z,42.57,-72.28,16.1,15.6,0,0,,4.0,29.991142,1015.5,,TRUE,TRUE,,,,,,-RA BR,SCT,600,OVC,1200,,,,,MVFR,,,,,,0.06,,,,,,METAR,165.0
KOMA 040052Z 00000KT 10SM CLR 19/12 A2999 RMK AO2 SLP154 T01890122,KOMA,2021-10-04T00:52:00Z,41.32,-95.9,18.9,12.2,0,0,,10.0,29.991142,1015.4,,,TRUE,,,,,,,CLR,,,,,,,,VFR,,,,,,,,,,,,METAR,299.0
KOKC 040052Z 03004KT 10SM FEW250 23/07 A3004 RMK AO2 SLP162 T02280072,KOKC,2021-10-04T00:52:00Z,35.38,-97.6,22.8,7.2,30,4,,10.0,30.041338,1016.2,,,TRUE,,,,,,,FEW,25000,,,,,,,VFR,,,,,,,,,,,,METAR,391.0
KOKB 040052Z AUTO 25005KT 10SM CLR 27/06 A2988 RMK AO2 SLP116 T02670056,KOKB,2021-10-04T00:52:00Z,33.22,-117.35,26.7,5.6,250,5,,10.0,29.878937,1011.6,,TRUE,TRUE,,,,,,,CLR,,,,,,,,VFR,,,,,,,,,,,,METAR,7.0
KNZY 040052Z 19005KT 10SM FEW150 SCT250 22/18 A2989 RMK AO2 SLP120 T02220178 $,KNZY,2021-10-04T00:52:00Z,32.7,-117.22,22.2,17.8,190,5,,10.0,29.890747,1012.0,,,TRUE,TRUE,,,,,,FEW,15000,SCT,25000,,,,,VFR,,,,,,,,,,,,METAR,4.0
KNTD 040052Z 27006KT 10SM FEW280 22/13 A2988 RMK AO2 SLP118 T02170133 VISNO N $,KNTD,2021-10-04T00:52:00Z,34.12,-119.12,21.7,13.3,270,6,,10.0,29.878937,1011.8,,,TRUE,TRUE,,,,,,FEW,28000,,,,,,,VFR,,,,,,,,,,,,SPECI,1.0
KNRB 040052Z AUTO 16005KT 10SM FEW100 24/20 A3001 RMK AO2 SLP163 T02440200,KNRB,2021-10-04T00:52:00Z,30.38,-81.42,24.4,20.0,160,5,,10.0,30.008858,1016.3,,TRUE,TRUE,,,,,,,FEW,10000,,,,,,,VFR,,,,,,,,,,,,METAR,4.0
KNHK 040052Z AUTO 20005KT 10SM CLR 24/18 A2994 RMK AO2 SLP139 T02440183,KNHK,2021-10-04T00:52:00Z,38.28,-76.4,24.4,18.3,200,5,,10.0,29.940945,1013.9,,TRUE,TRUE,,,,,,,CLR,,,,,,,,VFR,,,,,,,,,,,,SPECI,5.0
KNFW 040052Z AUTO 34003KT 10SM CLR 25/16 A3001 RMK AO2 SLP145 T02500156 $,KNFW,2021-10-04T00:52:00Z,32.78,-97.43,25.0,15.6,340,3,,10.0,30.008858,1014.5,,TRUE,TRUE,TRUE,,,,,,CLR,,,,,,,,VFR,,,,,,,,,,,,METAR,188.0
KN60 040052Z AUTO 29006KT 21/01 A2993 RMK AO1 SLP139 T02060011,KN60,2021-10-04T00:52:00Z,47.65,-101.43,20.6,1.1,290,6,,,29.929134,1013.9,,TRUE,TRUE,,,,,,,,,,,,,,,,,,,,,,,,,,,METAR,582.0
KMWH 040052Z 14004KT 10SM CLR 22/08 A2997 RMK AO2 SLP150 T02170078,KMWH,2021-10-04T00:52:00Z,47.2,-119.32,21.7,7.8,140,4,,10.0,29.970472,1015.0,,,TRUE,,,,,,,CLR,,,,,,,,VFR,,,,,,,,,,,,METAR,355.0
KMLI 040052Z 30005KT 10SM OVC070 22/16 A2986 RMK AO2 SLP109 T02220156,KMLI,2021-10-04T00:52:00Z,41.45,-90.52,22.2,15.6,300,5,,10.0,29.861221,1010.9,,,TRUE,,,,,,,OVC,7000,,,,,,,VFR,,,,,,,,,,,,METAR,174.0
KMLF 040052Z AUTO 36007KT 10SM CLR 23/M07 A3015 RMK AO2 SLP173 T02331072,KMLF,2021-10-04T00:52:00Z,38.42,-113.02,23.3,-7.2,360,7,,10.0,30.15059,1017.3,,TRUE,TRUE,,,,,,,CLR,,,,,,,,VFR,,,,,,,,,,,,METAR,1537.0
KMKE 040052Z 08003KT 9SM SCT100 SCT110 OVC150 19/18 A2984 RMK AO2 RAE00B03E40 SLP100 P0000 T01940178 $,KMKE,2021-10-04T00:52:00Z,42.95,-87.9,19.4,17.8,80,3,,9.0,29.840551,1010.0,,,TRUE,TRUE,,,,,,SCT,10000,SCT,11000,OVC,15000,,,VFR,,,,,,0.005,,,,,,METAR,203.0
KMHK 040052Z 34003KT 10SM CLR 18/06 A3000 RMK AO2 SLP156 T01830061,KMHK,2021-10-04T00:52:00Z,39.13,-96.68,18.3,6.1,340,3,,10.0,30.0,1015.6,,,TRUE,,,,,,,CLR,,,,,,,,VFR,,,,,,,,,,,,SPECI,320.0
KMFD 040052Z 20007KT 10SM BKN013 19/18 A2989 RMK AO2 SLP116 T01940183,KMFD,2021-10-04T00:52:00Z,40.82,-82.52,19.4,18.3,200,7,,10.0,29.890747,1011.6,,,TRUE,,,,,,,BKN,1300,,,,,,,MVFR,,,,,,,,,,,,METAR,394.0
KMEB 040052Z AUTO 18007KT 10SM CLR 23/17 A3003 RMK AO2 SLP167 T02280172 TSNO,KMEB,2021-10-04T00:52:00Z,34.78,-79.37,22.8,17.2,180,7,,10.0,30.029528,1016.7,,TRUE,TRUE,,,TRUE,,,,CLR,,,,,,,,VFR,,,,,,,,,,,,METAR,65.0
KMDH 040052Z 31003KT 10SM FEW090 20/17 A2992 RMK AO2 SLP129 T02000172,KMDH,2021-10-04T00:52:00Z,37.78,-89.25,20.0,17.2,310,3,,10.0,29.920275,1012.9,,,TRUE,,,,,,,FEW,9000,,,,,,,VFR,,,,,,,,,,,,METAR,122.0
KMBG 040052Z AUTO 13006KT 10SM CLR 17/09 A2994 RMK AO2 SLP142 T01720094,KMBG,2021-10-04T00:52:00Z,45.55,-100.42,17.2,9.4,130,6,,10.0,29.940945,1014.2,,TRUE,TRUE,,,,,,,CLR,,,,,,,,VFR,,,,,,,,,,,,METAR,515.0
KLWC 040052Z AUTO 32004KT 10SM CLR 16/14 A2997 RMK AO1 SLP146 T01560144,KLWC,2021-10-04T00:52:00Z,39.02,-95.22,15.6,14.4,320,4,,10.0,29.970472,1014.6,,TRUE,TRUE,,,,,,,CLR,,,,,,,,VFR,,,,,,,,,,,,METAR,252.0
KIOW 040052Z AUTO 30007KT 10SM CLR 19/08 A2990 RMK AO2 SLP123 T01940078 $,KIOW,2021-10-04T00:52:00Z,41.63,-91.55,19.4,7.8,300,7,,10.0,29.899607,1012.3,,TRUE,TRUE,TRUE,,,,,,CLR,,,,,,,,VFR,,,,,,,,,,,,METAR,199.0
KIEN 040052Z AUTO 08005KT CLR 16/03 A3005 RMK AO2 SLP179 T01560028 $,KIEN,2021-10-04T00:52:00Z,43.03,-102.52,15.6,2.8,80,5,,,30.050198,1017.9,,TRUE,TRUE,TRUE,,,,,,CLR,,,,,,,,,,,,,,,,,,,,METAR,1002.0
KIAD 040052Z 18005KT 10SM FEW140 FEW250 24/18 A2992 RMK AO2 SLP129 T02390178,KIAD,2021-10-04T00:52:00Z,38.93,-77.45,23.9,17.8,180,5,,10.0,29.920275,1012.9,,,TRUE,,,,,,,FEW,14000,FEW,25000,,,,,VFR,,,,,,,,,,,,METAR,90.0
KHUT 040052Z 00000KT 10SM CLR 17/11 A3004 RMK AO2 SLP160 T01670111,KHUT,2021-10-04T00:52:00Z,38.07,-97.87,16.7,11.1,0,0,,10.0,30.041338,1016.0,,,TRUE,,,,,,,CLR,,,,,,,,VFR,,,,,,,,,,,,METAR,464.0
KHRL 040052Z 06004KT 10SM CLR 27/24 A2994 RMK AO2 SLP136 T02670244,KHRL,2021-10-04T00:52:00Z,26.23,-97.65,26.7,24.4,60,4,,10.0,29.940945,1013.6,,,TRUE,,,,,,,CLR,,,,,,,,VFR,,,,,,,,,,,,METAR,9.0
KHIE 040052Z AUTO 08005KT 10SM OVC019 12/11 A3001 RMK AO2 SLP166 T01170106,KHIE,2021-10-04T00:52:00Z,44.37,-71.55,11.7,10.6,80,5,,10.0,30.008858,1016.6,,TRUE,TRUE,,,,,,,OVC,1900,,,,,,,MVFR,,,,,,,,,,,,METAR,321.0
KGLS 040052Z AUTO 18004KT 10SM BKN120 28/23 A2996 RMK AO2 SLP144 T02780228,KGLS,2021-10-04T00:52:00Z,29.27,-94.87,27.8,22.8,180,4,,10.0,29.958662,1014.4,,TRUE,TRUE,,,,,,,BKN,12000,,,,,,,VFR,,,,,,,,,,,,METAR,2.0
KGEU 040052Z 00000KT 10SM FEW250 34/05 A2989,KGEU,2021-10-04T00:52:00Z,33.53,-112.3,34.0,5.0,0,0,,10.0,29.890747,,,,,,,,,,,FEW,25000,,,,,,,VFR,,,,,,,,,,,,METAR,319.0
KFIT 040052Z AUTO VRB03KT 6SM -RA BR OVC006 15/14 A3000 RMK AO2 RAB45 SLP161 P0000 T01500139,KFIT,2021-10-04T00:52:00Z,42.55,-71.75,15.0,13.9,0,3,,6.0,30.0,1016.1,,TRUE,TRUE,,,,,,-RA BR,OVC,600,,,,,,,IFR,,,,,,0.005,,,,,,METAR,102.0
KEST 040052Z AUTO 35004KT 10SM CLR 16/08 A2998 RMK AO2 SLP153 T01560078,KEST,2021-10-04T00:52:00Z,43.4,-94.75,15.6,7.8,350,4,,10.0,29.97933,1015.3,,TRUE,TRUE,,,,,,,CLR,,,,,,,,VFR,,,,,,,,,,,,METAR,401.0
KDVN 040052Z AUTO 32006KT 10SM BKN060 21/14 A2989 RMK AO2 SLP115 T02110144,KDVN,2021-10-04T00:52:00Z,41.62,-90.58,21.1,14.4,320,6,,10.0,29.890747,1011.5,,TRUE,TRUE,,,,,,,BKN,6000,,,,,,,VFR,,,,,,,,,,,,METAR,227.0
KDPA 040052Z 08007KT 10SM FEW031 BKN085 19/16 A2983 RMK AO2 SLP098 T01940156,KDPA,2021-10-04T00:52:00Z,41.88,-88.25,19.4,15.6,80,7,,10.0,29.828741,1009.8,,,TRUE,,,,,,,FEW,3100,BKN,8500,,,,,VFR,,,,,,,,,,,,METAR,228.0
KDDC 040052Z AUTO 12004KT 9SM CLR 20/06 A3008 RMK AO2 SLP173 T02000056,KDDC,2021-10-04T00:52:00Z,37.77,-99.97,20.0,5.6,120,4,,9.0,30.079725,1017.3,,TRUE,TRUE,,,,,,,CLR,,,,,,,,VFR,,,,,,,,,,,,METAR,786.0
KDCA 040052Z 18009KT 10SM BKN100 BKN180 23/19 A2992 RMK AO2 SLP133 T02330194,KDCA,2021-10-04T00:52:00Z,38.85,-77.03,23.3,19.4,180,9,,10.0,29.920275,1013.3,,,TRUE,,,,,,,BKN,10000,BKN,18000,,,,,VFR,,,,,,,,,,,,METAR,4.0
KCVG 040052Z 19006KT 10SM BKN012 OVC025 20/18 A2988 RMK AO2 SLP109 T02000178,KCVG,2021-10-04T00:52:00Z,39.05,-84.67,20.0,17.8,190,6,,10.0,29.878937,1010.9,,,TRUE,,,,,,,BKN,1200,OVC,2500,,,,,MVFR,,,,,,,,,,,,METAR,264.0
KCQX 040052Z AUTO 04003KT 10SM FEW110 18/17 A2997 RMK AO2 SLP150 T01780167,KCQX,2021-10-04T00:52:00Z,41.68,-70.0,17.8,16.7,40,3,,10.0,29.970472,1015.0,,TRUE,TRUE,,,,,,,FEW,11000,,,,,,,VFR,,,,,,,,,,,,METAR,17.0
KCQT 040052Z AUTO 28004KT 10SM CLR 27/06 A2987 RMK AO2 SLP110 T02720061,KCQT,2021-10-04T00:52:00Z,34.02,-118.28,27.2,6.1,280,4,,10.0,29.870079,1011.0,,TRUE,TRUE,,,,,,,CLR,,,,,,,,VFR,,,,,,,,,,,,METAR,51.0
KCNU 040052Z AUTO 00000KT 10SM CLR 19/12 A2999 RMK AO2 SLP150 T01890122 $,KCNU,2021-10-04T00:52:00Z,37.67,-95.48,18.9,12.2,0,0,,10.0,29.991142,1015.0,,TRUE,TRUE,TRUE,,,,,,CLR,,,,,,,,VFR,,,,,,,,,,,,METAR,301.0
KCLT 040052Z 25004KT 10SM FEW050 SCT140 BKN220 BKN250 23/18 A3002 RMK AO2 SLP159 T02330178,KCLT,2021-10-04T00:52:00Z,35.22,-80.95,23.3,17.8,250,4,,10.0,30.02067,1015.9,,,TRUE,,,,,,,FEW,5000,SCT,14000,BKN,22000,BKN,25000,VFR,,,,,,,,,,,,METAR,223.0
KCKV 040052Z AUTO 00000KT 10SM CLR 22/18 A2992 RMK AO2 SLP126 T02170178,KCKV,2021-10-04T00:52:00Z,36.62,-87.42,21.7,17.8,0,0,,10.0,29.920275,1012.6,,TRUE,TRUE,,,,,,,CLR,,,,,,,,VFR,,,,,,,,,,,,METAR,166.0
KCID 040052Z 31006KT 10SM CLR 15/07 A2989 RMK AO2 SLP120 T01500072,KCID,2021-10-04T00:52:00Z,41.88,-91.72,15.0,7.2,310,6,,10.0,29.890747,1012.0,,,TRUE,,,,,,,CLR,,,,,,,,VFR,,,,,,,,,,,,METAR,257.0
KCFV 040052Z AUTO 00000KT 10SM CLR 19/12 A2998 RMK AO2 SLP150 T01940122 $,KCFV,2021-10-04T00:52:00Z,37.08,-95.57,19.4,12.2,0,0,,10.0,29.97933,1015.0,,TRUE,TRUE,TRUE,,,,,,CLR,,,,,,,,VFR,,,,,,,,,,,,SPECI,228.0
KCDJ 040052Z AUTO 00000KT 17/14 A2996 RMK AO1 SLP141 T01720139,KCDJ,2021-10-04T00:52:00Z,39.77,-93.48,17.2,13.9,0,0,,,29.958662,1014.1,,TRUE,TRUE,,,,,,,,,,,,,,,,,,,,,,,,,,,METAR,236.0
KBLU 040052Z AUTO 00000KT 10SM CLR 19/M02 A3018 RMK AO2 SLP138 T01941022 $,KBLU,2021-10-04T00:52:00Z,39.28,-120.7,19.4,-2.2,0,0,,10.0,30.180119,1013.8,,TRUE,TRUE,TRUE,,,,,,CLR,,,,,,,,VFR,,,,,,,,,,,,METAR,1605.0
KBLH 040052Z AUTO 19009KT 10SM CLR 35/01 A2983 RMK AO2 SLP097 T03500011,KBLH,2021-10-04T00:52:00Z,33.62,-114.72,35.0,1.1,190,9,,10.0,29.828741,1009.7,,TRUE,TRUE,,,,,,,CLR,,,,,,,,VFR,,,,,,,,,,,,METAR,119.0
KBLF 040052Z AUTO VRB03KT 10SM -RA SCT060 BKN085 OVC110 16/16 A3004 RMK AO2 SLP149 P0001 T01610156,KBLF,2021-10-04T00:52:00Z,37.3,-81.2,16.1,15.6,0,3,,10.0,30.041338,1014.9,,TRUE,TRUE,,,,,,-RA,SCT,6000,BKN,8500,OVC,11000,,,VFR,,,,,,0.01,,,,,,METAR,871.0
KBIS 040052Z 15008KT 10SM CLR 21/06 A2994 RMK AO2 SLP141 T02060061,KBIS,2021-10-04T00:52:00Z,46.77,-100.75,20.6,6.1,150,8,,10.0,29.940945,1014.1,,,TRUE,,,,,,,CLR,,,,,,,,VFR,,,,,,,,,,,,METAR,506.0
KBDR 040052Z 19007KT 10SM BKN065 BKN080 21/18 A2993 RMK AO2 SLP135 T02110183,KBDR,2021-10-04T00:52:00Z,41.17,-73.13,21.1,18.3,190,7,,10.0,29.929134,1013.5,,,TRUE,,,,,,,BKN,6500,BKN,8000,,,,,VFR,,,,,,,,,,,,METAR,5.0
KBAN 040052Z AUTO 23006KT 7SM 20/M12 A3020 RMK AO2 SLP183 T02001122 $,KBAN,2021-10-04T00:52:00Z,38.35,-119.52,20.0,-12.2,230,6,,7.0,30.200787,1018.3,,TRUE,TRUE,TRUE,,,,,,,,,,,,,,,,,,,,,,,,,,METAR,2067.0
KATL 040052Z 15004KT 10SM FEW070 BKN110 BKN150 BKN250 21/19 A3002 RMK AO2 SLP160 T02060189 $,KATL,2021-10-04T00:52:00Z,33.63,-84.45,20.6,18.9,150,4,,10.0,30.02067,1016.0,,,TRUE,TRUE,,,,,,FEW,7000,BKN,11000,BKN,15000,BKN,25000,VFR,,,,,,,,,,,,METAR,309.0
KARR 040052Z 34003KT 10SM FEW043 BKN055 19/17 A2983 RMK AO2 SLP099 T01940167,KARR,2021-10-04T00:52:00Z,41.77,-88.48,19.4,16.7,340,3,,10.0,29.828741,1009.9,,,TRUE,,,,,,,FEW,4300,BKN,5500,,,,,VFR,,,,,,,,,,,,METAR,213.0
KALS 040052Z AUTO 22007KT 10SM CLR 13/03 A3032 RMK AO2 SLP234 T01330033,KALS,2021-10-04T00:52:00Z,37.43,-105.87,13.3,3.3,220,7,,10.0,30.318897,1023.4,,TRUE,TRUE,,,,,,,CLR,,,,,,,,VFR,,,,,,,,,,,,METAR,2299.0
KAFN 040052Z AUTO 00000KT 4SM -RA BR OVC004 15/15 A3000 RMK AO2 SLP165 P0003 T01500150,KAFN,2021-10-04T00:52:00Z,42.8,-72.0,15.0,15.0,0,0,,4.0,30.0,1016.5,,TRUE,TRUE,,,,,,-RA BR,OVC,400,,,,,,,LIFR,,,,,,0.03,,,,,,METAR,308.0
KABQ 040052Z 18004KT 10SM FEW070 FEW250 22/02 A3023 RMK AO2 SLP177 T02220022,KABQ,2021-10-04T00:52:00Z,35.05,-106.62,22.2,2.2,180,4,,10.0,30.230314,1017.7,,,TRUE,,,,,,,FEW,7000,FEW,25000,,,,,VFR,,,,,,,,,,,,METAR,1620.0
KABI 040052Z 02004KT 10SM CLR 24/11 A3007 RMK AO2 SLP163 T02440111,KABI,2021-10-04T00:52:00Z,32.42,-99.68,24.4,11.1,20,4,,10.0,30.070866,1016.3,,,TRUE,,,,,,,CLR,,,,,,,,VFR,,,,,,,,,,,,METAR,543.0
PTYA 040051Z VRB05KT 12SM FEW016 BKN300 30/26 A2977 RMK SLP083 T03010264,PTYA,2021-10-04T00:51:00Z,9.48,138.08,30.1,26.4,0,5,,12.0,29.769686,1008.3,,,,,,,,,,FEW,1600,BKN,30000,,,,,VFR,,,,,,,,,,,,METAR,4.0
PAPT 040051Z 34012KT 25SM SCT045 03/01 A2991 RMK NO SPECI LAST,PAPT,2021-10-04T00:51:00Z,62.1,-152.72,3.0,1.0,340,12,,25.0,29.911417,,,,,,,,,,,SCT,4500,,,,,,,VFR,,,,,,,,,,,,SPECI,577.0
PAMD 040051Z AUTO 34005KT 10SM CLR 09/03 A2987 RMK AO2 SLP104 T00940028,PAMD,2021-10-04T00:51:00Z,59.43,-146.3,9.4,2.8,340,5,,10.0,29.870079,1010.4,,TRUE,TRUE,,,,,,,CLR,,,,,,,,VFR,,,,,,,,,,,,SPECI,20.0
MUGM 040051Z 09003KT 10SM SCT020 BKN250 28/24 A2991 RMK AO2 SLP130 T02780239 $,MUGM,2021-10-04T00:51:00Z,19.9,-75.2,27.8,23.9,90,3,,10.0,29.911417,1013.0,,,TRUE,TRUE,,,,,,SCT,2000,BKN,25000,,,,,VFR,,,,,,,,,,,,METAR,21.0
MMUN 040051Z 07004KT 7SM FEW015 SCT250 28/24 A2991 RMK 8/508,MMUN,2021-10-04T00:51:00Z,21.03,-86.85,28.0,24.0,70,4,,7.0,29.911417,,,,,,,,,,,FEW,1500,SCT,25000,,,,,VFR,,,,,,,,,,,,METAR,13.0
KYNG 040051Z 16005KT 7SM SCT012 BKN100 BKN250 19/18 A2991 RMK AO2 SLP122 T01890178,KYNG,2021-10-04T00:51:00Z,41.25,-80.67,18.9,17.8,160,5,,7.0,29.911417,1012.2,,,TRUE,,,,,,,SCT,1200,BKN,10000,BKN,25000,,,VFR,,,,,,,,,,,,METAR,356.0
KXWA 040051Z AUTO 24006KT 10SM CLR 19/M03 A2995 RMK AO2 SLP151 T01941028,KXWA,2021-10-04T00:51:00Z,48.27,-103.75,19.4,-2.8,240,6,,10.0,29.949802,1015.1,,TRUE,TRUE,,,,,,,CLR,,,,,,,,VFR,,,,,,,,,,,,METAR,717.0
KVNY 040051Z 18009KT 10SM CLR 33/M02 A2987 RMK AO2 SLP106 T03281022,KVNY,2021-10-04T00:51:00Z,34.22,-118.48,32.8,-2.2,180,9,,10.0,29.870079,1010.6,,,TRUE,,,,,,,CLR,,,,,,,,VFR,,,,,,,,,,,,METAR,241.0
KVCT 040051Z 12004KT 10SM CLR 24/22 A2996 RMK AO2 SLP143 T02440217,KVCT,2021-10-04T00:51:00Z,28.87,-96.93,24.4,21.7,120,4,,10.0,29.958662,1014.3,,,TRUE,,,,,,,CLR,,,,,,,,VFR,,,,,,,,,,,,METAR,33.0
KTPL 040051Z AUTO 05005KT 10SM CLR 24/17 A3000 RMK AO2 SLP151 T02440167,KTPL,2021-10-04T00:51:00Z,31.15,-97.4,24.4,16.7,50,5,,10.0,30.0,1015.1,,TRUE,TRUE,,,,,,,CLR,,,,,,,,VFR,,,,,,,,,,,,METAR,206.0
KTKC 040051Z AUTO 29003KT 10SM CLR 19/07 A2999 RMK AO2,KTKC,2021-10-04T00:51:00Z,44.25,-95.62,19.0,7.0,290,3,,10.0,29.991142,,,TRUE,TRUE,,,,,,,CLR,,,,,,,,VFR,,,,,,,,,,,,METAR,408.0
KTEB 040051Z 00000KT 10SM FEW060 SCT080 22/17 A2991 RMK AO2 SLP127 T02220172 $,KTEB,2021-10-04T00:51:00Z,40.87,-74.05,22.2,17.2,0,0,,10.0,29.911417,1012.7,,,TRUE,TRUE,,,,,,FEW,6000,SCT,8000,,,,,VFR,,,,,,,,,,,,METAR,3.0
KSTL 040051Z 00000KT 10SM SCT049 OVC080 21/18 A2993 RMK AO2 RAE37 SLP129 P0000 T02060178,KSTL,2021-10-04T00:51:00Z,38.75,-90.37,20.6,17.8,0,0,,10.0,29.929134,1012.9,,,TRUE,,,,,,,SCT,4900,OVC,8000,,,,,VFR,,,,,,0.005,,,,,,METAR,163.0
KSNT 040051Z AUTO 22005KT 16/M11 A3022 RMK AO1 SLP194 T01561106,KSNT,2021-10-04T00:51:00Z,44.17,-114.93,15.6,-10.6,220,5,,,30.221457,1019.4,,TRUE,TRUE,,,,,,,,,,,,,,,,,,,,,,,,,,,METAR,1980.0
KSMX 040051Z 32004KT 10SM CLR 19/12 A2992 RMK AO2 SLP132 T01940122,KSMX,2021-10-04T00:51:00Z,34.9,-120.45,19.4,12.2,320,4,,10.0,29.920275,1013.2,,,TRUE,,,,,,,CLR,,,,,,,,VFR,,,,,,,,,,,,METAR,73.0
KSMO 040051Z 22007KT 10SM CLR 24/12 A2988 RMK AO2 SLP116 T02390117,KSMO,2021-10-04T00:51:00Z,34.02,-118.45,23.9,11.7,220,7,,10.0,29.878937,1011.6,,,TRUE,,,,,,,CLR,,,,,,,,VFR,,,,,,,,,,,,METAR,56.0
KSLK 040051Z AUTO 07006KT 4SM BR OVC003 12/12 A2997 RMK AO2 SLP152 T01220122,KSLK,2021-10-04T00:51:00Z,44.4,-74.2,12.2,12.2,70,6,,4.0,29.970472,1015.2,,TRUE,TRUE,,,,,,BR,OVC,300,,,,,,,LIFR,,,,,,,,,,,,METAR,502.0
KSJT 040051Z 08004KT 10SM CLR 24/16 A3007 RMK AO2 SLP166 T02390161,KSJT,2021-10-04T00:51:00Z,31.37,-100.5,23.9,16.1,80,4,,10.0,30.070866,1016.6,,,TRUE,,,,,,,CLR,,,,,,,,VFR,,,,,,,,,,,,METAR,582.0
KSBD 040051Z 25013G20KT 10SM CLR 33/00 A2988,KSBD,2021-10-04T00:51:00Z,34.08,-117.25,33.0,0.0,250,13,20,10.0,29.878937,,,,,,,,,,,CLR,,,,,,,,VFR,,,,,,,,,,,,METAR,353.0
KSAT 040051Z 05004KT 10SM FEW120 BKN220 28/17 A2998 RMK AO2 SLP136 T02830167,KSAT,2021-10-04T00:51:00Z,29.53,-98.48,28.3,16.7,50,4,,10.0,29.97933,1013.6,,,TRUE,,,,,,,FEW,12000,BKN,22000,,,,,VFR,,,,,,,,,,,,METAR,246.0
KSAN 040051Z VRB03KT 10SM SCT250 28/07 A2990 RMK AO2 SLP126 T02830072,KSAN,2021-10-04T00:51:00Z,32.73,-117.18,28.3,7.2,0,3,,10.0,29.899607,1012.6,,,TRUE,,,,,,,SCT,25000,,,,,,,VFR,,,,,,,,,,,,METAR,3.0
KSAD 040051Z AUTO 08003KT 10SM CLR 28/08 A3002 RMK AO2 SLP122 T02780083 $,KSAD,2021-10-04T00:51:00Z,32.85,-109.63,27.8,8.3,80,3,,10.0,30.02067,1012.2,,TRUE,TRUE,TRUE,,,,,,CLR,,,,,,,,VFR,,,,,,,,,,,,METAR,937.0
KROW 040051Z 18005KT 10SM CLR 22/08 A3014 RMK AO2 SLP162 T02220078,KROW,2021-10-04T00:51:00Z,33.3,-104.5,22.2,7.8,180,5,,10.0,30.138779,1016.2,,,TRUE,,,,,,,CLR,,,,,,,,VFR,,,,,,,,,,,,METAR,1105.0
KRDU 040051Z 18005KT 10SM SCT250 23/17 A3001 RMK AO2 SLP159 T02280172,KRDU,2021-10-04T00:51:00Z,35.9,-78.78,22.8,17.2,180,5,,10.0,30.008858,1015.9,,,TRUE,,,,,,,SCT,25000,,,,,,,VFR,,,,,,,,,,,,METAR,121.0
KPWM 040051Z 07006KT 10SM OVC023 13/11 A3005 RMK AO2 SLP174 T01280111,KPWM,2021-10-04T00:51:00Z,43.65,-70.3,12.8,11.1,70,6,,10.0,30.050198,1017.4,,,TRUE,,,,,,,OVC,2300,,,,,,,MVFR,,,,,,,,,,,,METAR,15.0
KPVD 040051Z 06006KT 10SM -RA SCT009 OVC050 17/16 A2997 RMK AO2 RAE28B45 SLP149 P0000 T01720161,KPVD,2021-10-04T00:51:00Z,41.72,-71.43,17.2,16.1,60,6,,10.0,29.970472,1014.9,,,TRUE,,,,,,-RA,SCT,900,OVC,5000,,,,,VFR,,,,,,0.005,,,,,,METAR,15.0
KPIT 040051Z 18004KT 9SM SCT055 BKN200 19/18 A2992 RMK AO2 SLP132 T01890183,KPIT,2021-10-04T00:51:00Z,40.47,-80.2,18.9,18.3,180,4,,9.0,29.920275,1013.2,,,TRUE,,,,,,,SCT,5500,BKN,20000,,,,,VFR,,,,,,,,,,,,METAR,339.0
KPHX 040051Z 02006KT 10SM FEW120 FEW170 BKN210 34/06 A2986 RMK AO2 SLP092 T03390061 $,KPHX,2021-10-04T00:51:00Z,33.43,-112.02,33.9,6.1,20,6,,10.0,29.861221,1009.2,,,TRUE,TRUE,,,,,,FEW,12000,FEW,17000,BKN,21000,,,VFR,,,,,,,,,,,,METAR,338.0
KP59 040051Z AUTO 08008KT 15/15 A2993 RMK AO1 SLP135 P0001 T01500150 $,KP59,2021-10-04T00:51:00Z,47.47,-87.88,15.0,15.0,80,8,,,29.929134,1013.5,,TRUE,TRUE,TRUE,,,,,,,,,,,,,,,,,,,,0.01,,,,,,METAR,185.0
KOXR 040051Z 28010KT 10SM CLR 21/16 A2987 RMK AO2 SLP115 T02110156 $,KOXR,2021-10-04T00:51:00Z,34.2,-119.2,21.1,15.6,280,10,,10.0,29.870079,1011.5,,,TRUE,TRUE,,,,,,CLR,,,,,,,,VFR,,,,,,,,,,,,METAR,12.0
KOXC 040051Z 08003KT 10SM -RA BKN040 OVC050 18/17 A2996 RMK AO2 RAB27 SLP157 P0000 T01780167,KOXC,2021-10-04T00:51:00Z,41.47,-73.13,17.8,16.7,80,3,,10.0,29.958662,1015.7,,,TRUE,,,,,,-RA,BKN,4000,OVC,5000,,,,,VFR,,,,,,0.005,,,,,,METAR,211.0
KORF 040051Z 19011KT 10SM CLR 23/17 A2999 RMK AO2 SLP155 T02330172,KORF,2021-10-04T00:51:00Z,36.9,-76.2,23.3,17.2,190,11,,10.0,29.991142,1015.5,,,TRUE,,,,,,,CLR,,,,,,,,VFR,,,,,,,,,,,,METAR,5.0
KORD 040051Z 33005KT 10SM FEW028 SCT070 BKN090 BKN250 21/18 A2983 RMK AO2 RAB24E47 SLP096 P0000 T02060183,KORD,2021-10-04T00:51:00Z,41.95,-87.93,20.6,18.3,330,5,,10.0,29.828741,1009.6,,,TRUE,,,,,,,FEW,2800,SCT,7000,BKN,9000,BKN,25000,VFR,,,,,,0.005,,,,,,METAR,202.0
KOCF 040051Z AUTO 09005KT 10SM OVC100 25/21 A3002 RMK AO2 SLP164 T02500206,KOCF,2021-10-04T00:51:00Z,29.17,-82.22,25.0,20.6,90,5,,10.0,30.02067,1016.4,,TRUE,TRUE,,,,,,,OVC,10000,,,,,,,VFR,,,,,,,,,,,,SPECI,24.0
KNYC 040051Z AUTO 8SM FEW090 22/18 A2994 RMK AO2 SLP131 T02220183 $,KNYC,2021-10-04T00:51:00Z,40.78,-73.97,22.2,18.3,,,,8.0,29.940945,1013.1,,TRUE,TRUE,TRUE,,,,,,FEW,9000,,,,,,,VFR,,,,,,,,,,,,METAR,33.0
KMYL 040051Z AUTO 21006KT 10SM CLR 19/M01 A3013 RMK AO2 SLP187 T01891006,KMYL,2021-10-04T00:51:00Z,44.9,-116.1,18.9,-0.6,210,6,,10.0,30.129921,1018.7,,TRUE,TRUE,,,,,,,CLR,,,,,,,,VFR,,,,,,,,,,,,METAR,1532.0
KMPV 040051Z AUTO 00000KT 10SM OVC005 14/13 A3003 RMK AO2 SLP169 T01440133,KMPV,2021-10-04T00:51:00Z,44.2,-72.57,14.4,13.3,0,0,,10.0,30.029528,1016.9,,TRUE,TRUE,,,,,,,OVC,500,,,,,,,IFR,,,,,,,,,,,,METAR,336.0
KLGU 040051Z AUTO 00000KT 10SM CLR 21/M03 A3016 RMK AO2 SLP188 T02111033,KLGU,2021-10-04T00:51:00Z,41.78,-111.85,21.1,-3.3,0,0,,10.0,30.159449,1018.8,,TRUE,TRUE,,,,,,,CLR,,,,,,,,VFR,,,,,,,,,,,,METAR,1359.0
KLGA 040051Z 18005KT 10SM BKN130 BKN230 23/18 A2991 RMK AO2 SLP128 T02280183,KLGA,2021-10-04T00:51:00Z,40.78,-73.88,22.8,18.3,180,5,,10.0,29.911417,1012.8,,,TRUE,,,,,,,BKN,13000,BKN,23000,,,,,VFR,,,,,,,,,,,,METAR,9.0
KJFK 040051Z 18007KT 10SM BKN160 BKN250 21/19 A2993 RMK AO2 SLP135 T02110194,KJFK,2021-10-04T00:51:00Z,40.63,-73.77,21.1,19.4,180,7,,10.0,29.929134,1013.5,,,TRUE,,,,,,,BKN,16000,BKN,25000,,,,,VFR,,,,,,,,,,,,METAR,3.0
KJCT 040051Z AUTO 03005KT 10SM OVC065 26/16 A3006 RMK AO2 SLP146 T02610156,KJCT,2021-10-04T00:51:00Z,30.5,-99.77,26.1,15.6,30,5,,10.0,30.059055,1014.6,,TRUE,TRUE,,,,,,,OVC,6500,,,,,,,VFR,,,,,,,,,,,,METAR,522.0
KILG 040051Z 16009KT 8SM CLR 22/21 A2992 RMK AO2 SLP133 T02170206,KILG,2021-10-04T00:51:00Z,39.67,-75.6,21.7,20.6,160,9,,8.0,29.920275,1013.3,,,TRUE,,,,,,,CLR,,,,,,,,VFR,,,,,,,,,,,,METAR,22.0
KIGM 040051Z AUTO 26011KT 10SM SCT110 29/00 A3004 RMK AO2 SLP111 T02890000,KIGM,2021-10-04T00:51:00Z,35.25,-113.93,28.9,0.0,260,11,,10.0,30.041338,1011.1,,TRUE,TRUE,,,,,,,SCT,11000,,,,,,,VFR,,,,,,,,,,,,METAR,1045.0
KHTS 040051Z 17004KT 10SM BKN042 BKN050 18/17 A2993 RMK AO2 SLP128 T01830172,KHTS,2021-10-04T00:51:00Z,38.37,-82.55,18.3,17.2,170,4,,10.0,29.929134,1012.8,,,TRUE,,,,,,,BKN,4200,BKN,5000,,,,,VFR,,,,,,,,,,,,METAR,252.0
KHSE 040051Z AUTO 19009KT 10SM CLR 24/16 A3005 RMK AO2 SLP175 T02440161 $,KHSE,2021-10-04T00:51:00Z,35.23,-75.62,24.4,16.1,190,9,,10.0,30.050198,1017.5,,TRUE,TRUE,TRUE,,,,,,CLR,,,,,,,,VFR,,,,,,,,,,,,SPECI,4.0
KHDO 040051Z AUTO 34004KT 10SM CLR 26/19 A2999 RMK AO2 SLP142 T02610194,KHDO,2021-10-04T00:51:00Z,29.37,-99.17,26.1,19.4,340,4,,10.0,29.991142,1014.2,,TRUE,TRUE,,,,,,,CLR,,,,,,,,VFR,,,,,,,,,,,,METAR,280.0
KGDP 040051Z AUTO 05015KT 9SM CLR 19/09 A3025 RMK AO2 SLP189 T01890094 $,KGDP,2021-10-04T00:51:00Z,31.83,-104.82,18.9,9.4,50,15,,9.0,30.250984,1018.9,,TRUE,TRUE,TRUE,,,,,,CLR,,,,,,,,VFR,,,,,,,,,,,,SPECI,1664.0
KEWR 040051Z 00000KT 10SM BKN120 BKN170 BKN250 24/18 A2991 RMK AO2 SLP128 T02440183 $,KEWR,2021-10-04T00:51:00Z,40.68,-74.17,24.4,18.3,0,0,,10.0,29.911417,1012.8,,,TRUE,TRUE,,,,,,BKN,12000,BKN,17000,BKN,25000,,,VFR,,,,,,,,,,,,METAR,2.0
KERI 040051Z 19009KT 10SM FEW029 SCT041 OVC050 21/18 A2986 RMK AO2 SLP108 T02110183 $,KERI,2021-10-04T00:51:00Z,42.08,-80.18,21.1,18.3,190,9,,10.0,29.861221,1010.8,,,TRUE,TRUE,,,,,,FEW,2900,SCT,4100,OVC,5000,,,VFR,,,,,,,,,,,,METAR,222.0
KELP 040051Z 00000KT 10SM FEW085 SCT250 27/06 A3010 RMK AO2 SLP135 CB DSNT SW T02670061,KELP,2021-10-04T00:51:00Z,31.82,-106.35,26.7,6.1,0,0,,10.0,30.100393,1013.5,,,TRUE,,,,,,,FEW,8500,SCT,25000,,,,,VFR,,,,,,,,,,,,METAR,1205.0
KEKN 040051Z AUTO 18003KT 10SM -RA FEW030 SCT045 OVC050 19/16 A2999 RMK AO2 RAB44 SLP154 P0000 T01890161,KEKN,2021-10-04T00:51:00Z,38.88,-79.85,18.9,16.1,180,3,,10.0,29.991142,1015.4,,TRUE,TRUE,,,,,,-RA,FEW,3000,SCT,4500,OVC,5000,,,VFR,,,,,,0.005,,,,,,METAR,596.0
KDAW 040051Z AUTO 06003KT 10SM BKN007 BKN012 OVC019 13/12 A3002 RMK AO2 SLP164 T01330122,KDAW,2021-10-04T00:51:00Z,43.28,-70.92,13.3,12.2,60,3,,10.0,30.02067,1016.4,,TRUE,TRUE,,,,,,,BKN,700,BKN,1200,OVC,1900,,,IFR,,,,,,,,,,,,METAR,100.0
KCSG 040051Z 20003KT 10SM FEW075 OVC100 23/18 A3001 RMK AO2 SLP159 T02280183,KCSG,2021-10-04T00:51:00Z,32.52,-84.95,22.8,18.3,200,3,,10.0,30.008858,1015.9,,,TRUE,,,,,,,FEW,7500,OVC,10000,,,,,VFR,,,,,,,,,,,,METAR,120.0
KCRP 040051Z 15005KT 10SM FEW090 FEW200 SCT250 27/24 A2995 RMK AO2 SLP140 T02670244,KCRP,2021-10-04T00:51:00Z,27.77,-97.5,26.7,24.4,150,5,,10.0,29.949802,1014.0,,,TRUE,,,,,,,FEW,9000,FEW,20000,SCT,25000,,,VFR,,,,,,,,,,,,METAR,11.0
KCON 040051Z AUTO 05004KT 10SM OVC007 13/12 A3001 RMK AO2 SLP163 T01330117,KCON,2021-10-04T00:51:00Z,43.2,-71.5,13.3,11.7,50,4,,10.0,30.008858,1016.3,,TRUE,TRUE,,,,,,,OVC,700,,,,,,,IFR,,,,,,,,,,,,METAR,102.0
KCMH 040051Z 20006KT 10SM SCT180 19/17 A2989 RMK AO2 SLP119 T01890172 $,KCMH,2021-10-04T00:51:00Z,40.0,-82.88,18.9,17.2,200,6,,10.0,29.890747,1011.9,,,TRUE,TRUE,,,,,,SCT,18000,,,,,,,VFR,,,,,,,,,,,,METAR,257.0
KCLE 040051Z 18005KT 10SM SCT075 BKN090 OVC110 21/18 A2984 RMK AO2 SLP115 T02110178,KCLE,2021-10-04T00:51:00Z,41.42,-81.85,21.1,17.8,180,5,,10.0,29.840551,1011.5,,,TRUE,,,,,,,SCT,7500,BKN,9000,OVC,11000,,,VFR,,,,,,,,,,,,METAR,237.0
KCAK 040051Z 19006KT 8SM FEW007 SCT010 BKN025 OVC140 21/18 A2989 RMK AO2 LTG DSNT S SLP113 T02060183 $,KCAK,2021-10-04T00:51:00Z,40.92,-81.45,20.6,18.3,190,6,,8.0,29.890747,1011.3,,,TRUE,TRUE,,,,,,FEW,700,SCT,1000,BKN,2500,OVC,14000,MVFR,,,,,,,,,,,,METAR,369.0
KBKW 040051Z AUTO 23007KT 10SM -RA SCT014 BKN080 OVC110 18/17 A3003 RMK AO2 RAB14 CIG 013 RWY19 SLP146 P0000 T01780172 TSNO,KBKW,2021-10-04T00:51:00Z,37.8,-81.12,17.8,17.2,230,7,,10.0,30.029528,1014.6,,TRUE,TRUE,,,TRUE,,,-RA,SCT,1400,BKN,8000,OVC,11000,,,VFR,,,,,,0.005,,,,,,METAR,762.0
KBHK 040051Z AUTO 27005KT 10SM CLR 18/M04 A3002 RMK AO2 SLP161 T01781039,KBHK,2021-10-04T00:51:00Z,46.35,-104.25,17.8,-3.9,270,5,,10.0,30.02067,1016.1,,TRUE,TRUE,,,,,,,CLR,,,,,,,,VFR,,,,,,,,,,,,METAR,904.0
KBGD 040051Z AUTO 05006KT 10SM CLR 25/04 A3010 RMK AO2 SLP163 T02500039,KBGD,2021-10-04T00:51:00Z,35.7,-101.4,25.0,3.9,50,6,,10.0,30.100393,1016.3,,TRUE,TRUE,,,,,,,CLR,,,,,,,,VFR,,,,,,,,,,,,METAR,928.0
KBED 040051Z 07008KT 10SM OVC012 16/13 A2999 RMK AO2 SLP168 T01560133,KBED,2021-10-04T00:51:00Z,42.47,-71.3,15.6,13.3,70,8,,10.0,29.991142,1016.8,,,TRUE,,,,,,,OVC,1200,,,,,,,MVFR,,,,,,,,,,,,METAR,39.0
KBDL 040051Z 04005KT 10SM -RA FEW007 BKN047 OVC060 17/16 A2995 RMK AO2 SLP142 P0001 T01670161 $,KBDL,2021-10-04T00:51:00Z,41.93,-72.68,16.7,16.1,40,5,,10.0,29.949802,1014.2,,,TRUE,TRUE,,,,,-RA,FEW,700,BKN,4700,OVC,6000,,,VFR,,,,,,0.01,,,,,,METAR,52.0
KBAZ 040051Z AUTO 05004KT 10SM CLR 27/19 A2996 RMK AO2 SLP139 T02670189,KBAZ,2021-10-04T00:51:00Z,29.72,-98.05,26.7,18.9,50,4,,10.0,29.958662,1013.9,,TRUE,TRUE,,,,,,,CLR,,,,,,,,VFR,,,,,,,,,,,,METAR,199.0
KATT 040051Z AUTO 00000KT 10SM CLR 27/16 A2999 RMK AO2 SLP144 T02670161 $,KATT,2021-10-04T00:51:00Z,30.32,-97.77,26.7,16.1,0,0,,10.0,29.991142,1014.4,,TRUE,TRUE,TRUE,,,,,,CLR,,,,,,,,VFR,,,,,,,,,,,,METAR,203.0
KALB 040051Z 00000KT 7SM -RA BKN023 OVC030 16/15 A2995 RMK AO2 SLP142 P0000 T01610150,KALB,2021-10-04T00:51:00Z,42.75,-73.8,16.1,15.0,0,0,,7.0,29.949802,1014.2,,,TRUE,,,,,,-RA,BKN,2300,OVC,3000,,,,,MVFR,,,,,,0.005,,,,,,METAR,82.0
KAHN 040051Z AUTO 00000KT 10SM CLR 22/20 A3003 RMK AO2 SLP162 T02220200 TSNO,KAHN,2021-10-04T00:51:00Z,33.95,-83.33,22.2,20.0,0,0,,10.0,30.029528,1016.2,,TRUE,TRUE,,,TRUE,,,,CLR,,,,,,,,VFR,,,,,,,,,,,,METAR,241.0
KADS 040051Z 01005KT 13SM SCT200 26/12 A3001,KADS,2021-10-04T00:51:00Z,32.97,-96.83,26.0,12.0,10,5,,13.0,30.008858,,,,,,,,,,,SCT,20000,,,,,,,VFR,,,,,,,,,,,,METAR,198.0
KACT 040051Z 34004KT 10SM CLR 24/16 A2999 RMK AO2 SLP148 T02390161,KACT,2021-10-04T00:51:00Z,31.62,-97.23,23.9,16.1,340,4,,10.0,29.991142,1014.8,,,TRUE,,,,,,,CLR,,,,,,,,VFR,,,,,,,,,,,,METAR,150.0
KABE 040051Z 00000KT 10SM FEW037 BKN070 21/18 A2991 RMK AO2 SLP127 T02060178,KABE,2021-10-04T00:51:00Z,40.65,-75.45,20.6,17.8,0,0,,10.0,29.911417,1012.7,,,TRUE,,,,,,,FEW,3700,BKN,7000,,,,,VFR,,,,,,,,,,,,METAR,117.0
K6R6 040051Z AUTO 03004KT 26/14 A3007 RMK AO1 SLP152 T02560144,K6R6,2021-10-04T00:51:00Z,30.05,-102.22,25.6,14.4,30,4,,,30.070866,1015.2,,TRUE,TRUE,,,,,,,,,,,,,,,,,,,,,,,,,,,METAR,702.0
VNKT 040050Z 07003KT 6000 FEW010 SCT030 20/19 Q1015 NOSIG,VNKT,2021-10-04T00:50:00Z,27.68,85.37,20.0,19.0,70,3,,3.73,29.970472,,,,,,TRUE,,,,,FEW,1000,SCT,3000,,,,,MVFR,,,,,,,,,,,,METAR,1334.0
TJBQ 040050Z 13003KT 10SM CLR 26/22 A2995,TJBQ,2021-10-04T00:50:00Z,18.5,-67.13,26.0,22.0,130,3,,10.0,29.949802,,,,,,,,,,,CLR,,,,,,,,VFR,,,,,,,,,,,,METAR,69.0
PTSA 040050Z 11005KT 10SM BKN019 BKN130 BKN300 30/25 A2971 ,PTSA,2021-10-04T00:50:00Z,5.35,162.95,30.0,25.0,110,5,,10.0,29.71063,,,,,,,,,,,BKN,1900,BKN,13000,BKN,30000,,,MVFR,,,,,,,,,,,,METAR,3.0
PTRO 040050Z 20007KT 14SM BKN015TCU BKN110 BKN300 29/25 A2977 RMK TCU E AND W,PTRO,2021-10-04T00:50:00Z,7.37,134.55,29.0,25.0,200,7,,14.0,29.769686,,,,,,,,,,,BKN,1500,BKN,11000,BKN,30000,,,MVFR,,,,,,,,,,,,METAR,30.0
PTKK 040050Z 17011G22KT 15SM FEW012 BKN120 OVC280 27/25 A2971 RMK SLP064 T02690246,PTKK,2021-10-04T00:50:00Z,7.47,151.85,26.9,24.6,170,11,22,15.0,29.71063,1006.4,,,,,,,,,,FEW,1200,BKN,12000,OVC,28000,,,VFR,,,,,,,,,,,,METAR,3.0
PGRO 040050Z 09013KT 7SM VCSH BKN013 BKN100 27/25 A2979 RMK VCSH SW,PGRO,2021-10-04T00:50:00Z,14.18,145.25,27.0,25.0,90,13,,7.0,29.790354,,,,,,,,,,VCSH,BKN,1300,BKN,10000,,,,,MVFR,,,,,,,,,,,,METAR,181.0
OOSH 040050Z AUTO 25004KT //// ////// 27/25 Q1006,OOSH,2021-10-04T00:50:00Z,24.38,56.62,27.0,25.0,250,4,,,29.704725,,,TRUE,,,,,,,,,,,,,,,,,,,,,,,,,,,,METAR,35.0
OOSA 040050Z 16003KT 140V240 9999 BKN025 27/24 Q1007 NOSIG,OOSA,2021-10-04T00:50:00Z,17.03,54.1,27.0,24.0,160,3,,6.21,29.734253,,,,,,TRUE,,,,,BKN,2500,,,,,,,MVFR,,,,,,,,,,,,METAR,20.0
OOMS 040050Z 26009KT 8000 -RA BKN040 OVC090 26/24 Q1006 NOSIG,OOMS,2021-10-04T00:50:00Z,23.58,58.28,26.0,24.0,260,9,,4.97,29.704725,,,,,,TRUE,,,,-RA,BKN,4000,OVC,9000,,,,,MVFR,,,,,,,,,,,,METAR,8.0
OODQ 040050Z AUTO 21018KT 9999 SCT031 26/24 Q1006 NOSIG,OODQ,2021-10-04T00:50:00Z,19.52,57.65,26.0,24.0,210,18,,6.21,29.704725,,,TRUE,,,TRUE,,,,,SCT,3100,,,,,,,VFR,,,,,,,,,,,,METAR,116.0
NSTU 040050Z 11014KT 12SM SCT019 SCT040 31/27 A2981 RMK SLP097 T03140268,NSTU,2021-10-04T00:50:00Z,-14.33,-170.72,31.4,26.8,110,14,,12.0,29.811024,1009.7,,,,,,,,,,SCT,1900,SCT,4000,,,,,VFR,,,,,,,,,,,,METAR,8.0
MUVR 040050Z 13003KT 8000 FEW020 25/23 Q1014,MUVR,2021-10-04T00:50:00Z,23.03,-81.43,25.0,23.0,130,3,,4.97,29.940945,,,,,,,,,,,FEW,2000,,,,,,,MVFR,,,,,,,,,,,,METAR,65.0
MUSC 040050Z 10004KT 080V140 9000 SCT020 25/23 Q1014,MUSC,2021-10-04T00:50:00Z,22.5,-79.92,25.0,23.0,100,4,,5.59,29.940945,,,,,,,,,,,SCT,2000,,,,,,,VFR,,,,,,,,,,,,METAR,97.0
MUHG 040050Z 07005KT 9999 FEW025 BKN225 24/20 Q1013,MUHG,2021-10-04T00:50:00Z,20.78,-76.32,24.0,20.0,70,5,,6.21,29.911417,,,,,,,,,,,FEW,2500,BKN,22500,,,,,VFR,,,,,,,,,,,,METAR,100.0
MUCU 040050Z 05004KT 9000 SCT020CB 25/23 Q1012,MUCU,2021-10-04T00:50:00Z,19.97,-75.83,25.0,23.0,50,4,,5.59,29.88189,,,,,,,,,,,SCT,2000,,,,,,,VFR,,,,,,,,,,,,METAR,70.0
MUCM 040050Z 36006KT 9000 FEW020 25/23 Q1013,MUCM,2021-10-04T00:50:00Z,21.42,-77.85,25.0,23.0,360,6,,5.59,29.911417,,,,,,,,,,,FEW,2000,,,,,,,VFR,,,,,,,,,,,,METAR,125.0
MUCC 040050Z 01004KT 9000 SCT020 28/24 Q1013,MUCC,2021-10-04T00:50:00Z,22.47,-78.33,28.0,24.0,10,4,,5.59,29.911417,,,,,,,,,,,SCT,2000,,,,,,,VFR,,,,,,,,,,,,METAR,7.0
MSLP 040050Z VRB01KT 9999 FEW023 FEW040CB 28/25 Q1008 A2977 NOSIG RMK CB NW,MSLP,2021-10-04T00:50:00Z,13.43,-89.05,28.0,25.0,0,1,,6.21,29.763779,,,,,,TRUE,,,,,FEW,2300,FEW,4000,,,,,VFR,,,,,,,,,,,,METAR,25.0
MSAC 040050Z 35002KT 9999 FEW030 29/23 Q1008 A2979,MSAC,2021-10-04T00:50:00Z,13.57,-89.83,29.0,23.0,350,2,,6.21,29.763779,,,,,,,,,,,FEW,3000,,,,,,,VFR,,,,,,,,,,,,SPECI,14.0
LXGB 040050Z AUTO 23007KT 9999 NCD 18/10 Q1019,LXGB,2021-10-04T00:50:00Z,36.15,-5.33,18.0,10.0,230,7,,6.21,30.088583,,,TRUE,,,,,,,,CLR,,,,,,,,VFR,,,,,,,,,,,,METAR,5.0
LTFM 040050Z 06011KT 9999 BKN025 17/12 Q1023 NOSIG RMK RWY17L 05012KT RWY34L 04009KT RWY16R 05013KT RWY36 06010KT RWY18 06012KT,LTFM,2021-10-04T00:50:00Z,41.27,28.75,17.0,12.0,60,11,,6.21,30.206694,,,,,,TRUE,,,,,BKN,2500,,,,,,,MVFR,,,,,,,,,,,,METAR,99.0
LTFJ 040050Z 04005KT 9999 SCT026 12/11 Q1022 NOSIG RMK RWY24 02003KT,LTFJ,2021-10-04T00:50:00Z,40.9,29.3,12.0,11.0,40,5,,6.21,30.177166,,,,,,TRUE,,,,,SCT,2600,,,,,,,VFR,,,,,,,,,,,,METAR,83.0
LTFH 040050Z 22006KT 9999 SCT030 BKN100 12/10 Q1021 NOSIG,LTFH,2021-10-04T00:50:00Z,41.27,36.57,12.0,10.0,220,6,,6.21,30.147638,,,,,,TRUE,,,,,SCT,3000,BKN,10000,,,,,VFR,,,,,,,,,,,,METAR,7.0
LTFG 040050Z 12005KT 090V150 CAVOK 22/06 Q1013,LTFG,2021-10-04T00:50:00Z,36.3,32.3,22.0,6.0,120,5,,6.21,29.911417,,,,,,,,,,,CAVOK,,,,,,,,VFR,,,,,,,,,,,,METAR,26.0
LTFE 040050Z 13003KT 100V180 CAVOK 12/06 Q1016 NOSIG RMK RWY10 VRB01KT,LTFE,2021-10-04T00:50:00Z,37.25,27.67,12.0,6.0,130,3,,6.21,30.0,,,,,,TRUE,,,,,CAVOK,,,,,,,,VFR,,,,,,,,,,,,METAR,6.0
LTFD 040050Z 08011KT 9999 FEW035 15/10 Q1021,LTFD,2021-10-04T00:50:00Z,39.55,27.02,15.0,10.0,80,11,,6.21,30.147638,,,,,,,,,,,FEW,3500,,,,,,,VFR,,,,,,,,,,,,METAR,15.0
LTFC 040050Z 02004KT 350V050 CAVOK 10/03 Q1019 RMK RWY23 34003KT,LTFC,2021-10-04T00:50:00Z,37.87,30.38,10.0,3.0,20,4,,6.21,30.088583,,,,,,,,,,,CAVOK,,,,,,,,VFR,,,,,,,,,,,,METAR,862.0
LTDA 040050Z 26007KT CAVOK 22/05 Q1012 NOSIG,LTDA,2021-10-04T00:50:00Z,36.37,36.28,22.0,5.0,260,7,,6.21,29.88189,,,,,,TRUE,,,,,CAVOK,,,,,,,,VFR,,,,,,,,,,,,METAR,80.0
LTCN 040050Z 32009KT CAVOK 19/02 Q1014 NOSIG,LTCN,2021-10-04T00:50:00Z,37.53,36.95,19.0,2.0,320,9,,6.21,29.940945,,,,,,TRUE,,,,,CAVOK,,,,,,,,VFR,,,,,,,,,,,,METAR,505.0
LTCJ 040050Z 22008KT CAVOK 17/05 Q1011 RMK RWY20 16008KT SKC,LTCJ,2021-10-04T00:50:00Z,37.93,41.12,17.0,5.0,220,8,,6.21,29.852362,,,,,,,,,,,CAVOK,,,,,,,,VFR,,,,,,,,,,,,METAR,559.0
LTCI 040050Z 17006KT 9999 FEW040 14/02 Q1018 NOSIG,LTCI,2021-10-04T00:50:00Z,38.47,43.33,14.0,2.0,170,6,,6.21,30.059055,,,,,,TRUE,,,,,FEW,4000,,,,,,,VFR,,,,,,,,,,,,METAR,1654.0
LTCG 040050Z 22007KT 9999 BKN035 16/12 Q1019 NOSIG RMK RWY29 21004KT 180V260,LTCG,2021-10-04T00:50:00Z,41.0,39.77,16.0,12.0,220,7,,6.21,30.088583,,,,,,TRUE,,,,,BKN,3500,,,,,,,VFR,,,-0.4,,,,,,,,,METAR,28.0
LTCF 040050Z 03009KT 9999 FEW025CB SCT035 BKN070 08/04 Q1018,LTCF,2021-10-04T00:50:00Z,40.57,43.12,8.0,4.0,30,9,,6.21,30.059055,,,,,,,,,,,FEW,2500,SCT,3500,BKN,7000,,,VFR,,,,,,,,,,,,METAR,1794.0
LTCE 040050Z 29004KT 260V330 9999 SCT040 BKN070 06/05 Q1020 NOSIG RMK RWY08R 25004KT 230V290 RWY26R 30004KT 260V020 RWY08L 26004KT,LTCE,2021-10-04T00:50:00Z,39.95,41.17,6.0,5.0,290,4,,6.21,30.11811,,,,,,TRUE,,,,,SCT,4000,BKN,7000,,,,,VFR,,,,,,,,,,,,METAR,1758.0
LTCD 040050Z 27004KT 9999 FEW040 SCT100 09/07 Q1019 NOSIG,LTCD,2021-10-04T00:50:00Z,39.72,39.52,9.0,7.0,270,4,,6.21,30.088583,,,,,,TRUE,,,,,FEW,4000,SCT,10000,,,,,VFR,,,,,,,,,,,,METAR,1146.0
LTCC 040050Z 31013KT CAVOK 17/03 Q1012 NOSIG RMK RWY16 28013KT 270V350,LTCC,2021-10-04T00:50:00Z,37.88,40.2,17.0,3.0,310,13,,6.21,29.88189,,,,,,TRUE,,,,,CAVOK,,,,,,,,VFR,,,,,,,,,,,,METAR,676.0
LTCB 040050Z 00000KT 9999 SCT012 BKN028 15/12 Q1021,LTCB,2021-10-04T00:50:00Z,40.97,38.07,15.0,12.0,0,0,,6.21,30.147638,,,,,,,,,,,SCT,1200,BKN,2800,,,,,MVFR,,,,,,,,,,,,METAR,5.0
LTCA 040050Z 23005KT CAVOK 11/03 Q1016 NOSIG,LTCA,2021-10-04T00:50:00Z,38.6,39.28,11.0,3.0,230,5,,6.21,30.0,,,,,,TRUE,,,,,CAVOK,,,,,,,,VFR,,,,,,,,,,,,METAR,887.0
LTBY 040050Z 27004KT CAVOK 04/04 Q1022,LTBY,2021-10-04T00:50:00Z,39.82,30.52,4.0,4.0,270,4,,6.21,30.177166,,,,,,,,,,,CAVOK,,,,,,,,VFR,,,,,,,,,,,,METAR,788.0
LTBU 040050Z 01008KT 9999 FEW030 12/10 Q1023 RMK RWY22 35006KT,LTBU,2021-10-04T00:50:00Z,41.13,27.92,12.0,10.0,10,8,,6.21,30.206694,,,,,,,,,,,FEW,3000,,,,,,,VFR,,,,,,,,,,,,METAR,165.0
LTBS 040050Z 02009KT CAVOK 20/05 Q1013 NOSIG RMK RWY19 34011KT SKC,LTBS,2021-10-04T00:50:00Z,36.7,28.78,20.0,5.0,20,9,,6.21,29.911417,,,,,,TRUE,,,,,CAVOK,,,,,,,,VFR,,,,,,,,,,,,METAR,2.0
LTBR 040050Z VRB02KT 8000 FEW035 SCT100 08/07 Q1022 NOSIG RMK RWY07 VRB02KT,LTBR,2021-10-04T00:50:00Z,40.25,29.57,8.0,7.0,0,2,,4.97,30.177166,,,,,,TRUE,,,,,FEW,3500,SCT,10000,,,,,MVFR,,,,,,,,,,,,METAR,233.0
LTBQ 040050Z 00000KT 9999 FEW030 SCT080 08/08 Q1022 NOSIG,LTBQ,2021-10-04T00:50:00Z,40.73,30.07,8.0,8.0,0,0,,6.21,30.177166,,,,,,TRUE,,,,,FEW,3000,SCT,8000,,,,,VFR,,,,,,,,,,,,METAR,51.0
LTBJ 040050Z 01011KT CAVOK 16/08 Q1017 NOSIG RMK RWY16 35014KT,LTBJ,2021-10-04T00:50:00Z,38.28,27.15,16.0,8.0,10,11,,6.21,30.029528,,,,,,TRUE,,,,,CAVOK,,,,,,,,VFR,,,,,,,,,,,,METAR,123.0
LTBH 040050Z 06004KT CAVOK 12/09 Q1022,LTBH,2021-10-04T00:50:00Z,40.13,26.42,12.0,9.0,60,4,,6.21,30.177166,,,,,,,,,,,CAVOK,,,,,,,,VFR,,,,,,,,,,,,METAR,8.0
LTBF 040050Z 00000KT 9999 FEW015 SCT035 10/09 Q1022 NOSIG,LTBF,2021-10-04T00:50:00Z,39.62,27.92,10.0,9.0,0,0,,6.21,30.177166,,,,,,TRUE,,,,,FEW,1500,SCT,3500,,,,,VFR,,,,,,,,,,,,METAR,95.0
LTBA 040050Z 02004KT 360V060 9999 SCT032 BKN080 14/13 Q1022 NOSIG RMK RWY23 02005G15KT 340V070,LTBA,2021-10-04T00:50:00Z,40.97,28.82,14.0,13.0,20,4,,6.21,30.177166,,,,,,TRUE,,,,,SCT,3200,BKN,8000,,,,,VFR,,,,,,,,,,,,METAR,33.0
LTAZ 040050Z 14003KT 080V160 CAVOK 05/02 Q1022 RMK RWY29 VRB01KT,LTAZ,2021-10-04T00:50:00Z,38.77,34.52,5.0,2.0,140,3,,6.21,30.177166,,,,,,,,,,,CAVOK,,,,,,,,VFR,,,,,,,,,,,,METAR,944.0
LTAY 040050Z 00000KT CAVOK 07/01 Q1020,LTAY,2021-10-04T00:50:00Z,37.78,29.7,7.0,1.0,0,0,,6.21,30.11811,,,,,,,,,,,CAVOK,,,,,,,,VFR,,,,,,,,,,,,METAR,851.0
LTAU 040050Z 05002KT CAVOK 02/M01 Q1021 NOSIG RMK RWY07 00000KT,LTAU,2021-10-04T00:50:00Z,38.77,35.48,2.0,-1.0,50,2,,6.21,30.147638,,,,,,TRUE,,,,,CAVOK,,,,,,,,VFR,,,,,,,,,,,,METAR,1053.0
LTAT 040050Z 28013KT 250V310 CAVOK 13/03 Q1017 NOSIG RMK RWY03 17004KT 080V240,LTAT,2021-10-04T00:50:00Z,38.43,38.08,13.0,3.0,280,13,,6.21,30.029528,,,,,,TRUE,,,,,CAVOK,,,,,,,,VFR,,,,,,,,,,,,METAR,850.0
LTAR 040050Z 36004KT 9999 FEW015 SCT035 03/03 Q1022,LTAR,2021-10-04T00:50:00Z,39.8,36.9,3.0,3.0,360,4,,6.21,30.177166,,,,,,,,,,,FEW,1500,SCT,3500,,,,,VFR,,,,,,,,,,,,METAR,1601.0
LTAP 040050Z 00000KT 9999 FEW040 06/05 Q1021 NOSIG RMK RWY23 02004KT 340V050,LTAP,2021-10-04T00:50:00Z,40.83,35.52,6.0,5.0,0,0,,6.21,30.147638,,,,,,TRUE,,,,,FEW,4000,,,,,,,VFR,,,,,,,,,,,,METAR,536.0
LTAN 040050Z 34008KT CAVOK 10/02 Q1021 NOSIG,LTAN,2021-10-04T00:50:00Z,37.97,32.55,10.0,2.0,340,8,,6.21,30.147638,,,,,,TRUE,,,,,CAVOK,,,,,,,,VFR,,,,,,,,,,,,METAR,1029.0
LTAJ 040050Z 33005KT 300V360 CAVOK 17/02 Q1013 NOSIG RMK RWY10 06003KT 030V110 SKC,LTAJ,2021-10-04T00:50:00Z,36.95,37.48,17.0,2.0,330,5,,6.21,29.911417,,,,,,TRUE,,,,,CAVOK,,,,,,,,VFR,,,,,,,,,,,,METAR,684.0
LTAI 040050Z 34010KT CAVOK 20/03 Q1014 NOSIG RMK RWY18C 33007KT RWY36R 34008KT 320V020 RWY18L 32010KT,LTAI,2021-10-04T00:50:00Z,36.9,30.8,20.0,3.0,340,10,,6.21,29.940945,,,,,,TRUE,,,,,CAVOK,,,,,,,,VFR,,,,,,,,,,,,METAR,50.0
LTAG 040050Z 03008KT CAVOK 19/02 Q1013 NOSIG RMK SKC,LTAG,2021-10-04T00:50:00Z,37.0,35.42,19.0,2.0,30,8,,6.21,29.911417,,,,,,TRUE,,,,,CAVOK,,,,,,,,VFR,,,,,,,,,,,,METAR,62.0
LTAF 040050Z 07005KT CAVOK 20/05 Q1013 NOSIG RMK RWY23 00000KT,LTAF,2021-10-04T00:50:00Z,36.98,35.28,20.0,5.0,70,5,,6.21,29.911417,,,,,,TRUE,,,,,CAVOK,,,,,,,,VFR,,,,,,,,,,,,METAR,19.0
LTAE 040050Z 34006KT 9999 FEW040 06/03 Q1022 NOSIG RMK RWY21 02006KT,LTAE,2021-10-04T00:50:00Z,40.07,32.57,6.0,3.0,340,6,,6.21,30.177166,,,,,,TRUE,,,,,FEW,4000,,,,,,,VFR,,,,,,,,,,,,METAR,836.0
LTAC 040050Z VRB02KT CAVOK 04/02 Q1022 NOSIG RMK RWY21L 36003KT RWY03L 36002KT RWY21R 00000KT,LTAC,2021-10-04T00:50:00Z,40.12,32.98,4.0,2.0,0,2,,6.21,30.177166,,,,,,TRUE,,,,,CAVOK,,,,,,,,VFR,,,,,,,,,,,,METAR,952.0
LSZS 040050Z AUTO VRB01KT 9999 -RA SCT027 SCT030 BKN034 08/08 Q1020,LSZS,2021-10-04T00:50:00Z,46.53,9.88,8.0,8.0,0,1,,6.21,30.11811,,,TRUE,,,,,,,-RA,SCT,2700,SCT,3000,BKN,3400,,,VFR,,,,,,,,,,,,METAR,1708.0
LSZR 040050Z AUTO 27007KT 4700 -DZ BR FEW006 BKN013 BKN016 12/11 Q1017,LSZR,2021-10-04T00:50:00Z,47.48,9.57,12.0,11.0,270,7,,2.92,30.029528,,,TRUE,,,,,,,-DZ BR,FEW,600,BKN,1300,BKN,1600,,,IFR,,,,,,,,,,,,METAR,396.0
LSZL 040050Z AUTO VRB01KT 9000NDV -SHRA FEW048 BKN058 BKN099 16/16 Q1017 RMK,LSZL,2021-10-04T00:50:00Z,46.17,8.88,16.0,16.0,0,1,,,30.029528,,,TRUE,,,,,,,-SHRA,FEW,4800,BKN,5800,BKN,9900,,,,,,,,,,,,,,,METAR,198.0
LSZH 040050Z AUTO 24004KT 9999 FEW036 BKN040 12/09 Q1017 NOSIG,LSZH,2021-10-04T00:50:00Z,47.48,8.53,12.0,9.0,240,4,,6.21,30.029528,,,TRUE,,,TRUE,,,,,FEW,3600,BKN,4000,,,,,VFR,,,,,,,,,,,,METAR,424.0
LSZG 040050Z AUTO 11002KT 9999 -RA FEW020 BKN045 11/11 Q1017,LSZG,2021-10-04T00:50:00Z,47.17,7.42,11.0,11.0,110,2,,6.21,30.029528,,,TRUE,,,,,,,-RA,FEW,2000,BKN,4500,,,,,VFR,,,,,,,,,,,,METAR,428.0
LSZC 040050Z AUTO VRB03KT 9999 SCT016 BKN018 BKN036 11/10 Q1018,LSZC,2021-10-04T00:50:00Z,46.97,8.38,11.0,10.0,0,3,,6.21,30.059055,,,TRUE,,,,,,,,SCT,1600,BKN,1800,BKN,3600,,,MVFR,,,,,,,,,,,,METAR,445.0
LSZB 040050Z AUTO VRB01KT 5000 DZ FEW006 SCT018 BKN020 11/11 Q1017,LSZB,2021-10-04T00:50:00Z,46.92,7.5,11.0,11.0,0,1,,3.11,30.029528,,,TRUE,,,,,,,DZ,FEW,600,SCT,1800,BKN,2000,,,MVFR,,,,,,,,,,,,METAR,510.0
LSZA 040050Z AUTO VRB01KT 7000 FEW026 SCT038 BKN055 16/16 Q1018,LSZA,2021-10-04T00:50:00Z,46.0,8.92,16.0,16.0,0,1,,4.35,30.059055,,,TRUE,,,,,,,,FEW,2600,SCT,3800,BKN,5500,,,MVFR,,,,,,,,,,,,METAR,276.0
LSMP 040050Z AUTO 04003KT 020V080 9999NDV -RA FEW019 BKN029 BKN051 11/10 Q1017 RERA RMK,LSMP,2021-10-04T00:50:00Z,46.83,6.92,11.0,10.0,40,3,,,30.029528,,,TRUE,,,,,,,-RA,FEW,1900,BKN,2900,BKN,5100,,,,,,,,,,,,,,,METAR,490.0
LSMM 040050Z AUTO VRB03KT 3400NDV RA FEW006 BKN045 12/11 Q1017 RMK,LSMM,2021-10-04T00:50:00Z,46.75,8.12,12.0,11.0,0,3,,,30.029528,,,TRUE,,,,,,,RA,FEW,600,BKN,4500,,,,,,,,,,,,,,,,,METAR,570.0
LSME 040050Z AUTO 11005KT 9999NDV BKN031 OVC042 12/11 Q1018 RMK,LSME,2021-10-04T00:50:00Z,47.1,8.3,12.0,11.0,110,5,,,30.059055,,,TRUE,,,,,,,,BKN,3100,OVC,4200,,,,,,,,,,,,,,,,,METAR,427.0
LSMD 040050Z AUTO VRB02KT 9999NDV SCT034 OVC042 12/08 Q1017 RMK,LSMD,2021-10-04T00:50:00Z,47.4,8.65,12.0,8.0,0,2,,,30.029528,,,TRUE,,,,,,,,SCT,3400,OVC,4200,,,,,,,,,,,,,,,,,METAR,436.0
LSMA 040050Z AUTO 08008KT 050V110 9999NDV -SHRA FEW013 SCT015 OVC019 12/10 Q1017 RMK,LSMA,2021-10-04T00:50:00Z,46.95,8.28,12.0,10.0,80,8,,,30.029528,,,TRUE,,,,,,,-SHRA,FEW,1300,SCT,1500,OVC,1900,,,,,,,,,,,,,,,METAR,441.0
LSGS 040050Z AUTO 27007KT 250V320 9999 FEW018 14/11 Q1015,LSGS,2021-10-04T00:50:00Z,46.22,7.32,14.0,11.0,270,7,,6.21,29.970472,,,TRUE,,,,,,,,FEW,1800,,,,,,,VFR,,,,,,,,,,,,METAR,482.0
LSGG 040050Z AUTO VRB03KT 9000 RA FEW016 BKN040 12/11 Q1017 TEMPO +RA,LSGG,2021-10-04T00:50:00Z,46.25,6.12,12.0,11.0,0,3,,5.59,30.029528,,,TRUE,,,,,,,RA,FEW,1600,BKN,4000,,,,,VFR,,,,,,,,,,,,METAR,411.0
LSGC 040050Z AUTO 00000KT 9999 -RA FEW004 SCT047 07/06 Q1017,LSGC,2021-10-04T00:50:00Z,47.08,6.8,7.0,6.0,0,0,,6.21,30.029528,,,TRUE,,,,,,,-RA,FEW,400,SCT,4700,,,,,VFR,,,,,,,,,,,,METAR,1018.0
LOWW 040050Z 14005KT CAVOK 14/12 Q1014 NOSIG,LOWW,2021-10-04T00:50:00Z,48.12,16.57,14.0,12.0,140,5,,6.21,29.940945,,,,,,TRUE,,,,,CAVOK,,,,,,,,VFR,,,,,,,,,,,,METAR,179.0
LOWS 040050Z AUTO 34008KT 310V010 9999 NSC 17/12 Q1016,LOWS,2021-10-04T00:50:00Z,47.78,13.02,17.0,12.0,340,8,,6.21,30.0,,,TRUE,,,,,,,,CLR,,,,,,,,VFR,,,,,,,,,,,,METAR,427.0
LOWL 040050Z AUTO VRB02KT 4200 1700W BR NCD 10/10 Q1015,LOWL,2021-10-04T00:50:00Z,48.22,14.18,10.0,10.0,0,2,,2.61,29.970472,,,TRUE,,,,,,,BR,CLR,,,,,,,,IFR,,,,,,,,,,,,METAR,290.0
LOWK 040050Z AUTO 33003KT 9999 NCD 11/09 Q1018,LOWK,2021-10-04T00:50:00Z,46.65,14.32,11.0,9.0,330,3,,6.21,30.059055,,,TRUE,,,,,,,,CLR,,,,,,,,VFR,,,,,,,,,,,,METAR,450.0
LOWI 040050Z AUTO 11009G26KT 050V180 9999 DZ FEW090 20/09 Q1015,LOWI,2021-10-04T00:50:00Z,47.27,11.33,20.0,9.0,110,9,26,6.21,29.970472,,,TRUE,,,,,,,DZ,FEW,9000,,,,,,,VFR,,,,,,,,,,,,METAR,570.0
LOWG 040050Z AUTO 34002KT 9999 NCD 11/10 Q1016,LOWG,2021-10-04T00:50:00Z,47.0,15.43,11.0,10.0,340,2,,6.21,30.0,,,TRUE,,,,,,,,CLR,,,,,,,,VFR,,,,,,,,,,,,METAR,337.0
LLBG 040050Z 14005KT CAVOK 22/18 Q1014 NOSIG,LLBG,2021-10-04T00:50:00Z,32.0,34.88,22.0,18.0,140,5,,6.21,29.940945,,,,,,TRUE,,,,,CAVOK,,,,,,,,VFR,,,,,,,,,,,,METAR,35.0
LIRZ 040050Z AUTO 31003KT 280V350 9999 FEW037/// 16/15 Q1020,LIRZ,2021-10-04T00:50:00Z,43.1,12.5,16.0,15.0,310,3,,6.21,30.11811,,,TRUE,,,,,,,,FEW,3700,,,,,,,VFR,,,,,,,,,,,,METAR,206.0
LIRQ 040050Z 34001KT 9999 SCT040 18/17 Q1018,LIRQ,2021-10-04T00:50:00Z,43.8,11.2,18.0,17.0,340,1,,6.21,30.059055,,,,,,,,,,,SCT,4000,,,,,,,VFR,,,,,,,,,,,,METAR,33.0
LIRN 040050Z AUTO 06003KT 9999 NCD 19/15 Q1020,LIRN,2021-10-04T00:50:00Z,40.88,14.3,19.0,15.0,60,3,,6.21,30.11811,,,TRUE,,,,,,,,CLR,,,,,,,,VFR,,,,,,,,,,,,METAR,76.0
LIRF 040050Z 09007KT CAVOK 19/17 Q1018 NOSIG,LIRF,2021-10-04T00:50:00Z,41.78,12.23,19.0,17.0,90,7,,6.21,30.059055,,,,,,TRUE,,,,,CAVOK,,,,,,,,VFR,,,,,,,,,,,,METAR,2.0
LIRA 040050Z 13004KT 080V170 CAVOK 21/16 Q1019,LIRA,2021-10-04T00:50:00Z,41.8,12.58,21.0,16.0,130,4,,6.21,30.088583,,,,,,,,,,,CAVOK,,,,,,,,VFR,,,,,,,,,,,,METAR,101.0
LIPZ 040050Z 02007KT 6000 -RA BKN025 19/18 Q1018 NOSIG,LIPZ,2021-10-04T00:50:00Z,45.5,12.35,19.0,18.0,20,7,,3.73,30.059055,,,,,,TRUE,,,,-RA,BKN,2500,,,,,,,MVFR,,,,,,,,,,,,METAR,3.0
LIPY 040050Z AUTO 18002KT 9999 ///////// 18/17 Q1019,LIPY,2021-10-04T00:50:00Z,43.62,13.37,18.0,17.0,180,2,,6.21,30.088583,,,TRUE,,,,,,,,,,,,,,,,,,,,,,,,,,,,METAR,11.0
LIPR 040050Z AUTO VRB02KT 9999 NCD 17/15 Q1018,LIPR,2021-10-04T00:50:00Z,44.02,12.62,17.0,15.0,0,2,,6.21,30.059055,,,TRUE,,,,,,,,CLR,,,,,,,,VFR,,,,,,,,,,,,METAR,10.0
LIPQ 040050Z AUTO 12005KT 9999 BKN023/// 17/17 Q1019,LIPQ,2021-10-04T00:50:00Z,45.82,13.47,17.0,17.0,120,5,,6.21,30.088583,,,TRUE,,,,,,,,BKN,2300,,,,,,,MVFR,,,,,,,,,,,,METAR,6.0
LIPO 040050Z AUTO 09003KT 010V120 9999 BKN070/// 18/15 Q1017,LIPO,2021-10-04T00:50:00Z,45.42,10.33,18.0,15.0,90,3,,6.21,30.029528,,,TRUE,,,,,,,,BKN,7000,,,,,,,VFR,,,,,,,,,,,,METAR,104.0
LIPH 040050Z AUTO 03004KT 360V060 9999 -RA SCT011/// OVC030/// 19/18 Q1018,LIPH,2021-10-04T00:50:00Z,45.63,12.18,19.0,18.0,30,4,,6.21,30.059055,,,TRUE,,,,,,,-RA,SCT,1100,OVC,3000,,,,,MVFR,,,,,,,,,,,,METAR,10.0
LIPE 040050Z 08002KT CAVOK 19/16 Q1017,LIPE,2021-10-04T00:50:00Z,44.52,11.3,19.0,16.0,80,2,,6.21,30.029528,,,,,,,,,,,CAVOK,,,,,,,,VFR,,,,,,,,,,,,METAR,37.0
LIMZ 040050Z AUTO 01003KT 310V040 3100 BR ///////// 15/15 Q1017,LIMZ,2021-10-04T00:50:00Z,44.53,7.62,15.0,15.0,10,3,,1.93,30.029528,,,TRUE,,,,,,,BR,,,,,,,,,,,,,,,,,,,,,METAR,377.0
LIML 040050Z 06003KT 030V090 9999 BKN090 18/16 Q1017 NOSIG,LIML,2021-10-04T00:50:00Z,45.47,9.27,18.0,16.0,60,3,,6.21,30.029528,,,,,,TRUE,,,,,BKN,9000,,,,,,,VFR,,,,,,,,,,,,METAR,109.0
LIMJ 040050Z 12020KT 9999 SCT018 SCT026 23/20 Q1016,LIMJ,2021-10-04T00:50:00Z,44.42,8.83,23.0,20.0,120,20,,6.21,30.0,,,,,,,,,,,SCT,1800,SCT,2600,,,,,VFR,,,,,,,,,,,,METAR,3.0
LIMF 040050Z 36003KT 9999 BKN015 16/15 Q1017,LIMF,2021-10-04T00:50:00Z,45.22,7.65,16.0,15.0,360,3,,6.21,30.029528,,,,,,,,,,,BKN,1500,,,,,,,MVFR,,,,,,,,,,,,METAR,295.0
LIME 040050Z 01003KT 9999 BKN120 17/16 Q1018 NOSIG,LIME,2021-10-04T00:50:00Z,45.67,9.7,17.0,16.0,10,3,,6.21,30.059055,,,,,,TRUE,,,,,BKN,12000,,,,,,,VFR,,,,,,,,,,,,METAR,239.0
LIMC 040050Z VRB02KT 6000 BKN050 17/17 Q1017 NOSIG,LIMC,2021-10-04T00:50:00Z,45.62,8.72,17.0,17.0,0,2,,3.73,30.029528,,,,,,TRUE,,,,,BKN,5000,,,,,,,MVFR,,,,,,,,,,,,METAR,221.0
LIEE 040050Z 14012KT 9999 FEW020 25/22 Q1015,LIEE,2021-10-04T00:50:00Z,39.25,9.07,25.0,22.0,140,12,,6.21,29.970472,,,,,,,,,,,FEW,2000,,,,,,,VFR,,,,,,,,,,,,METAR,1.0
LIEA 040050Z 03004KT CAVOK 18/16 Q1014,LIEA,2021-10-04T00:50:00Z,40.62,8.28,18.0,16.0,30,4,,6.21,29.940945,,,,,,,,,,,CAVOK,,,,,,,,VFR,,,,,,,,,,,,METAR,22.0
LICR 040050Z AUTO 10004KT 9999 NCD 19/15 Q1020,LICR,2021-10-04T00:50:00Z,38.07,15.65,19.0,15.0,100,4,,6.21,30.11811,,,TRUE,,,,,,,,CLR,,,,,,,,VFR,,,,,,,,,,,,METAR,16.0
LICJ 040050Z 21003KT CAVOK 21/14 Q1018,LICJ,2021-10-04T00:50:00Z,38.17,13.08,21.0,14.0,210,3,,6.21,30.059055,,,,,,,,,,,CAVOK,,,,,,,,VFR,,,,,,,,,,,,METAR,20.0
LICD 040050Z AUTO 15013KT 9999 SCT110/// 25/20 Q1018,LICD,2021-10-04T00:50:00Z,35.5,12.62,25.0,20.0,150,13,,6.21,30.059055,,,TRUE,,,,,,,,SCT,11000,,,,,,,VFR,,,,,,,,,,,,METAR,20.0
LICC 040050Z 25005KT CAVOK 16/15 Q1020,LICC,2021-10-04T00:50:00Z,37.47,15.05,16.0,15.0,250,5,,6.21,30.11811,,,,,,,,,,,CAVOK,,,,,,,,VFR,,,,,,,,,,,,METAR,6.0
LICB 040050Z AUTO 36003KT 310V030 9999 NCD 15/13 Q1020,LICB,2021-10-04T00:50:00Z,37.0,14.62,15.0,13.0,360,3,,6.21,30.11811,,,TRUE,,,,,,,,CLR,,,,,,,,VFR,,,,,,,,,,,,METAR,212.0
LICA 040050Z AUTO 07009KT 9999 NCD 18/16 Q1020,LICA,2021-10-04T00:50:00Z,38.9,16.25,18.0,16.0,70,9,,6.21,30.11811,,,TRUE,,,,,,,,CLR,,,,,,,,VFR,,,,,,,,,,,,METAR,7.0
LIBR 040050Z 18003KT CAVOK 18/15 Q1020,LIBR,2021-10-04T00:50:00Z,40.65,17.95,18.0,15.0,180,3,,6.21,30.11811,,,,,,,,,,,CAVOK,,,,,,,,VFR,,,,,,,,,,,,METAR,5.0
LIBP 040050Z AUTO 23003KT 9999 NCD 16/15 Q1019,LIBP,2021-10-04T00:50:00Z,42.42,14.18,16.0,15.0,230,3,,6.21,30.088583,,,TRUE,,,,,,,,CLR,,,,,,,,VFR,,,,,,,,,,,,METAR,10.0
LGTS 040050Z 10006KT CAVOK 12/09 Q1024 NOSIG,LGTS,2021-10-04T00:50:00Z,40.52,22.97,12.0,9.0,100,6,,6.21,30.236221,,,,,,TRUE,,,,,CAVOK,,,,,,,,VFR,,,,,,,,,,,,METAR,4.0
LGSO 040050Z AUTO 36022G33KT //// -RA ////// 18/12 Q1019 RE//,LGSO,2021-10-04T00:50:00Z,37.42,24.95,18.0,12.0,360,22,33,,30.088583,,,TRUE,,,,,,,-RA,,,,,,,,,,,,,,,,,,,,,METAR,71.0
LGSA 040050Z 00000KT 9999 FEW025 15/13 Q1020,LGSA,2021-10-04T00:50:00Z,35.53,24.13,15.0,13.0,0,0,,6.21,30.11811,,,,,,,,,,,FEW,2500,,,,,,,VFR,,,,,,,,,,,,METAR,122.0
LGRP 040050Z 25007KT CAVOK 21/15 Q1014 NOSIG,LGRP,2021-10-04T00:50:00Z,36.4,28.08,21.0,15.0,250,7,,6.21,29.940945,,,,,,TRUE,,,,,CAVOK,,,,,,,,VFR,,,,,,,,,,,,METAR,3.0
LGPZ 040050Z AUTO 04004KT 360V060 //// // ////// 17/13 Q1021 RE//,LGPZ,2021-10-04T00:50:00Z,38.92,20.77,17.0,13.0,40,4,,,30.147638,,,TRUE,,,,,,,,,,,,,,,,,,,,,,,,,,,,METAR,3.0
LGPA 040050Z AUTO 02015KT //// // ////// 18/11 Q1018 RE//,LGPA,2021-10-04T00:50:00Z,37.02,25.1,18.0,11.0,20,15,,,30.059055,,,TRUE,,,,,,,,,,,,,,,,,,,,,,,,,,,,METAR,42.0
LGMK 040050Z 03023KT 9999 FEW015 18/10 Q1018,LGMK,2021-10-04T00:50:00Z,37.43,25.35,18.0,10.0,30,23,,6.21,30.059055,,,,,,,,,,,FEW,1500,,,,,,,VFR,,,,,,,,,,,,METAR,126.0
LGLM 040050Z 04005KT CAVOK 15/11 Q1022,LGLM,2021-10-04T00:50:00Z,39.92,25.23,15.0,11.0,40,5,,6.21,30.177166,,,,,,,,,,,CAVOK,,,,,,,,VFR,,,,,,,,,,,,METAR,4.0
LGKZ 040050Z AUTO 35004KT //// // ////// 08/06 Q1025 RE//,LGKZ,2021-10-04T00:50:00Z,40.28,21.83,8.0,6.0,350,4,,,30.265747,,,TRUE,,,,,,,,,,,,,,,,,,,,,,,,,,,,METAR,615.0
LGKR 040050Z 00000KT CAVOK 15/13 Q1021 NOSIG,LGKR,2021-10-04T00:50:00Z,39.62,19.92,15.0,13.0,0,0,,6.21,30.147638,,,,,,TRUE,,,,,CAVOK,,,,,,,,VFR,,,,,,,,,,,,METAR,2.0
LGKO 040050Z 35009KT CAVOK 19/12 Q1015,LGKO,2021-10-04T00:50:00Z,36.8,27.08,19.0,12.0,350,9,,6.21,29.970472,,,,,,,,,,,CAVOK,,,,,,,,VFR,,,,,,,,,,,,METAR,130.0
LGKL 040050Z AUTO 35004KT 300V360 //// // ////// 16/10 Q1020 RE//,LGKL,2021-10-04T00:50:00Z,37.07,22.02,16.0,10.0,350,4,,,30.11811,,,TRUE,,,,,,,,,,,,,,,,,,,,,,,,,,,,METAR,4.0
LGIR 040050Z 31013KT 9999 FEW018 BKN025 20/17 Q1019 NOSIG,LGIR,2021-10-04T00:50:00Z,35.33,25.17,20.0,17.0,310,13,,6.21,30.088583,,,,,,TRUE,,,,,FEW,1800,BKN,2500,,,,,MVFR,,,,,,,,,,,,METAR,37.0
LGIO 040050Z AUTO 00000KT //// // ////// 08/07 Q1023 RE//,LGIO,2021-10-04T00:50:00Z,39.7,20.82,8.0,7.0,0,0,,,30.206694,,,TRUE,,,,,,,,,,,,,,,,,,,,,,,,,,,,METAR,476.0
LGEL 040050Z AUTO 33005KT 280V010 //// // ////// 17/09 Q1021 RE//,LGEL,2021-10-04T00:50:00Z,38.07,23.55,17.0,9.0,330,5,,,30.147638,,,TRUE,,,,,,,,,,,,,,,,,,,,,,,,,,,,METAR,21.0
LGAV 040050Z 33006KT 280V010 9999 FEW025 17/09 Q1022 NOSIG,LGAV,2021-10-04T00:50:00Z,37.93,23.95,17.0,9.0,330,6,,6.21,30.177166,,,,,,TRUE,,,,,FEW,2500,,,,,,,VFR,,,,,,,,,,,,METAR,83.0
LGAL 040050Z 00000KT CAVOK 11/04 Q1023,LGAL,2021-10-04T00:50:00Z,40.85,25.95,11.0,4.0,0,0,,6.21,30.206694,,,,,,,,,,,CAVOK,,,,,,,,VFR,,,,,,,,,,,,METAR,5.0
LGAD 040050Z 00000KT 9999 FEW080 12/09 Q1021,LGAD,2021-10-04T00:50:00Z,37.92,21.28,12.0,9.0,0,0,,6.21,30.147638,,,,,,,,,,,FEW,8000,,,,,,,VFR,,,,,,,,,,,,METAR,8.0
LCRA 040050Z AUTO 31004KT 9999 ///////// 20/06 Q1013,LCRA,2021-10-04T00:50:00Z,34.58,32.98,20.0,6.0,310,4,,6.21,29.911417,,,TRUE,,,,,,,,,,,,,,,,,,,,,,,,,,,,SPECI,23.0
LCEN 040050Z 28009KT CAVOK 20/12 Q1013 NOSIG RMK RWY11 28006KT,LCEN,2021-10-04T00:50:00Z,35.15,33.5,20.0,12.0,280,9,,6.21,29.911417,,,,,,TRUE,,,,,CAVOK,,,,,,,,VFR,,,,,,,,,,,,METAR,91.0
LATI 040050Z 17002KT CAVOK 13/10 Q1022 NOSIG,LATI,2021-10-04T00:50:00Z,41.42,19.72,13.0,10.0,170,2,,6.21,30.177166,,,,,,TRUE,,,,,CAVOK,,,,,,,,VFR,,,,,,,,,,,,METAR,32.0
KWWR 040050Z AUTO 00000KT 10SM CLR 21/08 A3010 RMK AO2,KWWR,2021-10-04T00:50:00Z,36.45,-99.52,21.0,8.0,0,0,,10.0,30.100393,,,TRUE,TRUE,,,,,,,CLR,,,,,,,,VFR,,,,,,,,,,,,METAR,664.0
KVYS 040050Z AUTO 32003KT 10SM SCT030 BKN041 OVC055 20/19 A2985 RMK AO2 T01990190,KVYS,2021-10-04T00:50:00Z,41.35,-89.15,19.9,19.0,320,3,,10.0,29.84941,,,TRUE,TRUE,,,,,,,SCT,3000,BKN,4100,OVC,5500,,,VFR,,,,,,,,,,,,METAR,198.0
KVQQ 040050Z 00000KT 10SM SCT055 23/22 A3001,KVQQ,2021-10-04T00:50:00Z,30.22,-81.88,23.0,22.0,0,0,,10.0,30.008858,,,,,,,,,,,SCT,5500,,,,,,,VFR,,,,,,,,,,,,METAR,21.0
KSBO 040050Z AUTO 00000KT 10SM CLR 23/17 A3003 RMK AO2,KSBO,2021-10-04T00:50:00Z,32.62,-82.37,23.0,17.0,0,0,,10.0,30.029528,,,TRUE,TRUE,,,,,,,CLR,,,,,,,,VFR,,,,,,,,,,,,METAR,98.0
KRYY 040050Z 00000KT 4SM BR BKN008 BKN055 OVC070 21/20 A3004 RMK AO2 CIG 006V010 SLP162 T02060200 PNO $,KRYY,2021-10-04T00:50:00Z,34.02,-84.6,20.6,20.0,0,0,,4.0,30.041338,1016.2,,,TRUE,TRUE,,,,,BR,BKN,800,BKN,5500,OVC,7000,,,IFR,,,,,,,,,,,,SPECI,306.0
KRHV 040050Z 30007KT 10SM SKC 31/03 A2988,KRHV,2021-10-04T00:50:00Z,37.33,-121.82,31.0,3.0,300,7,,10.0,29.878937,,,,,,,,,,,SKC,,,,,,,,VFR,,,,,,,,,,,,METAR,37.0
KPPA 040050Z AUTO 06005KT 10SM CLR 21/09 A3012 RMK AO2 T02060090,KPPA,2021-10-04T00:50:00Z,35.62,-101.0,20.6,9.0,60,5,,10.0,30.121063,,,TRUE,TRUE,,,,,,,CLR,,,,,,,,VFR,,,,,,,,,,,,METAR,989.0
KPNA 040050Z AUTO 30004KT 10SM CLR 13/M07 A3029 RMK AO2,KPNA,2021-10-04T00:50:00Z,42.8,-109.8,13.0,-7.0,300,4,,10.0,30.28937,,,TRUE,TRUE,,,,,,,CLR,,,,,,,,VFR,,,,,,,,,,,,METAR,2158.0
KPEQ 040050Z AUTO 36005KT 10SM CLR 27/07 A3009 RMK AO2 T02660071 PWINO,KPEQ,2021-10-04T00:50:00Z,31.38,-103.52,26.6,7.1,360,5,,10.0,30.088583,,,TRUE,TRUE,,,,,TRUE,,CLR,,,,,,,,VFR,,,,,,,,,,,,METAR,794.0
KOWP 040050Z AUTO 00000KT 10SM CLR 21/12 A3001 RMK AO2 T02110122 PWINO,KOWP,2021-10-04T00:50:00Z,36.18,-96.15,21.1,12.2,0,0,,10.0,30.008858,,,TRUE,TRUE,,,,,TRUE,,CLR,,,,,,,,VFR,,,,,,,,,,,,METAR,267.0
KOLV 040050Z 00000KT 10SM FEW040 21/20 A2993,KOLV,2021-10-04T00:50:00Z,34.98,-89.78,21.0,20.0,0,0,,10.0,29.929134,,,,,,,,,,,FEW,4000,,,,,,,VFR,,,,,,,,,,,,METAR,124.0
KNQA 040050Z 33003KT 10SM CLR 22/18 A2993,KNQA,2021-10-04T00:50:00Z,35.35,-89.87,22.0,18.0,330,3,,10.0,29.929134,,,,,,,,,,,CLR,,,,,,,,VFR,,,,,,,,,,,,METAR,90.0
KMGR 040050Z AUTO 00000KT 10SM CLR 22/21 A3003 RMK AO2,KMGR,2021-10-04T00:50:00Z,31.08,-83.8,22.0,21.0,0,0,,10.0,30.029528,,,TRUE,TRUE,,,,,,,CLR,,,,,,,,VFR,,,,,,,,,,,,METAR,86.0
KLAL 040050Z 10005KT 10SM SKC 25/17 A3000,KLAL,2021-10-04T00:50:00Z,27.98,-82.02,25.0,17.0,100,5,,10.0,30.0,,,,,,,,,,,SKC,,,,,,,,VFR,,,,,,,,,,,,METAR,39.0
KJQF 040050Z 00000KT 10SM CLR 22/18 A3004,KJQF,2021-10-04T00:50:00Z,35.38,-80.72,22.0,18.0,0,0,,10.0,30.041338,,,,,,,,,,,CLR,,,,,,,,VFR,,,,,,,,,,,,METAR,204.0
KIFP 040050Z 00000KT 20SM SCT090 36/01 A2984,KIFP,2021-10-04T00:50:00Z,35.15,-114.57,36.0,1.0,0,0,,20.0,29.840551,,,,,,,,,,,SCT,9000,,,,,,,VFR,,,,,,,,,,,,METAR,210.0
KHSA 040050Z 00000KT 7SM SCT027 24/22 A2995,KHSA,2021-10-04T00:50:00Z,30.37,-89.45,24.0,22.0,0,0,,7.0,29.949802,,,,,,,,,,,SCT,2700,,,,,,,VFR,,,,,,,,,,,,METAR,6.0
KHQZ 040050Z 32003KT 10SM CLR 23/15 A3000,KHQZ,2021-10-04T00:50:00Z,32.75,-96.53,23.0,15.0,320,3,,10.0,30.0,,,,,,,,,,,CLR,,,,,,,,VFR,,,,,,,,,,,,METAR,136.0
KHMZ 040050Z AUTO 00000KT 7SM SCT060 BKN080 OVC120 19/19 A2994 RMK AO2 T01900186,KHMZ,2021-10-04T00:50:00Z,40.08,-78.52,19.0,18.6,0,0,,7.0,29.940945,,,TRUE,TRUE,,,,,,,SCT,6000,BKN,8000,OVC,12000,,,VFR,,,,,,,,,,,,METAR,351.0
KHCR 040050Z AUTO 19003KT 10SM CLR 18/M07 A3019 RMK AO2,KHCR,2021-10-04T00:50:00Z,40.48,-111.43,18.0,-7.0,190,3,,10.0,30.188976,,,TRUE,TRUE,,,,,,,CLR,,,,,,,,VFR,,,,,,,,,,,,METAR,1708.0
KGRY 040050Z AUTO 21005KT 10SM FEW033 SCT042 SCT047 27/22 A2997 RMK A01,KGRY,2021-10-04T00:50:00Z,27.63,-90.45,27.0,22.0,210,5,,10.0,29.970472,,,TRUE,TRUE,,,,,,,FEW,3300,SCT,4200,SCT,4700,,,VFR,,,,,,,,,,,,METAR,58.0
KFMM 040050Z AUTO 31003KT 10SM CLR 21/M07 A3014 RMK AO2 T02051068,KFMM,2021-10-04T00:50:00Z,40.33,-103.8,20.5,-6.8,310,3,,10.0,30.138779,,,TRUE,TRUE,,,,,,,CLR,,,,,,,,VFR,,,,,,,,,,,,METAR,1376.0
KFEP 040050Z AUTO 32008KT 7SM RA OVC046 20/18 A2989 RMK AO2 LTG DSNT NE T01950177,KFEP,2021-10-04T00:50:00Z,42.25,-89.58,19.5,17.7,320,8,,7.0,29.890747,,,TRUE,TRUE,,,,,,RA,OVC,4600,,,,,,,VFR,,,,,,,,,,,,METAR,255.0
KESN 040050Z 00000KT 10SM CLR 23/23 A2998,KESN,2021-10-04T00:50:00Z,38.8,-76.07,23.0,23.0,0,0,,10.0,29.97933,,,,,,,,,,,CLR,,,,,,,,VFR,,,,,,,,,,,,METAR,14.0
KEHA 040050Z AUTO 10007KT 10SM CLR 19/05 A3015 RMK AO2 T01900051,KEHA,2021-10-04T00:50:00Z,37.0,-101.87,19.0,5.1,100,7,,10.0,30.15059,,,TRUE,TRUE,,,,,,,CLR,,,,,,,,VFR,,,,,,,,,,,,METAR,1103.0
KEFD 040050Z 01004KT 10SM FEW030 BKN090 27/21 A2994,KEFD,2021-10-04T00:50:00Z,29.6,-95.17,27.0,21.0,10,4,,10.0,29.940945,,,,,,,,,,,FEW,3000,BKN,9000,,,,,VFR,,,,,,,,,,,,METAR,9.0
KECS 040050Z AUTO 06004KT 10SM CLR 19/M10 A3010 RMK AO2,KECS,2021-10-04T00:50:00Z,43.88,-104.32,19.0,-10.0,60,4,,10.0,30.100393,,,TRUE,TRUE,,,,,,,CLR,,,,,,,,VFR,,,,,,,,,,,,METAR,1273.0
KDED 040050Z AUTO 00000KT 10SM CLR 23/21 A3003 RMK AO2 T02280207,KDED,2021-10-04T00:50:00Z,29.07,-81.28,22.8,20.7,0,0,,10.0,30.029528,,,TRUE,TRUE,,,,,,,CLR,,,,,,,,VFR,,,,,,,,,,,,METAR,21.0
KDAG 040050Z AUTO 06006KT 10SM CLR 32/M03 A2992 RMK AO2 SLP109 T03221028 $,KDAG,2021-10-04T00:50:00Z,34.85,-116.78,32.2,-2.8,60,6,,10.0,29.920275,1010.9,,TRUE,TRUE,TRUE,,,,,,CLR,,,,,,,,VFR,,,,,,,,,,,,METAR,584.0
KD73 040050Z AUTO 00000KT 2 1/2SM -RA BR SCT120 21/ A3004 RMK AO2 T0210////,KD73,2021-10-04T00:50:00Z,33.78,-83.7,21.0,,0,0,,2.5,30.041338,,,TRUE,TRUE,,,,,,-RA BR,SCT,12000,,,,,,,IFR,,,,,,,,,,,,METAR,254.0
KCZT 040050Z AUTO 00000KT 10SM CLR 28/17 A2996 RMK AO2,KCZT,2021-10-04T00:50:00Z,28.52,-99.82,28.0,17.0,0,0,,10.0,29.958662,,,TRUE,TRUE,,,,,,,CLR,,,,,,,,VFR,,,,,,,,,,,,METAR,176.0
KALN 040050Z 28006KT 10SM SCT050 BKN075 21/19 A2992,KALN,2021-10-04T00:50:00Z,38.88,-90.03,21.0,19.0,280,6,,10.0,29.920275,,,,,,,,,,,SCT,5000,BKN,7500,,,,,VFR,,,,,,,,,,,,METAR,159.0
KAEG 040050Z VRB04KT 10SM SCT100 18/03 A3026,KAEG,2021-10-04T00:50:00Z,35.13,-106.8,18.0,3.0,0,4,,10.0,30.259842,,,,,,,,,,,SCT,10000,,,,,,,VFR,,,,,,,,,,,,METAR,1771.0
KADT 040050Z AUTO 13004KT 10SM CLR 19/04 A3011 RMK AO2 T01920040,KADT,2021-10-04T00:50:00Z,39.83,-101.05,19.2,4.0,130,4,,10.0,30.109253,,,TRUE,TRUE,,,,,,,CLR,,,,,,,,VFR,,,,,,,,,,,,METAR,899.0
KADH 040050Z AUTO 34003KT 10SM CLR 22/12 A3004 RMK AO2,KADH,2021-10-04T00:50:00Z,34.8,-96.67,22.0,12.0,340,3,,10.0,30.041338,,,TRUE,TRUE,,,,,,,CLR,,,,,,,,VFR,,,,,,,,,,,,METAR,301.0
K8A0 040050Z AUTO 17003KT 10SM SCT009 SCT021 BKN030 20/20 A3001 RMK AO2,K8A0,2021-10-04T00:50:00Z,34.23,-86.25,20.0,20.0,170,3,,10.0,30.008858,,,TRUE,TRUE,,,,,,,SCT,900,SCT,2100,BKN,3000,,,MVFR,,,,,,,,,,,,METAR,313.0
K4V1 040050Z AUTO 15005KT 10SM CLR 18/06 A3023 RMK AO2 T01780064,K4V1,2021-10-04T00:50:00Z,37.7,-104.78,17.8,6.4,150,5,,10.0,30.230314,,,TRUE,TRUE,,,,,,,CLR,,,,,,,,VFR,,,,,,,,,,,,METAR,1847.0
K3AU 040050Z AUTO 30003KT 10SM CLR 20/07 A3003 RMK AO2,K3AU,2021-10-04T00:50:00Z,37.67,-97.08,20.0,7.0,300,3,,10.0,30.029528,,,TRUE,TRUE,,,,,,,CLR,,,,,,,,VFR,,,,,,,,,,,,METAR,403.0
K19S 040050Z AUTO 12006KT 10SM CLR 20/08 A3011 RMK AO2 T02040079,K19S,2021-10-04T00:50:00Z,37.48,-100.83,20.4,7.9,120,6,,10.0,30.109253,,,TRUE,TRUE,,,,,,,CLR,,,,,,,,VFR,,,,,,,,,,,,METAR,886.0
K18A 040050Z AUTO 00000KT 4SM -RA BR SCT055 SCT090 BKN120 19/19 A3004 RMK AO2 P0001 T01940191,K18A,2021-10-04T00:50:00Z,34.35,-83.13,19.4,19.1,0,0,,4.0,30.041338,,,TRUE,TRUE,,,,,,-RA BR,SCT,5500,SCT,9000,BKN,12000,,,MVFR,,,,,,0.01,,,,,,METAR,260.0
K17J 040050Z AUTO 00000KT 10SM CLR 22/21 A3001 RMK AO2 T02180212,K17J,2021-10-04T00:50:00Z,31.0,-84.87,21.8,21.2,0,0,,10.0,30.008858,,,TRUE,TRUE,,,,,,,CLR,,,,,,,,VFR,,,,,,,,,,,,METAR,42.0
EYVI 040050Z 14010KT CAVOK 09/04 Q1023 NOSIG,EYVI,2021-10-04T00:50:00Z,54.63,25.28,9.0,4.0,140,10,,6.21,30.206694,,,,,,TRUE,,,,,CAVOK,,,,,,,,VFR,,,,,,,,,,,,METAR,180.0
EYSA 040050Z AUTO 13010KT 9999NDV NSC 08/05 Q1021,EYSA,2021-10-04T00:50:00Z,55.9,23.4,8.0,5.0,130,10,,,30.147638,,,TRUE,,,,,,,,CLR,,,,,,,,,,,,,,,,,,,,METAR,135.0
EYKA 040050Z 11008KT CAVOK 09/05 Q1021,EYKA,2021-10-04T00:50:00Z,54.97,24.08,9.0,5.0,110,8,,6.21,30.147638,,,,,,,,,,,CAVOK,,,,,,,,VFR,,,,,,,,,,,,METAR,68.0
EVVA 040050Z AUTO 14008KT CAVOK 11/08 Q1017,EVVA,2021-10-04T00:50:00Z,57.35,21.55,11.0,8.0,140,8,,6.21,30.029528,,,TRUE,,,,,,,,CAVOK,,,,,,,,VFR,,,,,,,,,,,,METAR,1.0
EVRA 040050Z 14008KT CAVOK 11/06 Q1021 R18/090095 NOSIG,EVRA,2021-10-04T00:50:00Z,56.92,23.97,11.0,6.0,140,8,,6.21,30.147638,,,,,,TRUE,,,,,CAVOK,,,,,,,,VFR,,,,,,,,,,,,METAR,7.0
EVLA 040050Z AUTO 14008KT 9999 SCT180/// 12/08 Q1016,EVLA,2021-10-04T00:50:00Z,56.52,21.1,12.0,8.0,140,8,,6.21,30.0,,,TRUE,,,,,,,,SCT,18000,,,,,,,VFR,,,,,,,,,,,,METAR,5.0
EVGA 040050Z AUTO 13009KT CAVOK 09/05 Q1023,EVGA,2021-10-04T00:50:00Z,,,9.0,5.0,130,9,,6.21,30.206694,,,TRUE,,,,,,,,CAVOK,,,,,,,,VFR,,,,,,,,,,,,METAR,
ESUT 040050Z AUTO 12016G28KT 090V150 9999 -RA OVC017/// 10/09 Q0996,ESUT,2021-10-04T00:50:00Z,65.8,15.08,10.0,9.0,120,16,28,6.21,29.409449,,,TRUE,,,,,,,-RA,OVC,1700,,,,,,,MVFR,,,,,,,,,,,,METAR,457.0
ESUP 040050Z AUTO 15015KT 130V190 9999 OVC017/// 10/07 Q1011,ESUP,2021-10-04T00:50:00Z,67.25,23.07,10.0,7.0,150,15,,6.21,29.852362,,,TRUE,,,,,,,,OVC,1700,,,,,,,MVFR,,,,,,,,,,,,METAR,164.0
ESTL 040050Z AUTO 30005KT 9999 FEW008/// SCT014/// OVC018/// 13/13 Q1009,ESTL,2021-10-04T00:50:00Z,56.07,13.2,13.0,13.0,300,5,,6.21,29.793306,,,TRUE,,,,,,,,FEW,800,SCT,1400,OVC,1800,,,MVFR,,,,,,,,,,,,METAR,39.0
ESTA 040050Z AUTO 27004KT 9999 BKN010/// BKN032/// OVC042/// 13/11 Q1009 REDZ,ESTA,2021-10-04T00:50:00Z,56.28,12.83,13.0,11.0,270,4,,6.21,29.793306,,,TRUE,,,,,,,,BKN,1000,BKN,3200,OVC,4200,,,MVFR,,,,,,,,,,,,METAR,19.0
ESSV 040050Z AUTO 16015KT 9999 FEW130/// 14/11 Q1012,ESSV,2021-10-04T00:50:00Z,57.67,18.35,14.0,11.0,160,15,,6.21,29.88189,,,TRUE,,,,,,,,FEW,13000,,,,,,,VFR,,,,,,,,,,,,METAR,38.0
ESST 040050Z AUTO VRB02KT 9999 -RA BKN046/// OVC053/// 10/09 Q1004,ESST,2021-10-04T00:50:00Z,60.15,12.98,10.0,9.0,0,2,,6.21,29.64567,,,TRUE,,,,,,,-RA,BKN,4600,OVC,5300,,,,,VFR,,,,,,,,,,,,METAR,110.0
ESSP 040050Z AUTO 15009KT 9999 -RA BKN074/// OVC092/// 14/12 Q1008,ESSP,2021-10-04T00:50:00Z,58.58,16.25,14.0,12.0,150,9,,6.21,29.763779,,,TRUE,,,,,,,-RA,BKN,7400,OVC,9200,,,,,VFR,,,,,,,,,,,,METAR,3.0
ESSL 040050Z AUTO 17009KT 150V210 9999 FEW055/// SCT070/// OVC090/// 15/11 Q1007,ESSL,2021-10-04T00:50:00Z,58.4,15.67,15.0,11.0,170,9,,6.21,29.734253,,,TRUE,,,,,,,,FEW,5500,SCT,7000,OVC,9000,,,VFR,,,,,,,,,,,,METAR,51.0
ESSD 040050Z AUTO 17012KT 9999 -RA OVC009/// 13/12 Q1003,ESSD,2021-10-04T00:50:00Z,60.42,15.5,13.0,12.0,170,12,,6.21,29.616142,,,TRUE,,,,,,,-RA,OVC,900,,,,,,,IFR,,,,,,,,,,,,METAR,151.0
ESSB 040050Z AUTO 16015KT 9999 OVC074/// 15/11 Q1010,ESSB,2021-10-04T00:50:00Z,59.35,17.93,15.0,11.0,160,15,,6.21,29.822834,,,TRUE,,,,,,,,OVC,7400,,,,,,,VFR,,,,,,,,,,,,METAR,14.0
ESSA 040050Z 16016KT CAVOK 14/11 Q1009 NOSIG,ESSA,2021-10-04T00:50:00Z,59.65,17.93,14.0,11.0,160,16,,6.21,29.793306,,,,,,TRUE,,,,,CAVOK,,,,,,,,VFR,,,,,,,,,,,,METAR,36.0
ESPE 040050Z AUTO 15013KT 9999 -RA BKN016/// OVC020/// 11/09 Q1006,ESPE,2021-10-04T00:50:00Z,65.88,20.15,11.0,9.0,150,13,,6.21,29.704725,,,TRUE,,,,,,,-RA,BKN,1600,OVC,2000,,,,,MVFR,,,,,,,,,,,,METAR,182.0
ESPA 040050Z AUTO 16020KT 9999 OVC080/// 11/09 Q1011,ESPA,2021-10-04T00:50:00Z,65.53,22.12,11.0,9.0,160,20,,6.21,29.852362,,,TRUE,,,,,,,,OVC,8000,,,,,,,VFR,,,,,,,,,,,,METAR,12.0
ESOW 040050Z AUTO 15014KT 7000 -RA OVC048/// 14/12 Q1007,ESOW,2021-10-04T00:50:00Z,59.58,16.63,14.0,12.0,150,14,,4.35,29.734253,,,TRUE,,,,,,,-RA,OVC,4800,,,,,,,MVFR,,,,,,,,,,,,METAR,7.0
ESOK 040050Z AUTO 22003KT 9999 DZ FEW022/// SCT032/// OVC045/// 10/10 Q1005 REDZ,ESOK,2021-10-04T00:50:00Z,59.45,13.33,10.0,10.0,220,3,,6.21,29.675198,,,TRUE,,,,,,,DZ,FEW,2200,SCT,3200,OVC,4500,,,VFR,,,,,,,,,,,,METAR,101.0
ESOH 040050Z AUTO 21005KT 170V260 9999 -RA OVC037/// 10/08 Q1004,ESOH,2021-10-04T00:50:00Z,60.02,13.58,10.0,8.0,210,5,,6.21,29.64567,,,TRUE,,,,,,,-RA,OVC,3700,,,,,,,VFR,,,,,,,,,,,,METAR,145.0
ESOE 040050Z AUTO 15008KT 8000 DZ FEW018/// 14/13 Q1005,ESOE,2021-10-04T00:50:00Z,59.22,15.05,14.0,13.0,150,8,,4.97,29.675198,,,TRUE,,,,,,,DZ,FEW,1800,,,,,,,MVFR,,,,,,,,,,,,METAR,57.0
ESNX 040050Z AUTO 14019G29KT 7000 -RA OVC008/// 10/09 Q1005,ESNX,2021-10-04T00:50:00Z,65.58,19.28,10.0,9.0,140,19,29,4.35,29.675198,,,TRUE,,,,,,,-RA,OVC,800,,,,,,,IFR,,,,,,,,,,,,METAR,380.0
ESNV 040050Z AUTO 15014G25KT 9999 DZ OVC009/// 11/09 Q1000 RERA,ESNV,2021-10-04T00:50:00Z,64.58,16.83,11.0,9.0,150,14,25,6.21,29.52756,,,TRUE,,,,,,,DZ,OVC,900,,,,,,,IFR,,,,,,,,,,,,METAR,348.0
ESNU 040050Z 17015KT 9000 RA VV021 11/10 Q1011,ESNU,2021-10-04T00:50:00Z,63.78,20.28,11.0,10.0,170,15,,5.59,29.852362,,,,,,,,,,RA,OVX,0,,,,,,,LIFR,,,,,,,,,,,2100,METAR,8.0
ESNS 040050Z AUTO 16015KT 120V190 9999 SCT012/// BKN016/// OVC024/// 11/10 Q1010,ESNS,2021-10-04T00:50:00Z,64.62,21.07,11.0,10.0,160,15,,6.21,29.822834,,,TRUE,,,,,,,,SCT,1200,BKN,1600,OVC,2400,,,MVFR,,,,,,,,,,,,METAR,41.0
ESNQ 040050Z AUTO 17015KT 9999 -RA OVC008/// 08/07 Q1005,ESNQ,2021-10-04T00:50:00Z,67.82,20.33,8.0,7.0,170,15,,6.21,29.675198,,,TRUE,,,,,,,-RA,OVC,800,,,,,,,IFR,,,,,,,,,,,,METAR,447.0
ESNO 040050Z AUTO 15020KT 7000 -RA OVC006/// 11/11 Q////,ESNO,2021-10-04T00:50:00Z,63.4,18.97,11.0,11.0,150,20,,4.35,,,,TRUE,,,,,,,-RA,OVC,600,,,,,,,IFR,,,,,,,,,,,,METAR,100.0
ESNN 040050Z AUTO 15017KT 6000 DZ FEW005/// OVC008/// 11/10 Q1005,ESNN,2021-10-04T00:50:00Z,62.52,17.43,11.0,10.0,150,17,,3.73,29.675198,,,TRUE,,,,,,,DZ,FEW,500,OVC,800,,,,,IFR,,,,,,,,,,,,METAR,4.0
ESNL 040050Z AUTO 14021G35KT 9000 -RA FEW010/// BKN013/// OVC017/// 11/10 Q1004 REDZ,ESNL,2021-10-04T00:50:00Z,64.55,18.72,11.0,10.0,140,21,35,5.59,29.64567,,,TRUE,,,,,,,-RA,FEW,1000,BKN,1300,OVC,1700,,,MVFR,,,,,,,,,,,,METAR,220.0
ESNK 040050Z AUTO 15022G34KT 9000 -RA SCT003/// OVC010/// 12/11 Q1005 REDZ,ESNK,2021-10-04T00:50:00Z,63.03,17.77,12.0,11.0,150,22,34,5.59,29.675198,,,TRUE,,,,,,,-RA,SCT,300,OVC,1000,,,,,MVFR,,,,,,,,,,,,METAR,4.0
ESNG 040050Z AUTO 13017KT 9999 -RA OVC013/// 09/07 Q1006,ESNG,2021-10-04T00:50:00Z,67.13,20.82,9.0,7.0,130,17,,6.21,29.704725,,,TRUE,,,,,,,-RA,OVC,1300,,,,,,,MVFR,,,,,,,,,,,,METAR,300.0
ESND 040050Z AUTO 15009KT 110V180 9999 BKN016/// OVC021/// 13/10 Q0999,ESND,2021-10-04T00:50:00Z,62.05,14.42,13.0,10.0,150,9,,6.21,29.498032,,,TRUE,,,,,,,,BKN,1600,OVC,2100,,,,,MVFR,,,,,,,,,,,,METAR,352.0
ESMX 040050Z AUTO 17009KT 7000 -RA SCT007/// OVC044/// 14/14 Q1009,ESMX,2021-10-04T00:50:00Z,56.92,14.72,14.0,14.0,170,9,,4.35,29.793306,,,TRUE,,,,,,,-RA,SCT,700,OVC,4400,,,,,MVFR,,,,,,,,,,,,METAR,176.0
ESMT 040050Z AUTO 25003KT 9999 FEW007/// 13/12 Q1009,ESMT,2021-10-04T00:50:00Z,56.68,12.82,13.0,12.0,250,3,,6.21,29.793306,,,TRUE,,,,,,,,FEW,700,,,,,,,VFR,,,,,,,,,,,,METAR,24.0
ESMS 040050Z 29012KT 9999 BKN009 OVC051 14/12 Q1010,ESMS,2021-10-04T00:50:00Z,55.53,13.37,14.0,12.0,290,12,,6.21,29.822834,,,,,,,,,,,BKN,900,OVC,5100,,,,,IFR,,,,,,,,,,,,METAR,68.0
ESMQ 040050Z AUTO 17009KT 9999 FEW110/// 14/13 Q1010,ESMQ,2021-10-04T00:50:00Z,56.68,16.3,14.0,13.0,170,9,,6.21,29.822834,,,TRUE,,,,,,,,FEW,11000,,,,,,,VFR,,,,,,,,,,,,METAR,3.0
ESMK 040050Z AUTO 19005KT 9999 BKN043/// OVC078/// 15/14 Q1009,ESMK,2021-10-04T00:50:00Z,55.92,14.08,15.0,14.0,190,5,,6.21,29.793306,,,TRUE,,,,,,,,BKN,4300,OVC,7800,,,,,VFR,,,,,,,,,,,,METAR,20.0
ESKS 040050Z AUTO 19007KT 9999 -RA FEW013/// OVC042/// 08/07 Q1001,ESKS,2021-10-04T00:50:00Z,61.17,12.83,8.0,7.0,190,7,,6.21,29.557087,,,TRUE,,,,,,,-RA,FEW,1300,OVC,4200,,,,,VFR,,,,,,,,,,,,METAR,503.0
ESKN 040050Z 14012KT CAVOK 13/12 Q1009,ESKN,2021-10-04T00:50:00Z,58.78,16.92,13.0,12.0,140,12,,6.21,29.793306,,,,,,,,,,,CAVOK,,,,,,,,VFR,,,,,,,,,,,,METAR,41.0
ESKM 040050Z AUTO 13010KT 8000 -DZ BKN007/// BKN009/// OVC011/// 13/13 Q1001 REDZ,ESKM,2021-10-04T00:50:00Z,60.97,14.52,13.0,13.0,130,10,,4.97,29.557087,,,TRUE,,,,,,,-DZ,BKN,700,BKN,900,OVC,1100,,,IFR,,,,,,,,,,,,METAR,184.0
ESIB 040050Z AUTO 22008KT 9999 -RA BKN042/// OVC058/// 11/10 Q1006,ESIB,2021-10-04T00:50:00Z,58.42,12.7,11.0,10.0,220,8,,6.21,29.704725,,,TRUE,,,,,,,-RA,BKN,4200,OVC,5800,,,,,VFR,,,,,,,,,,,,METAR,51.0
ESIA 040050Z AUTO 20012KT 9999 OVC025/// 14/13 Q1006,ESIA,2021-10-04T00:50:00Z,58.52,14.5,14.0,13.0,200,12,,6.21,29.704725,,,TRUE,,,,,,,,OVC,2500,,,,,,,MVFR,,,,,,,,,,,,METAR,94.0
ESGT 040050Z AUTO 16007KT 9999 BKN057/// OVC072/// 11/10 Q1006 RERA,ESGT,2021-10-04T00:50:00Z,58.32,12.33,11.0,10.0,160,7,,6.21,29.704725,,,TRUE,,,,,,,,BKN,5700,OVC,7200,,,,,VFR,,,,,,,,,,,,METAR,40.0
ESGR 040050Z AUTO 25007KT 9999 FEW009/// SCT011/// BKN015/// 14/12 Q1006 REDZ,ESGR,2021-10-04T00:50:00Z,58.45,13.97,14.0,12.0,250,7,,6.21,29.704725,,,TRUE,,,,,,,,FEW,900,SCT,1100,BKN,1500,,,MVFR,,,,,,,,,,,,METAR,95.0
ESGJ 040050Z AUTO 19009KT 9999 -DZ BKN011/// 14/14 Q1006,ESGJ,2021-10-04T00:50:00Z,57.77,14.07,14.0,14.0,190,9,,6.21,29.704725,,,TRUE,,,,,,,-DZ,BKN,1100,,,,,,,MVFR,,,,,,,,,,,,METAR,224.0
ESGG 040050Z 17007KT CAVOK 10/09 Q1007,ESGG,2021-10-04T00:50:00Z,57.67,12.3,10.0,9.0,170,7,,6.21,29.734253,,,,,,,,,,,CAVOK,,,,,,,,VFR,,,,,,,,,,,,METAR,152.0
ESDF 040050Z AUTO 21007KT 170V240 9999 -SHRA OVC094/// 16/14 Q1010,ESDF,2021-10-04T00:50:00Z,56.27,15.27,16.0,14.0,210,7,,6.21,29.822834,,,TRUE,,,,,,,-SHRA,OVC,9400,,,,,,,VFR,,,,,,,,,,,,METAR,52.0
ESCM 040050Z AUTO 17012KT 9999 -RA FEW044/// BKN056/// 14/12 Q1008,ESCM,2021-10-04T00:50:00Z,59.88,17.6,14.0,12.0,170,12,,6.21,29.763779,,,TRUE,,,,,,,-RA,FEW,4400,BKN,5600,,,,,VFR,,,,,,,,,,,,METAR,21.0
ESCF 040050Z AUTO 16009KT 9999 -SHRA SCT038/// BKN047/// OVC062/// 14/12 Q1007,ESCF,2021-10-04T00:50:00Z,58.38,15.52,14.0,12.0,160,9,,6.21,29.734253,,,TRUE,,,,,,,-SHRA,SCT,3800,BKN,4700,OVC,6200,,,VFR,,,,,,,,,,,,METAR,86.0
ENZV 040050Z 18013KT 9999 BKN020 BKN026 13/10 Q0997,ENZV,2021-10-04T00:50:00Z,58.88,5.63,13.0,10.0,180,13,,6.21,29.438976,,,,,,,,,,,BKN,2000,BKN,2600,,,,,MVFR,,,,,,,,,,,,METAR,7.0
ENWV 040050Z AUTO 21031KT 9999NDV SCT020/// 13/10 Q1000 W///S4,ENWV,2021-10-04T00:50:00Z,56.28,3.4,13.0,10.0,210,31,,,29.52756,,,TRUE,,,,,,,,SCT,2000,,,,,,,,,,,,,,,,,,,METAR,30.0
ENVA 040050Z VRB05G15KT 9999 SCT035 SCT060 13/06 Q0991 RMK WIND 670FT 17017G31KT,ENVA,2021-10-04T00:50:00Z,63.47,10.92,13.0,6.0,0,5,15,6.21,29.26181,,,,,,,,,,,SCT,3500,SCT,6000,,,,,VFR,,,,,,,,,,,,METAR,12.0
ENUN 040050Z AUTO 10010KT 9999NDV -SHRA OVC049/// 11/04 Q0987 W11/S/,ENUN,2021-10-04T00:50:00Z,,,11.0,4.0,100,10,,,29.143702,,,TRUE,,,,,,,-SHRA,OVC,4900,,,,,,,,,,,,,,,,,,,METAR,
ENUG 040050Z AUTO 15017KT 9999NDV OVC062/// 10/06 Q1002 W///S4,ENUG,2021-10-04T00:50:00Z,71.3,22.25,10.0,6.0,150,17,,,29.586615,,,TRUE,,,,,,,,OVC,6200,,,,,,,,,,,,,,,,,,,METAR,30.0
ENTO 040050Z AUTO 19015KT 9999 FEW011/// 12/12 Q1002,ENTO,2021-10-04T00:50:00Z,59.2,10.27,12.0,12.0,190,15,,6.21,29.586615,,,TRUE,,,,,,,,FEW,1100,,,,,,,VFR,,,,,,,,,,,,METAR,84.0
ENTC 040050Z 21016KT 9999 BKN061 12/06 Q0999 RMK WIND 2600FT 17060G73KT,ENTC,2021-10-04T00:50:00Z,69.68,18.92,12.0,6.0,210,16,,6.21,29.498032,,,,,,,,,,,BKN,6100,,,,,,,VFR,,,,,,,,,,,,METAR,9.0
ENSL 040050Z AUTO 23033KT 9999NDV NCD 13/10 Q0993 W11/S5,ENSL,2021-10-04T00:50:00Z,58.37,1.9,13.0,10.0,230,33,,,29.320866,,,TRUE,,,,,,,,CLR,,,,,,,,,,,,,,,,,,,,METAR,50.0
ENSF 040050Z AUTO 21052KT 9999NDV FEW020/// BKN063/// BKN100/// 12/08 Q0980 W///S6,ENSF,2021-10-04T00:50:00Z,61.25,1.85,12.0,8.0,210,52,,,28.937008,,,TRUE,,,,,,,,FEW,2000,BKN,6300,BKN,10000,,,,,,,,,,,,,,,METAR,15.0
ENSE 040050Z AUTO 21045KT 9999NDV SCT017/// OVC067/// 11/09 Q0981 W///S6,ENSE,2021-10-04T00:50:00Z,61.45,2.15,11.0,9.0,210,45,,,28.966536,,,TRUE,,,,,,,,SCT,1700,OVC,6700,,,,,,,,,,,,,,,,,METAR,10.0
ENSB 040050Z 25004KT 9999 FEW010 BKN025 03/02 Q1006 RMK WIND 1400FT 13010KT,ENSB,2021-10-04T00:50:00Z,78.25,15.47,3.0,2.0,250,4,,6.21,29.704725,,,,,,,,,,,FEW,1000,BKN,2500,,,,,MVFR,,,,,,,,,,,,METAR,30.0
ENRY 040050Z AUTO 18012KT 9999NDV BKN015/// OVC023/// 12/11 Q1002,ENRY,2021-10-04T00:50:00Z,59.37,10.77,12.0,11.0,180,12,,,29.586615,,,TRUE,,,,,,,,BKN,1500,OVC,2300,,,,,,,,,,,,,,,,,METAR,45.0
ENRO 040050Z AUTO 15008KT 9999NDV SCT070/// BKN140/// 07/05 Q0996,ENRO,2021-10-04T00:50:00Z,62.57,11.33,7.0,5.0,150,8,,,29.409449,,,TRUE,,,,,,,,SCT,7000,BKN,14000,,,,,,,,,,,,,,,,,METAR,624.0
ENQR 040050Z AUTO 20046G57KT 9999NDV -SHRA SCT015/// BKN050/// 12/08 Q0981 W///S6,ENQR,2021-10-04T00:50:00Z,61.52,2.22,12.0,8.0,200,46,57,,28.966536,,,TRUE,,,,,,,-SHRA,SCT,1500,BKN,5000,,,,,,,,,,,,,,,,,METAR,10.0
ENQC 040050Z AUTO 20041KT 9999NDV SCT019/// BKN100/// BKN130/// 12/08 Q0986 W///S6,ENQC,2021-10-04T00:50:00Z,60.88,3.62,12.0,8.0,200,41,,,29.114174,,,TRUE,,,,,,,,SCT,1900,BKN,10000,BKN,13000,,,,,,,,,,,,,,,METAR,20.0
ENQA 040050Z AUTO 21047KT 1300NDV BKN019/// 11/08 Q0988 W13/S6,ENQA,2021-10-04T00:50:00Z,60.65,3.72,11.0,8.0,210,47,,,29.17323,,,TRUE,,,,,,,,BKN,1900,,,,,,,,,,,,,,,,,,,METAR,90.0
ENOL 040050Z 14017KT CAVOK 13/07 Q0989,ENOL,2021-10-04T00:50:00Z,63.7,9.6,13.0,7.0,140,17,,6.21,29.202755,,,,,,,,,,,CAVOK,,,,,,,,VFR,,,,,,,,,,,,METAR,9.0
ENOA 040050Z 21041KT 9999 SHRA SCT018 11/08 Q0986 W///S6,ENOA,2021-10-04T00:50:00Z,60.5,2.83,11.0,8.0,210,41,,6.21,29.114174,,,,,,,,,,SHRA,SCT,1800,,,,,,,VFR,,,,,,,,,,,,METAR,5.0
ENNE 040050Z AUTO 06015KT 9999NDV -RA OVC053/// 09/07 Q0987 RERA W///S4,ENNE,2021-10-04T00:50:00Z,66.03,8.08,9.0,7.0,60,15,,,29.143702,,,TRUE,,,,,,,-RA,OVC,5300,,,,,,,,,,,,,,,,,,,METAR,10.0
ENNA 040050Z AUTO 17024KT 9999 +DZ SCT130/// 10/06 Q1007 RERA RESHRA RMK WIND 1800FT 19048KT,ENNA,2021-10-04T00:50:00Z,70.07,24.97,10.0,6.0,170,24,,6.21,29.734253,,,TRUE,,,,,,,+DZ SHRA,SCT,13000,,,,,,,VFR,,,,,,,,,,,,METAR,12.0
ENML 040050Z AUTO 04006KT 9999NDV BKN086/// 13/05 Q0988,ENML,2021-10-04T00:50:00Z,62.75,7.27,13.0,5.0,40,6,,,29.17323,,,TRUE,,,,,,,,BKN,8600,,,,,,,,,,,,,,,,,,,METAR,3.0
ENMH 040050Z 18022KT 9999 -RA FEW020 SCT040 BKN070 10/06 Q1009,ENMH,2021-10-04T00:50:00Z,71.02,27.82,10.0,6.0,180,22,,6.21,29.793306,,,,,,,,,,-RA,FEW,2000,SCT,4000,BKN,7000,,,VFR,,,,,,,,,,,,METAR,10.0
ENLE 040050Z 20029KT 9999 FEW020 13/10 Q0999 W14/S5,ENLE,2021-10-04T00:50:00Z,56.53,3.22,13.0,10.0,200,29,,6.21,29.498032,,,,,,,,,,,FEW,2000,,,,,,,VFR,,,,,,,,,,,,METAR,10.0
ENLA 040050Z AUTO 20033KT 9999NDV FEW022/// 13/09 Q0997 W///S5,ENLA,2021-10-04T00:50:00Z,57.1,2.83,13.0,9.0,200,33,,,29.438976,,,TRUE,,,,,,,,FEW,2200,,,,,,,,,,,,,,,,,,,METAR,10.0
ENKR 040050Z 17014KT CAVOK 09/04 Q1015 RMK WIND 731FT 19027KT,ENKR,2021-10-04T00:50:00Z,69.72,29.88,9.0,4.0,170,14,,6.21,29.970472,,,,,,,,,,,CAVOK,,,,,,,,VFR,,,,,,,,,,,,METAR,86.0
ENKB 040050Z AUTO 11005KT 080V140 9999 NCD 13/01 Q0988 RMK WIND 745FT 14016KT,ENKB,2021-10-04T00:50:00Z,63.12,7.82,13.0,1.0,110,5,,6.21,29.17323,,,TRUE,,,,,,,,CLR,,,,,,,,VFR,,,,,,,,,,,,METAR,62.0
ENHM 040050Z AUTO 22037KT 9999NDV FEW023/// SCT030/// BKN110/// 12/09 Q0989 W13/S/,ENHM,2021-10-04T00:50:00Z,59.57,2.23,12.0,9.0,220,37,,,29.202755,,,TRUE,,,,,,,,FEW,2300,SCT,3000,BKN,11000,,,,,,,,,,,,,,,METAR,10.0
ENHF 040050Z 21019G31KT CAVOK 10/06 Q1004 RMK WIND 1254FT 19039KT,ENHF,2021-10-04T00:50:00Z,70.67,23.67,10.0,6.0,210,19,31,6.21,29.64567,,,,,,,,,,,CAVOK,,,,,,,,VFR,,,,,,,,,,,,METAR,79.0
ENHE 040050Z 09027KT 9999 -RA OVC050 10/08 Q0986 W///S4,ENHE,2021-10-04T00:50:00Z,65.33,2.33,10.0,8.0,90,27,,6.21,29.114174,,,,,,,,,,-RA,OVC,5000,,,,,,,VFR,,,,,,,,,,,,METAR,10.0
ENHD 040050Z AUTO 19021G31KT 9999 FEW022/// 13/10 Q0996,ENHD,2021-10-04T00:50:00Z,59.35,5.22,13.0,10.0,190,21,31,6.21,29.409449,,,TRUE,,,,,,,,FEW,2200,,,,,,,VFR,,,,,,,,,,,,METAR,22.0
ENGM 040050Z 16011KT 9999 -RA BKN008 09/08 Q1001,ENGM,2021-10-04T00:50:00Z,60.2,11.07,9.0,8.0,160,11,,6.21,29.557087,,,,,,,,,,-RA,BKN,800,,,,,,,IFR,,,,,,,,,,,,METAR,204.0
ENGC 040050Z 21047KT 9999 -SHRA BKN020 11/08 Q0983 W11/S6,ENGC,2021-10-04T00:50:00Z,61.02,2.02,11.0,8.0,210,47,,6.21,29.02559,,,,,,,,,,-SHRA,BKN,2000,,,,,,,MVFR,,,,,,,,,,,,METAR,10.0
ENFL 040050Z AUTO 17030G40KT 9999NDV BKN028/// OVC060/// 12/08 Q0988,ENFL,2021-10-04T00:50:00Z,61.57,5.02,12.0,8.0,170,30,40,,29.17323,,,TRUE,,,,,,,,BKN,2800,OVC,6000,,,,,,,,,,,,,,,,,METAR,1.0
ENFB 040050Z AUTO 21051KT 2200NDV -SHRA BR BKN021/// 11/08 Q0981 W///S6,ENFB,2021-10-04T00:50:00Z,61.2,1.83,11.0,8.0,210,51,,,28.966536,,,TRUE,,,,,,,-SHRA BR,BKN,2100,,,,,,,,,,,,,,,,,,,METAR,10.0
ENEV 040050Z AUTO 14011KT 9999 -RA OVC055/// 13/08 Q0997 REDZ RMK WIND 1400FT 15024KT,ENEV,2021-10-04T00:50:00Z,68.48,16.67,13.0,8.0,140,11,,6.21,29.438976,,,TRUE,,,,,,,-RA,OVC,5500,,,,,,,VFR,,,,,,,,,,,,METAR,26.0
ENDU 040050Z AUTO 12009KT 090V160 9999 -RA BKN049/// OVC094/// 13/07 Q0999 RMK WIND 1100FT 16012G22KT WIND 2200FT 15030KT,ENDU,2021-10-04T00:50:00Z,69.05,18.55,13.0,7.0,120,9,,6.21,29.498032,,,TRUE,,,,,,,-RA,BKN,4900,OVC,9400,,,,,VFR,,,,,,,,,,,,METAR,65.0
ENCN 040050Z AUTO 21016KT 9999 BKN020/// BKN026/// 14/11 Q1001,ENCN,2021-10-04T00:50:00Z,58.2,8.07,14.0,11.0,210,16,,6.21,29.557087,,,TRUE,,,,,,,,BKN,2000,BKN,2600,,,,,MVFR,,,,,,,,,,,,METAR,17.0
ENBR 040050Z 18021KT 9999 VCSH FEW027CB BKN059 12/08 Q0993 RMK WIND 1200FT 19029G43KT,ENBR,2021-10-04T00:50:00Z,60.28,5.22,12.0,8.0,180,21,,6.21,29.320866,,,,,,,,,,VCSH,FEW,2700,BKN,5900,,,,,VFR,,,,,,,,,,,,METAR,49.0
ENBO 040050Z 11023KT 9999 FEW050 BKN090 15/08 Q0993,ENBO,2021-10-04T00:50:00Z,67.27,14.37,15.0,8.0,110,23,,6.21,29.320866,,,,,,,,,,,FEW,5000,BKN,9000,,,,,VFR,,,,,,,,,,,,METAR,13.0
ENBN 040050Z AUTO 15018G32KT 100V190 9999NDV -SHRA SCT035/// OVC052/// 17/11 Q0989,ENBN,2021-10-04T00:50:00Z,65.47,12.22,17.0,11.0,150,18,32,,29.202755,,,TRUE,,,,,,,-SHRA,SCT,3500,OVC,5200,,,,,,,,,,,,,,,,,METAR,3.0
ENAT 040050Z AUTO 17011G22KT 120V240 9999 SCT028/// OVC039/// 11/05 Q1006 RMK WIND 700FT 18037G56KT,ENAT,2021-10-04T00:50:00Z,69.97,23.37,11.0,5.0,170,11,22,6.21,29.704725,,,TRUE,,,,,,,,SCT,2800,OVC,3900,,,,,VFR,,,,,,,,,,,,METAR,3.0
ENAN 040050Z AUTO 16014KT 9999 -RA SCT043/// BKN059/// OVC072/// 12/08 Q0996,ENAN,2021-10-04T00:50:00Z,69.3,16.13,12.0,8.0,160,14,,6.21,29.409449,,,TRUE,,,,,,,-RA,SCT,4300,BKN,5900,OVC,7200,,,VFR,,,,,,,,,,,,METAR,13.0
ENAL 040050Z AUTO 17017G32KT 140V200 9999 BKN066/// 15/02 Q0986,ENAL,2021-10-04T00:50:00Z,62.57,6.12,15.0,2.0,170,17,32,6.21,29.114174,,,TRUE,,,,,,,,BKN,6600,,,,,,,VFR,,,,,,,,,,,,METAR,21.0
ELLX 040050Z AUTO 19003KT 160V220 9999 BKN010/// 10/09 Q1015 NOSIG,ELLX,2021-10-04T00:50:00Z,49.63,6.2,10.0,9.0,190,3,,6.21,29.970472,,,TRUE,,,TRUE,,,,,BKN,1000,,,,,,,MVFR,,,,,,,,,,,,METAR,374.0
EKYT 040050Z AUTO /////KT 9999 FEW230/// 11/10 Q1006,EKYT,2021-10-04T00:50:00Z,57.1,9.87,11.0,10.0,,,,6.21,29.704725,,,TRUE,,,,,,,,FEW,23000,,,,,,,VFR,,,,,,,,,,,,METAR,2.0
EKVG 040050Z AUTO 31020KT 9999 FEW011/// BKN018/// 09/08 Q0977,EKVG,2021-10-04T00:50:00Z,62.07,-7.27,9.0,8.0,310,20,,6.21,28.848425,,,TRUE,,,,,,,,FEW,1100,BKN,1800,,,,,MVFR,,,,,,,,,,,,METAR,89.0
EKVD 040050Z AUTO 20010KT //// ///////// 12/11 Q1008,EKVD,2021-10-04T00:50:00Z,55.43,9.32,12.0,11.0,200,10,,,29.763779,,,TRUE,,,,,,,,,,,,,,,,,,,,,,,,,,,,METAR,41.0
EKSP 040050Z 20010KT 9999 BKN015 BKN210 12/11 Q1008,EKSP,2021-10-04T00:50:00Z,55.22,9.27,12.0,11.0,200,10,,6.21,29.763779,,,,,,,,,,,BKN,1500,BKN,21000,,,,,MVFR,,,,,,,,,,,,METAR,40.0
EKSB 040050Z AUTO 21008KT 180V240 9999 FEW018/// BKN220/// 12/11 Q1009,EKSB,2021-10-04T00:50:00Z,54.97,9.8,12.0,11.0,210,8,,6.21,29.793306,,,TRUE,,,,,,,,FEW,1800,BKN,22000,,,,,VFR,,,,,,,,,,,,METAR,23.0
EKRS 040050Z AUTO 20005KT 9999 NCD 12/12 Q1010,EKRS,2021-10-04T00:50:00Z,55.42,11.8,12.0,12.0,200,5,,6.21,29.822834,,,TRUE,,,,,,,,CLR,,,,,,,,VFR,,,,,,,,,,,,METAR,34.0
EKRN 040050Z AUTO 18011KT 9999 FEW053/// BKN140/// 15/13 Q1010,EKRN,2021-10-04T00:50:00Z,55.07,14.75,15.0,13.0,180,11,,6.21,29.822834,,,TRUE,,,,,,,,FEW,5300,BKN,14000,,,,,VFR,,,,,,,,,,,,METAR,14.0
EKRK 040050Z AUTO 22004KT 9999 SCT093/// BKN110/// BKN170/// 12/11 Q1010,EKRK,2021-10-04T00:50:00Z,55.58,12.13,12.0,11.0,220,4,,6.21,29.822834,,,TRUE,,,,,,,,SCT,9300,BKN,11000,BKN,17000,,,VFR,,,,,,,,,,,,METAR,40.0
EKKA 040050Z AUTO 17007KT 9999 NCD 10/10 Q1006,EKKA,2021-10-04T00:50:00Z,56.3,9.12,10.0,10.0,170,7,,6.21,29.704725,,,TRUE,,,,,,,,CLR,,,,,,,,VFR,,,,,,,,,,,,METAR,50.0
EKEB 040050Z AUTO 20015KT 9999 FEW015/// FEW018/// SCT030/// BKN051/// 14/12 Q1007,EKEB,2021-10-04T00:50:00Z,55.52,8.55,14.0,12.0,200,15,,6.21,29.734253,,,TRUE,,,,,,,,FEW,1500,FEW,1800,SCT,3000,BKN,5100,VFR,,,,,,,,,,,,METAR,29.0
EKCH 040050Z AUTO 25005KT 220V280 9999 OVC077/// 13/11 Q1010 NOSIG,EKCH,2021-10-04T00:50:00Z,55.62,12.67,13.0,11.0,250,5,,6.21,29.822834,,,TRUE,,,TRUE,,,,,OVC,7700,,,,,,,VFR,,,,,,,,,,,,METAR,4.0
EKBI 040050Z AUTO 18006KT 150V210 9999 SCT018/// BKN230/// 11/10 Q1007,EKBI,2021-10-04T00:50:00Z,55.73,9.15,11.0,10.0,180,6,,6.21,29.734253,,,TRUE,,,,,,,,SCT,1800,BKN,23000,,,,,VFR,,,,,,,,,,,,METAR,67.0
EKAH 040050Z AUTO 19004KT 150V240 9999 FEW033/// FEW230/// 12/12 Q1008,EKAH,2021-10-04T00:50:00Z,56.28,10.62,12.0,12.0,190,4,,6.21,29.763779,,,TRUE,,,,,,,,FEW,3300,FEW,23000,,,,,VFR,,,,,,,,,,,,METAR,25.0
EGYP 040050Z 30013KT CAVOK 07/01 Q0998,EGYP,2021-10-04T00:50:00Z,-51.82,-58.45,7.0,1.0,300,13,,6.21,29.468504,,,,,,,,,,,CAVOK,,,,,,,,VFR,,,,,,,,,,,,METAR,70.0
EGYM 040050Z AUTO 19011KT 9999 NCD 10/09 Q1006,EGYM,2021-10-04T00:50:00Z,52.63,0.57,10.0,9.0,190,11,,6.21,29.704725,,,TRUE,,,,,,,,CLR,,,,,,,,VFR,,,,,,,,,,,,METAR,25.0
EGYD 040050Z AUTO 20011KT 9999 // NCD 10/08 Q1004,EGYD,2021-10-04T00:50:00Z,53.03,-0.5,10.0,8.0,200,11,,6.21,29.64567,,,TRUE,,,,,,,,CLR,,,,,,,,VFR,,,,,,,,,,,,METAR,65.0
EGXZ 040050Z AUTO 16009KT 9999 FEW042/// 08/07 Q1002,EGXZ,2021-10-04T00:50:00Z,54.2,-1.38,8.0,7.0,160,9,,6.21,29.586615,,,TRUE,,,,,,,,FEW,4200,,,,,,,VFR,,,,,,,,,,,,METAR,24.0
EGXW 040050Z AUTO 20012KT 9999 NCD 10/08 Q1004,EGXW,2021-10-04T00:50:00Z,53.18,-0.52,10.0,8.0,200,12,,6.21,29.64567,,,TRUE,,,,,,,,CLR,,,,,,,,VFR,,,,,,,,,,,,METAR,70.0
EGXV 040050Z AUTO 20009KT 9999 NCD 10/08 Q1002,EGXV,2021-10-04T00:50:00Z,53.87,-0.45,10.0,8.0,200,9,,6.21,29.586615,,,TRUE,,,,,,,,CLR,,,,,,,,VFR,,,,,,,,,,,,METAR,6.0
EGXT 040050Z AUTO 20008KT 9999 NCD 09/08 Q1005,EGXT,2021-10-04T00:50:00Z,52.62,-0.47,9.0,8.0,200,8,,6.21,29.675198,,,TRUE,,,,,,,,CLR,,,,,,,,VFR,,,,,,,,,,,,METAR,74.0
EGXS 040050Z AUTO 18009KT 9999 // NCD 09/08 Q1004,EGXS,2021-10-04T00:50:00Z,53.48,0.15,9.0,8.0,180,9,,6.21,29.64567,,,TRUE,,,,,,,,CLR,,,,,,,,VFR,,,,,,,,,,,,METAR,6.0
EGXP 040050Z AUTO 20009KT 9999 // NCD 10/08 Q1003,EGXP,2021-10-04T00:50:00Z,53.3,-0.55,10.0,8.0,200,9,,6.21,29.616142,,,TRUE,,,,,,,,CLR,,,,,,,,VFR,,,,,,,,,,,,METAR,58.0
EGXE 040050Z AUTO 16009KT 9999 -RADZ FEW044/// BKN050/// 10/08 Q1001,EGXE,2021-10-04T00:50:00Z,54.28,-1.52,10.0,8.0,160,9,,6.21,29.557087,,,TRUE,,,,,,,-RA -DZ,FEW,4400,BKN,5000,,,,,VFR,,,,,,,,,,,,METAR,30.0
EGXC 040050Z 19009KT CAVOK 09/09 Q1005 RMK BLU,EGXC,2021-10-04T00:50:00Z,53.1,-0.17,9.0,9.0,190,9,,6.21,29.675198,,,,,,,,,,,CAVOK,,,,,,,,VFR,,,,,,,,,,,,METAR,9.0
EGWU 040050Z AUTO 21003KT 9999 FEW046/// BKN170/// 10/09 Q1007,EGWU,2021-10-04T00:50:00Z,51.55,-0.42,10.0,9.0,210,3,,6.21,29.734253,,,TRUE,,,,,,,,FEW,4600,BKN,17000,,,,,VFR,,,,,,,,,,,,METAR,33.0
EGVP 040050Z AUTO 25001KT 9999 BKN060/// 10/09 Q1007,EGVP,2021-10-04T00:50:00Z,51.13,-1.57,10.0,9.0,250,1,,6.21,29.734253,,,TRUE,,,,,,,,BKN,6000,,,,,,,VFR,,,,,,,,,,,,METAR,80.0
EGVO 040050Z AUTO 20009KT 9999 FEW190/// 12/09 Q1007,EGVO,2021-10-04T00:50:00Z,51.23,-0.95,12.0,9.0,200,9,,6.21,29.734253,,,TRUE,,,,,,,,FEW,19000,,,,,,,VFR,,,,,,,,,,,,METAR,118.0
EGVN 040050Z 19005KT 9999 FEW030 10/08 Q1006 TEMPO 6000 SHRA SCT022 RMK BLU TEMPO WHT,EGVN,2021-10-04T00:50:00Z,51.77,-1.58,10.0,8.0,190,5,,6.21,29.704725,,,,,,,,,,,FEW,3000,,,,,,,VFR,,,,,,,,,,,,METAR,83.0
EGUW 040050Z AUTO 21008KT 9999 NCD 10/09 Q1007,EGUW,2021-10-04T00:50:00Z,52.12,0.97,10.0,9.0,210,8,,6.21,29.734253,,,TRUE,,,,,,,,CLR,,,,,,,,VFR,,,,,,,,,,,,METAR,86.0
EGUB 040050Z AUTO 18009KT 9999 // NCD 10/09 Q1006,EGUB,2021-10-04T00:50:00Z,51.62,-1.08,10.0,9.0,180,9,,6.21,29.704725,,,TRUE,,,,,,,,CLR,,,,,,,,VFR,,,,,,,,,,,,METAR,56.0
EGSS 040050Z AUTO 20008KT 9999 NCD 10/09 Q1007,EGSS,2021-10-04T00:50:00Z,51.88,0.22,10.0,9.0,200,8,,6.21,29.734253,,,TRUE,,,,,,,,CLR,,,,,,,,VFR,,,,,,,,,,,,METAR,101.0
EGSH 040050Z AUTO 20007KT 170V240 9999 NCD 11/09 Q1007,EGSH,2021-10-04T00:50:00Z,52.68,1.28,11.0,9.0,200,7,,6.21,29.734253,,,TRUE,,,,,,,,CLR,,,,,,,,VFR,,,,,,,,,,,,METAR,21.0
EGQS 040050Z 22009KT 9999 FEW048 09/06 Q0992 RMK BLU,EGQS,2021-10-04T00:50:00Z,57.72,-3.32,9.0,6.0,220,9,,6.21,29.291338,,,,,,,,,,,FEW,4800,,,,,,,VFR,,,,,,,,,,,,METAR,6.0
EGQM 040050Z AUTO 18006KT 9999 BKN210/// 09/07 Q0999,EGQM,2021-10-04T00:50:00Z,55.42,-1.6,9.0,7.0,180,6,,6.21,29.498032,,,TRUE,,,,,,,,BKN,21000,,,,,,,VFR,,,,,,,,,,,,METAR,24.0
EGQL 040050Z 26008KT CAVOK 09/07 Q0996 RMK BLU,EGQL,2021-10-04T00:50:00Z,56.38,-2.87,9.0,7.0,260,8,,6.21,29.409449,,,,,,,,,,,CAVOK,,,,,,,,VFR,,,,,,,,,,,,METAR,11.0
EGQK 040050Z AUTO /////KT 9999 FEW050/// 10/06 Q0992,EGQK,2021-10-04T00:50:00Z,57.65,-3.57,10.0,6.0,,,,6.21,29.291338,,,TRUE,,,,,,,,FEW,5000,,,,,,,VFR,,,,,,,,,,,,METAR,5.0
EGPU 040050Z AUTO 25009KT 9999 NCD 09/08 Q0995,EGPU,2021-10-04T00:50:00Z,56.5,-6.88,9.0,8.0,250,9,,6.21,29.379921,,,TRUE,,,,,,,,CLR,,,,,,,,VFR,,,,,,,,,,,,METAR,12.0
EGPO 040050Z AUTO 24006KT 9999 SCT035/// 08/06 Q0991,EGPO,2021-10-04T00:50:00Z,58.22,-6.32,8.0,6.0,240,6,,6.21,29.26181,,,TRUE,,,,,,,,SCT,3500,,,,,,,VFR,,,,,,,,,,,,METAR,10.0
EGPL 040050Z AUTO 25012KT 9999 FEW021/// 11/07 Q0993,EGPL,2021-10-04T00:50:00Z,57.47,-7.37,11.0,7.0,250,12,,6.21,29.320866,,,TRUE,,,,,,,,FEW,2100,,,,,,,VFR,,,,,,,,,,,,METAR,3.0
EGPK 040050Z 22011KT 9999 BKN018 12/09 Q0997,EGPK,2021-10-04T00:50:00Z,55.5,-4.58,12.0,9.0,220,11,,6.21,29.438976,,,,,,,,,,,BKN,1800,,,,,,,MVFR,,,,,,,,,,,,METAR,14.0
EGPI 040050Z AUTO 20011KT 160V230 9999 SCT013/// 11/10 Q0996 RERA,EGPI,2021-10-04T00:50:00Z,55.68,-6.25,11.0,10.0,200,11,,6.21,29.409449,,,TRUE,,,,,,,,SCT,1300,,,,,,,VFR,,,,,,,,,,,,METAR,17.0
EGPH 040050Z 25009KT 9999 FEW017 09/08 Q0997,EGPH,2021-10-04T00:50:00Z,55.95,-3.35,9.0,8.0,250,9,,6.21,29.438976,,,,,,,,,,,FEW,1700,,,,,,,VFR,,,,,,,,,,,,METAR,29.0
EGPF 040050Z AUTO 22009KT 9999 NCD 09/08 Q0997,EGPF,2021-10-04T00:50:00Z,55.87,-4.42,9.0,8.0,220,9,,6.21,29.438976,,,TRUE,,,,,,,,CLR,,,,,,,,VFR,,,,,,,,,,,,METAR,8.0
EGPE 040050Z AUTO 20006KT 9999 BKN041/// 09/07 Q0993,EGPE,2021-10-04T00:50:00Z,57.53,-4.05,9.0,7.0,200,6,,6.21,29.320866,,,TRUE,,,,,,,,BKN,4100,,,,,,,VFR,,,,,,,,,,,,METAR,7.0
EGPD 040050Z AUTO VRB02KT 9999 NCD 08/05 Q0994 NOSIG,EGPD,2021-10-04T00:50:00Z,57.2,-2.22,8.0,5.0,0,2,,6.21,29.350393,,,TRUE,,,TRUE,,,,,CLR,,,,,,,,VFR,,,,,,,,,,,,METAR,65.0
EGPC 040050Z AUTO 21006KT 180V240 9999 NCD 09/07 Q0990,EGPC,2021-10-04T00:50:00Z,58.45,-3.08,9.0,7.0,210,6,,6.21,29.232283,,,TRUE,,,,,,,,CLR,,,,,,,,VFR,,,,,,,,,,,,METAR,38.0
EGPB 040050Z AUTO 24030KT 9999 BKN023/// 12/08 Q0985,EGPB,2021-10-04T00:50:00Z,59.87,-1.3,12.0,8.0,240,30,,6.21,29.084646,,,TRUE,,,,,,,,BKN,2300,,,,,,,MVFR,,,,,,,,,,,,METAR,2.0
EGPA 040050Z AUTO 23018KT 9999 FEW030/// SCT047/// 11/08 Q0988,EGPA,2021-10-04T00:50:00Z,58.95,-2.9,11.0,8.0,230,18,,6.21,29.17323,,,TRUE,,,,,,,,FEW,3000,SCT,4700,,,,,VFR,,,,,,,,,,,,METAR,15.0
EGOV 040050Z AUTO 24015KT 9999 SCT020/// 12/08 Q1001,EGOV,2021-10-04T00:50:00Z,53.25,-4.53,12.0,8.0,240,15,,6.21,29.557087,,,TRUE,,,,,,,,SCT,2000,,,,,,,VFR,,,,,,,,,,,,METAR,11.0
EGOS 040050Z AUTO 18009KT 9999 NCD 10/08 Q1003,EGOS,2021-10-04T00:50:00Z,52.8,-2.67,10.0,8.0,180,9,,6.21,29.616142,,,TRUE,,,,,,,,CLR,,,,,,,,VFR,,,,,,,,,,,,SPECI,76.0
EGOP 040050Z AUTO 25018KT 9999 // FEW027/// SCT047/// 13/09 Q1004,EGOP,2021-10-04T00:50:00Z,51.72,-4.37,13.0,9.0,250,18,,6.21,29.64567,,,TRUE,,,,,,,,FEW,2700,SCT,4700,,,,,VFR,,,,,,,,,,,,METAR,8.0
EGOM 040050Z AUTO 24011KT 5000 +RA BKN002/// BKN010/// 09/09 Q0998,EGOM,2021-10-04T00:50:00Z,55.05,-2.55,9.0,9.0,240,11,,3.11,29.468504,,,TRUE,,,,,,,+RA,BKN,200,BKN,1000,,,,,LIFR,,,,,,,,,,,,METAR,286.0
EGNX 040050Z 20009KT CAVOK 10/08 Q1004,EGNX,2021-10-04T00:50:00Z,52.82,-1.32,10.0,8.0,200,9,,6.21,29.64567,,,,,,,,,,,CAVOK,,,,,,,,VFR,,,,,,,,,,,,METAR,91.0
EGNT 040050Z 19004KT 9999 FEW030 09/07 Q0999,EGNT,2021-10-04T00:50:00Z,55.03,-1.7,9.0,7.0,190,4,,6.21,29.498032,,,,,,,,,,,FEW,3000,,,,,,,VFR,,,,,,,,,,,,METAR,77.0
EGNS 040050Z 25012KT 9999 SCT017 12/08 Q0999,EGNS,2021-10-04T00:50:00Z,54.08,-4.63,12.0,8.0,250,12,,6.21,29.498032,,,,,,,,,,,SCT,1700,,,,,,,VFR,,,,,,,,,,,,METAR,18.0
EGNM 040050Z 22008KT CAVOK 09/08 Q1002,EGNM,2021-10-04T00:50:00Z,53.87,-1.65,9.0,8.0,220,8,,6.21,29.586615,,,,,,,,,,,CAVOK,,,,,,,,VFR,,,,,,,,,,,,METAR,221.0
EGNJ 040050Z AUTO 19011KT 9999 NCD 09/08 Q1004,EGNJ,2021-10-04T00:50:00Z,53.57,-0.35,9.0,8.0,190,11,,6.21,29.64567,,,TRUE,,,,,,,,CLR,,,,,,,,VFR,,,,,,,,,,,,METAR,23.0
EGMD 040050Z AUTO 23016KT 9999 BKN022/// BKN028/// 15/12 Q1009 RERA,EGMD,2021-10-04T00:50:00Z,50.95,0.93,15.0,12.0,230,16,,6.21,29.793306,,,TRUE,,,,,,,,BKN,2200,BKN,2800,,,,,MVFR,,,,,,,,,,,,METAR,4.0
EGMC 040050Z 19008KT CAVOK 11/10 Q1008,EGMC,2021-10-04T00:50:00Z,51.57,0.7,11.0,10.0,190,8,,6.21,29.763779,,,,,,,,,,,CAVOK,,,,,,,,VFR,,,,,,,,,,,,METAR,15.0
EGLL 040050Z AUTO 18007KT 9999 FEW035 11/09 Q1007 NOSIG,EGLL,2021-10-04T00:50:00Z,51.48,-0.45,11.0,9.0,180,7,,6.21,29.734253,,,TRUE,,,TRUE,,,,,FEW,3500,,,,,,,VFR,,,,,,,,,,,,METAR,26.0
EGLF 040050Z AUTO 18008KT 9999 NCD 11/09 Q1007,EGLF,2021-10-04T00:50:00Z,51.28,-0.77,11.0,9.0,180,8,,6.21,29.734253,,,TRUE,,,,,,,,CLR,,,,,,,,VFR,,,,,,,,,,,,METAR,65.0
EGLC 040050Z AUTO 21006KT 170V250 9999 NCD 12/10 Q1008,EGLC,2021-10-04T00:50:00Z,51.5,0.05,12.0,10.0,210,6,,6.21,29.763779,,,TRUE,,,,,,,,CLR,,,,,,,,VFR,,,,,,,,,,,,METAR,10.0
EGKK 040050Z 15004KT 9999 FEW030 11/09 Q1008,EGKK,2021-10-04T00:50:00Z,51.13,-0.18,11.0,9.0,150,4,,6.21,29.763779,,,,,,,,,,,FEW,3000,,,,,,,VFR,,,,,,,,,,,,METAR,58.0
EGJJ 040050Z AUTO 23016G26KT 9999 FEW021/// 14/11 Q1010,EGJJ,2021-10-04T00:50:00Z,49.22,-2.2,14.0,11.0,230,16,26,6.21,29.822834,,,TRUE,,,,,,,,FEW,2100,,,,,,,VFR,,,,,,,,,,,,METAR,84.0
EGJB 040050Z 26017KT 7000 SHRA BKN016CB 11/10 Q1010,EGJB,2021-10-04T00:50:00Z,49.42,-2.6,11.0,10.0,260,17,,4.35,29.822834,,,,,,,,,,SHRA,BKN,1600,,,,,,,MVFR,,,,,,,,,,,,METAR,102.0
EGHQ 040050Z AUTO 19007KT 9999 FEW023/// 10/09 Q1006,EGHQ,2021-10-04T00:50:00Z,50.43,-5.0,10.0,9.0,190,7,,6.21,29.704725,,,TRUE,,,,,,,,FEW,2300,,,,,,,VFR,,,,,,,,,,,,METAR,101.0
EGGW 040050Z AUTO 19005KT 160V220 9999 NCD 09/09 Q1007,EGGW,2021-10-04T00:50:00Z,51.87,-0.37,9.0,9.0,190,5,,6.21,29.734253,,,TRUE,,,,,,,,CLR,,,,,,,,VFR,,,,,,,,,,,,METAR,159.0
EGGP 040050Z AUTO 16009KT 9999 FEW049/// 11/09 Q1002,EGGP,2021-10-04T00:50:00Z,53.33,-2.85,11.0,9.0,160,9,,6.21,29.586615,,,TRUE,,,,,,,,FEW,4900,,,,,,,VFR,,,,,,,,,,,,METAR,23.0
EGGD 040050Z AUTO 20007KT 9999 NCD 10/09 Q1006,EGGD,2021-10-04T00:50:00Z,51.37,-2.72,10.0,9.0,200,7,,6.21,29.704725,,,TRUE,,,,,,,,CLR,,,,,,,,VFR,,,,,,,,,,,,METAR,182.0
EGFF 040050Z AUTO 22008KT 9999 -RA SCT016/// SCT024/// //////CB 11/10 Q1005,EGFF,2021-10-04T00:50:00Z,51.38,-3.35,11.0,10.0,220,8,,6.21,29.675198,,,TRUE,,,,,,,-RA,SCT,1600,SCT,2400,,,,,VFR,,,,,,,,,,,,METAR,65.0
EGDY 040050Z AUTO 13005KT 9999 BKN050/// 10/09 Q1006,EGDY,2021-10-04T00:50:00Z,51.0,-2.63,10.0,9.0,130,5,,6.21,29.704725,,,TRUE,,,,,,,,BKN,5000,,,,,,,VFR,,,,,,,,,,,,METAR,21.0
EGDR 040050Z AUTO 24011KT 9999 // BKN050/// SCT110/// 12/10 Q1007,EGDR,2021-10-04T00:50:00Z,50.08,-5.25,12.0,10.0,240,11,,6.21,29.734253,,,TRUE,,,,,,,,BKN,5000,SCT,11000,,,,,VFR,,,,,,,,,,,,METAR,74.0
EGDM 040050Z AUTO 19007KT 9999 RA BKN050/// 10/09 Q1007,EGDM,2021-10-04T00:50:00Z,51.17,-1.75,10.0,9.0,190,7,,6.21,29.734253,,,TRUE,,,,,,,RA,BKN,5000,,,,,,,VFR,,,,,,,,,,,,METAR,122.0
EGCN 040050Z 19007KT CAVOK 09/08 Q1004,EGCN,2021-10-04T00:50:00Z,53.48,-1.0,9.0,8.0,190,7,,6.21,29.64567,,,,,,,,,,,CAVOK,,,,,,,,VFR,,,,,,,,,,,,METAR,9.0
EGCK 040050Z AUTO 24015KT 9999 FEW023/// 13/08 Q1002,EGCK,2021-10-04T00:50:00Z,53.1,-4.33,13.0,8.0,240,15,,6.21,29.586615,,,TRUE,,,,,,,,FEW,2300,,,,,,,VFR,,,,,,,,,,,,METAR,6.0
EGCC 040050Z AUTO 19006KT 150V220 9999 NCD 10/08 Q1003 TEMPO SHRA,EGCC,2021-10-04T00:50:00Z,53.35,-2.27,10.0,8.0,190,6,,6.21,29.616142,,,TRUE,,,,,,,,CLR,,,,,,,,VFR,,,,,,,,,,,,METAR,78.0
EGBB 040050Z 18005KT CAVOK 10/09 Q1004,EGBB,2021-10-04T00:50:00Z,52.47,-1.75,10.0,9.0,180,5,,6.21,29.64567,,,,,,,,,,,CAVOK,,,,,,,,VFR,,,,,,,,,,,,METAR,91.0
EGAC 040050Z AUTO 23008KT 9999 NCD 09/07 Q0998,EGAC,2021-10-04T00:50:00Z,54.62,-5.87,9.0,7.0,230,8,,6.21,29.468504,,,TRUE,,,,,,,,CLR,,,,,,,,VFR,,,,,,,,,,,,METAR,2.0
EGAA 040050Z AUTO 21006KT 180V250 9999 NCD 08/07 Q0998,EGAA,2021-10-04T00:50:00Z,54.65,-6.22,8.0,7.0,210,6,,6.21,29.468504,,,TRUE,,,,,,,,CLR,,,,,,,,VFR,,,,,,,,,,,,METAR,65.0
EFVA 040050Z AUTO 16017KT 9999 VCSH //////CB 13/09 Q1013,EFVA,2021-10-04T00:50:00Z,63.05,21.77,13.0,9.0,160,17,,6.21,29.911417,,,TRUE,,,,,,,VCSH,,,,,,,,,,,,,,,,,,,,,METAR,4.0
EFUT 040050Z AUTO 15010KT 120V180 9999 BKN009 09/07 Q1025,EFUT,2021-10-04T00:50:00Z,60.88,26.93,9.0,7.0,150,10,,6.21,30.265747,,,TRUE,,,,,,,,BKN,900,,,,,,,IFR,,,,,,,,,,,,METAR,104.0
EFTU 040050Z AUTO 15012KT 120V180 CAVOK 12/08 Q1017,EFTU,2021-10-04T00:50:00Z,60.52,22.27,12.0,8.0,150,12,,6.21,30.029528,,,TRUE,,,,,,,,CAVOK,,,,,,,,VFR,,,,,,,,,,,,METAR,47.0
EFTP 040050Z AUTO 15011KT CAVOK 10/07 Q1019,EFTP,2021-10-04T00:50:00Z,61.42,23.62,10.0,7.0,150,11,,6.21,30.088583,,,TRUE,,,,,,,,CAVOK,,,,,,,,VFR,,,,,,,,,,,,METAR,111.0
EFSI 040050Z AUTO 15018KT CAVOK 12/08 Q1015,EFSI,2021-10-04T00:50:00Z,62.7,22.83,12.0,8.0,150,18,,6.21,29.970472,,,TRUE,,,,,,,,CAVOK,,,,,,,,VFR,,,,,,,,,,,,METAR,90.0
EFSA 040050Z AUTO 15008KT CAVOK 07/06 Q1027,EFSA,2021-10-04T00:50:00Z,61.95,28.93,7.0,6.0,150,8,,6.21,30.324802,,,TRUE,,,,,,,,CAVOK,,,,,,,,VFR,,,,,,,,,,,,METAR,90.0
EFRO 040050Z AUTO 17012KT 140V210 9999 SCT015 09/06 Q1016,EFRO,2021-10-04T00:50:00Z,66.57,25.82,9.0,6.0,170,12,,6.21,30.0,,,TRUE,,,,,,,,SCT,1500,,,,,,,VFR,,,,,,,,,,,,METAR,201.0
EFPO 040050Z AUTO 14015KT CAVOK 13/08 Q1015,EFPO,2021-10-04T00:50:00Z,61.47,21.8,13.0,8.0,140,15,,6.21,29.970472,,,TRUE,,,,,,,,CAVOK,,,,,,,,VFR,,,,,,,,,,,,METAR,10.0
EFOU 040050Z AUTO 15014KT CAVOK 10/07 Q1017,EFOU,2021-10-04T00:50:00Z,64.92,25.37,10.0,7.0,150,14,,6.21,30.029528,,,TRUE,,,,,,,,CAVOK,,,,,,,,VFR,,,,,,,,,,,,METAR,15.0
EFMI 040050Z AUTO 15010KT 120V180 9999 OVC011 09/07 Q1024,EFMI,2021-10-04T00:50:00Z,61.68,27.2,9.0,7.0,150,10,,6.21,30.236221,,,TRUE,,,,,,,,OVC,1100,,,,,,,MVFR,,,,,,,,,,,,METAR,99.0
EFMA 040050Z AUTO 16019KT CAVOK 13/10 Q1012,EFMA,2021-10-04T00:50:00Z,60.12,19.9,13.0,10.0,160,19,,6.21,29.88189,,,TRUE,,,,,,,,CAVOK,,,,,,,,VFR,,,,,,,,,,,,METAR,6.0
EFLP 040050Z AUTO 14005KT 100V200 9999 SCT003 06/06 Q1026,EFLP,2021-10-04T00:50:00Z,61.03,28.15,6.0,6.0,140,5,,6.21,30.295275,,,TRUE,,,,,,,,SCT,300,,,,,,,VFR,,,,,,,,,,,,METAR,102.0
EFKU 040050Z AUTO 15014KT 9999 BKN012 08/07 Q1024,EFKU,2021-10-04T00:50:00Z,63.02,27.8,8.0,7.0,150,14,,6.21,30.236221,,,TRUE,,,,,,,,BKN,1200,,,,,,,MVFR,,,,,,,,,,,,METAR,92.0
EFKT 040050Z AUTO 17016KT 9999 BKN020 09/05 Q1013,EFKT,2021-10-04T00:50:00Z,67.7,24.85,9.0,5.0,170,16,,6.21,29.911417,,,TRUE,,,,,,,,BKN,2000,,,,,,,MVFR,,,,,,,,,,,,METAR,190.0
EFKS 040050Z AUTO 16010KT CAVOK 06/04 Q1022,EFKS,2021-10-04T00:50:00Z,66.0,29.23,6.0,4.0,160,10,,6.21,30.177166,,,TRUE,,,,,,,,CAVOK,,,,,,,,VFR,,,,,,,,,,,,METAR,270.0
EFKK 040050Z AUTO 15016KT CAVOK 12/08 Q1014,EFKK,2021-10-04T00:50:00Z,63.72,23.13,12.0,8.0,150,16,,6.21,29.940945,,,TRUE,,,,,,,,CAVOK,,,,,,,,VFR,,,,,,,,,,,,METAR,25.0
EFKI 040050Z AUTO 15012KT 9999 FEW014 08/06 Q1022,EFKI,2021-10-04T00:50:00Z,64.27,27.67,8.0,6.0,150,12,,6.21,30.177166,,,TRUE,,,,,,,,FEW,1400,,,,,,,VFR,,,,,,,,,,,,METAR,132.0
EFKE 040050Z AUTO 16014G24KT 120V190 CAVOK 11/07 Q1015,EFKE,2021-10-04T00:50:00Z,65.78,24.57,11.0,7.0,160,14,24,6.21,29.970472,,,TRUE,,,,,,,,CAVOK,,,,,,,,VFR,,,,,,,,,,,,METAR,15.0
EFJY 040050Z AUTO 16012KT 9999 OVC012 10/08 Q1021,EFJY,2021-10-04T00:50:00Z,62.4,25.68,10.0,8.0,160,12,,6.21,30.147638,,,TRUE,,,,,,,,OVC,1200,,,,,,,MVFR,,,,,,,,,,,,METAR,139.0
EFJO 040050Z AUTO 16014KT 9999 BKN006 08/07 Q1027,EFJO,2021-10-04T00:50:00Z,62.67,29.62,8.0,7.0,160,14,,6.21,30.324802,,,TRUE,,,,,,,,BKN,600,,,,,,,IFR,,,,,,,,,,,,METAR,118.0
EFIV 040050Z AUTO 17007KT 130V220 9999 FEW022 SCT034 BKN039 09/05 Q1015,EFIV,2021-10-04T00:50:00Z,68.62,27.42,9.0,5.0,170,7,,6.21,29.970472,,,TRUE,,,,,,,,FEW,2200,SCT,3400,BKN,3900,,,VFR,,,,,,,,,,,,METAR,145.0
EFHK 040050Z 13014KT CAVOK 10/07 Q1022 NOSIG,EFHK,2021-10-04T00:50:00Z,60.32,24.97,10.0,7.0,130,14,,6.21,30.177166,,,,,,TRUE,,,,,CAVOK,,,,,,,,VFR,,,,,,,,,,,,METAR,56.0
EFHA 040050Z AUTO 15012KT 9999 FEW010 09/08 Q1020,EFHA,2021-10-04T00:50:00Z,61.85,24.8,9.0,8.0,150,12,,6.21,30.11811,,,TRUE,,,,,,,,FEW,1000,,,,,,,VFR,,,,,,,,,,,,METAR,144.0
EFET 040050Z AUTO 16017G29KT 130V190 9999 -RA OVC016 09/06 Q1009,EFET,2021-10-04T00:50:00Z,68.37,23.43,9.0,6.0,160,17,29,6.21,29.793306,,,TRUE,,,,,,,-RA,OVC,1600,,,,,,,MVFR,,,,,,,,,,,,METAR,300.0
EETU 040050Z AUTO 13009KT 9999 NCD 06/05 Q1025,EETU,2021-10-04T00:50:00Z,58.32,26.68,6.0,5.0,130,9,,6.21,30.265747,,,TRUE,,,,,,,,CLR,,,,,,,,VFR,,,,,,,,,,,,METAR,67.0
EETN 040050Z 14010KT CAVOK 08/06 Q1022,EETN,2021-10-04T00:50:00Z,59.4,24.82,8.0,6.0,140,10,,6.21,30.177166,,,,,,,,,,,CAVOK,,,,,,,,VFR,,,,,,,,,,,,METAR,41.0
EEKE 040050Z AUTO 16018KT 9999NDV NSC 12/08 Q1019,EEKE,2021-10-04T00:50:00Z,58.23,22.52,12.0,8.0,160,18,,,30.088583,,,TRUE,,,,,,,,CLR,,,,,,,,,,,,,,,,,,,,METAR,4.0
EDXW 040050Z AUTO 22016KT 9999 // BKN017/// BKN022/// 14/12 Q1008,EDXW,2021-10-04T00:50:00Z,54.92,8.33,14.0,12.0,220,16,,6.21,29.763779,,,TRUE,,,,,,,,BKN,1700,BKN,2200,,,,,MVFR,,,,,,,,,,,,METAR,8.0
EDWE 040050Z AUTO 20011KT 9999 // BKN210/// 12/10 Q1010,EDWE,2021-10-04T00:50:00Z,53.38,7.23,12.0,10.0,200,11,,6.21,29.822834,,,TRUE,,,,,,,,BKN,21000,,,,,,,VFR,,,,,,,,,,,,METAR,0.0
EDVE 040050Z AUTO 25005KT 9999 // OVC063/// 14/09 Q1013,EDVE,2021-10-04T00:50:00Z,52.32,10.55,14.0,9.0,250,5,,6.21,29.911417,,,TRUE,,,,,,,,OVC,6300,,,,,,,VFR,,,,,,,,,,,,METAR,83.0
EDTY 040050Z AUTO 28005KT 9999 // FEW015/// OVC062/// 13/11 Q1016,EDTY,2021-10-04T00:50:00Z,49.12,9.78,13.0,11.0,280,5,,6.21,30.0,,,TRUE,,,,,,,,FEW,1500,OVC,6200,,,,,VFR,,,,,,,,,,,,METAR,398.0
EDSB 040050Z AUTO 24005KT 9999 // FEW039/// SCT045/// OVC087/// 12/11 Q1017,EDSB,2021-10-04T00:50:00Z,48.78,8.08,12.0,11.0,240,5,,6.21,30.029528,,,TRUE,,,,,,,,FEW,3900,SCT,4500,OVC,8700,,,VFR,,,,,,,,,,,,METAR,122.0
EDNY 040050Z VRB02KT 8000 -DZ FEW017 BKN024 12/11 Q1017,EDNY,2021-10-04T00:50:00Z,47.67,9.52,12.0,11.0,0,2,,4.97,30.029528,,,,,,,,,,-DZ,FEW,1700,BKN,2400,,,,,MVFR,,,,,,,,,,,,METAR,411.0
EDMO 040050Z AUTO VRB02KT 9999 // OVC041/// 14/12 Q1016,EDMO,2021-10-04T00:50:00Z,48.07,11.27,14.0,12.0,0,2,,6.21,30.0,,,TRUE,,,,,,,,OVC,4100,,,,,,,VFR,,,,,,,,,,,,METAR,587.0
EDMA 040050Z AUTO 10003KT 9999 BKN050/// OVC100/// 13/12 Q1016,EDMA,2021-10-04T00:50:00Z,48.42,10.92,13.0,12.0,100,3,,6.21,30.0,,,TRUE,,,,,,,,BKN,5000,OVC,10000,,,,,VFR,,,,,,,,,,,,METAR,462.0
EDLW 040050Z AUTO 18009KT 9999 // FEW170/// 11/08 Q1014,EDLW,2021-10-04T00:50:00Z,51.52,7.62,11.0,8.0,180,9,,6.21,29.940945,,,TRUE,,,,,,,,FEW,17000,,,,,,,VFR,,,,,,,,,,,,METAR,122.0
EDLP 040050Z 21008KT CAVOK 11/08 Q1014,EDLP,2021-10-04T00:50:00Z,51.62,8.62,11.0,8.0,210,8,,6.21,29.940945,,,,,,,,,,,CAVOK,,,,,,,,VFR,,,,,,,,,,,,METAR,211.0
EDLN 040050Z AUTO 17004KT 120V200 9999 // NCD 12/09 Q1013,EDLN,2021-10-04T00:50:00Z,51.23,6.5,12.0,9.0,170,4,,6.21,29.911417,,,TRUE,,,,,,,,CLR,,,,,,,,VFR,,,,,,,,,,,,METAR,38.0
EDJA 040050Z AUTO 27004KT 9999 // OVC040/// 13/08 Q1017,EDJA,2021-10-04T00:50:00Z,47.98,10.23,13.0,8.0,270,4,,6.21,30.029528,,,TRUE,,,,,,,,OVC,4000,,,,,,,VFR,,,,,,,,,,,,METAR,625.0
EDHK 040050Z AUTO 21006KT 180V240 9999 // BKN190/// 11/09 Q1011,EDHK,2021-10-04T00:50:00Z,54.38,10.15,11.0,9.0,210,6,,6.21,29.852362,,,TRUE,,,,,,,,BKN,19000,,,,,,,VFR,,,,,,,,,,,,METAR,24.0
EDHI 040050Z AUTO 21006KT 9999 // OVC180/// 11/10 Q1011,EDHI,2021-10-04T00:50:00Z,53.53,9.83,11.0,10.0,210,6,,6.21,29.852362,,,TRUE,,,,,,,,OVC,18000,,,,,,,VFR,,,,,,,,,,,,METAR,5.0
EDFH 040050Z 22006KT 9999 FEW013 BKN040 09/09 Q1015,EDFH,2021-10-04T00:50:00Z,49.95,7.27,9.0,9.0,220,6,,6.21,29.970472,,,,,,,,,,,FEW,1300,BKN,4000,,,,,VFR,,,,,,,,,,,,METAR,494.0
EDDW 040050Z 19008KT CAVOK 11/09 Q1012,EDDW,2021-10-04T00:50:00Z,53.03,8.8,11.0,9.0,190,8,,6.21,29.88189,,,,,,,,,,,CAVOK,,,,,,,,VFR,,,,,,,,,,,,METAR,5.0
EDDV 040050Z 20006KT 170V230 CAVOK 12/08 Q1013,EDDV,2021-10-04T00:50:00Z,52.47,9.68,12.0,8.0,200,6,,6.21,29.911417,,,,,,,,,,,CAVOK,,,,,,,,VFR,,,,,,,,,,,,METAR,53.0
EDDS 040050Z 36003KT 9999 FEW040 13/11 Q1016,EDDS,2021-10-04T00:50:00Z,48.68,9.22,13.0,11.0,360,3,,6.21,30.0,,,,,,,,,,,FEW,4000,,,,,,,VFR,,,,,,,,,,,,METAR,374.0
EDDR 040050Z 19006KT 9999 BKN006 BKN011 11/10 Q1016,EDDR,2021-10-04T00:50:00Z,49.22,7.1,11.0,10.0,190,6,,6.21,30.0,,,,,,,,,,,BKN,600,BKN,1100,,,,,IFR,,,,,,,,,,,,METAR,317.0
EDDP 040050Z 24013KT 9999 -RA NSC 16/13 Q1014 NOSIG,EDDP,2021-10-04T00:50:00Z,51.43,12.23,16.0,13.0,240,13,,6.21,29.940945,,,,,,TRUE,,,,-RA,CLR,,,,,,,,VFR,,,,,,,,,,,,METAR,129.0
EDDN 040050Z 28007KT 9999 SCT019 15/12 Q1016,EDDN,2021-10-04T00:50:00Z,49.5,11.05,15.0,12.0,280,7,,6.21,30.0,,,,,,,,,,,SCT,1900,,,,,,,VFR,,,,,,,,,,,,METAR,312.0
EDDM 040050Z 26006KT CAVOK 12/11 Q1016 NOSIG,EDDM,2021-10-04T00:50:00Z,48.35,11.82,12.0,11.0,260,6,,6.21,30.0,,,,,,TRUE,,,,,CAVOK,,,,,,,,VFR,,,,,,,,,,,,METAR,445.0
EDDL 040050Z 15008KT CAVOK 11/09 Q1014 NOSIG,EDDL,2021-10-04T00:50:00Z,51.3,6.77,11.0,9.0,150,8,,6.21,29.940945,,,,,,TRUE,,,,,CAVOK,,,,,,,,VFR,,,,,,,,,,,,METAR,37.0
EDDK 040050Z 15006KT CAVOK 11/09 Q1015 NOSIG,EDDK,2021-10-04T00:50:00Z,50.87,7.15,11.0,9.0,150,6,,6.21,29.970472,,,,,,TRUE,,,,,CAVOK,,,,,,,,VFR,,,,,,,,,,,,METAR,92.0
EDDH 040050Z 20009KT CAVOK 12/10 Q1012 NOSIG,EDDH,2021-10-04T00:50:00Z,53.63,10.0,12.0,10.0,200,9,,6.21,29.88189,,,,,,TRUE,,,,,CAVOK,,,,,,,,VFR,,,,,,,,,,,,METAR,8.0
EDDG 040050Z 17005KT 130V210 CAVOK 11/09 Q1013 NOSIG,EDDG,2021-10-04T00:50:00Z,52.13,7.7,11.0,9.0,170,5,,6.21,29.911417,,,,,,TRUE,,,,,CAVOK,,,,,,,,VFR,,,,,,,,,,,,METAR,46.0
EDDF 040050Z 21003KT 9999 -RA FEW020 12/11 Q1016 NOSIG,EDDF,2021-10-04T00:50:00Z,50.05,8.6,12.0,11.0,210,3,,6.21,30.0,,,,,,TRUE,,,,-RA,FEW,2000,,,,,,,VFR,,,,,,,,,,,,METAR,113.0
EDDE 040050Z 28011KT 9999 BKN021 14/10 Q1015,EDDE,2021-10-04T00:50:00Z,50.98,10.97,14.0,10.0,280,11,,6.21,29.970472,,,,,,,,,,,BKN,2100,,,,,,,MVFR,,,,,,,,,,,,METAR,314.0
EDDC 040050Z 20006KT 170V250 CAVOK 14/11 Q1014,EDDC,2021-10-04T00:50:00Z,51.13,13.75,14.0,11.0,200,6,,6.21,29.940945,,,,,,,,,,,CAVOK,,,,,,,,VFR,,,,,,,,,,,,METAR,227.0
EDDB 040050Z 23006KT CAVOK 17/12 Q1012 NOSIG,EDDB,2021-10-04T00:50:00Z,52.38,13.53,17.0,12.0,230,6,,6.21,29.88189,,,,,,TRUE,,,,,CAVOK,,,,,,,,VFR,,,,,,,,,,,,METAR,48.0
EDAC 040050Z AUTO 20003KT 9999 // BKN087/// BKN100/// OVC130/// 15/12 Q1014,EDAC,2021-10-04T00:50:00Z,50.98,12.5,15.0,12.0,200,3,,6.21,29.940945,,,TRUE,,,,,,,,BKN,8700,BKN,10000,OVC,13000,,,VFR,,,,,,,,,,,,METAR,193.0
EBOS 040050Z 20010KT 8000 FEW020TCU BKN042 11/09 Q1011 NOSIG,EBOS,2021-10-04T00:50:00Z,51.2,2.87,11.0,9.0,200,10,,4.97,29.852362,,,,,,TRUE,,,,,FEW,2000,BKN,4200,,,,,MVFR,,,,,,,,,,,,METAR,5.0
EBLG 040050Z 19012KT CAVOK 11/09 Q1014 NOSIG,EBLG,2021-10-04T00:50:00Z,50.63,5.45,11.0,9.0,190,12,,6.21,29.940945,,,,,,TRUE,,,,,CAVOK,,,,,,,,VFR,,,,,,,,,,,,METAR,187.0
EBCI 040050Z 20010KT CAVOK 10/09 Q1013 NOSIG,EBCI,2021-10-04T00:50:00Z,50.47,4.45,10.0,9.0,200,10,,6.21,29.911417,,,,,,TRUE,,,,,CAVOK,,,,,,,,VFR,,,,,,,,,,,,METAR,176.0
EBBR 040050Z 20008KT CAVOK 12/09 Q1013 NOSIG,EBBR,2021-10-04T00:50:00Z,50.9,4.52,12.0,9.0,200,8,,6.21,29.911417,,,,,,TRUE,,,,,CAVOK,,,,,,,,VFR,,,,,,,,,,,,METAR,49.0
EBAW 040050Z AUTO 21008KT CAVOK 12/09 Q1012,EBAW,2021-10-04T00:50:00Z,51.2,4.47,12.0,9.0,210,8,,6.21,29.88189,,,TRUE,,,,,,,,CAVOK,,,,,,,,VFR,,,,,,,,,,,,METAR,7.0
BGSF 040050Z AUTO 05006KT 9999NDV BKN048/// OVC070/// M00/M06 Q1015,BGSF,2021-10-04T00:50:00Z,67.0,-50.72,0.0,-6.0,50,6,,,29.970472,,,TRUE,,,,,,,,BKN,4800,OVC,7000,,,,,,,,,,,,,,,,,METAR,75.0
BGKK 040050Z AUTO 25004KT 9999NDV NCD 01/M08 Q1012,BGKK,2021-10-04T00:50:00Z,65.57,-37.13,1.0,-8.0,250,4,,,29.88189,,,TRUE,,,,,,,,CLR,,,,,,,,,,,,,,,,,,,,METAR,37.0
BGJN 040050Z AUTO 15003KT 9999NDV NCD M02/M08 Q1015,BGJN,2021-10-04T00:50:00Z,69.25,-51.07,-2.0,-8.0,150,3,,,29.970472,,,TRUE,,,,,,,,CLR,,,,,,,,,,,,,,,,,,,,METAR,22.0
BGGH 040050Z AUTO 19007KT 9999NDV NCD 04/01 Q1015,BGGH,2021-10-04T00:50:00Z,64.2,-51.68,4.0,1.0,190,7,,,29.970472,,,TRUE,,,,,,,,CLR,,,,,,,,,,,,,,,,,,,,METAR,76.0
BGBW 040050Z AUTO 16003KT 9999NDV OVC040/// 04/M00 Q1016,BGBW,2021-10-04T00:50:00Z,61.17,-45.42,4.0,0.0,160,3,,,30.0,,,TRUE,,,,,,,,OVC,4000,,,,,,,,,,,,,,,,,,,METAR,49.0
PAEL 040049Z 00000KT 15SM BKN023 OVC080 06/05 A2989 RMK SEA 0 SWELL 3 SW NOSPECI LAST,PAEL,2021-10-04T00:49:00Z,58.2,-136.35,6.0,5.0,0,0,,15.0,29.890747,,,,,,,,,,,BKN,2300,OVC,8000,,,,,MVFR,,,,,,,,,,,,METAR,8.0
MMVR 040049Z 36006KT 7SM FEW015 SCT250 27/24 A2989 RMK 8/101 DSNT CB 3TH 4TH QUAD,MMVR,2021-10-04T00:49:00Z,19.15,-96.18,27.0,24.0,360,6,,7.0,29.890747,,,,,,,,,,,FEW,1500,SCT,25000,,,,,VFR,,,,,,,,,,,,METAR,26.0
MMPR 040049Z 22006KT 15SM FEW025CB SCT080 SCT220 30/26 A2983 RMK 8/963 PCPN-N,MMPR,2021-10-04T00:49:00Z,20.67,-105.25,30.0,26.0,220,6,,15.0,29.828741,,,,,,,,,,,FEW,2500,SCT,8000,SCT,22000,,,VFR,,,,,,,,,,,,METAR,6.0
MMIO 040049Z 33010KT 10SM BKN040 20/12 A3022 RMK 8/400 AC,MMIO,2021-10-04T00:49:00Z,25.55,-100.93,20.0,12.0,330,10,,10.0,30.221457,,,,,,,,,,,BKN,4000,,,,,,,VFR,,,,,,,,,,,,METAR,1430.0
MMCN 040048Z 23005KT 10SM SCT100 BKN200 31/16 A2978 RMK 8/088,MMCN,2021-10-04T00:48:00Z,27.4,-109.83,31.0,16.0,230,5,,10.0,29.778543,,,,,,,,,,,SCT,10000,BKN,20000,,,,,VFR,,,,,,,,,,,,METAR,57.0
KSUA 040048Z 08005KT 10SM FEW013 SCT038 26/18 A3000 RMK CEILOMETER OTS,KSUA,2021-10-04T00:48:00Z,27.18,-80.22,26.0,18.0,80,5,,10.0,30.0,,,,,,,,,,,FEW,1300,SCT,3800,,,,,VFR,,,,,,,,,,,,METAR,4.0
KJDN 040048Z AUTO 00000KT 18/M06 A2995 RMK AO1 SLP149 T01831056,KJDN,2021-10-04T00:48:00Z,47.33,-106.95,18.3,-5.6,0,0,,,29.949802,1014.9,,TRUE,TRUE,,,,,,,,,,,,,,,,,,,,,,,,,,,SPECI,802.0
KASG 040048Z 00000KT 10SM CLR 20/18 A3003,KASG,2021-10-04T00:48:00Z,36.17,-94.12,20.0,18.0,0,0,,10.0,30.029528,,,,,,,,,,,CLR,,,,,,,,VFR,,,,,,,,,,,,METAR,410.0
KTOA 040047Z COR 27011KT 10SM FEW120 26/09 A2987,KTOA,2021-10-04T00:47:00Z,33.8,-118.33,26.0,9.0,270,11,,10.0,29.870079,,TRUE,,,,,,,,,FEW,12000,,,,,,,VFR,,,,,,,,,,,,METAR,30.0
KTIX 040047Z 06005KT 7SM VRB04 27/19 A3001,KTIX,2021-10-04T00:47:00Z,28.5,-80.8,27.0,19.0,60,5,,7.0,30.008858,,,,,,,,,,,,,,,,,,,,,,,,,,,,,,,METAR,10.0
KSUN 040047Z 15006KT 10SM CLR 17/M02 A3019,KSUN,2021-10-04T00:47:00Z,43.5,-114.28,17.0,-2.0,150,6,,10.0,30.188976,,,,,,,,,,,CLR,,,,,,,,VFR,,,,,,,,,,,,METAR,1619.0
KSEE 040047Z 23006KT 10SM SKC 30/M02 A2990,KSEE,2021-10-04T00:47:00Z,32.82,-116.97,30.0,-2.0,230,6,,10.0,29.899607,,,,,,,,,,,SKC,,,,,,,,VFR,,,,,,,,,,,,METAR,113.0
KSCH 040047Z 00000KT 4SM DZ SCT016 SCT031 OVC039 16/16 A2996 RMK LAST,KSCH,2021-10-04T00:47:00Z,42.85,-73.92,16.0,16.0,0,0,,4.0,29.958662,,,,,,,,,,DZ,SCT,1600,SCT,3100,OVC,3900,,,MVFR,,,,,,,,,,,,SPECI,100.0
KSAW 040047Z 36005KT 1/4SM FG OVC002 15/15 A2990,KSAW,2021-10-04T00:47:00Z,46.35,-87.4,15.0,15.0,360,5,,0.25,29.899607,,,,,,,,,,FG,OVC,200,,,,,,,LIFR,,,,,,,,,,,,METAR,359.0
KPOC 040047Z 22009KT 10SM CLR 32/02 A2992,KPOC,2021-10-04T00:47:00Z,34.1,-117.77,32.0,2.0,220,9,,10.0,29.920275,,,,,,,,,,,CLR,,,,,,,,VFR,,,,,,,,,,,,METAR,304.0
KOUN 040047Z 02003KT 10SM CLR 21/09 A3002,KOUN,2021-10-04T00:47:00Z,35.25,-97.47,21.0,9.0,20,3,,10.0,30.02067,,,,,,,,,,,CLR,,,,,,,,VFR,,,,,,,,,,,,METAR,359.0
KLBE 040047Z 00000KT 10SM OVC026 20/20 A2993,KLBE,2021-10-04T00:47:00Z,40.27,-79.4,20.0,20.0,0,0,,10.0,29.929134,,,,,,,,,,,OVC,2600,,,,,,,MVFR,,,,,,,,,,,,METAR,345.0
KGYR 040047Z VRB03KT 10SM SCT100 BKN200 34/07 A2987,KGYR,2021-10-04T00:47:00Z,33.42,-112.37,34.0,7.0,0,3,,10.0,29.870079,,,,,,,,,,,SCT,10000,BKN,20000,,,,,VFR,,,,,,,,,,,,METAR,292.0
KGYH 040047Z 32004KT 10SM -RA BKN065 19/19 A3004 RMK LAST,KGYH,2021-10-04T00:47:00Z,34.75,-82.38,19.0,19.0,320,4,,10.0,30.041338,,,,,,,,,,-RA,BKN,6500,,,,,,,VFR,,,,,,,,,,,,SPECI,283.0
KFDK 040047Z 17003KT 10SM OVC075 24/19 A2991,KFDK,2021-10-04T00:47:00Z,39.42,-77.37,24.0,19.0,170,3,,10.0,29.911417,,,,,,,,,,,OVC,7500,,,,,,,VFR,,,,,,,,,,,,METAR,82.0
KEVB 040047Z 06005KT 10SM FEW045 RMK AWOS OTS.,KEVB,2021-10-04T00:47:00Z,29.05,-80.95,,,60,5,,10.0,,,,,TRUE,,,,,,,FEW,4500,,,,,,,VFR,,,,,,,,,,,,METAR,2.0
KCWA 040047Z 34009KT 10SM OVC019 17/14 A2990,KCWA,2021-10-04T00:47:00Z,44.78,-89.67,17.0,14.0,340,9,,10.0,29.899607,,,,,,,,,,,OVC,1900,,,,,,,MVFR,,,,,,,,,,,,METAR,387.0
KCHD 040047Z 00000KT 10SM SCT150 BKN200 35/06 A2988,KCHD,2021-10-04T00:47:00Z,33.27,-111.82,35.0,6.0,0,0,,10.0,29.878937,,,,,,,,,,,SCT,15000,BKN,20000,,,,,VFR,,,,,,,,,,,,METAR,378.0
KCFO 040047Z 00000KT 10SM FEW100 22/M07 A3020,KCFO,2021-10-04T00:47:00Z,39.78,-104.55,22.0,-7.0,0,0,,10.0,30.200787,,,,,,,,,,,FEW,10000,,,,,,,VFR,,,,,,,,,,,,METAR,1672.0
KBJC 040047Z 09004KT 10SM FEW100 22/M05 A3021,KBJC,2021-10-04T00:47:00Z,39.9,-105.1,22.0,-5.0,90,4,,10.0,30.209646,,,,,,,,,,,FEW,10000,,,,,,,VFR,,,,,,,,,,,,METAR,1694.0
MMTO 040046Z 09008KT 2SM -TSRA BKN015CB OVC070 14/13 A3031 RMK 60325 8/96/ OCNL LTGICCG,MMTO,2021-10-04T00:46:00Z,19.35,-99.57,14.0,13.0,90,8,,2.0,30.31004,,,,,,,,,,-TSRA,BKN,1500,OVC,7000,,,,,IFR,,,,,,,,,,,,METAR,2582.0
MMTC 040046Z 32010KT 10SM SCT025 BKN110 BKN250 26/15 A3007 RMK 8/462,MMTC,2021-10-04T00:46:00Z,25.57,-103.4,26.0,15.0,320,10,,10.0,30.070866,,,,,,,,,,,SCT,2500,BKN,11000,BKN,25000,,,VFR,,,,,,,,,,,,METAR,1128.0
MMOX 040046Z 34003KT 10SM SCT030 SCT120 22/11 A3013 RMK 8/150,MMOX,2021-10-04T00:46:00Z,17.0,-96.72,22.0,11.0,340,3,,10.0,30.129921,,,,,,,,,,,SCT,3000,SCT,12000,,,,,VFR,,,,,,,,,,,,METAR,1528.0
MMMD 040046Z 06007KT 7SM SCT020 28/23 A2989 RMK 8/300 RTS,MMMD,2021-10-04T00:46:00Z,20.95,-89.65,28.0,23.0,60,7,,7.0,29.890747,,,,,,,,,,,SCT,2000,,,,,,,VFR,,,,,,,,,,,,METAR,10.0
PAKU 040045Z 29004KT 3/4SM R24/3000FT BR BKN003 BKN025 M06/M06 A3017,PAKU,2021-10-04T00:45:00Z,70.32,-149.6,-6.0,-6.0,290,4,,0.75,30.171259,,,,,,,,,,BR,BKN,300,BKN,2500,,,,,LIFR,,,,,,,,,,,,METAR,23.0
MMVA 040045Z 03005KT 7SM FEW015 SCT080 BKN220 28/24 A2986 RMK 8/138,MMVA,2021-10-04T00:45:00Z,18.0,-92.82,28.0,24.0,30,5,,7.0,29.861221,,,,,,,,,,,FEW,1500,SCT,8000,BKN,22000,,,VFR,,,,,,,,,,,,METAR,13.0
MMTP 040045Z 00000KT 10SM SCT070 28/// A2978 RMK 8/070,MMTP,2021-10-04T00:45:00Z,14.78,-92.37,,,0,0,,10.0,29.778543,,,,,,,,,,,SCT,7000,,,,,,,VFR,,,,,,,,,,,,METAR,27.0
MMSD 040045Z 30002KT 12SM FEW030TCU 28/22 A2988 RMK 8/200,MMSD,2021-10-04T00:45:00Z,23.15,-109.72,28.0,22.0,300,2,,12.0,29.878937,,,,,,,,,,,FEW,3000,,,,,,,VFR,,,,,,,,,,,,METAR,107.0
MMMX 040045Z 33005KT 5SM TS VCRA BKN015CB OVC070 17/14 A3025 NOSIG RMK 60105 8/96/ HZY OCNL LTGICCG PCPN E NE 3TH QUAD,MMMX,2021-10-04T00:45:00Z,19.43,-99.08,17.0,14.0,330,5,,5.0,30.250984,,,,,,TRUE,,,,TS VCRA,BKN,1500,OVC,7000,,,,,MVFR,,,,,,,,,,,,METAR,2224.0
MMLO 040045Z 00000KT 10SM BKN030CB BKN120 20/14 A3023 RMK 8/36/,MMLO,2021-10-04T00:45:00Z,21.0,-101.47,20.0,14.0,0,0,,10.0,30.230314,,,,,,,,,,,BKN,3000,BKN,12000,,,,,MVFR,,,,,,,,,,,,METAR,1805.0
MMLM 040045Z 30012KT 10SM SCT100 BKN220 31/17 A2983 RMK 8/038,MMLM,2021-10-04T00:45:00Z,25.68,-109.08,31.0,17.0,300,12,,10.0,29.828741,,,,,,,,,,,SCT,10000,BKN,22000,,,,,VFR,,,,,,,,,,,,METAR,6.0
MMCL 040045Z 29004KT 10SM BKN100 BKN250 31/20 A2981 RMK 8/032 CB DSTN NE ISOL CU,MMCL,2021-10-04T00:45:00Z,24.77,-107.47,31.0,20.0,290,4,,10.0,29.811024,,,,,,,,,,,BKN,10000,BKN,25000,,,,,VFR,,,,,,,,,,,,METAR,35.0
LMML 040045Z 08005KT CAVOK 21/18 Q1019 NOSIG,LMML,2021-10-04T00:45:00Z,35.85,14.47,21.0,18.0,80,5,,6.21,30.088583,,,,,,TRUE,,,,,CAVOK,,,,,,,,VFR,,,,,,,,,,,,METAR,78.0
LIRP 040045Z 11007KT 9999 FEW030 19/18 Q1018 NOSIG,LIRP,2021-10-04T00:45:00Z,43.68,10.38,19.0,18.0,110,7,,6.21,30.059055,,,,,,TRUE,,,,,FEW,3000,,,,,,,VFR,,,,,,,,,,,,METAR,1.0
LHSN 040045Z 17008KT CAVOK 13/05 Q1020 NOSIG RMK BLU,LHSN,2021-10-04T00:45:00Z,47.12,20.23,13.0,5.0,170,8,,6.21,30.11811,,,,,,TRUE,,,,,CAVOK,,,,,,,,VFR,,,,,,,,,,,,METAR,89.0
LHSM 040045Z AUTO 16008KT 9000 NCD 13/11 Q1017,LHSM,2021-10-04T00:45:00Z,46.68,17.17,13.0,11.0,160,8,,5.59,30.029528,,,TRUE,,,,,,,,CLR,,,,,,,,VFR,,,,,,,,,,,,METAR,119.0
LHPR 040045Z AUTO 14009KT CAVOK 16/11 Q1016,LHPR,2021-10-04T00:45:00Z,47.63,17.82,16.0,11.0,140,9,,6.21,30.0,,,TRUE,,,,,,,,CAVOK,,,,,,,,VFR,,,,,,,,,,,,METAR,127.0
LHPP 040045Z AUTO 12005KT CAVOK 13/08 Q1020,LHPP,2021-10-04T00:45:00Z,45.98,18.23,13.0,8.0,120,5,,6.21,30.11811,,,TRUE,,,,,,,,CAVOK,,,,,,,,VFR,,,,,,,,,,,,METAR,193.0
LHPA 040045Z 17014KT CAVOK 18/10 Q1016 NOSIG RMK BLU,LHPA,2021-10-04T00:45:00Z,47.35,17.5,18.0,10.0,170,14,,6.21,30.0,,,,,,TRUE,,,,,CAVOK,,,,,,,,VFR,,,,,,,,,,,,METAR,143.0
LHKE 040045Z 16008KT 130V190 CAVOK 12/06 Q1020 NOSIG RMK BLU,LHKE,2021-10-04T00:45:00Z,46.92,19.75,12.0,6.0,160,8,,6.21,30.11811,,,,,,TRUE,,,,,CAVOK,,,,,,,,VFR,,,,,,,,,,,,METAR,113.0
LHDC 040045Z AUTO 08004KT 9000 NCD 09/07 Q1021,LHDC,2021-10-04T00:45:00Z,47.48,21.62,9.0,7.0,80,4,,5.59,30.147638,,,TRUE,,,,,,,,CLR,,,,,,,,VFR,,,,,,,,,,,,METAR,105.0
KWDG 040045Z 05004KT 10SM SCT250 22/12 A3003,KWDG,2021-10-04T00:45:00Z,36.37,-97.78,22.0,12.0,50,4,,10.0,30.029528,,,,,,,,,,,SCT,25000,,,,,,,VFR,,,,,,,,,,,,METAR,352.0
KVCV 040045Z AUTO 08005KT 10SM CLR 30/M02 A2999 RMK DA5300,KVCV,2021-10-04T00:45:00Z,34.58,-117.38,30.0,-2.0,80,5,,10.0,29.991142,,,TRUE,,,,,,,,CLR,,,,,,,,VFR,,,,,,,,,,,,METAR,871.0
KUES 040045Z 12005KT 10SM BKN013 BKN060 OVC100 18/17 A2986,KUES,2021-10-04T00:45:00Z,43.05,-88.25,18.0,17.0,120,5,,10.0,29.861221,,,,,,,,,,,BKN,1300,BKN,6000,OVC,10000,,,MVFR,,,,,,,,,,,,METAR,273.0
KTRK 040045Z AUTO 27007KT 9SM SKC 21/M07 A3019 FU,KTRK,2021-10-04T00:45:00Z,39.32,-120.13,21.0,-7.0,270,7,,9.0,30.188976,,,TRUE,,,,,,,FU,SKC,,,,,,,,VFR,,,,,,,,,,,,METAR,1800.0
KSWF 040045Z 00000KT 10SM SCT030 BKN040 OVC050 18/16 A2993,KSWF,2021-10-04T00:45:00Z,41.5,-74.08,18.0,16.0,0,0,,10.0,29.929134,,,,,,,,,,,SCT,3000,BKN,4000,OVC,5000,,,VFR,,,,,,,,,,,,METAR,139.0
KMWC 040045Z 08005KT 10SM SCT006 SCT019 BKN065 19/16 A2985,KMWC,2021-10-04T00:45:00Z,43.12,-88.03,19.0,16.0,80,5,,10.0,29.84941,,,,,,,,,,,SCT,600,SCT,1900,BKN,6500,,,VFR,,,,,,,,,,,,METAR,225.0
KMMU 040045Z 00000KT 10SM SCT090 SCT120 19/18 A2992,KMMU,2021-10-04T00:45:00Z,40.78,-74.42,19.0,18.0,0,0,,10.0,29.920275,,,,,,,,,,,SCT,9000,SCT,12000,,,,,VFR,,,,,,,,,,,,METAR,55.0
KJVL 040045Z 32007KT 10SM BKN020 BKN028 21/19 A2985,KJVL,2021-10-04T00:45:00Z,42.62,-89.05,21.0,19.0,320,7,,10.0,29.84941,,,,,,,,,,,BKN,2000,BKN,2800,,,,,MVFR,,,,,,,,,,,,METAR,244.0
KGYY 040045Z 00000KT 10SM BKN075 18/18 A2983,KGYY,2021-10-04T00:45:00Z,41.62,-87.42,18.0,18.0,0,0,,10.0,29.828741,,,,,,,,,,,BKN,7500,,,,,,,VFR,,,,,,,,,,,,METAR,179.0
KEMT 040045Z 22005KT 10SM CLR 32/02 A2986,KEMT,2021-10-04T00:45:00Z,34.08,-118.03,32.0,2.0,220,5,,10.0,29.861221,,,,,,,,,,,CLR,,,,,,,,VFR,,,,,,,,,,,,METAR,84.0
KCGF 040045Z 17006KT 10SM SCT025 21/19 A2987,KCGF,2021-10-04T00:45:00Z,41.57,-81.47,21.0,19.0,170,6,,10.0,29.870079,,,,,,,,,,,SCT,2500,,,,,,,VFR,,,,,,,,,,,,METAR,265.0
KBBG 040045Z 00000KT 10SM FEW037 18/17 A3002,KBBG,2021-10-04T00:45:00Z,36.53,-93.2,18.0,17.0,0,0,,10.0,30.02067,,,,,,,,,,,FEW,3700,,,,,,,VFR,,,,,,,,,,,,METAR,403.0
KBAK 040045Z 25006KT 10SM CLR 18/17 A2987,KBAK,2021-10-04T00:45:00Z,39.27,-85.9,18.0,17.0,250,6,,10.0,29.870079,,,,,,,,,,,CLR,,,,,,,,VFR,,,,,,,,,,,,METAR,199.0
KATW 040045Z VRB05KT 5SM BR OVC004 18/17 A2985,KATW,2021-10-04T00:45:00Z,44.27,-88.52,18.0,17.0,0,5,,5.0,29.84941,,,,,,,,,,BR,OVC,400,,,,,,,LIFR,,,,,,,,,,,,METAR,266.0
KANE 040045Z 35004KT 10SM CLR 17/12 A2996,KANE,2021-10-04T00:45:00Z,45.15,-93.22,17.0,12.0,350,4,,10.0,29.958662,,,,,,,,,,,CLR,,,,,,,,VFR,,,,,,,,,,,,METAR,276.0
MMSP 040044Z 07004KT 10SM BKN040 OVC080 18/12 A3022 RMK 8/53/,MMSP,2021-10-04T00:44:00Z,22.25,-100.93,18.0,12.0,70,4,,10.0,30.221457,,,,,,,,,,,BKN,4000,OVC,8000,,,,,VFR,,,,,,,,,,,,METAR,1841.0
MMTJ 040043Z 30010KT 8SM BKN030 29/00 A2993 RMK 8/500 HZY CI E LYRFU BKN030,MMTJ,2021-10-04T00:43:00Z,32.53,-116.97,29.0,0.0,300,10,,8.0,29.929134,,,,,,,,,,,BKN,3000,,,,,,,MVFR,,,,,,,,,,,,METAR,150.0
MMMZ 040043Z 34003KT 12SM BKN240 29/25 A2982 RMK 8/002 DSNT TCU 1 AND 2QUAD,MMMZ,2021-10-04T00:43:00Z,23.17,-106.27,29.0,25.0,340,3,,12.0,29.819881,,,,,,,,,,,BKN,24000,,,,,,,VFR,,,,,,,,,,,,METAR,7.0
MMMA 040043Z 00000KT 8SM SCT070 BKN080 26/25 A2994 RMK 8/070,MMMA,2021-10-04T00:43:00Z,25.77,-97.52,26.0,25.0,0,0,,8.0,29.940945,,,,,,,,,,,SCT,7000,BKN,8000,,,,,VFR,,,,,,,,,,,,METAR,7.0
MMZH 040042Z 28006KT 7SM SKC 30/23 A2981 RMK HZY ISOL AC,MMZH,2021-10-04T00:42:00Z,17.6,-101.47,30.0,23.0,280,6,,7.0,29.811024,,,,,,,,,,,SKC,,,,,,,,VFR,,,,,,,,,,,,METAR,9.0
MMGL 040042Z 21003KT 8SM SCT020 BKN090 OVC300 21/15 A3011 RMK 8/467,MMGL,2021-10-04T00:42:00Z,20.52,-103.32,21.0,15.0,210,3,,8.0,30.109253,,,,,,,,,,,SCT,2000,BKN,9000,OVC,30000,,,VFR,,,,,,,,,,,,METAR,1531.0
MMCZ 040042Z 09003KT 7SM FEW015 27/24 A2988 RMK 8/400,MMCZ,2021-10-04T00:42:00Z,20.52,-86.92,27.0,24.0,90,3,,7.0,29.878937,,,,,,,,,,,FEW,1500,,,,,,,VFR,,,,,,,,,,,,METAR,7.0
MMTM 040041Z 36007KT 8SM SCT010TCU OVC200 28/24 A2990 RMK 8/207 HZY,MMTM,2021-10-04T00:41:00Z,22.28,-97.87,28.0,24.0,360,7,,8.0,29.899607,,,,,,,,,,,SCT,1000,OVC,20000,,,,,VFR,,,,,,,,,,,,METAR,21.0
MMTG 040041Z 31013KT 7SM SCT070 SCT300 26/21 A2986 RMK 8/032 CB DSTN N NW,MMTG,2021-10-04T00:41:00Z,16.57,-93.03,26.0,21.0,310,13,,7.0,29.861221,,,,,,,,,,,SCT,7000,SCT,30000,,,,,VFR,,,,,,,,,,,,METAR,463.0
MMPB 040041Z 36007KT 5SM SHRA OVC015CB 14/12 A3027 RMK 8/9// TS OVHD LTGIC,MMPB,2021-10-04T00:41:00Z,19.17,-98.37,14.0,12.0,360,7,,5.0,30.268702,,,,,,,,,,SHRA,OVC,1500,,,,,,,MVFR,,,,,,,,,,,,METAR,2250.0
MMNL 040041Z 06010KT 10SM SCT020 BKN100 BKN220 32/18 A2994 RMK 8/572 DSNT CB NW W,MMNL,2021-10-04T00:41:00Z,27.43,-99.57,32.0,18.0,60,10,,10.0,29.940945,,,,,,,,,,,SCT,2000,BKN,10000,BKN,22000,,,VFR,,,,,,,,,,,,METAR,146.0
MMMM 040041Z 00000KT 7SM -RA BKN030CB OVC090 16/16 A3018 RMK 60145 8/96/ RWY WET,MMMM,2021-10-04T00:41:00Z,19.85,-101.03,16.0,16.0,0,0,,7.0,30.180119,,,,,,,,,,-RA,BKN,3000,OVC,9000,,,,,MVFR,,,,,,,,1.45,,,,METAR,1840.0
MMLP 040041Z 10003KT 10SM FEW025TCU FEW200 28/22 A2987 RMK 8/204 DSNT CB W ISOL AC,MMLP,2021-10-04T00:41:00Z,24.07,-110.37,28.0,22.0,100,3,,10.0,29.870079,,,,,,,,,,,FEW,2500,FEW,20000,,,,,VFR,,,,,,,,,,,,METAR,16.0
MMHO 040041Z 24004KT 10SM FEW080 35/09 A2983 RMK 8/030 ISOL CI HZY,MMHO,2021-10-04T00:41:00Z,29.08,-111.05,35.0,9.0,240,4,,10.0,29.828741,,,,,,,,,,,FEW,8000,,,,,,,VFR,,,,,,,,,,,,METAR,186.0
MMCE 040041Z 02010KT 7SM SKC 29/23 A2985,MMCE,2021-10-04T00:41:00Z,18.65,-91.8,29.0,23.0,20,10,,7.0,29.84941,,,,,,,,,,,SKC,,,,,,,,VFR,,,,,,,,,,,,METAR,5.0
MMAA 040041Z 27005KT 5SM FEW015 SCT300 29/25 A2975 RMK 8/102 HZY DSNT CB N NE NW,MMAA,2021-10-04T00:41:00Z,16.75,-99.75,29.0,25.0,270,5,,5.0,29.749016,,,,,,,,,,,FEW,1500,SCT,30000,,,,,MVFR,,,,,,,,,,,,METAR,5.0
MMZO 040040Z 00000KT 10SM FEW020 SCT210 29/26 A2978 RMK 8/104,MMZO,2021-10-04T00:40:00Z,19.13,-104.57,29.0,26.0,0,0,,10.0,29.778543,,,,,,,,,,,FEW,2000,SCT,21000,,,,,VFR,,,,,,,,,,,,METAR,11.0
MMSL 040040Z 19006KT 12SM FEW035TCU 28/23 A2991 RMK 8/200 AC,MMSL,2021-10-04T00:40:00Z,22.95,-109.93,28.0,23.0,190,6,,12.0,29.911417,,,,,,,,,,,FEW,3500,,,,,,,VFR,,,,,,,,,,,,METAR,205.0
MMPS 040040Z 25004KT 7SM SCT010 SCT070 BKN210 28/21 A2980 RMK 8/532 HZY,MMPS,2021-10-04T00:40:00Z,15.87,-97.08,28.0,21.0,250,4,,7.0,29.799213,,,,,,,,,,,SCT,1000,SCT,7000,BKN,21000,,,VFR,,,,,,,,,,,,METAR,65.0
MMMY 040040Z 11005KT 8SM SCT050 BKN070 25/21 A2998 RMK 8/570 CB N,MMMY,2021-10-04T00:40:00Z,25.77,-100.1,25.0,21.0,110,5,,8.0,29.97933,,,,,,,,,,,SCT,5000,BKN,7000,,,,,VFR,,,,,,,,,,,,METAR,382.0
MMLT 040040Z 00000KT 10SM BKN100 30/22 A2982 RMK 8/030,MMLT,2021-10-04T00:40:00Z,25.98,-111.33,30.0,22.0,0,0,,10.0,29.819881,,,,,,,,,,,BKN,10000,,,,,,,VFR,,,,,,,,,,,,METAR,4.0
MMIA 040040Z 30008KT 4SM RA BKN020 OVC070 22/20 A2998 RMK 8/56/ RAB38,MMIA,2021-10-04T00:40:00Z,19.27,-103.57,22.0,20.0,300,8,,4.0,29.97933,,,,,,,,,,RA,BKN,2000,OVC,7000,,,,,MVFR,,,,,,,,,,,,METAR,744.0
MMGM 040040Z 20010KT 10SM FEW200 32/24 A2976 RMK 8/001,MMGM,2021-10-04T00:40:00Z,27.95,-110.92,32.0,24.0,200,10,,10.0,29.760826,,,,,,,,,,,FEW,20000,,,,,,,VFR,,,,,,,,,,,,METAR,13.0
MMCV 040040Z E00000KT 5SM SCT010 BKN070 23/23 A2998 RMK 8/430 CB/S/E,MMCV,2021-10-04T00:40:00Z,23.72,-98.97,23.0,23.0,0,0,,5.0,29.97933,,,,,,,,,,,SCT,1000,BKN,7000,,,,,MVFR,,,,,,,,,,,,METAR,230.0
MMCU 040040Z 08010KT 8SM FEW030 SCT080 BKN200 20/16 A3020 RMK 8/172 HZY VC TCU,MMCU,2021-10-04T00:40:00Z,28.7,-105.97,20.0,16.0,80,10,,8.0,30.200787,,,,,,,,,,,FEW,3000,SCT,8000,BKN,20000,,,VFR,,,,,,,,,,,,METAR,1349.0
MMCM 040040Z 00000KT 7SM SCT020 28/24 A2986 RMK 8/500,MMCM,2021-10-04T00:40:00Z,18.5,-88.33,28.0,24.0,0,0,,7.0,29.861221,,,,,,,,,,,SCT,2000,,,,,,,VFR,,,,,,,,,,,,METAR,10.0
MMBT 040040Z 00000KT 8SM FEW030 BKN220 28/23 A2979 RMK 8/408 HZY,MMBT,2021-10-04T00:40:00Z,15.77,-96.27,28.0,23.0,0,0,,8.0,29.790354,,,,,,,,,,,FEW,3000,BKN,22000,,,,,VFR,,,,,,,,,,,,METAR,137.0
MMAN 040040Z 00000KT 12SM SCT030CB SCT070 26/19 A3003 RMK 8/370 DSNT RA W,MMAN,2021-10-04T00:40:00Z,25.87,-100.23,26.0,19.0,0,0,,12.0,30.029528,,,,,,,,,,,SCT,3000,SCT,7000,,,,,VFR,,,,,,,,,,,,METAR,447.0
KJSL 040040Z AUTO VRB03KT 10SM CLR 26/22 A2995 RMK A01,KJSL,2021-10-04T00:40:00Z,26.23,-95.22,26.0,22.0,0,3,,10.0,29.949802,,,TRUE,TRUE,,,,,,,CLR,,,,,,,,VFR,,,,,,,,,,,,METAR,45.0
KVWU 040036Z AUTO 00000KT 10SM CLR 13/11 A2997 RMK AO2,KVWU,2021-10-04T00:36:00Z,48.15,-94.52,13.0,11.0,0,0,,10.0,29.970472,,,TRUE,TRUE,,,,,,,CLR,,,,,,,,VFR,,,,,,,,,,,,METAR,359.0
KXNX 040035Z AUTO 00000KT 10SM FEW030 21/20 A2995 RMK A01,KXNX,2021-10-04T00:35:00Z,36.38,-86.42,21.0,20.0,0,0,,10.0,29.949802,,,TRUE,TRUE,,,,,,,FEW,3000,,,,,,,VFR,,,,,,,,,,,,SPECI,178.0
KWYS 040035Z AUTO 22010KT 10SM CLR 15/M06 A3025 RMK AO2,KWYS,2021-10-04T00:35:00Z,44.68,-111.12,15.0,-6.0,220,10,,10.0,30.250984,,,TRUE,TRUE,,,,,,,CLR,,,,,,,,VFR,,,,,,,,,,,,METAR,2025.0
KUSE 040035Z AUTO 26004KT 3SM -RA FEW004 SCT035 BKN048 18/18 A2982 RMK AO2,KUSE,2021-10-04T00:35:00Z,41.62,-84.13,18.0,18.0,260,4,,3.0,29.819881,,,TRUE,TRUE,,,,,,-RA,FEW,400,SCT,3500,BKN,4800,,,MVFR,,,,,,,,,,,,SPECI,237.0
KUCY 040035Z AUTO 25003KT 10SM CLR 21/18 A2991 RMK A01,KUCY,2021-10-04T00:35:00Z,36.38,-88.98,21.0,18.0,250,3,,10.0,29.911417,,,TRUE,TRUE,,,,,,,CLR,,,,,,,,VFR,,,,,,,,,,,,SPECI,97.0
KU69 040035Z AUTO 11006KT 10SM CLR 19/01 A3022 RMK A01,KU69,2021-10-04T00:35:00Z,40.2,-110.38,19.0,1.0,110,6,,10.0,30.221457,,,TRUE,TRUE,,,,,,,CLR,,,,,,,,VFR,,,,,,,,,,,,METAR,1776.0
KU55 040035Z AUTO 16014KT 10SM BKN100 14/02 A3033 RMK A01,KU55,2021-10-04T00:35:00Z,37.85,-112.38,14.0,2.0,160,14,,10.0,30.33071,,,TRUE,TRUE,,,,,,,BKN,10000,,,,,,,VFR,,,,,,,,,,,,METAR,2060.0
KU52 040035Z AUTO 20011G18KT 5SM HZ OVC110 22/M02 A3021 RMK AO2,KU52,2021-10-04T00:35:00Z,38.23,-112.67,22.0,-2.0,200,11,18,5.0,30.209646,,,TRUE,TRUE,,,,,,HZ,OVC,11000,,,,,,,MVFR,,,,,,,,,,,,METAR,1787.0
KTHA 040035Z AUTO 00000KT 10SM OVC015 20/19 A2997 RMK A01,KTHA,2021-10-04T00:35:00Z,35.38,-86.25,20.0,19.0,0,0,,10.0,29.970472,,,TRUE,TRUE,,,,,,,OVC,1500,,,,,,,MVFR,,,,,,,,,,,,SPECI,333.0
KTCY 040035Z AUTO 00000KT 10SM CLR 30/05 A2989 RMK A01,KTCY,2021-10-04T00:35:00Z,37.68,-121.43,30.0,5.0,0,0,,10.0,29.890747,,,TRUE,TRUE,,,,,,,CLR,,,,,,,,VFR,,,,,,,,,,,,METAR,51.0
KSYI 040035Z AUTO 17005KT 10SM CLR 21/20 A2996 RMK A01,KSYI,2021-10-04T00:35:00Z,35.57,-86.45,21.0,20.0,170,5,,10.0,29.958662,,,TRUE,TRUE,,,,,,,CLR,,,,,,,,VFR,,,,,,,,,,,,SPECI,244.0
KSRE 040035Z AUTO 32004KT 10SM CLR 22/11 A3002 RMK AO2,KSRE,2021-10-04T00:35:00Z,35.27,-96.68,22.0,11.0,320,4,,10.0,30.02067,,,TRUE,TRUE,,,,,,,CLR,,,,,,,,VFR,,,,,,,,,,,,SPECI,306.0
KSPK 040035Z AUTO 23003KT 10SM 20/05 A3015 RMK AO2,KSPK,2021-10-04T00:35:00Z,40.15,-111.67,20.0,5.0,230,3,,10.0,30.15059,,,TRUE,TRUE,,,,,,,,,,,,,,,,,,,,,,,,,,,METAR,1381.0
KSNH 040035Z AUTO 00000KT 10SM FEW042 22/21 A2993 RMK A01,KSNH,2021-10-04T00:35:00Z,35.17,-88.22,22.0,21.0,0,0,,10.0,29.929134,,,TRUE,TRUE,,,,,,,FEW,4200,,,,,,,VFR,,,,,,,,,,,,SPECI,142.0
KSDC 040035Z AUTO 00000KT 4SM DZ BKN001 OVC010 18/17 A2989 RMK AO2 P0001,KSDC,2021-10-04T00:35:00Z,43.23,-77.12,18.0,17.0,0,0,,4.0,29.890747,,,TRUE,TRUE,,,,,,DZ,BKN,100,OVC,1000,,,,,LIFR,,,,,,0.01,,,,,,METAR,127.0
KSCX 040035Z AUTO 20005KT 10SM SCT008 BKN013 OVC020 19/19 A2999 RMK A01,KSCX,2021-10-04T00:35:00Z,36.45,-84.58,19.0,19.0,200,5,,10.0,29.991142,,,TRUE,TRUE,,,,,,,SCT,800,BKN,1300,OVC,2000,,,MVFR,,,,,,,,,,,,SPECI,462.0
KS39 040035Z AUTO 33005KT 10SM CLR 25/M08 A3002 RMK AO2,KS39,2021-10-04T00:35:00Z,44.28,-120.9,25.0,-8.0,330,5,,10.0,30.02067,,,TRUE,TRUE,,,,,,,CLR,,,,,,,,VFR,,,,,,,,,,,,SPECI,987.0
KS21 040035Z AUTO 01006KT 10SM CLR 22/M02 A3010 RMK AO2,KS21,2021-10-04T00:35:00Z,43.88,-121.45,22.0,-2.0,10,6,,10.0,30.100393,,,TRUE,TRUE,,,,,,,CLR,,,,,,,,VFR,,,,,,,,,,,,METAR,1269.0
KRZR 040035Z AUTO VRB04KT 9SM FEW003 BKN024 OVC042 21/20 A2998 RMK A01,KRZR,2021-10-04T00:35:00Z,35.22,-84.8,21.0,20.0,0,4,,9.0,29.97933,,,TRUE,TRUE,,,,,,,FEW,300,BKN,2400,OVC,4200,,,MVFR,,,,,,,,,,,,SPECI,259.0
KRVF 040035Z AUTO 15008KT 10SM CLR 22/M05 A3009 RMK AO2,KRVF,2021-10-04T00:35:00Z,45.53,-112.3,22.0,-5.0,150,8,,10.0,30.088583,,,TRUE,TRUE,,,,,,,CLR,,,,,,,,VFR,,,,,,,,,,,,METAR,1445.0
KRTS 040035Z AUTO 00000KT 10SM CLR 25/M13 A3012 RMK AO2,KRTS,2021-10-04T00:35:00Z,39.67,-119.88,25.0,-13.0,0,0,,10.0,30.121063,,,TRUE,TRUE,,,,,,,CLR,,,,,,,,VFR,,,,,,,,,,,,SPECI,1537.0
KRNC 040035Z AUTO 22004KT 10SM BKN010 BKN013 OVC020 21/20 A2997 RMK A01,KRNC,2021-10-04T00:35:00Z,35.7,-85.85,21.0,20.0,220,4,,10.0,29.970472,,,TRUE,TRUE,,,,,,,BKN,1000,BKN,1300,OVC,2000,,,MVFR,,,,,,,,,,,,SPECI,310.0
KRKW 040035Z AUTO 20006G12KT 10SM OVC004 19/19 A3000 RMK A01,KRKW,2021-10-04T00:35:00Z,35.92,-84.68,19.0,19.0,200,6,12,10.0,30.0,,,TRUE,TRUE,,,,,,,OVC,400,,,,,,,LIFR,,,,,,,,,,,,SPECI,505.0
KPWD 040035Z AUTO 25005KT 10SM CLR 21/M03 A2993 RMK A01,KPWD,2021-10-04T00:35:00Z,48.78,-104.52,21.0,-3.0,250,5,,10.0,29.929134,,,TRUE,TRUE,,,,,,,CLR,,,,,,,,VFR,,,,,,,,,,,,METAR,690.0
KPVE 040035Z AUTO 00000KT 9SM CLR 20/20 A2992 RMK A01,KPVE,2021-10-04T00:35:00Z,35.65,-88.2,20.0,20.0,0,0,,9.0,29.920275,,,TRUE,TRUE,,,,,,,CLR,,,,,,,,VFR,,,,,,,,,,,,SPECI,146.0
KPTD 040035Z AUTO 05005KT 1/2SM BR OVC002 12/12 A2997 RMK AO2,KPTD,2021-10-04T00:35:00Z,44.68,-74.95,12.0,12.0,50,5,,0.5,29.970472,,,TRUE,TRUE,,,,,,BR,OVC,200,,,,,,,LIFR,,,,,,,,,,,,SPECI,144.0
KPSK 040035Z AUTO 00000KT 10SM SCT027 SCT070 OVC110 18/18 A3007 RMK AO2 T01810180,KPSK,2021-10-04T00:35:00Z,37.13,-80.67,18.1,18.0,0,0,,10.0,30.070866,,,TRUE,TRUE,,,,,,,SCT,2700,SCT,7000,OVC,11000,,,VFR,,,,,,,,,,,,METAR,629.0
KPHT 040035Z AUTO 00000KT 10SM CLR 20/17 A2992 RMK A01,KPHT,2021-10-04T00:35:00Z,36.33,-88.38,20.0,17.0,0,0,,10.0,29.920275,,,TRUE,TRUE,,,,,,,CLR,,,,,,,,VFR,,,,,,,,,,,,SPECI,172.0
KPCW 040035Z AUTO 19005KT 10SM OVC085 21/19 A2983 RMK AO2,KPCW,2021-10-04T00:35:00Z,41.52,-82.87,21.0,19.0,190,5,,10.0,29.828741,,,TRUE,TRUE,,,,,,,OVC,8500,,,,,,,VFR,,,,,,,,,,,,SPECI,179.0
KOWI 040035Z AUTO 00000KT 10SM CLR 18/13 A2997 RMK AO2 PWINO,KOWI,2021-10-04T00:35:00Z,38.53,-95.25,18.0,13.0,0,0,,10.0,29.970472,,,TRUE,TRUE,,,,,TRUE,,CLR,,,,,,,,VFR,,,,,,,,,,,,SPECI,292.0
KORK 040035Z AUTO 00000KT 10SM CLR 23/16 A2995 RMK AO2,KORK,2021-10-04T00:35:00Z,34.83,-92.25,23.0,16.0,0,0,,10.0,29.949802,,,TRUE,TRUE,,,,,,,CLR,,,,,,,,VFR,,,,,,,,,,,,SPECI,166.0
KOCQ 040035Z AUTO 01003KT 7SM SCT006 BKN015 OVC075 18/18 A2986 RMK AO1 P0002 T01750175,KOCQ,2021-10-04T00:35:00Z,44.87,-87.92,17.5,17.5,10,3,,7.0,29.861221,,,TRUE,TRUE,,,,,,,SCT,600,BKN,1500,OVC,7500,,,MVFR,,,,,,0.02,,,,,,METAR,181.0
KO86 040035Z AUTO 18005KT 10SM CLR 30/00 A2995 RMK AO1,KO86,2021-10-04T00:35:00Z,40.98,-122.7,30.0,0.0,180,5,,10.0,29.949802,,,TRUE,TRUE,,,,,,,CLR,,,,,,,,VFR,,,,,,,,,,,,METAR,729.0
KN38 040035Z AUTO 21009KT 9SM OVC014 18/18 A2992 RMK AO2,KN38,2021-10-04T00:35:00Z,41.73,-77.4,18.0,18.0,210,9,,9.0,29.920275,,,TRUE,TRUE,,,,,,,OVC,1400,,,,,,,MVFR,,,,,,,,,,,,SPECI,576.0
KMVH 040035Z AUTO 21003KT 10SM CLR 19/M02 A3006 RMK AO2 PWINO,KMVH,2021-10-04T00:35:00Z,46.83,-108.93,19.0,-2.0,210,3,,10.0,30.059055,,,TRUE,TRUE,,,,,TRUE,,CLR,,,,,,,,VFR,,,,,,,,,,,,SPECI,1352.0
KMOR 040035Z AUTO 00000KT 9SM SCT029 OVC036 19/19 A3000 RMK A01,KMOR,2021-10-04T00:35:00Z,36.18,-83.37,19.0,19.0,0,0,,9.0,30.0,,,TRUE,TRUE,,,,,,,SCT,2900,OVC,3600,,,,,VFR,,,,,,,,,,,,SPECI,393.0
KMNV 040035Z AUTO 22004KT 10SM BKN021 OVC030 20/20 A3001 RMK A01,KMNV,2021-10-04T00:35:00Z,35.55,-84.38,20.0,20.0,220,4,,10.0,30.008858,,,TRUE,TRUE,,,,,,,BKN,2100,OVC,3000,,,,,MVFR,,,,,,,,,,,,SPECI,306.0
KMMI 040035Z AUTO 00000KT 4SM BR BKN018 OVC026 20/20 A3002 RMK A01,KMMI,2021-10-04T00:35:00Z,35.4,-84.57,20.0,20.0,0,0,,4.0,30.02067,,,TRUE,TRUE,,,,,,BR,BKN,1800,OVC,2600,,,,,MVFR,,,,,,,,,,,,SPECI,252.0
KMIO 040035Z AUTO 00000KT 10SM CLR 20/17 A2999 RMK AO2,KMIO,2021-10-04T00:35:00Z,36.92,-94.88,20.0,17.0,0,0,,10.0,29.991142,,,TRUE,TRUE,,,,,,,CLR,,,,,,,,VFR,,,,,,,,,,,,SPECI,245.0
KMHR 040035Z AUTO 00000KT 10SM CLR 31/01 A2987 RMK A01,KMHR,2021-10-04T00:35:00Z,38.55,-121.28,31.0,1.0,0,0,,10.0,29.870079,,,TRUE,TRUE,,,,,,,CLR,,,,,,,,VFR,,,,,,,,,,,,METAR,30.0
KMEV 040035Z AUTO 29008KT 7SM CLR 25/M08 A3009 RMK AO2,KMEV,2021-10-04T00:35:00Z,38.98,-119.75,25.0,-8.0,290,8,,7.0,30.088583,,,TRUE,TRUE,,,,,,,CLR,,,,,,,,VFR,,,,,,,,,,,,SPECI,1437.0
KMDS 040035Z AUTO 31006KT 10SM CLR 14/06 A3001 RMK AO2,KMDS,2021-10-04T00:35:00Z,44.02,-97.08,14.0,6.0,310,6,,10.0,30.008858,,,TRUE,TRUE,,,,,,,CLR,,,,,,,,VFR,,,,,,,,,,,,METAR,524.0
KMCC 040035Z AUTO 17006KT 10SM CLR 31/03 A2988 RMK AO2,KMCC,2021-10-04T00:35:00Z,38.67,-121.4,31.0,3.0,170,6,,10.0,29.878937,,,TRUE,TRUE,,,,,,,CLR,,,,,,,,VFR,,,,,,,,,,,,METAR,21.0
KM91 040035Z AUTO 23005KT 10SM SCT048 21/20 A2991 RMK A01,KM91,2021-10-04T00:35:00Z,36.53,-86.92,21.0,20.0,230,5,,10.0,29.911417,,,TRUE,TRUE,,,,,,,SCT,4800,,,,,,,VFR,,,,,,,,,,,,SPECI,214.0
KM75 040035Z AUTO 00000KT 10SM CLR 23/M01 A2989 RMK A01,KM75,2021-10-04T00:35:00Z,48.37,-107.92,23.0,-1.0,0,0,,10.0,29.890747,,,TRUE,TRUE,,,,,,,CLR,,,,,,,,VFR,,,,,,,,,,,,SPECI,687.0
KM54 040035Z AUTO 20006KT 10SM CLR 21/20 A2991 RMK A01,KM54,2021-10-04T00:35:00Z,36.18,-86.32,21.0,20.0,200,6,,10.0,29.911417,,,TRUE,TRUE,,,,,,,CLR,,,,,,,,VFR,,,,,,,,,,,,SPECI,168.0
KM02 040035Z AUTO 22004KT 10SM SCT049 SCT055 21/19 A2993 RMK A01,KM02,2021-10-04T00:35:00Z,36.13,-87.43,21.0,19.0,220,4,,10.0,29.929134,,,TRUE,TRUE,,,,,,,SCT,4900,SCT,5500,,,,,VFR,,,,,,,,,,,,SPECI,268.0
KLUG 040035Z AUTO 18003KT 10SM CLR 20/20 A2995 RMK A01,KLUG,2021-10-04T00:35:00Z,35.52,-86.8,20.0,20.0,180,3,,10.0,29.949802,,,TRUE,TRUE,,,,,,,CLR,,,,,,,,VFR,,,,,,,,,,,,SPECI,218.0
KKNB 040035Z AUTO 36015KT 10SM SCT120 21/03 A3022 RMK A01,KKNB,2021-10-04T00:35:00Z,37.02,-112.53,21.0,3.0,360,15,,10.0,30.221457,,,TRUE,TRUE,,,,,,,SCT,12000,,,,,,,VFR,,,,,,,,,,,,METAR,1476.0
KJTC 040035Z AUTO 35006KT 10SM SCT075 18/03 A3029 RMK AO2,KJTC,2021-10-04T00:35:00Z,34.13,-109.32,18.0,3.0,350,6,,10.0,30.28937,,,TRUE,TRUE,,,,,,,SCT,7500,,,,,,,VFR,,,,,,,,,,,,SPECI,2148.0
KJAU 040035Z AUTO VRB05KT 10SM SCT008 BKN015 OVC025 20/19 A3003 RMK A01,KJAU,2021-10-04T00:35:00Z,36.33,-84.17,20.0,19.0,0,5,,10.0,30.029528,,,TRUE,TRUE,,,,,,,SCT,800,BKN,1500,OVC,2500,,,MVFR,,,,,,,,,,,,SPECI,350.0
KIMM 040035Z AUTO 06003KT 10SM BKN065 OVC075 26/22 A2997 RMK AO2 PWINO,KIMM,2021-10-04T00:35:00Z,26.43,-81.4,26.0,22.0,60,3,,10.0,29.970472,,,TRUE,TRUE,,,,,TRUE,,BKN,6500,OVC,7500,,,,,VFR,,,,,,,,,,,,SPECI,11.0
KHZD 040035Z AUTO 00000KT 10SM CLR 21/18 A2992 RMK A01,KHZD,2021-10-04T00:35:00Z,36.08,-88.47,21.0,18.0,0,0,,10.0,29.920275,,,TRUE,TRUE,,,,,,,CLR,,,,,,,,VFR,,,,,,,,,,,,SPECI,147.0
KHTH 040035Z AUTO 33007KT 10SM CLR 25/M13 A3006 RMK A01,KHTH,2021-10-04T00:35:00Z,,,25.0,-13.0,330,7,,10.0,30.059055,,,TRUE,TRUE,,,,,,,CLR,,,,,,,,VFR,,,,,,,,,,,,METAR,
KHSD 040035Z AUTO 00000KT 10SM CLR 23/10 A3003 RMK A01,KHSD,2021-10-04T00:35:00Z,35.6,-97.72,23.0,10.0,0,0,,10.0,30.029528,,,TRUE,TRUE,,,,,,,CLR,,,,,,,,VFR,,,,,,,,,,,,SPECI,358.0
KHLB 040035Z AUTO 00000KT 9SM FEW004 SCT017 BKN070 19/19 A2987 RMK A01,KHLB,2021-10-04T00:35:00Z,,,19.0,19.0,0,0,,9.0,29.870079,,,TRUE,TRUE,,,,,,,FEW,400,SCT,1700,BKN,7000,,,VFR,,,,,,,,,,,,SPECI,
KH71 040035Z AUTO 00000KT 10SM CLR 20/16 A2998 RMK AO2,KH71,2021-10-04T00:35:00Z,36.22,-95.33,20.0,16.0,0,0,,10.0,29.97933,,,TRUE,TRUE,,,,,,,CLR,,,,,,,,VFR,,,,,,,,,,,,SPECI,190.0
KGZS 040035Z AUTO 00000KT 1SM BR BKN008 20/20 A2995 RMK A01,KGZS,2021-10-04T00:35:00Z,35.15,-87.05,20.0,20.0,0,0,,1.0,29.949802,,,TRUE,TRUE,,,,,,BR,BKN,800,,,,,,,IFR,,,,,,,,,,,,SPECI,198.0
KGNG 040035Z AUTO 00000KT 10SM CLR 24/M05 A3012 RMK AO2,KGNG,2021-10-04T00:35:00Z,,,24.0,-5.0,0,0,,10.0,30.121063,,,TRUE,TRUE,,,,,,,CLR,,,,,,,,VFR,,,,,,,,,,,,METAR,
KGKT 040035Z AUTO 00000KT 3SM BR OVC047 20/20 A3000 RMK A01,KGKT,2021-10-04T00:35:00Z,35.85,-83.53,20.0,20.0,0,0,,3.0,30.0,,,TRUE,TRUE,,,,,,BR,OVC,4700,,,,,,,MVFR,,,,,,,,,,,,SPECI,305.0
KGCY 040035Z AUTO 00000KT 4SM BR OVC004 19/18 A3002 RMK A01,KGCY,2021-10-04T00:35:00Z,36.2,-82.82,19.0,18.0,0,0,,4.0,30.02067,,,TRUE,TRUE,,,,,,BR,OVC,400,,,,,,,LIFR,,,,,,,,,,,,SPECI,488.0
KFYM 040035Z AUTO 00000KT 5SM BR FEW010 SCT014 SCT018 20/20 A2999 RMK A01,KFYM,2021-10-04T00:35:00Z,35.07,-86.57,20.0,20.0,0,0,,5.0,29.991142,,,TRUE,TRUE,,,,,,BR,FEW,1000,SCT,1400,SCT,1800,,,MVFR,,,,,,,,,,,,SPECI,297.0
KFYE 040035Z AUTO 00000KT 10SM FEW048 21/20 A2992 RMK A01,KFYE,2021-10-04T00:35:00Z,35.2,-89.38,21.0,20.0,0,0,,10.0,29.920275,,,TRUE,TRUE,,,,,,,FEW,4800,,,,,,,VFR,,,,,,,,,,,,SPECI,133.0
KFOT 040035Z AUTO 32006KT 8SM CLR 15/13 A2996 RMK AO1,KFOT,2021-10-04T00:35:00Z,40.55,-124.13,15.0,13.0,320,6,,8.0,29.958662,,,TRUE,TRUE,,,,,,,CLR,,,,,,,,VFR,,,,,,,,,,,,METAR,118.0
KDWA 040035Z AUTO 17006KT 10SM CLR 31/05 A2989 RMK AO2,KDWA,2021-10-04T00:35:00Z,38.58,-121.85,31.0,5.0,170,6,,10.0,29.890747,,,TRUE,TRUE,,,,,,,CLR,,,,,,,,VFR,,,,,,,,,,,,METAR,28.0
KDUC 040035Z AUTO 05004KT 10SM CLR 23/10 A3005 RMK AO2 T02320099,KDUC,2021-10-04T00:35:00Z,34.47,-97.97,23.2,9.9,50,4,,10.0,30.050198,,,TRUE,TRUE,,,,,,,CLR,,,,,,,,VFR,,,,,,,,,,,,METAR,339.0
KCXW 040035Z AUTO 31004KT 10SM FEW050 FEW065 23/18 A2995 RMK A01,KCXW,2021-10-04T00:35:00Z,35.02,-92.55,23.0,18.0,310,4,,10.0,29.949802,,,TRUE,TRUE,,,,,,,FEW,5000,FEW,6500,,,,,VFR,,,,,,,,,,,,SPECI,84.0
KCXP 040035Z AUTO 08008KT 10SM CLR 25/M12 A3010 RMK AO2,KCXP,2021-10-04T00:35:00Z,39.18,-119.73,25.0,-12.0,80,8,,10.0,30.100393,,,TRUE,TRUE,,,,,,,CLR,,,,,,,,VFR,,,,,,,,,,,,METAR,1431.0
KCRX 040035Z AUTO 00000KT 10SM CLR 22/21 A2994 RMK AO2,KCRX,2021-10-04T00:35:00Z,34.92,-88.6,22.0,21.0,0,0,,10.0,29.940945,,,TRUE,TRUE,,,,,,,CLR,,,,,,,,VFR,,,,,,,,,,,,SPECI,128.0
KCCB 040035Z AUTO 23012G17KT 10SM CLR 31/M01 A2991 RMK AO2,KCCB,2021-10-04T00:35:00Z,34.12,-117.68,31.0,-1.0,230,12,17,10.0,29.911417,,,TRUE,TRUE,,,,,,,CLR,,,,,,,,VFR,,,,,,,,,,,,METAR,440.0
KC83 040035Z AUTO 00000KT 9SM CLR 30/06 A2989 RMK AO2,KC83,2021-10-04T00:35:00Z,37.83,-121.62,30.0,6.0,0,0,,9.0,29.890747,,,TRUE,TRUE,,,,,,,CLR,,,,,,,,VFR,,,,,,,,,,,,METAR,16.0
KBGF 040035Z AUTO 00000KT 10SM BKN012 BKN027 OVC032 21/20 A2998 RMK A01,KBGF,2021-10-04T00:35:00Z,35.18,-86.07,21.0,20.0,0,0,,10.0,29.97933,,,TRUE,TRUE,,,,,,,BKN,1200,BKN,2700,OVC,3200,,,MVFR,,,,,,,,,,,,SPECI,295.0
KBDN 040035Z AUTO 02004KT 10SM CLR 25/M07 A3004 RMK AO2,KBDN,2021-10-04T00:35:00Z,44.1,-121.2,25.0,-7.0,20,4,,10.0,30.041338,,,TRUE,TRUE,,,,,,,CLR,,,,,,,,VFR,,,,,,,,,,,,METAR,1044.0
KAVK 040035Z AUTO 02005KT 10SM CLR 23/09 A3004 RMK AO2,KAVK,2021-10-04T00:35:00Z,36.77,-98.67,23.0,9.0,20,5,,10.0,30.041338,,,TRUE,TRUE,,,,,,,CLR,,,,,,,,VFR,,,,,,,,,,,,SPECI,450.0
K8A3 040035Z AUTO 21005G13KT 10SM BKN015 BKN023 20/19 A2995 RMK A01,K8A3,2021-10-04T00:35:00Z,36.42,-85.32,20.0,19.0,210,5,13,10.0,29.949802,,,TRUE,TRUE,,,,,,,BKN,1500,BKN,2300,,,,,MVFR,,,,,,,,,,,,SPECI,413.0
K6S0 040035Z AUTO 29006KT 10SM CLR 22/M12 A3007 RMK A01,K6S0,2021-10-04T00:35:00Z,45.8,-109.97,22.0,-12.0,290,6,,10.0,30.070866,,,TRUE,TRUE,,,,,,,CLR,,,,,,,,VFR,,,,,,,,,,,,METAR,1364.0
K63S 040035Z AUTO 19004KT 10SM CLR 20/05 A3000 RMK A01,K63S,2021-10-04T00:35:00Z,,,20.0,5.0,190,4,,10.0,30.0,,,TRUE,TRUE,,,,,,,CLR,,,,,,,,VFR,,,,,,,,,,,,METAR,
K5T9 040035Z AUTO 05004KT 10SM CLR 26/16 A2998 RMK A01,K5T9,2021-10-04T00:35:00Z,28.85,-100.52,26.0,16.0,50,4,,10.0,29.97933,,,TRUE,TRUE,,,,,,,CLR,,,,,,,,VFR,,,,,,,,,,,,METAR,269.0
K54A 040035Z AUTO 00000KT 10SM BKN050 OVC055 25/23 A2997 RMK AO2,K54A,2021-10-04T00:35:00Z,26.85,-82.25,25.0,23.0,0,0,,10.0,29.970472,,,TRUE,TRUE,,,,,,,BKN,5000,OVC,5500,,,,,VFR,,,,,,,,,,,,METAR,2.0
K46U 040035Z AUTO 31008KT 9SM CLR 18/M02 A3022 RMK A01,K46U,2021-10-04T00:35:00Z,43.18,-111.05,18.0,-2.0,310,8,,9.0,30.221457,,,TRUE,TRUE,,,,,,,CLR,,,,,,,,VFR,,,,,,,,,,,,METAR,1718.0
K3S8 040035Z AUTO 33006KT 10SM CLR 27/09 A2997 RMK AO2,K3S8,2021-10-04T00:35:00Z,42.5,-123.4,27.0,9.0,330,6,,10.0,29.970472,,,TRUE,TRUE,,,,,,,CLR,,,,,,,,VFR,,,,,,,,,,,,METAR,339.0
K3L4 040035Z AUTO 21005KT 9SM CLR 27/24 A2993 RMK A01,K3L4,2021-10-04T00:35:00Z,29.8,-92.8,27.0,24.0,210,5,,9.0,29.929134,,,TRUE,TRUE,,,,,,,CLR,,,,,,,,VFR,,,,,,,,,,,,SPECI,1.0
K3K8 040035Z AUTO 06007KT 10SM CLR 18/08 A3008 RMK AO2,K3K8,2021-10-04T00:35:00Z,37.22,-99.33,18.0,8.0,60,7,,10.0,30.079725,,,TRUE,TRUE,,,,,,,CLR,,,,,,,,VFR,,,,,,,,,,,,SPECI,640.0
K33N 040035Z AUTO 19004KT 10SM SCT060 SCT070 23/19 A2993 RMK A01,K33N,2021-10-04T00:35:00Z,39.22,-75.6,23.0,19.0,190,4,,10.0,29.929134,,,TRUE,TRUE,,,,,,,SCT,6000,SCT,7000,,,,,VFR,,,,,,,,,,,,SPECI,17.0
K2M2 040035Z AUTO 00000KT 8SM FEW041 20/19 A2996 RMK A01,K2M2,2021-10-04T00:35:00Z,35.23,-87.25,20.0,19.0,0,0,,8.0,29.958662,,,TRUE,TRUE,,,,,,,FEW,4100,,,,,,,VFR,,,,,,,,,,,,SPECI,286.0
K2A0 040035Z AUTO 23003KT 10SM FEW008 OVC013 21/21 A2998 RMK A01,K2A0,2021-10-04T00:35:00Z,35.48,-84.93,21.0,21.0,230,3,,10.0,29.97933,,,TRUE,TRUE,,,,,,,FEW,800,OVC,1300,,,,,MVFR,,,,,,,,,,,,SPECI,219.0
K1U7 040035Z AUTO 31005KT 10SM CLR 18/M06 A3023 RMK A01,K1U7,2021-10-04T00:35:00Z,42.25,-111.33,18.0,-6.0,310,5,,10.0,30.230314,,,TRUE,TRUE,,,,,,,CLR,,,,,,,,VFR,,,,,,,,,,,,METAR,1808.0
K1M5 040035Z AUTO 17006KT 10SM CLR 20/20 A2992 RMK A01,K1M5,2021-10-04T00:35:00Z,36.6,-86.48,20.0,20.0,170,6,,10.0,29.920275,,,TRUE,TRUE,,,,,,,CLR,,,,,,,,VFR,,,,,,,,,,,,SPECI,239.0
K0R0 040035Z AUTO 19005KT 10SM -RA BKN004 BKN010 BKN017 24/23 A2998 RMK AO2,K0R0,2021-10-04T00:35:00Z,31.3,-89.82,24.0,23.0,190,5,,10.0,29.97933,,,TRUE,TRUE,,,,,,-RA,BKN,400,BKN,1000,BKN,1700,,,LIFR,,,,,,,,,,,,SPECI,76.0
K0A9 040035Z AUTO 05003KT 4SM BR SCT008 SCT075 BKN090 19/19 A3003 RMK A01,K0A9,2021-10-04T00:35:00Z,36.37,-82.17,19.0,19.0,50,3,,4.0,30.029528,,,TRUE,TRUE,,,,,,BR,SCT,800,SCT,7500,BKN,9000,,,MVFR,,,,,,,,,,,,SPECI,479.0
K0A0 040035Z AUTO 12005KT 10SM -RA CLR 24/06 A3016 RMK AO2,K0A0,2021-10-04T00:35:00Z,32.98,-106.97,24.0,6.0,120,5,,10.0,30.159449,,,TRUE,TRUE,,,,,,-RA,CLR,,,,,,,,VFR,,,,,,,,,,,,SPECI,1401.0
K00U 040035Z AUTO 27004KT 10SM CLR 25/M09 A2997 RMK A01,K00U,2021-10-04T00:35:00Z,45.75,-107.67,25.0,-9.0,270,4,,10.0,29.970472,,,TRUE,TRUE,,,,,,,CLR,,,,,,,,VFR,,,,,,,,,,,,METAR,922.0
RJOP 040034Z 04010KT 9999 BKN030 24/18 Q1026 RMK 5CU030 A3030,RJOP,2021-10-04T00:34:00Z,34.0,134.62,24.0,18.0,40,10,,6.21,30.295275,,,,,,,,,,,BKN,3000,,,,,,,MVFR,,,,,,,,,,,,METAR,3.0
RJCA 040033Z VRB01KT 9999 FEW008 SCT020 BKN035 19/17 Q1014 RMK 1ST008 3CU020 6CU035 A2995,RJCA,2021-10-04T00:33:00Z,43.78,142.37,19.0,17.0,0,1,,6.21,29.940945,,,,,,,,,,,FEW,800,SCT,2000,BKN,3500,,,VFR,,,,,,,,,,,,METAR,113.0
YCOM 040030Z AUTO 29017G27KT 9999 // NCD 16/01 Q1000,YCOM,2021-10-04T00:30:00Z,-36.3,148.97,16.0,1.0,290,17,27,6.21,29.52756,,,TRUE,,,,,,,,CLR,,,,,,,,VFR,,,,,,,,,,,,SPECI,930.0
WIPP 040030Z 24004KT 2500 HZ SCT010 26/24 Q1010,WIPP,2021-10-04T00:30:00Z,-2.88,104.7,26.0,24.0,240,4,,1.55,29.822834,,,,,,,,,,HZ,SCT,1000,,,,,,,IFR,,,,,,,,,,,,METAR,7.0
WIOO 040030Z 00000KT 9999 SCT012 25/24 Q1009 NOSIG,WIOO,2021-10-04T00:30:00Z,-0.15,109.4,25.0,24.0,0,0,,6.21,29.793306,,,,,,TRUE,,,,,SCT,1200,,,,,,,VFR,,,,,,,,,,,,METAR,4.0
WIMM 040030Z 24004KT 5000 HZ SCT018 25/23 Q1009 NOSIG,WIMM,2021-10-04T00:30:00Z,3.57,98.67,25.0,23.0,240,4,,3.11,29.793306,,,,,,TRUE,,,,HZ,SCT,1800,,,,,,,MVFR,,,,,,,,,,,,METAR,27.0
WIHH 040030Z 19003KT 4000 HZ FEW020 27/24 Q1010 NOSIG,WIHH,2021-10-04T00:30:00Z,-6.27,106.88,27.0,24.0,190,3,,2.49,29.822834,,,,,,TRUE,,,,HZ,FEW,2000,,,,,,,IFR,,,,,,,,,,,,METAR,26.0
WIEE 040030Z VRB02KT 9999 FEW020 25/23 Q1010 NOSIG,WIEE,2021-10-04T00:30:00Z,-0.78,100.28,25.0,23.0,0,2,,6.21,29.822834,,,,,,TRUE,,,,,FEW,2000,,,,,,,VFR,,,,,,,,,,,,METAR,5.0
WIDD 040030Z 00000KT 9999 FEW014 26/25 Q1010 NOSIG,WIDD,2021-10-04T00:30:00Z,1.12,104.12,26.0,25.0,0,0,,6.21,29.822834,,,,,,TRUE,,,,,FEW,1400,,,,,,,VFR,,,,,,,,,,,,METAR,26.0
WIBB 040030Z 00000KT 8000 FEW014 26/23 Q1008 NOSIG,WIBB,2021-10-04T00:30:00Z,0.47,101.45,26.0,23.0,0,0,,4.97,29.763779,,,,,,TRUE,,,,,FEW,1400,,,,,,,MVFR,,,,,,,,,,,,METAR,41.0
WARR 040030Z VRB02KT 8000 FEW020 31/24 Q1010 NOSIG,WARR,2021-10-04T00:30:00Z,-7.37,112.78,31.0,24.0,0,2,,4.97,29.822834,,,,,,TRUE,,,,,FEW,2000,,,,,,,MVFR,,,,,,,,,,,,METAR,3.0
WAQQ 040030Z 19003KT 9999 SCT015 27/24 Q1009 NOSIG ,WAQQ,2021-10-04T00:30:00Z,3.33,117.57,27.0,24.0,190,3,,6.21,29.793306,,,,,,TRUE,,,,,SCT,1500,,,,,,,VFR,,,,,,,,,,,,METAR,6.0
WAOO 040030Z 35006KT 9999 SCT017 25/23 Q1011 NOSIG,WAOO,2021-10-04T00:30:00Z,-3.45,114.77,25.0,23.0,350,6,,6.21,29.852362,,,,,,TRUE,,,,,SCT,1700,,,,,,,VFR,,,,,,,,,,,,METAR,23.0
WALL 040030Z 26008KT 4000 -RA FEW016CB BKN016 23/23 Q1011 RMK CB TO NE SE AND W,WALL,2021-10-04T00:30:00Z,-1.27,116.9,23.0,23.0,260,8,,2.49,29.852362,,,,,,,,,,-RA,FEW,1600,BKN,1600,,,,,IFR,,,,,,,,,,,,METAR,3.0
WAKK 040030Z 24004KT 9999 SCT015 29/24 Q1009 NOSIG,WAKK,2021-10-04T00:30:00Z,-8.52,140.42,29.0,24.0,240,4,,6.21,29.793306,,,,,,TRUE,,,,,SCT,1500,,,,,,,VFR,,,,,,,,,,,,METAR,5.0
WAHS 040030Z 00000KT 6000 FEW014 27/22 Q1010 NOSIG,WAHS,2021-10-04T00:30:00Z,-6.98,110.38,27.0,22.0,0,0,,3.73,29.822834,,,,,,TRUE,,,,,FEW,1400,,,,,,,MVFR,,,,,,,,,,,,METAR,3.0
WADD 040030Z VRB02KT 9999 SCT017 27/23 Q1011 NOSIG,WADD,2021-10-04T00:30:00Z,-8.73,115.17,27.0,23.0,0,2,,6.21,29.852362,,,,,,TRUE,,,,,SCT,1700,,,,,,,VFR,,,,,,,,,,,,METAR,3.0
WAAA 040030Z 19004KT 9999 FEW020 28/23 Q1010 NOSIG,WAAA,2021-10-04T00:30:00Z,-5.07,119.55,28.0,23.0,190,4,,6.21,29.822834,,,,,,TRUE,,,,,FEW,2000,,,,,,,VFR,,,,,,,,,,,,METAR,13.0
VYMD 040030Z 00000KT 6000 SCT025 SCT120 25/23 Q1008 NOSIG,VYMD,2021-10-04T00:30:00Z,21.7,95.98,25.0,23.0,0,0,,3.73,29.763779,,,,,,TRUE,,,,,SCT,2500,SCT,12000,,,,,MVFR,,,,,,,,,,,,METAR,87.0
VOHB 040030Z 00000KT 6000 FEW015 22/21 Q1011,VOHB,2021-10-04T00:30:00Z,15.37,75.08,22.0,21.0,0,0,,3.73,29.852362,,,,,,,,,,,FEW,1500,,,,,,,MVFR,,,,,,,,,,,,METAR,661.0
VMMC 040030Z 06010KT 9999 FEW016 29/25 Q1013 NOSIG,VMMC,2021-10-04T00:30:00Z,22.15,113.58,29.0,25.0,60,10,,6.21,29.911417,,,,,,TRUE,,,,,FEW,1600,,,,,,,VFR,,,,,,,,,,,,METAR,1.0
VIAR 040030Z VRB02KT 3000 BR SCT030 BKN090 26/26 Q1005 NOSIG,VIAR,2021-10-04T00:30:00Z,31.7,74.8,26.0,26.0,0,2,,1.86,29.675198,,,,,,TRUE,,,,BR,SCT,3000,BKN,9000,,,,,IFR,,,,,,,,,,,,METAR,226.0
VGHS 040030Z 17005KT 3500 HZ SCT010 BKN100 26/23 Q1007 TEMPO RA,VGHS,2021-10-04T00:30:00Z,23.85,90.4,26.0,23.0,170,5,,2.17,29.734253,,,,,,,,,,HZ,SCT,1000,BKN,10000,,,,,IFR,,,,,,,,,,,,METAR,11.0
UTTT 040030Z 08004KT CAVOK 07/01 Q1024 R08R/CLRD70 NOSIG,UTTT,2021-10-04T00:30:00Z,41.27,69.27,7.0,1.0,80,4,,6.21,30.236221,,,,,,TRUE,,,,,CAVOK,,,,,,,,VFR,,,,,,,,,,,,METAR,429.0
UTST 040030Z 23004KT CAVOK 08/M02 Q1021 R25/CLRD70 NOSIG,UTST,2021-10-04T00:30:00Z,37.28,67.32,8.0,-2.0,230,4,,6.21,30.147638,,,,,,TRUE,,,,,CAVOK,,,,,,,,VFR,,,,,,,,,,,,SPECI,311.0
UTSS 040030Z 14010KT 6000 NSC 09/M05 Q1022 R09/70D NOSIG,UTSS,2021-10-04T00:30:00Z,39.7,66.98,9.0,-5.0,140,10,,3.73,30.177166,,,,,,TRUE,,,,,CLR,,,,,,,,MVFR,,,,,,,,,,,,METAR,665.0
UTSK 040030Z 06002KT CAVOK 06/M01 Q1021 R16/CLRD70,UTSK,2021-10-04T00:30:00Z,38.8,65.77,6.0,-1.0,60,2,,6.21,30.147638,,,,,,,,,,,CAVOK,,,,,,,,VFR,,,,,,,,,,,,SPECI,399.0
UTSB 040030Z 35006KT CAVOK 06/M01 Q1023 R01/CLRD70 NOSIG,UTSB,2021-10-04T00:30:00Z,39.77,64.48,6.0,-1.0,350,6,,6.21,30.206694,,,,,,TRUE,,,,,CAVOK,,,,,,,,VFR,,,,,,,,,,,,SPECI,225.0
UTSA 040030Z 07004KT 9999 NSC 04/M05 Q1023 R25/CLRD70 NOSIG,UTSA,2021-10-04T00:30:00Z,40.12,65.17,4.0,-5.0,70,4,,6.21,30.206694,,,,,,TRUE,,,,,CLR,,,,,,,,VFR,,,,,,,,,,,,SPECI,346.0
UTNU 040030Z 04004KT CAVOK 02/M02 Q1026 R31/CLRD70 NOSIG,UTNU,2021-10-04T00:30:00Z,41.58,60.63,2.0,-2.0,40,4,,6.21,30.295275,,,,,,TRUE,,,,,CAVOK,,,,,,,,VFR,,,,,,,,,,,,SPECI,97.0
UTNN 040030Z 01002KT CAVOK 02/M04 Q1027 R33/CLRD60 NOSIG,UTNN,2021-10-04T00:30:00Z,42.48,59.63,2.0,-4.0,10,2,,6.21,30.324802,,,,,,TRUE,,,,,CAVOK,,,,,,,,VFR,,,,,,,,,,,,SPECI,76.0
UTFN 040030Z 35004KT 9000 NSC 09/03 Q1023 R28/CLRD70 NOSIG,UTFN,2021-10-04T00:30:00Z,40.98,71.57,9.0,3.0,350,4,,5.59,30.206694,,,,,,TRUE,,,,,CLR,,,,,,,,VFR,,,,,,,,,,,,METAR,477.0
UTFF 040030Z 12004KT 9999 NSC 12/05 Q1023 R18/CLRD70,UTFF,2021-10-04T00:30:00Z,40.37,71.73,12.0,5.0,120,4,,6.21,30.206694,,,,,,,,,,,CLR,,,,,,,,VFR,,,,,,,,,,,,METAR,612.0
UTFA 040030Z 18002KT 9999 FEW046 12/05 Q1023,UTFA,2021-10-04T00:30:00Z,40.73,72.3,12.0,5.0,180,2,,6.21,30.206694,,,,,,,,,,,FEW,4600,,,,,,,VFR,,,,,,,,,,,,METAR,474.0
ULWC 040030Z 00000MPS 9999 OVC033 05/04 Q1036 R03/010063 NOSIG RMK QFE767/1022,ULWC,2021-10-04T00:30:00Z,59.28,38.02,5.0,4.0,0,0,,6.21,30.590551,,,,,,TRUE,,,,,OVC,3300,,,,,,,VFR,,,,,,,,,,,,METAR,113.0
RCTP 040030Z 08018KT 9999 FEW015 33/22 Q1013 WS R05L NOSIG RMK A2993,RCTP,2021-10-04T00:30:00Z,25.07,121.22,33.0,22.0,80,18,,6.21,29.911417,,,,,,TRUE,,,,,FEW,1500,,,,,,,VFR,,,,,,,,,,,,METAR,33.0
RCNN 040030Z 00000KT 9999 FEW014 SCT025 30/25 Q1013 NOSIG RMK A2993,RCNN,2021-10-04T00:30:00Z,22.93,120.2,30.0,25.0,0,0,,6.21,29.911417,,,,,,TRUE,,,,,FEW,1400,SCT,2500,,,,,VFR,,,,,,,,,,,,METAR,15.0
RCMQ 040030Z 00000KT 9999 FEW010 29/21 Q1013 NOSIG RMK A2994 RVR N/A,RCMQ,2021-10-04T00:30:00Z,24.27,120.62,29.0,21.0,0,0,,6.21,29.911417,,,,,,TRUE,,,,,FEW,1000,,,,,,,VFR,,,,,,,,,,,,METAR,202.0
RCKH 040030Z VRB02KT 9999 FEW015 SCT020 BKN200 31/25 Q1013 NOSIG RMK A2993,RCKH,2021-10-04T00:30:00Z,22.57,120.33,31.0,25.0,0,2,,6.21,29.911417,,,,,,TRUE,,,,,FEW,1500,SCT,2000,BKN,20000,,,VFR,,,,,,,,,,,,METAR,6.0
RCFN 040030Z 02004KT 320V080 9999 FEW040 30/22 Q1016 NOSIG RMK A3001,RCFN,2021-10-04T00:30:00Z,22.77,121.1,30.0,22.0,20,4,,6.21,30.0,,,,,,TRUE,,,,,FEW,4000,,,,,,,VFR,,,,,,,,,,,,METAR,42.0
OTBD 040030Z AUTO 06002KT CAVOK 32/27 Q1005 NOSIG,OTBD,2021-10-04T00:30:00Z,25.25,51.57,32.0,27.0,60,2,,6.21,29.675198,,,TRUE,,,TRUE,,,,,CAVOK,,,,,,,,VFR,,,,,,,,,,,,METAR,13.0
LFLW 040030Z AUTO 00000KT 9999 ////// 10/10 Q1018,LFLW,2021-10-04T00:30:00Z,44.88,2.42,10.0,10.0,0,0,,6.21,30.059055,,,TRUE,,,,,,,,,,,,,,,,,,,,,,,,,,,,METAR,638.0
LEVX 040030Z VRB02KT 9999 SCT027 BKN047 12/11 Q1021 NOSIG,LEVX,2021-10-04T00:30:00Z,42.23,-8.62,12.0,11.0,0,2,,6.21,30.147638,,,,,,TRUE,,,,,SCT,2700,BKN,4700,,,,,VFR,,,,,,,,,,,,METAR,253.0
KT89 040030Z AUTO 00000KT 10SM CLR 28/12 A3004 RMK A01,KT89,2021-10-04T00:30:00Z,,,28.0,12.0,0,0,,10.0,30.041338,,,TRUE,TRUE,,,,,,,CLR,,,,,,,,VFR,,,,,,,,,,,,METAR,
KSRB 040030Z AUTO 19005KT 10SM SCT014 SCT018 BKN024 20/20 A2996 RMK A01,KSRB,2021-10-04T00:30:00Z,36.05,-85.53,20.0,20.0,190,5,,10.0,29.958662,,,TRUE,TRUE,,,,,,,SCT,1400,SCT,1800,BKN,2400,,,MVFR,,,,,,,,,,,,SPECI,303.0
KP08 040030Z AUTO 35005KT 10SM CLR 33/07 A2990 RMK AO2,KP08,2021-10-04T00:30:00Z,32.93,-111.43,33.0,7.0,350,5,,10.0,29.899607,,,TRUE,TRUE,,,,,,,CLR,,,,,,,,VFR,,,,,,,,,,,,SPECI,477.0
KMZJ 040030Z AUTO 31007KT 10SM 31/06 A2993 RMK AO2,KMZJ,2021-10-04T00:30:00Z,32.52,-111.32,31.0,6.0,310,7,,10.0,29.929134,,,TRUE,TRUE,,,,,,,,,,,,,,,,,,,,,,,,,,,METAR,574.0
KMBT 040030Z AUTO 18005KT 10SM FEW046 FEW050 22/19 A2992 RMK A01,KMBT,2021-10-04T00:30:00Z,35.88,-86.38,22.0,19.0,180,5,,10.0,29.920275,,,TRUE,TRUE,,,,,,,FEW,4600,FEW,5000,,,,,VFR,,,,,,,,,,,,SPECI,187.0
KGOO 040030Z AUTO 00000KT 10SM CLR 26/M01 A3004 RMK A01,KGOO,2021-10-04T00:30:00Z,39.22,-121.0,26.0,-1.0,0,0,,10.0,30.041338,,,TRUE,TRUE,,,,,,,CLR,,,,,,,,VFR,,,,,,,,,,,,SPECI,950.0
KEDU 040030Z AUTO 15004KT 10SM CLR 30/05 A2989 RMK AO1,KEDU,2021-10-04T00:30:00Z,38.53,-121.78,30.0,5.0,150,4,,10.0,29.890747,,,TRUE,TRUE,,,,,,,CLR,,,,,,,,VFR,,,,,,,,,,,,SPECI,20.0
KDKX 040030Z AUTO 00000KT 9SM OVC032 21/20 A2999 RMK A01,KDKX,2021-10-04T00:30:00Z,35.97,-83.87,21.0,20.0,0,0,,9.0,29.991142,,,TRUE,TRUE,,,,,,,OVC,3200,,,,,,,VFR,,,,,,,,,,,,SPECI,253.0
KBTN 040030Z AUTO 00000KT 10SM CLR 18/12 A2997 RMK AO2,KBTN,2021-10-04T00:30:00Z,45.82,-97.75,18.0,12.0,0,0,,10.0,29.970472,,,TRUE,TRUE,,,,,,,CLR,,,,,,,,VFR,,,,,,,,,,,,METAR,402.0
K65S 040030Z AUTO 00000KT 10SM CLR 18/07 A3002 RMK AO2,K65S,2021-10-04T00:30:00Z,48.73,-116.3,18.0,7.0,0,0,,10.0,30.02067,,,TRUE,TRUE,,,,,,,CLR,,,,,,,,VFR,,,,,,,,,,,,SPECI,708.0
GQNO 040030Z 31008KT 8000 NSC 26/22 Q1010 NOSIG,GQNO,2021-10-04T00:30:00Z,18.3,-15.97,26.0,22.0,310,8,,4.97,29.822834,,,,,,TRUE,,,,,CLR,,,,,,,,MVFR,,,,,,,,,,,,METAR,1.0
GABS 040030Z 23002KT CAVOK 25/24 Q1013 NOSIG,GABS,2021-10-04T00:30:00Z,12.53,-7.95,25.0,24.0,230,2,,6.21,29.911417,,,,,,TRUE,,,,,CAVOK,,,,,,,,VFR,,,,,,,,,,,,METAR,375.0
DIAP 040030Z 20004KT 9999 FEW010 25/25 Q1011 NOSIG,DIAP,2021-10-04T00:30:00Z,5.25,-3.92,25.0,25.0,200,4,,6.21,29.852362,,,,,,TRUE,,,,,FEW,1000,,,,,,,VFR,,,,,,,,,,,,METAR,4.0
KF45 040025Z AUTO 00000KT 10SM A2999 RMK AO2,KF45,2021-10-04T00:25:00Z,26.85,-80.22,,,0,0,,10.0,29.991142,,,TRUE,TRUE,,,,,,,,,,,,,,,,,,,,,,,,,,,SPECI,6.0
LIEO 040020Z VRB02KT CAVOK 16/15 Q1015,LIEO,2021-10-04T00:20:00Z,40.88,9.52,16.0,15.0,0,2,,6.21,29.970472,,,,,,,,,,,CAVOK,,,,,,,,VFR,,,,,,,,,,,,METAR,8.0
LIBD 040020Z 18004KT CAVOK 17/15 Q1020,LIBD,2021-10-04T00:20:00Z,41.13,16.77,17.0,15.0,180,4,,6.21,30.11811,,,,,,,,,,,CAVOK,,,,,,,,VFR,,,,,,,,,,,,METAR,42.0
KO32 040020Z AUTO 30005KT 3SM HZ CLR 25/12 A2989 RMK AO2,KO32,2021-10-04T00:20:00Z,36.67,-119.45,25.0,12.0,300,5,,3.0,29.890747,,,TRUE,TRUE,,,,,,HZ,CLR,,,,,,,,MVFR,,,,,,,,,,,,SPECI,117.0
KMHV 040020Z AUTO 10006G11KT 10SM CLR 30/M03 A2999 RMK A01,KMHV,2021-10-04T00:20:00Z,35.07,-118.15,30.0,-3.0,100,6,11,10.0,29.991142,,,TRUE,TRUE,,,,,,,CLR,,,,,,,,VFR,,,,,,,,,,,,SPECI,841.0
KM04 040020Z AUTO 31004KT 10SM CLR 23/17 A2992 RMK A01,KM04,2021-10-04T00:20:00Z,35.58,-89.58,23.0,17.0,310,4,,10.0,29.920275,,,TRUE,TRUE,,,,,,,CLR,,,,,,,,VFR,,,,,,,,,,,,SPECI,83.0
KGZN 040020Z AUTO 06004KT 10SM CLR 24/14 A3004 RMK AO2,KGZN,2021-10-04T00:20:00Z,32.37,-99.02,24.0,14.0,60,4,,10.0,30.041338,,,TRUE,TRUE,,,,,,,CLR,,,,,,,,VFR,,,,,,,,,,,,SPECI,522.0
ETWM 040020Z AUTO 20006KT //// // ////// 11/10 Q1010 ///,ETWM,2021-10-04T00:20:00Z,52.72,7.33,11.0,10.0,200,6,,,29.822834,,,TRUE,,,,,,,,,,,,,,,,,,,,,,,,,,,,METAR,18.0
ETSN 040020Z VRB02KT 9999 BKN050 14/11 Q1016 BLU,ETSN,2021-10-04T00:20:00Z,48.72,11.22,14.0,11.0,0,2,,6.21,30.0,,,,,,,,,,,BKN,5000,,,,,,,VFR,,,,,,,,,,,,METAR,378.0
ETSL 040020Z 31001KT 9999 SCT035 BKN050 BKN090 14/11 Q1016 BLU,ETSL,2021-10-04T00:20:00Z,48.18,10.87,14.0,11.0,310,1,,6.21,30.0,,,,,,,,,,,SCT,3500,BKN,5000,BKN,9000,,,VFR,,,,,,,,,,,,METAR,548.0
ETSI 040020Z AUTO 27004KT 9999 // ////// 14/11 Q1016 ///,ETSI,2021-10-04T00:20:00Z,48.72,11.53,14.0,11.0,270,4,,6.21,30.0,,,TRUE,,,,,,,,,,,,,,,,,,,,,,,,,,,,METAR,366.0
ETSH 040020Z VRB03KT 9999 BKN100 BKN140 16/12 Q1013 BLU,ETSH,2021-10-04T00:20:00Z,51.77,13.17,16.0,12.0,0,3,,6.21,29.911417,,,,,,,,,,,BKN,10000,BKN,14000,,,,,VFR,,,,,,,,,,,,METAR,79.0
ETSB 040020Z AUTO 23008KT 9999 // ////// 09/09 Q1015 ///,ETSB,2021-10-04T00:20:00Z,50.17,7.07,9.0,9.0,230,8,,6.21,29.970472,,,TRUE,,,,,,,,,,,,,,,,,,,,,,,,,,,,METAR,477.0
ETNW 040020Z AUTO 23008KT 4900 // ////// 13/09 Q1012 ///,ETNW,2021-10-04T00:20:00Z,52.45,9.42,13.0,9.0,230,8,,3.04,29.88189,,,TRUE,,,,,,,,,,,,,,,,,,,,,,,,,,,,METAR,57.0
ETNT 040020Z 20008KT 9999 SCT200 11/09 Q1009 BLU+,ETNT,2021-10-04T00:20:00Z,53.53,7.67,11.0,9.0,200,8,,6.21,29.793306,,,,,,,,,,,SCT,20000,,,,,,,VFR,,,,,,,,,,,,METAR,5.0
ETNS 040020Z AUTO 19008KT 5000 // ////// 11/10 Q1009 ///,ETNS,2021-10-04T00:20:00Z,54.47,9.52,11.0,10.0,190,8,,3.11,29.793306,,,TRUE,,,,,,,,,,,,,,,,,,,,,,,,,,,,METAR,22.0
ETNN 040020Z 20006KT 9999 BKN150 12/08 Q1014 BLU,ETNN,2021-10-04T00:20:00Z,50.82,6.67,12.0,8.0,200,6,,6.21,29.940945,,,,,,,,,,,BKN,15000,,,,,,,VFR,,,,,,,,,,,,METAR,108.0
ETNL 040020Z 26006KT 9999 FEW022 BKN050 15/11 Q1011 BLU,ETNL,2021-10-04T00:20:00Z,53.92,12.27,15.0,11.0,260,6,,6.21,29.852362,,,,,,,,,,,FEW,2200,BKN,5000,,,,,VFR,,,,,,,,,,,,METAR,40.0
ETNH 040020Z AUTO 20004KT 8000 // ////// 11/10 Q1009 ///,ETNH,2021-10-04T00:20:00Z,54.32,9.55,11.0,10.0,200,4,,4.97,29.793306,,,TRUE,,,,,,,,,,,,,,,,,,,,,,,,,,,,METAR,6.0
ETMN 040020Z 21009KT 9999 BKN180 BKN220 11/10 Q1010 BLU,ETMN,2021-10-04T00:20:00Z,53.77,8.67,11.0,10.0,210,9,,6.21,29.822834,,,,,,,,,,,BKN,18000,BKN,22000,,,,,VFR,,,,,,,,,,,,METAR,23.0
ETHS 040020Z 23004KT 9999 SCT140 BKN200 12/09 Q1012 BLU+,ETHS,2021-10-04T00:20:00Z,52.92,10.18,12.0,9.0,230,4,,6.21,29.88189,,,,,,,,,,,SCT,14000,BKN,20000,,,,,VFR,,,,,,,,,,,,METAR,71.0
ETHN 040020Z 26010KT 9999 BKN060 12/10 Q1016 BLU,ETHN,2021-10-04T00:20:00Z,49.38,9.97,12.0,10.0,260,10,,6.21,30.0,,,,,,,,,,,BKN,6000,,,,,,,VFR,,,,,,,,,,,,METAR,466.0
ETHL 040020Z 25004KT 9999 BKN045 14/08 Q1016 BLU,ETHL,2021-10-04T00:20:00Z,48.22,9.92,14.0,8.0,250,4,,6.21,30.0,,,,,,,,,,,BKN,4500,,,,,,,VFR,,,,,,,,,,,,METAR,536.0
ETHF 040020Z 20002KT 9999 BKN100 12/09 Q1014 BLU,ETHF,2021-10-04T00:20:00Z,51.12,9.28,12.0,9.0,200,2,,6.21,29.940945,,,,,,,,,,,BKN,10000,,,,,,,VFR,,,,,,,,,,,,METAR,171.0
ETHC 040020Z 24007KT 9999 FEW060 SCT130 BKN170 13/08 Q1013 BLU,ETHC,2021-10-04T00:20:00Z,52.6,10.02,13.0,8.0,240,7,,6.21,29.911417,,,,,,,,,,,FEW,6000,SCT,13000,BKN,17000,,,VFR,,,,,,,,,,,,METAR,35.0
ETHB 040020Z AUTO 22012KT 9999 // ////// 12/09 Q1012 ///,ETHB,2021-10-04T00:20:00Z,52.27,9.07,12.0,9.0,220,12,,6.21,29.88189,,,TRUE,,,,,,,,,,,,,,,,,,,,,,,,,,,,METAR,69.0
ETHA 040020Z AUTO 08005KT //// // ////// 14/12 Q1017 ///,ETHA,2021-10-04T00:20:00Z,47.83,10.87,14.0,12.0,80,5,,,30.029528,,,TRUE,,,,,,,,,,,,,,,,,,,,,,,,,,,,METAR,738.0
ETGG 040020Z AUTO 20012KT 9999 // ////// 12/11 Q1009 ///,ETGG,2021-10-04T00:20:00Z,54.83,9.5,12.0,11.0,200,12,,6.21,29.793306,,,TRUE,,,,,,,,,,,,,,,,,,,,,,,,,,,,METAR,33.0
K40B 040016Z AUTO 00000KT 06/06 A3008 RMK AO1 SLP190 T00580063 10136 20057 52016,K40B,2021-10-04T00:16:00Z,46.62,-69.52,5.8,6.3,0,0,,,30.079725,1019.0,,TRUE,TRUE,,,,,,,,,,,,,,,,1.6,13.6,5.7,,,,,,,,,SPECI,344.0
KMFV 040015Z AUTO 18007KT 10SM CLR 22/M20 A2997 RMK AO2 T02231204,KMFV,2021-10-04T00:15:00Z,37.63,-75.77,22.3,-20.4,180,7,,10.0,29.970472,,,TRUE,TRUE,,,,,,,CLR,,,,,,,,VFR,,,,,,,,,,,,SPECI,13.0
KEOE 040015Z AUTO 24003KT 10SM CLR 22/18 A3005 RMK AO2,KEOE,2021-10-04T00:15:00Z,34.32,-81.63,22.0,18.0,240,3,,10.0,30.050198,,,TRUE,TRUE,,,,,,,CLR,,,,,,,,VFR,,,,,,,,,,,,SPECI,166.0
YSNW 040013Z AUTO 27015KT 260V350 9999 // NCD 24/10 Q0998,YSNW,2021-10-04T00:13:00Z,-34.95,150.53,24.0,10.0,270,15,,6.21,29.468504,,,TRUE,,,,,,,,CLR,,,,,,,,VFR,,,,,,,,,,,,SPECI,109.0
KPRN 040011Z AUTO 23003KT 5SM HZ FEW028 SCT041 OVC060 22/19 A3000 RMK AO2 P0004 T02220194 PWINO $,KPRN,2021-10-04T00:11:00Z,31.85,-86.62,22.2,19.4,230,3,,5.0,30.0,,,TRUE,TRUE,TRUE,,,,TRUE,HZ,FEW,2800,SCT,4100,OVC,6000,,,MVFR,,,,,,0.04,,,,,,SPECI,137.0
VCRI 040010Z 22006KT 9999 FEW017 25/25 Q1007 NOSIG,VCRI,2021-10-04T00:10:00Z,6.28,81.13,25.0,25.0,220,6,,6.21,29.734253,,,,,,TRUE,,,,,FEW,1700,,,,,,,VFR,,,,,,,,,,,,METAR,50.0
VCBI 040010Z VRB02KT 9999 SCT016 25/23 Q1007 NOSIG,VCBI,2021-10-04T00:10:00Z,7.17,79.88,25.0,23.0,0,2,,6.21,29.734253,,,,,,TRUE,,,,,SCT,1600,,,,,,,VFR,,,,,,,,,,,,METAR,10.0
MUCL 040005Z AUTO /////KT XX/XX Q1012,MUCL,2021-10-04T00:05:00Z,21.63,-81.55,,,,,,,29.88189,,,TRUE,,,,,,,,,,,,,,,,,,,,,,,,,,,,METAR,5.0
YRMD 040000Z AUTO 16015KT 9999 // NCD 31/04 Q1011,YRMD,2021-10-04T00:00:00Z,-20.7,143.12,31.0,4.0,160,15,,6.21,29.852362,,,TRUE,,,,,,,,CLR,,,,,,,,VFR,,,,,,,,,,,,METAR,209.0
YPBO 040000Z AUTO 07009KT 9999 // NCD 24/M03 Q1012,YPBO,2021-10-04T00:00:00Z,-23.17,117.75,24.0,-3.0,70,9,,6.21,29.88189,,,TRUE,,,,,,,,CLR,,,,,,,,VFR,,,,,,,,,,,,METAR,425.0
YOLD 040000Z AUTO 23015KT 9999 // NCD 17/04 Q1014,YOLD,2021-10-04T00:00:00Z,-30.48,136.88,17.0,4.0,230,15,,6.21,29.940945,,,TRUE,,,,,,,,CLR,,,,,,,,VFR,,,,,,,,,,,,METAR,102.0
YNWN 040000Z AUTO 09007KT 9999 // NCD 22/00 Q1014,YNWN,2021-10-04T00:00:00Z,-23.42,119.8,22.0,0.0,90,7,,6.21,29.940945,,,TRUE,,,,,,,,CLR,,,,,,,,VFR,,,,,,,,,,,,METAR,526.0
YNTN 040000Z AUTO 35004KT 260V060 9999 // SCT027 30/22 Q1010,YNTN,2021-10-04T00:00:00Z,-17.68,141.07,30.0,22.0,350,4,,6.21,29.822834,,,TRUE,,,,,,,,SCT,2700,,,,,,,VFR,,,,,,,,,,,,METAR,19.0
YNBR 040000Z AUTO 26011KT 9999 // NCD 22/10 Q1006,YNBR,2021-10-04T00:00:00Z,-30.32,149.83,22.0,10.0,260,11,,6.21,29.704725,,,TRUE,,,,,,,,CLR,,,,,,,,VFR,,,,,,,,,,,,METAR,230.0
YNAR 040000Z AUTO 28013KT 9999 // BKN028 BKN034 16/08 Q1006,YNAR,2021-10-04T00:00:00Z,-34.7,146.52,16.0,8.0,280,13,,6.21,29.704725,,,TRUE,,,,,,,,BKN,2800,BKN,3400,,,,,MVFR,,,,,,,,,,,,METAR,142.0
YLIS 040000Z AUTO 15007KT 9999 // ////// 29/14 Q1002,YLIS,2021-10-04T00:00:00Z,-28.83,153.27,29.0,14.0,150,7,,6.21,29.586615,,,TRUE,,,,,,,,,,,,,,,,,,,,,,,,,,,,METAR,6.0
YLEC 040000Z AUTO 24015KT 9999 // NCD 17/05 Q1013,YLEC,2021-10-04T00:00:00Z,-30.6,138.43,17.0,5.0,240,15,,6.21,29.911417,,,TRUE,,,,,,,,CLR,,,,,,,,VFR,,,,,,,,,,,,METAR,261.0
YKRY 040000Z AUTO 32014KT 9999 // NCD 28/13 Q1008,YKRY,2021-10-04T00:00:00Z,-26.57,151.83,28.0,13.0,320,14,,6.21,29.763779,,,TRUE,,,,,,,,CLR,,,,,,,,VFR,,,,,,,,,,,,METAR,435.0
YHUG 040000Z AUTO 16007KT 9999 // NCD 31/04 Q1010,YHUG,2021-10-04T00:00:00Z,-20.82,144.23,31.0,4.0,160,7,,6.21,29.822834,,,TRUE,,,,,,,,CLR,,,,,,,,VFR,,,,,,,,,,,,METAR,320.0
YGTH 040000Z AUTO 28013KT 9999 // SCT033 17/09 Q1006,YGTH,2021-10-04T00:00:00Z,-34.25,146.07,17.0,9.0,280,13,,6.21,29.704725,,,TRUE,,,,,,,,SCT,3300,,,,,,,VFR,,,,,,,,,,,,METAR,132.0
YGTE 040000Z AUTO 31006KT 9999 // NCD 31/23 Q1008,YGTE,2021-10-04T00:00:00Z,-13.97,136.45,31.0,23.0,310,6,,6.21,29.763779,,,TRUE,,,,,,,,CLR,,,,,,,,VFR,,,,,,,,,,,,METAR,14.0
YGFN 040000Z AUTO 01007KT 9999 // NCD 26/13 Q1001,YGFN,2021-10-04T00:00:00Z,-29.77,153.03,26.0,13.0,10,7,,6.21,29.557087,,,TRUE,,,,,,,,CLR,,,,,,,,VFR,,,,,,,,,,,,METAR,26.0
YESP 040000Z AUTO 35014KT 9999 // NCD 12/11 Q1016,YESP,2021-10-04T00:00:00Z,-33.68,121.82,12.0,11.0,350,14,,6.21,30.0,,,TRUE,,,,,,,,CLR,,,,,,,,VFR,,,,,,,,,,,,METAR,143.0
YEML 040000Z AUTO 32009KT 270V360 9999 // NCD 31/17 Q1008,YEML,2021-10-04T00:00:00Z,-23.57,148.18,31.0,17.0,320,9,,6.21,29.763779,,,TRUE,,,,,,,,CLR,,,,,,,,VFR,,,,,,,,,,,,METAR,192.0
YDBY 040000Z AUTO 24006KT 9999 // NCD 26/19 Q1010,YDBY,2021-10-04T00:00:00Z,-17.37,123.67,26.0,19.0,240,6,,6.21,29.822834,,,TRUE,,,,,,,,CLR,,,,,,,,VFR,,,,,,,,,,,,METAR,7.0
YCNM 040000Z AUTO 22012KT //// // ////// 19/12 Q1007,YCNM,2021-10-04T00:00:00Z,-30.98,148.38,19.0,12.0,220,12,,,29.734253,,,TRUE,,,,,,,,,,,,,,,,,,,,,,,,,,,,METAR,180.0
YCDU 040000Z AUTO 24018G31KT 9999 // SCT039 BKN048 OVC052 15/07 Q1015,YCDU,2021-10-04T00:00:00Z,-32.12,133.7,15.0,7.0,240,18,31,6.21,29.970472,,,TRUE,,,,,,,,SCT,3900,BKN,4800,OVC,5200,,,VFR,,,,,,,,,,,,METAR,21.0
YBPN 040000Z AUTO 35013KT 9999 // NCD 30/21 Q1008,YBPN,2021-10-04T00:00:00Z,-20.5,148.55,30.0,21.0,350,13,,6.21,29.763779,,,TRUE,,,,,,,,CLR,,,,,,,,VFR,,,,,,,,,,,,METAR,20.0
YBOK 040000Z AUTO 29017KT 9999 // NCD 28/08 Q1007,YBOK,2021-10-04T00:00:00Z,-27.42,151.73,28.0,8.0,290,17,,6.21,29.734253,,,TRUE,,,,,,,,CLR,,,,,,,,VFR,,,,,,,,,,,,METAR,406.0
YBNA 040000Z AUTO 05003KT 9999 // NCD 28/17 Q1002,YBNA,2021-10-04T00:00:00Z,-28.83,153.57,28.0,17.0,50,3,,6.21,29.586615,,,TRUE,,,,,,,,CLR,,,,,,,,VFR,,,,,,,,,,,,METAR,3.0
YBMK 040000Z AUTO 36014KT 9999 // NCD 30/23 Q1008,YBMK,2021-10-04T00:00:00Z,-21.17,149.17,30.0,23.0,360,14,,6.21,29.763779,,,TRUE,,,,,,,,CLR,,,,,,,,VFR,,,,,,,,,,,,METAR,4.0
YBHI 040000Z AUTO 27021KT 9999 // NCD 17/03 Q1009,YBHI,2021-10-04T00:00:00Z,-32.0,141.47,17.0,3.0,270,21,,6.21,29.793306,,,TRUE,,,,,,,,CLR,,,,,,,,VFR,,,,,,,,,,,,METAR,285.0
WMKN 040000Z 18003KT 140V240 9999 FEW018 26/24 Q1008,WMKN,2021-10-04T00:00:00Z,5.37,103.1,26.0,24.0,180,3,,6.21,29.763779,,,,,,,,,,,FEW,1800,,,,,,,VFR,,,,,,,,,,,,METAR,12.0
WMKI 040000Z 03005KT 360V060 9999 FEW028 25/23 Q1009,WMKI,2021-10-04T00:00:00Z,4.57,101.08,25.0,23.0,30,5,,6.21,29.793306,,,,,,,,,,,FEW,2800,,,,,,,VFR,,,,,,,,,,,,METAR,37.0
WMKE 040000Z 00000KT 9999 FEW010 24/23 Q1008,WMKE,2021-10-04T00:00:00Z,4.53,103.43,24.0,23.0,0,0,,6.21,29.763779,,,,,,,,,,,FEW,1000,,,,,,,VFR,,,,,,,,,,,,METAR,5.0
WMKC 040000Z 23003KT 190V290 9999 FEW017CB 26/24 Q1008,WMKC,2021-10-04T00:00:00Z,6.17,102.28,26.0,24.0,230,3,,6.21,29.763779,,,,,,,,,,,FEW,1700,,,,,,,VFR,,,,,,,,,,,,METAR,7.0
WMKB 040000Z VRB02KT 6000 FEW017CB 27/25 Q1008 NOSIG,WMKB,2021-10-04T00:00:00Z,5.47,100.38,27.0,25.0,0,2,,3.73,29.763779,,,,,,TRUE,,,,,FEW,1700,,,,,,,MVFR,,,,,,,,,,,,METAR,4.0
WMKA 040000Z 00000KT 8000 FEW017CB 26/25 Q1008,WMKA,2021-10-04T00:00:00Z,6.2,100.4,26.0,25.0,0,0,,4.97,29.763779,,,,,,,,,,,FEW,1700,,,,,,,MVFR,,,,,,,,,,,,METAR,5.0
WMBA 040000Z VRB01KT 9999 FEW021 24/23 Q1008,WMBA,2021-10-04T00:00:00Z,4.22,100.7,24.0,23.0,0,1,,6.21,29.763779,,,,,,,,,,,FEW,2100,,,,,,,VFR,,,,,,,,,,,,METAR,9.0
WMAU 040000Z 23005KT 7000 FEW001 SCT025 24/23 Q1009,WMAU,2021-10-04T00:00:00Z,2.38,103.88,24.0,23.0,230,5,,4.35,29.793306,,,,,,,,,,,FEW,100,SCT,2500,,,,,MVFR,,,,,,,,,,,,METAR,5.0
WAPP 040000Z VRB01KT 9999 SCT019 27/25 Q1009 NOSIG,WAPP,2021-10-04T00:00:00Z,-3.7,128.08,27.0,25.0,0,1,,6.21,29.793306,,,,,,TRUE,,,,,SCT,1900,,,,,,,VFR,,,,,,,,,,,,METAR,20.0
VRMM 040000Z 29015KT 9999 FEW018TCU SCT270 28/24 Q1007 TEMPO FEW018CB,VRMM,2021-10-04T00:00:00Z,4.2,73.52,28.0,24.0,290,15,,6.21,29.734253,,,,,,,,,,,FEW,1800,SCT,27000,,,,,VFR,,,,,,,,,,,,SPECI,2.0
VOPB 040000Z VRB02KT 5000 BR SCT014 FEW022TCU BKNO80 24/22 Q1009 TEMPO 3000 RA,VOPB,2021-10-04T00:00:00Z,11.63,92.73,24.0,22.0,0,2,,3.11,29.793306,,,,,,,,,,BR,SCT,1400,FEW,2200,,,,,MVFR,,,,,,,,,,,,METAR,1.0
VOGO 040000Z VRB02KT 5000 BR FEW012 SCT090 26/25 Q1006 NOSIG,VOGO,2021-10-04T00:00:00Z,15.38,73.83,26.0,25.0,0,2,,3.11,29.704725,,,,,,TRUE,,,,BR,FEW,1200,SCT,9000,,,,,MVFR,,,,,,,,,,,,METAR,56.0
VELR 040000Z 00000KT 2500 -TSDZ SCT009 BKN018 FEW025CB OVC090 25/25 Q1008,VELR,2021-10-04T00:00:00Z,27.3,94.1,25.0,25.0,0,0,,1.55,29.763779,,,,,,,,,,-TSDZ,SCT,900,BKN,1800,FEW,2500,OVC,9000,IFR,,,,,,,,,,,,METAR,101.0
VARK 040000Z 27004KT 6000 NSC 26/25 Q1007,VARK,2021-10-04T00:00:00Z,22.3,70.77,26.0,25.0,270,4,,3.73,29.734253,,,,,,,,,,,CLR,,,,,,,,MVFR,,,,,,,,,,,,METAR,125.0
VAAU 040000Z 00000KT 4000 HZ SCT020 24/23 Q1010 NOSIG,VAAU,2021-10-04T00:00:00Z,19.85,75.4,24.0,23.0,0,0,,2.49,29.822834,,,,,,TRUE,,,,HZ,SCT,2000,,,,,,,IFR,,,,,,,,,,,,METAR,578.0
UBBY 040000Z 30004KT 8000 -TSRA SCT020CB OVC040 12/12 Q1020 R33/////// NOSIG RMK MT PT OBSC,UBBY,2021-10-04T00:00:00Z,41.57,46.67,12.0,12.0,300,4,,4.97,30.11811,,,,,,TRUE,,,,-TSRA,SCT,2000,OVC,4000,,,,,MVFR,,,,,,,,,,,,METAR,383.0
SMZO 040000Z 02002KT CAVOK 28/25 Q1009 NOSIG,SMZO,2021-10-04T00:00:00Z,5.82,-55.18,28.0,25.0,20,2,,6.21,29.793306,,,,,,TRUE,,,,,CAVOK,,,,,,,,VFR,,,,,,,,,,,,METAR,7.0
SLAL 040000Z 03013KT 9999 FEW017 15/09 Q1024,SLAL,2021-10-04T00:00:00Z,-19.23,-65.15,15.0,9.0,30,13,,6.21,30.236221,,,,,,,,,,,FEW,1700,,,,,,,VFR,,,,,,,,,,,,METAR,3109.0
SCRM 040000Z 03015KT 1200 SN BR SCT005 BKN015 OVC030 M00/M00 Q0983 NOSIG,SCRM,2021-10-04T00:00:00Z,-62.18,-58.98,0.0,0.0,30,15,,0.75,29.02559,,,,,,TRUE,,,,SN BR,SCT,500,BKN,1500,OVC,3000,,,LIFR,,,,,,,,,,,,METAR,45.0
SBYS 040000Z 14004KT 090V210 9999 VCTS FEW017 BKN088 //////CB 19/19 Q1015,SBYS,2021-10-04T00:00:00Z,-21.97,-47.33,19.0,19.0,140,4,,6.21,29.970472,,,,,,,,,,VCTS,FEW,1700,BKN,8800,,,,,VFR,,,,,,,,,,,,METAR,600.0
SBUR 040000Z 22014KT 9999 FEW040 BKN100 22/18 Q1016,SBUR,2021-10-04T00:00:00Z,-19.77,-47.97,22.0,18.0,220,14,,6.21,30.0,,,,,,,,,,,FEW,4000,BKN,10000,,,,,VFR,,,,,,,,,,,,METAR,807.0
SBUL 040000Z 22004KT CAVOK 28/14 Q1015,SBUL,2021-10-04T00:00:00Z,-18.87,-48.22,28.0,14.0,220,4,,6.21,29.970472,,,,,,,,,,,CAVOK,,,,,,,,VFR,,,,,,,,,,,,METAR,945.0
SBTK 040000Z AUTO 02004KT CAVOK 26/23 Q1007,SBTK,2021-10-04T00:00:00Z,-8.17,-70.77,26.0,23.0,20,4,,6.21,29.734253,,,TRUE,,,,,,,,CAVOK,,,,,,,,VFR,,,,,,,,,,,,METAR,194.0
SBSR 040000Z 12009KT 8000 -TSRA SCT005 FEW025CB OVC070 19/16 Q1013,SBSR,2021-10-04T00:00:00Z,-20.8,-49.4,19.0,16.0,120,9,,4.97,29.911417,,,,,,,,,,-TSRA,SCT,500,FEW,2500,OVC,7000,,,MVFR,,,,,,,,,,,,METAR,537.0
SBSM 040000Z 27002KT 9999 BKN035 18/14 Q1012,SBSM,2021-10-04T00:00:00Z,-29.72,-53.7,18.0,14.0,270,2,,6.21,29.88189,,,,,,,,,,,BKN,3500,,,,,,,VFR,,,,,,,,,,,,METAR,86.0
SBSC 040000Z 19007KT 9999 FEW025 BKN050 OVC100 22/21 Q1014 RERA,SBSC,2021-10-04T00:00:00Z,-22.92,-43.72,22.0,21.0,190,7,,6.21,29.940945,,,,,,,,,,,FEW,2500,BKN,5000,OVC,10000,,,VFR,,,,,,,,,,,,METAR,6.0
SBPL 040000Z 14005KT CAVOK 29/12 Q1012,SBPL,2021-10-04T00:00:00Z,-9.37,-40.57,29.0,12.0,140,5,,6.21,29.88189,,,,,,,,,,,CAVOK,,,,,,,,VFR,,,,,,,,,,,,METAR,386.0
SBNM 040000Z AUTO 16006KT 9999 BKN031 OVC041 18/16 Q1012,SBNM,2021-10-04T00:00:00Z,-28.27,-54.17,18.0,16.0,160,6,,6.21,29.88189,,,TRUE,,,,,,,,BKN,3100,OVC,4100,,,,,VFR,,,,,,,,,,,,METAR,325.0
SBMT 040000Z 06004KT 9999 SCT009 BKN100 18/15 Q1015,SBMT,2021-10-04T00:00:00Z,-23.52,-46.63,18.0,15.0,60,4,,6.21,29.970472,,,,,,,,,,,SCT,900,BKN,10000,,,,,VFR,,,,,,,,,,,,METAR,722.0
SBMK 040000Z 09003KT CAVOK 29/07 Q1013,SBMK,2021-10-04T00:00:00Z,-16.7,-43.82,29.0,7.0,90,3,,6.21,29.911417,,,,,,,,,,,CAVOK,,,,,,,,VFR,,,,,,,,,,,,METAR,665.0
SBMG 040000Z 11014KT 9999 -RA VCTS SCT040 FEW050CB BKN100 19/17 Q1009,SBMG,2021-10-04T00:00:00Z,-23.48,-52.02,19.0,17.0,110,14,,6.21,29.793306,,,,,,,,,,-RA VCTS,SCT,4000,FEW,5000,BKN,10000,,,VFR,,,,,,,,,,,,METAR,543.0
SBME 040000Z 21004KT 9999 BKN020 BKN070 26/23 Q1011,SBME,2021-10-04T00:00:00Z,-22.35,-41.77,26.0,23.0,210,4,,6.21,29.852362,,,,,,,,,,,BKN,2000,BKN,7000,,,,,MVFR,,,,,,,,,,,,METAR,2.0
SBLS 040000Z 15005KT CAVOK 25/19 Q1015,SBLS,2021-10-04T00:00:00Z,-19.67,-43.88,25.0,19.0,150,5,,6.21,29.970472,,,,,,,,,,,CAVOK,,,,,,,,VFR,,,,,,,,,,,,METAR,850.0
SBLB 040000Z AUTO 02030KT 9999 NCD 25/22 Q1012 W24/S5,SBLB,2021-10-04T00:00:00Z,-22.1,-39.92,25.0,22.0,20,30,,6.21,29.88189,,,TRUE,,,,,,,,CLR,,,,,,,,VFR,,,,,,,,,,,,METAR,10.0
SBJV 040000Z 16005KT 9999 FEW030 BKN050 21/19 Q1008,SBJV,2021-10-04T00:00:00Z,-26.22,-48.8,21.0,19.0,160,5,,6.21,29.763779,,,,,,,,,,,FEW,3000,BKN,5000,,,,,VFR,,,,,,,,,,,,METAR,3.0
SBJU 040000Z 18002KT 9999 FEW020 30/12 Q1014,SBJU,2021-10-04T00:00:00Z,-7.22,-39.27,30.0,12.0,180,2,,6.21,29.940945,,,,,,,,,,,FEW,2000,,,,,,,VFR,,,,,,,,,,,,METAR,407.0
SBIL 040000Z 03008KT 9999 FEW020 26/24 Q1014,SBIL,2021-10-04T00:00:00Z,-14.8,-39.02,26.0,24.0,30,8,,6.21,29.940945,,,,,,,,,,,FEW,2000,,,,,,,VFR,,,,,,,,,,,,METAR,9.0
SBDN 040000Z 13007KT CAVOK 19/19 Q1011,SBDN,2021-10-04T00:00:00Z,-22.18,-51.43,19.0,19.0,130,7,,6.21,29.852362,,,,,,,,,,,CAVOK,,,,,,,,VFR,,,,,,,,,,,,METAR,438.0
SBCX 040000Z 21008KT 0600 FG VV001 15/// Q1013,SBCX,2021-10-04T00:00:00Z,-29.2,-51.18,,,210,8,,0.37,29.911417,,,,,,,,,,FG,OVX,0,,,,,,,LIFR,,,,,,,,,,,100,METAR,752.0
SBCO 040000Z 16012KT 9999 BKN018 BKN045 18/14 Q1013,SBCO,2021-10-04T00:00:00Z,-29.95,-51.15,18.0,14.0,160,12,,6.21,29.911417,,,,,,,,,,,BKN,1800,BKN,4500,,,,,MVFR,,,,,,,,,,,,METAR,8.0
SBCH 040000Z 14010KT 2000 0900NW -RA BCFG BKN003 SCT015 FEW040TCU BKN080 17/16 Q1010,SBCH,2021-10-04T00:00:00Z,-27.13,-52.67,17.0,16.0,140,10,,1.24,29.822834,,,,,,,,,,BCFG -RA,BKN,300,SCT,1500,FEW,4000,BKN,8000,LIFR,,,,,,,,,,,,METAR,639.0
SBBU 040000Z 03008KT 5000 BR SCT005 BKN025 OVC080 19/17 Q1015 RETS,SBBU,2021-10-04T00:00:00Z,-22.33,-49.07,19.0,17.0,30,8,,3.11,29.970472,,,,,,,,,,BR,SCT,500,BKN,2500,OVC,8000,,,MVFR,,,,,,,,,,,,METAR,616.0
SBBI 040000Z 31004KT 240V010 9000 -RA SCT040 BKN100 16/15 Q1012,SBBI,2021-10-04T00:00:00Z,-25.4,-49.23,16.0,15.0,310,4,,5.59,29.88189,,,,,,,,,,-RA,SCT,4000,BKN,10000,,,,,VFR,,,,,,,,,,,,METAR,928.0
SBBH 040000Z 09004KT CAVOK 25/17 Q1014,SBBH,2021-10-04T00:00:00Z,-19.85,-43.95,25.0,17.0,90,4,,6.21,29.940945,,,,,,,,,,,CAVOK,,,,,,,,VFR,,,,,,,,,,,,METAR,799.0
SBAX 040000Z AUTO VRB02KT CAVOK 26/16 Q1015,SBAX,2021-10-04T00:00:00Z,-19.57,-46.97,26.0,16.0,0,2,,6.21,29.970472,,,TRUE,,,,,,,,CAVOK,,,,,,,,VFR,,,,,,,,,,,,METAR,989.0
SBAN 040000Z 00000KT 9999 FEW035 21/17 Q1017,SBAN,2021-10-04T00:00:00Z,-16.22,-48.97,21.0,17.0,0,0,,6.21,30.029528,,,,,,,,,,,FEW,3500,,,,,,,VFR,,,,,,,,,,,,METAR,1131.0
SARP 040000Z 14009KT CAVOK 20/17 Q1011,SARP,2021-10-04T00:00:00Z,-27.38,-55.97,20.0,17.0,140,9,,6.21,29.852362,,,,,,,,,,,CAVOK,,,,,,,,VFR,,,,,,,,,,,,METAR,123.0
SAOC 040000Z 05002KT CAVOK 11/M02 Q1017,SAOC,2021-10-04T00:00:00Z,-33.08,-64.27,11.0,-2.0,50,2,,6.21,30.029528,,,,,,,,,,,CAVOK,,,,,,,,VFR,,,,,,,,,,,,METAR,422.0
RPVM 040000Z 36011KT 8000 -RA SCT020 OVC080 25/23 Q1006 RMK A2971,RPVM,2021-10-04T00:00:00Z,10.32,123.98,25.0,23.0,360,11,,4.97,29.704725,,,,,,,,,,-RA,SCT,2000,OVC,8000,,,,,MVFR,,,,,,,,,,,,SPECI,9.0
RPMZ 040000Z 04005KT 9000 -RA SCT017 OVC080 25/24 Q1007 RMK A2974,RPMZ,2021-10-04T00:00:00Z,6.92,122.07,25.0,24.0,40,5,,5.59,29.734253,,,,,,,,,,-RA,SCT,1700,OVC,8000,,,,,VFR,,,,,,,,,,,,METAR,8.0
RPMD 040000Z 18003KT 140V240 9999 FEW016 SCT090 OVC260 28/23 Q1007 RMK A2974,RPMD,2021-10-04T00:00:00Z,7.12,125.65,28.0,23.0,180,3,,6.21,29.734253,,,,,,,,,,,FEW,1600,SCT,9000,OVC,26000,,,VFR,,,,,,,,,,,,SPECI,19.0
RPLL 040000Z 09006KT 060V130 9000 -RA FEW020 OVC090 25/24 Q1009 NOSIG RMK A2980,RPLL,2021-10-04T00:00:00Z,14.52,121.0,25.0,24.0,90,6,,5.59,29.793306,,,,,,TRUE,,,,-RA,FEW,2000,OVC,9000,,,,,VFR,,,,,,,,,,,,SPECI,15.0
RPLI 040000Z 14004KT 5000 -SHRA FEW018 BKN100 28/25 Q1009 RMK A2980,RPLI,2021-10-04T00:00:00Z,18.17,120.52,28.0,25.0,140,4,,3.11,29.793306,,,,,,,,,,-SHRA,FEW,1800,BKN,10000,,,,,MVFR,,,,,,,,,,,,SPECI,5.0
RPLB 040000Z VRB02KT 9999 SCT020 BKN080 26/23 Q1010 NOSIG RMK A2983,RPLB,2021-10-04T00:00:00Z,14.8,120.27,26.0,23.0,0,2,,6.21,29.822834,,,,,,TRUE,,,,,SCT,2000,BKN,8000,,,,,VFR,,,,,,,,,,,,SPECI,19.0
OTHH 040000Z AUTO 13005KT CAVOK 33/25 Q1005 NOSIG,OTHH,2021-10-04T00:00:00Z,25.27,51.6,33.0,25.0,130,5,,6.21,29.675198,,,TRUE,,,TRUE,,,,,CAVOK,,,,,,,,VFR,,,,,,,,,,,,METAR,3.0
OSAP 040000Z 24004KT CAVOK 20/13 Q1014,OSAP,2021-10-04T00:00:00Z,36.17,37.22,20.0,13.0,240,4,,6.21,29.940945,,,,,,,,,,,CAVOK,,,,,,,,VFR,,,,,,,,,,,,METAR,390.0
ORNI 040000Z 33009KT 8000 NSC 29/09 Q1008 NOSIG,ORNI,2021-10-04T00:00:00Z,31.98,44.4,29.0,9.0,330,9,,4.97,29.763779,,,,,,TRUE,,,,,CLR,,,,,,,,MVFR,,,,,,,,,,,,METAR,33.0
ORMM 040000Z 22008KT CAVOK 22/02 Q1006 NOSIG,ORMM,2021-10-04T00:00:00Z,30.53,47.67,22.0,2.0,220,8,,6.21,29.704725,,,,,,TRUE,,,,,CAVOK,,,,,,,,VFR,,,,,,,,,,,,METAR,2.0
ORER 040000Z 25005KT 7000 NSC 23/07 Q1011 NOSIG,ORER,2021-10-04T00:00:00Z,36.23,43.97,23.0,7.0,250,5,,4.35,29.852362,,,,,,TRUE,,,,,CLR,,,,,,,,MVFR,,,,,,,,,,,,METAR,397.0
OMFJ 040000Z 05009KT 7000 FEW025 30/26 Q1007 A2974,OMFJ,2021-10-04T00:00:00Z,25.1,56.32,30.0,26.0,50,9,,4.35,29.734253,,,,,,,,,,,FEW,2500,,,,,,,MVFR,,,,,,,,,,,,METAR,27.0
OJAM 040000Z 00000KT 8000 FEW025 17/15 Q1017 NOSIG,OJAM,2021-10-04T00:00:00Z,31.98,35.98,17.0,15.0,0,0,,4.97,30.029528,,,,,,TRUE,,,,,FEW,2500,,,,,,,MVFR,,,,,,,,,,,,METAR,765.0
OIZJ 040000Z 09010KT 5000 BR NSC 30/26 Q1006,OIZJ,2021-10-04T00:00:00Z,25.65,57.8,30.0,26.0,90,10,,3.11,29.704725,,,,,,,,,,BR,CLR,,,,,,,,MVFR,,,,,,,,,,,,METAR,6.0
OIZI 040000Z 00000KT CAVOK 26/14 Q1010,OIZI,2021-10-04T00:00:00Z,27.23,60.72,26.0,14.0,0,0,,6.21,29.822834,,,,,,,,,,,CAVOK,,,,,,,,VFR,,,,,,,,,,,,METAR,622.0
OIZC 040000Z 00000KT 3000 BR NSC 25/24 Q1006,OIZC,2021-10-04T00:00:00Z,25.45,60.38,25.0,24.0,0,0,,1.86,29.704725,,,,,,,,,,BR,CLR,,,,,,,,IFR,,,,,,,,,,,,METAR,13.0
OIZB 040000Z 33016KT 8000 NSC 17/M03 Q1014,OIZB,2021-10-04T00:00:00Z,31.1,61.55,17.0,-3.0,330,16,,4.97,29.940945,,,,,,,,,,,CLR,,,,,,,,MVFR,,,,,,,,,,,,METAR,483.0
OITM 040000Z 07008KT CAVOK 18/M03 Q1013,OITM,2021-10-04T00:00:00Z,37.35,46.15,18.0,-3.0,70,8,,6.21,29.911417,,,,,,,,,,,CAVOK,,,,,,,,VFR,,,,,,,,,,,,METAR,1340.0
OINE 040000Z 00000KT CAVOK 15/12 Q1014,OINE,2021-10-04T00:00:00Z,37.38,55.45,15.0,12.0,0,0,,6.21,29.940945,,,,,,,,,,,CAVOK,,,,,,,,VFR,,,,,,,,,,,,METAR,125.0
OIBL 040000Z 00000KT 4000 HZ NSC 30/24 Q1006,OIBL,2021-10-04T00:00:00Z,26.53,54.82,30.0,24.0,0,0,,2.49,29.704725,,,,,,,,,,HZ,CLR,,,,,,,,IFR,,,,,,,,,,,,METAR,25.0
OIAW 040000Z 17004KT 8000 NSC 27/20 Q1005,OIAW,2021-10-04T00:00:00Z,31.33,48.77,27.0,20.0,170,4,,4.97,29.675198,,,,,,,,,,,CLR,,,,,,,,MVFR,,,,,,,,,,,,METAR,25.0
OEYN 040000Z 28004KT CAVOK 28/11 Q1004 NOSIG,OEYN,2021-10-04T00:00:00Z,24.13,38.07,28.0,11.0,280,4,,6.21,29.64567,,,,,,TRUE,,,,,CAVOK,,,,,,,,VFR,,,,,,,,,,,,METAR,20.0
OEWJ 040000Z 36006KT CAVOK 24/19 Q1008 NOSIG,OEWJ,2021-10-04T00:00:00Z,26.18,36.47,24.0,19.0,360,6,,6.21,29.763779,,,,,,TRUE,,,,,CAVOK,,,,,,,,VFR,,,,,,,,,,,,METAR,8.0
OEWD 040000Z 30004KT CAVOK 25/08 Q1010 NOSIG,OEWD,2021-10-04T00:00:00Z,20.5,45.2,25.0,8.0,300,4,,6.21,29.822834,,,,,,TRUE,,,,,CAVOK,,,,,,,,VFR,,,,,,,,,,,,METAR,629.0
OETR 040000Z 26005KT CAVOK 18/11 Q1016 NOSIG,OETR,2021-10-04T00:00:00Z,31.7,38.73,18.0,11.0,260,5,,6.21,30.0,,,,,,TRUE,,,,,CAVOK,,,,,,,,VFR,,,,,,,,,,,,METAR,854.0
OETF 040000Z 27005KT CAVOK 24/15 Q1019 NOSIG,OETF,2021-10-04T00:00:00Z,21.47,40.53,24.0,15.0,270,5,,6.21,30.088583,,,,,,TRUE,,,,,CAVOK,,,,,,,,VFR,,,,,,,,,,,,METAR,1460.0
OETB 040000Z 35010KT CAVOK 23/09 Q1015 NOSIG,OETB,2021-10-04T00:00:00Z,28.37,36.62,23.0,9.0,350,10,,6.21,29.970472,,,,,,TRUE,,,,,CAVOK,,,,,,,,VFR,,,,,,,,,,,,METAR,770.0
OESK 040000Z 34005KT CAVOK 24/06 Q1016,OESK,2021-10-04T00:00:00Z,29.78,40.1,24.0,6.0,340,5,,6.21,30.0,,,,,,,,,,,CAVOK,,,,,,,,VFR,,,,,,,,,,,,METAR,671.0
OESH 040000Z 05004KT 9999 FEW040 31/08 Q1010 NOSIG,OESH,2021-10-04T00:00:00Z,17.47,47.12,31.0,8.0,50,4,,6.21,29.822834,,,,,,TRUE,,,,,FEW,4000,,,,,,,VFR,,,,,,,,,,,,METAR,720.0
OERR 040000Z 33013KT CAVOK 24/06 Q1012 NOSIG,OERR,2021-10-04T00:00:00Z,30.9,41.13,24.0,6.0,330,13,,6.21,29.88189,,,,,,TRUE,,,,,CAVOK,,,,,,,,VFR,,,,,,,,,,,,METAR,554.0
OERF 040000Z 00000KT CAVOK 25/M05 Q1010 NOSIG,OERF,2021-10-04T00:00:00Z,29.62,43.48,25.0,-5.0,0,0,,6.21,29.822834,,,,,,TRUE,,,,,CAVOK,,,,,,,,VFR,,,,,,,,,,,,METAR,441.0
OEPA 040000Z 12003KT CAVOK 27/09 Q1009 NOSIG,OEPA,2021-10-04T00:00:00Z,28.33,46.12,27.0,9.0,120,3,,6.21,29.793306,,,,,,TRUE,,,,,CAVOK,,,,,,,,VFR,,,,,,,,,,,,METAR,361.0
OENG 040000Z 33004KT 9999 SCT030 25/09 Q1015 NOSIG,OENG,2021-10-04T00:00:00Z,17.62,44.42,25.0,9.0,330,4,,6.21,29.970472,,,,,,TRUE,,,,,SCT,3000,,,,,,,VFR,,,,,,,,,,,,METAR,1210.0
OEKM 040000Z 00000KT CAVOK 18/14 Q1023 NOSIG,OEKM,2021-10-04T00:00:00Z,18.3,42.78,18.0,14.0,0,0,,6.21,30.206694,,,,,,TRUE,,,,,CAVOK,,,,,,,,VFR,,,,,,,,,,,,METAR,2038.0
OEKJ 040000Z 28006KT CAVOK 27/M01 Q1012,OEKJ,2021-10-04T00:00:00Z,24.07,47.58,27.0,-1.0,280,6,,6.21,29.88189,,,,,,,,,,,CAVOK,,,,,,,,VFR,,,,,,,,,,,,METAR,487.0
OEJB 040000Z AUTO VRB01KT 2000 NSC 24/24 Q1006 NOSIG,OEJB,2021-10-04T00:00:00Z,27.05,49.4,24.0,24.0,0,1,,1.24,29.704725,,,TRUE,,,TRUE,,,,,CLR,,,,,,,,IFR,,,,,,,,,,,,METAR,6.0
OEHL 040000Z 03006KT CAVOK 26/07 Q1015,OEHL,2021-10-04T00:00:00Z,27.43,41.68,26.0,7.0,30,6,,6.21,29.970472,,,,,,,,,,,CAVOK,,,,,,,,VFR,,,,,,,,,,,,METAR,1002.0
OEGT 040000Z 29008KT CAVOK 17/12 Q1015 NOSIG,OEGT,2021-10-04T00:00:00Z,31.42,37.27,17.0,12.0,290,8,,6.21,29.970472,,,,,,TRUE,,,,,CAVOK,,,,,,,,VFR,,,,,,,,,,,,METAR,512.0
OEGS 040000Z 34003KT CAVOK 23/06 Q1011,OEGS,2021-10-04T00:00:00Z,26.3,43.77,23.0,6.0,340,3,,6.21,29.852362,,,,,,,,,,,CAVOK,,,,,,,,VFR,,,,,,,,,,,,METAR,647.0
OEGN 040000Z 00000KT 9999 FEW035CB SCT100 29/23 Q1008 RETS NOSIG,OEGN,2021-10-04T00:00:00Z,16.9,42.58,29.0,23.0,0,0,,6.21,29.763779,,,,,,TRUE,,,,,FEW,3500,SCT,10000,,,,,VFR,,,,,,,,,,,,METAR,5.0
OEDR 040000Z VRB03KT CAVOK 29/28 Q1004 NOSIG,OEDR,2021-10-04T00:00:00Z,26.27,50.17,29.0,28.0,0,3,,6.21,29.64567,,,,,,TRUE,,,,,CAVOK,,,,,,,,VFR,,,,,,,,,,,,METAR,17.0
OEBH 040000Z 19002KT CAVOK 22/02 Q1014 NOSIG,OEBH,2021-10-04T00:00:00Z,19.98,42.62,22.0,2.0,190,2,,6.21,29.940945,,,,,,TRUE,,,,,CAVOK,,,,,,,,VFR,,,,,,,,,,,,METAR,1167.0
OEBA 040000Z 22003KT 9999 FEW030 23/10 Q1019 NOSIG,OEBA,2021-10-04T00:00:00Z,20.3,41.63,23.0,10.0,220,3,,6.21,30.088583,,,,,,TRUE,,,,,FEW,3000,,,,,,,VFR,,,,,,,,,,,,METAR,1659.0
OEAR 040000Z 00000KT CAVOK 32/23 Q1008,OEAR,2021-10-04T00:00:00Z,,,32.0,23.0,0,0,,6.21,29.763779,,,,,,,,,,,CAVOK,,,,,,,,VFR,,,,,,,,,,,,METAR,
OEAO 040000Z 34012KT CAVOK 30/06 Q1013,OEAO,2021-10-04T00:00:00Z,26.48,38.12,30.0,6.0,340,12,,6.21,29.911417,,,,,,,,,,,CAVOK,,,,,,,,VFR,,,,,,,,,,,,METAR,615.0
OEAH 040000Z 08004KT 6000 SCT030 29/26 Q1006 NOSIG,OEAH,2021-10-04T00:00:00Z,25.28,49.48,29.0,26.0,80,4,,3.73,29.704725,,,,,,TRUE,,,,,SCT,3000,,,,,,,MVFR,,,,,,,,,,,,METAR,180.0
NVVA 040000Z 23004KT 9999 SCT020 BKN040 28/23 Q1010,NVVA,2021-10-04T00:00:00Z,-20.25,169.77,28.0,23.0,230,4,,6.21,29.822834,,,,,,,,,,,SCT,2000,BKN,4000,,,,,VFR,,,,,,,,,,,,METAR,7.0
NVSG 040000Z 04002KT 9999 FEW025 31/25 Q1009,NVSG,2021-10-04T00:00:00Z,-15.3,167.97,31.0,25.0,40,2,,6.21,29.793306,,,,,,,,,,,FEW,2500,,,,,,,VFR,,,,,,,,,,,,METAR,31.0
NVSC 040000Z 05005KT 9999 SCT030 30/26 Q1009,NVSC,2021-10-04T00:00:00Z,-13.85,167.55,30.0,26.0,50,5,,6.21,29.793306,,,,,,,,,,,SCT,3000,,,,,,,VFR,,,,,,,,,,,,METAR,11.0
NFNS 040000Z AUTO 10007KT 060V170 //// ///// Q////,NFNS,2021-10-04T00:00:00Z,-16.82,179.33,,,100,7,,,,,,TRUE,,,,,,,,,,,,,,,,,,,,,,,,,,,,METAR,4.0
NFNL 040000Z AUTO 35008KT //// 28/// Q1011,NFNL,2021-10-04T00:00:00Z,-16.47,179.33,,,350,8,,,29.852362,,,TRUE,,,,,,,,,,,,,,,,,,,,,,,,,,,,METAR,17.0
NFNA 040000Z 04004KT 9999 -SHRA BKN018 BKN043 25/24 Q1011,NFNA,2021-10-04T00:00:00Z,-18.05,178.57,25.0,24.0,40,4,,6.21,29.852362,,,,,,,,,,-SHRA,BKN,1800,BKN,4300,,,,,MVFR,,,,,,,,,,,,METAR,6.0
MZBZ 040000Z 08003KT 9999 FEW023 28/24 A2984 Q1010 NOSIG,MZBZ,2021-10-04T00:00:00Z,17.53,-88.3,28.0,24.0,80,3,,6.21,29.822834,,,,,,TRUE,,,,,FEW,2300,,,,,,,VFR,,,,,,,,,,,,METAR,6.0
MYNN 040000Z 07004KT 040V100 9999 FEW025 27/23 A2995,MYNN,2021-10-04T00:00:00Z,25.03,-77.47,27.0,23.0,70,4,,6.21,29.949802,,,,,,,,,,,FEW,2500,,,,,,,VFR,,,,,,,,,,,,METAR,5.0
MWCB 040000Z 08001KT 9999 BKN016CB 28/26 Q1012,MWCB,2021-10-04T00:00:00Z,19.68,-79.88,28.0,26.0,80,1,,6.21,29.88189,,,,,,,,,,,BKN,1600,,,,,,,MVFR,,,,,,,,,,,,METAR,7.0
MRPV 040000Z 27002KT 8000 VCFG OVC010 21/21 A2993 RERA NOSIG,MRPV,2021-10-04T00:00:00Z,9.95,-84.15,21.0,21.0,270,2,,4.97,29.929134,,,,,,TRUE,,,,VCFG,OVC,1000,,,,,,,MVFR,,,,,,,,,,,,METAR,998.0
MRLM 040000Z 26005KT 9999 FEW020 BKN230 28/24 A2979,MRLM,2021-10-04T00:00:00Z,9.97,-83.03,28.0,24.0,260,5,,6.21,29.790354,,,,,,,,,,,FEW,2000,BKN,23000,,,,,VFR,,,,,,,,,,,,METAR,2.0
MHYR 040000Z 27004KT 9999 SCT025TCU SCT080 25/21,MHYR,2021-10-04T00:00:00Z,15.13,-87.13,25.0,21.0,270,4,,6.21,,,,,,,,,,,,SCT,2500,SCT,8000,,,,,VFR,,,,,,,,,,,,METAR,682.0
MHTR 040000Z 0000KT 9999 SCT024TCU 30/25,MHTR,2021-10-04T00:00:00Z,15.93,-85.93,30.0,25.0,,,,6.21,,,,,,,,,,,,SCT,2400,,,,,,,VFR,,,,,,,,,,,,SPECI,3.0
MHTE 040000Z 09006KT 9999 SCT022TCU FEW026CB 30/27 Q1008 A2977,MHTE,2021-10-04T00:00:00Z,15.78,-87.48,30.0,27.0,90,6,,6.21,29.763779,,,,,,,,,,,SCT,2200,FEW,2600,,,,,VFR,,,,,,,,,,,,METAR,7.0
MHSR 040000Z 00000KT 9999 SCT028TCU FEW030CB BKN250 21/19,MHSR,2021-10-04T00:00:00Z,14.78,-88.78,21.0,19.0,0,0,,6.21,,,,,,,,,,,,SCT,2800,FEW,3000,BKN,25000,,,VFR,,,,,,,,,,,,METAR,1087.0
MHPL 040000Z 05007KT 9999 TS SCT025 SCT026CB BKN080 25/24 Q1009 RESH CB TS N,MHPL,2021-10-04T00:00:00Z,15.27,-83.78,25.0,24.0,50,7,,6.21,29.793306,,,,,,,,,,TS TS,SCT,2500,SCT,2600,BKN,8000,,,VFR,,,,,,,,,,,,SPECI,13.0
MHNO 040000Z 35010KT 9999 SCT038TCU FEW040CB 25/19,MHNO,2021-10-04T00:00:00Z,14.43,-89.18,25.0,19.0,350,10,,6.21,,,,,,,,,,,,SCT,3800,FEW,4000,,,,,VFR,,,,,,,,,,,,METAR,790.0
MHLE 040000Z 05004KT 9999 FEW022CB SCT200 19/16,MHLE,2021-10-04T00:00:00Z,14.28,-88.17,19.0,16.0,50,4,,6.21,,,,,,,,,,,,FEW,2200,SCT,20000,,,,,VFR,,,,,,,,,,,,METAR,1688.0
MHGS 040000Z 36006KT 9999 SCT040TCU FEW042CB 25/19,MHGS,2021-10-04T00:00:00Z,14.57,-88.6,25.0,19.0,360,6,,6.21,,,,,,,,,,,,SCT,4000,FEW,4200,,,,,VFR,,,,,,,,,,,,METAR,913.0
MHCH 040000Z 18010KT 9999 SCT034TCU BKN250 31/24,MHCH,2021-10-04T00:00:00Z,13.32,-87.15,31.0,24.0,180,10,,6.21,,,,,,,,,,,,SCT,3400,BKN,25000,,,,,VFR,,,,,,,,,,,,METAR,58.0
MHCA 040000Z 00000KT 9999 SCT028 FEW030CB BKN070 24/24 RMK CB E,MHCA,2021-10-04T00:00:00Z,14.87,-85.78,24.0,24.0,0,0,,6.21,,,,,,,,,,,,SCT,2800,FEW,3000,BKN,7000,,,VFR,,,,,,,,,,,,SPECI,386.0
MGZA 040000Z 09010KT 9999 FEW030 OVC200 29/21 QFE983/8,MGZA,2021-10-04T00:00:00Z,14.97,-89.53,29.0,21.0,90,10,,6.21,,,,,,,,,,,,FEW,3000,OVC,20000,,,,,VFR,,,,,,,,,,,,METAR,195.0
MGTU 040000Z 14004KT 9999 SCT018 30/22 FEW080,MGTU,2021-10-04T00:00:00Z,,,30.0,22.0,140,4,,6.21,,,,,,,,,,,,SCT,1800,FEW,8000,,,,,VFR,,,,,,,,,,,,METAR,
MGSJ 040000Z 23006KT 9999 TS SCT040CB OVC080 29/26 Q1009 A2980 CB/TS NE CB SMC N,MGSJ,2021-10-04T00:00:00Z,13.93,-90.83,29.0,26.0,230,6,,6.21,29.793306,,,,,,,,,,TS TS,SCT,4000,OVC,8000,,,,,VFR,,,,,,,,,,,,METAR,7.0
MGRT 040000Z 36004KT 9999 FEW018 SCT080 26/25 Q1011 A2985 FEW200 CB DIST SE VOL. SANTA MARIA Y SANTIAGUITO EN ACTIVIDAD,MGRT,2021-10-04T00:00:00Z,14.53,-91.7,26.0,25.0,360,4,,6.21,29.852362,,,,,,,,,,SA SA,FEW,1800,SCT,8000,FEW,20000,,,VFR,,,,,,,,,,,,METAR,209.0
MGQZ 040000Z 02018KT CAVOK 17/09 QFE770/9,MGQZ,2021-10-04T00:00:00Z,14.87,-91.5,17.0,9.0,20,18,,6.21,,,,,,,,,,,,CAVOK,,,,,,,,VFR,,,,,,,,,,,,METAR,2378.0
MGMT 040000Z 00000KT 9999 SCT025 BKN070 30/25,MGMT,2021-10-04T00:00:00Z,,,30.0,25.0,0,0,,6.21,,,,,,,,,,,,SCT,2500,BKN,7000,,,,,VFR,,,,,,,,,,,,METAR,
MGES 040000Z 05006KT 9999 SCT016 BKN200 24/18 QFE907.2 FEW090,MGES,2021-10-04T00:00:00Z,14.57,-89.32,24.0,18.0,50,6,,6.21,,,,,,,,,,,,SCT,1600,BKN,20000,FEW,9000,,,VFR,,,,,,,,,,,,METAR,948.0
MGCB 040000Z 32004KT 9999 BKN016 FEW024CB 21/18 QFE868.4 CB/PCPN SE/W,MGCB,2021-10-04T00:00:00Z,15.48,-90.42,21.0,18.0,320,4,,6.21,,,,,,,,,,,,BKN,1600,FEW,2400,,,,,MVFR,,,,,,,,,,,,METAR,1323.0
MDCY 040000Z 00000KT 9999 FEW018 25/23 Q1012,MDCY,2021-10-04T00:00:00Z,19.27,-69.73,25.0,23.0,0,0,,6.21,29.88189,,,,,,,,,,,FEW,1800,,,,,,,VFR,,,,,,,,,,,,METAR,4.0
MDBH 040000Z 13006KT 9999 FEW018 SCT070 25/23 Q1011,MDBH,2021-10-04T00:00:00Z,18.25,-71.12,25.0,23.0,130,6,,6.21,29.852362,,,,,,,,,,,FEW,1800,SCT,7000,,,,,VFR,,,,,,,,,,,,METAR,7.0
LBIA 032400Z 28004KT 9999 SKC 08/04 Q1025,LBIA,2021-10-04T00:00:00Z,42.45,26.35,8.0,4.0,280,4,,6.21,30.265747,,,,,,,,,,,SKC,,,,,,,,VFR,,,,,,,,,,,,METAR,155.0
KNEL 040000Z AUTO 16003KT 10SM CLR 21/19 A2991 RMK AO2 SLP128 T02110189 10278 20211 53001 $,KNEL,2021-10-04T00:00:00Z,40.03,-74.33,21.1,18.9,160,3,,10.0,29.911417,1012.8,,TRUE,TRUE,TRUE,,,,,,CLR,,,,,,,,VFR,0.1,27.8,21.1,,,,,,,,,SPECI,26.0
HUEN 040000Z 00000KT 9999 FEW024 FEW026CB 20/17 Q1016,HUEN,2021-10-04T00:00:00Z,0.03,32.45,20.0,17.0,0,0,,6.21,30.0,,,,,,,,,,,FEW,2400,FEW,2600,,,,,VFR,,,,,,,,,,,,METAR,1147.0
HTZA 040000Z 00000KT 9999 FEW011 24/21 Q1012 NOSIG,HTZA,2021-10-04T00:00:00Z,-6.22,39.22,24.0,21.0,0,0,,6.21,29.88189,,,,,,TRUE,,,,,FEW,1100,,,,,,,VFR,,,,,,,,,,,,METAR,19.0
HTKJ 040000Z 00000KT 9999 FEW024 18/14 Q1017 NOSIG,HTKJ,2021-10-04T00:00:00Z,-3.42,37.07,18.0,14.0,0,0,,6.21,30.029528,,,,,,TRUE,,,,,FEW,2400,,,,,,,VFR,,,,,,,,,,,,METAR,893.0
HTDA 040000Z 17004KT 9999 FEW010 21/20 Q1013 NOSIG,HTDA,2021-10-04T00:00:00Z,-6.88,39.2,21.0,20.0,170,4,,6.21,29.911417,,,,,,TRUE,,,,,FEW,1000,,,,,,,VFR,,,,,,,,,,,,METAR,53.0
HKNW 040000Z 00000KT 9999 BKN018 16/15 Q1021,HKNW,2021-10-04T00:00:00Z,-1.32,36.82,16.0,15.0,0,0,,6.21,30.147638,,,,,,,,,,,BKN,1800,,,,,,,MVFR,,,,,,,,,,,,METAR,1666.0
HKMO 040000Z 18004KT 9999 FEW020 25/21 Q1012 NOSIG,HKMO,2021-10-04T00:00:00Z,-4.02,39.62,25.0,21.0,180,4,,6.21,29.88189,,,,,,TRUE,,,,,FEW,2000,,,,,,,VFR,,,,,,,,,,,,METAR,55.0
HKML 040000Z 17006KT 9999 FEW019 25/23 Q1011,HKML,2021-10-04T00:00:00Z,-3.22,40.1,25.0,23.0,170,6,,6.21,29.852362,,,,,,,,,,,FEW,1900,,,,,,,VFR,,,,,,,,,,,,METAR,20.0
HKJK 040000Z 35004KT CAVOK 16/13 Q1020 NOSIG,HKJK,2021-10-04T00:00:00Z,-1.32,36.92,16.0,13.0,350,4,,6.21,30.11811,,,,,,TRUE,,,,,CAVOK,,,,,,,,VFR,,,,,,,,,,,,METAR,1615.0
HKEL 040000Z 14003KT CAVOK 13/11 Q1023,HKEL,2021-10-04T00:00:00Z,0.4,35.23,13.0,11.0,140,3,,6.21,30.206694,,,,,,,,,,,CAVOK,,,,,,,,VFR,,,,,,,,,,,,METAR,2116.0
HESN 040000Z 36009KT CAVOK 23/11 Q1012 NOSIG,HESN,2021-10-04T00:00:00Z,23.97,32.82,23.0,11.0,360,9,,6.21,29.88189,,,,,,TRUE,,,,,CAVOK,,,,,,,,VFR,,,,,,,,,,,,METAR,197.0
HESH 040000Z 36012KT CAVOK 27/17 Q1010 NOSIG,HESH,2021-10-04T00:00:00Z,27.97,34.38,27.0,17.0,360,12,,6.21,29.822834,,,,,,TRUE,,,,,CAVOK,,,,,,,,VFR,,,,,,,,,,,,METAR,50.0
HESG 040000Z 32010KT CAVOK 24/10 Q1011 NOSIG,HESG,2021-10-04T00:00:00Z,26.33,31.75,24.0,10.0,320,10,,6.21,29.852362,,,,,,TRUE,,,,,CAVOK,,,,,,,,VFR,,,,,,,,,,,,METAR,70.0
HEPS 040000Z 34005KT 9999 FEW030 24/18 Q1015 NOSIG,HEPS,2021-10-04T00:00:00Z,31.28,32.25,24.0,18.0,340,5,,6.21,29.970472,,,,,,TRUE,,,,,FEW,3000,,,,,,,VFR,,,,,,,,,,,,METAR,2.0
HEMM 040000Z 28006KT 9999 SCT020 22/13 Q1018 NOSIG,HEMM,2021-10-04T00:00:00Z,31.32,27.22,22.0,13.0,280,6,,6.21,30.059055,,,,,,TRUE,,,,,SCT,2000,,,,,,,VFR,,,,,,,,,,,,METAR,26.0
HEMA 040000Z 32012KT CAVOK 24/14 Q1011 NOSIG,HEMA,2021-10-04T00:00:00Z,25.55,34.58,24.0,14.0,320,12,,6.21,29.852362,,,,,,TRUE,,,,,CAVOK,,,,,,,,VFR,,,,,,,,,,,,METAR,77.0
HELX 040000Z 18003KT CAVOK 24/13 Q1012 NOSIG,HELX,2021-10-04T00:00:00Z,25.67,32.7,24.0,13.0,180,3,,6.21,29.88189,,,,,,TRUE,,,,,CAVOK,,,,,,,,VFR,,,,,,,,,,,,METAR,86.0
HEGN 040000Z 29011KT CAVOK 25/15 Q1011 NOSIG,HEGN,2021-10-04T00:00:00Z,27.18,33.8,25.0,15.0,290,11,,6.21,29.852362,,,,,,TRUE,,,,,CAVOK,,,,,,,,VFR,,,,,,,,,,,,METAR,14.0
HEBL 040000Z 35006KT CAVOK 24/11 Q1012 NOSIG,HEBL,2021-10-04T00:00:00Z,22.38,31.62,24.0,11.0,350,6,,6.21,29.88189,,,,,,TRUE,,,,,CAVOK,,,,,,,,VFR,,,,,,,,,,,,METAR,184.0
HEBA 040000Z 34004KT 9999 FEW020 21/15 Q1016 NOSIG,HEBA,2021-10-04T00:00:00Z,30.92,29.7,21.0,15.0,340,4,,6.21,30.0,,,,,,TRUE,,,,,FEW,2000,,,,,,,VFR,,,,,,,,,,,,METAR,41.0
HEAX 040000Z 34008KT 9999 SCT020 23/16 Q1016 NOSIG,HEAX,2021-10-04T00:00:00Z,31.18,29.93,23.0,16.0,340,8,,6.21,30.0,,,,,,TRUE,,,,,SCT,2000,,,,,,,VFR,,,,,,,,,,,,METAR,-2.0
HEAT 040000Z 36010KT CAVOK 20/11 Q1016 NOSIG,HEAT,2021-10-04T00:00:00Z,27.05,31.02,20.0,11.0,360,10,,6.21,30.0,,,,,,TRUE,,,,,CAVOK,,,,,,,,VFR,,,,,,,,,,,,METAR,229.0
GOTT 040000Z 29004KT CAVOK 27/25 Q1011,GOTT,2021-10-04T00:00:00Z,13.73,-13.65,27.0,25.0,290,4,,6.21,29.852362,,,,,,,,,,,CAVOK,,,,,,,,VFR,,,,,,,,,,,,METAR,53.0
GOSS 040000Z 34006KT 300V020 CAVOK 29/28 Q1012,GOSS,2021-10-04T00:00:00Z,16.05,-16.45,29.0,28.0,340,6,,6.21,29.88189,,,,,,,,,,,CAVOK,,,,,,,,VFR,,,,,,,,,,,,METAR,3.0
GOSP 040000Z 28002KT CAVOK 30/21 Q1010,GOSP,2021-10-04T00:00:00Z,16.68,-14.97,30.0,21.0,280,2,,6.21,29.822834,,,,,,,,,,,CAVOK,,,,,,,,VFR,,,,,,,,,,,,METAR,10.0
GOSM 040000Z 24002KT CAVOK 30/24 Q1010,GOSM,2021-10-04T00:00:00Z,15.6,-13.33,30.0,24.0,240,2,,6.21,29.822834,,,,,,,,,,,CAVOK,,,,,,,,VFR,,,,,,,,,,,,METAR,28.0
GOOY 040000Z 00000KT CAVOK 28/25 Q1012,GOOY,2021-10-04T00:00:00Z,14.73,-17.5,28.0,25.0,0,0,,6.21,29.88189,,,,,,,,,,,CAVOK,,,,,,,,VFR,,,,,,,,,,,,METAR,21.0
GOOK 040000Z 00000KT CAVOK 30/26 Q1012,GOOK,2021-10-04T00:00:00Z,14.15,-16.07,30.0,26.0,0,0,,6.21,29.88189,,,,,,,,,,,CAVOK,,,,,,,,VFR,,,,,,,,,,,,METAR,8.0
GOOG 040000Z 27004KT CAVOK 29/26 Q1010,GOOG,2021-10-04T00:00:00Z,15.4,-15.08,29.0,26.0,270,4,,6.21,29.822834,,,,,,,,,,,CAVOK,,,,,,,,VFR,,,,,,,,,,,,METAR,38.0
GOOD 040000Z 00000KT 8000 NSC 29/26 Q1012,GOOD,2021-10-04T00:00:00Z,14.65,-16.22,29.0,26.0,0,0,,4.97,29.88189,,,,,,,,,,,CLR,,,,,,,,MVFR,,,,,,,,,,,,METAR,9.0
GOGS 040000Z 00000KT 9999 TS FEW030CB 27/26 Q1012,GOGS,2021-10-04T00:00:00Z,12.4,-16.75,27.0,26.0,0,0,,6.21,29.88189,,,,,,,,,,TS,FEW,3000,,,,,,,VFR,,,,,,,,,,,,METAR,13.0
GOGK 040000Z 00000KT 8000 NSC 28/27 Q1011,GOGK,2021-10-04T00:00:00Z,12.9,-14.97,28.0,27.0,0,0,,4.97,29.852362,,,,,,,,,,,CLR,,,,,,,,MVFR,,,,,,,,,,,,METAR,37.0
GANR 040000Z 28002KT CAVOK 29/16 Q1012 RETS,GANR,2021-10-04T00:00:00Z,15.23,-9.58,29.0,16.0,280,2,,6.21,29.88189,,,,,,,,,,,CAVOK,,,,,,,,VFR,,,,,,,,,,,,METAR,237.0
GAMB 040000Z 20004KT CAVOK 29/24 Q1011,GAMB,2021-10-04T00:00:00Z,14.52,-4.08,29.0,24.0,200,4,,6.21,29.852362,,,,,,,,,,,CAVOK,,,,,,,,VFR,,,,,,,,,,,,METAR,271.0
GAKD 040000Z 00000KT 9999 TS FEW030 FEW033CB 28/23 Q1012,GAKD,2021-10-04T00:00:00Z,14.48,-11.4,28.0,23.0,0,0,,6.21,29.88189,,,,,,,,,,TS,FEW,3000,FEW,3300,,,,,VFR,,,,,,,,,,,,METAR,53.0
FZAA 040000Z 21004KT 7000 SCT018 25/23 Q1012 NOSIG,FZAA,2021-10-04T00:00:00Z,-4.38,15.45,25.0,23.0,210,4,,4.35,29.88189,,,,,,TRUE,,,,,SCT,1800,,,,,,,MVFR,,,,,,,,,,,,METAR,309.0
FVRG 040000Z 15003KT 8000 BKN080 18/13 Q1020,FVRG,2021-10-04T00:00:00Z,-17.93,31.1,18.0,13.0,150,3,,4.97,30.11811,,,,,,,,,,,BKN,8000,,,,,,,MVFR,,,,,,,,,,,,METAR,1490.0
FTTA 040000Z 00000KT CAVOK 25/24 Q1011,FTTA,2021-10-04T00:00:00Z,9.15,18.37,25.0,24.0,0,0,,6.21,29.852362,,,,,,,,,,,CAVOK,,,,,,,,VFR,,,,,,,,,,,,METAR,361.0
FQQL 040000Z 09009KT CAVOK 25/22 Q1010,FQQL,2021-10-04T00:00:00Z,-17.87,36.87,25.0,22.0,90,9,,6.21,29.822834,,,,,,,,,,,CAVOK,,,,,,,,VFR,,,,,,,,,,,,METAR,5.0
FQCH 040000Z /////KT 9999 SCT010 BKN015 20/20 Q1016,FQCH,2021-10-04T00:00:00Z,-19.15,33.43,20.0,20.0,,,,6.21,30.0,,,,,,,,,,,SCT,1000,BKN,1500,,,,,MVFR,,,,,,,,,,,,SPECI,695.0
FOOL 040000Z 19008KT 9999 SCT013 26/24 Q1012 NOSIG,FOOL,2021-10-04T00:00:00Z,0.45,9.42,26.0,24.0,190,8,,6.21,29.88189,,,,,,TRUE,,,,,SCT,1300,,,,,,,VFR,,,,,,,,,,,,METAR,9.0
FNLU 040000Z 17004KT 9000 FEW020 22/19 Q1012,FNLU,2021-10-04T00:00:00Z,-8.85,13.22,22.0,19.0,170,4,,5.59,29.88189,,,,,,,,,,,FEW,2000,,,,,,,VFR,,,,,,,,,,,,METAR,75.0
FMSD 040000Z 00000KT CAVOK 21/19 Q1013,FMSD,2021-10-04T00:00:00Z,-25.03,46.95,21.0,19.0,0,0,,6.21,29.911417,,,,,,,,,,,CAVOK,,,,,,,,VFR,,,,,,,,,,,,METAR,7.0
FKYS 040000Z 25006KT 210V270 8000 BKN006 22/21 Q1017 NOSIG,FKYS,2021-10-04T00:00:00Z,3.82,11.52,22.0,21.0,250,6,,4.97,30.029528,,,,,,TRUE,,,,,BKN,600,,,,,,,IFR,,,,,,,,,,,,METAR,694.0
FKKD 040000Z VRB02KT 9999 VCTS SCT016 FEW020CB 24/22 Q1012 TEMPO TS,FKKD,2021-10-04T00:00:00Z,4.0,9.72,24.0,22.0,0,2,,6.21,29.88189,,,,,,,,,,VCTS,SCT,1600,FEW,2000,,,,,VFR,,,,,,,,,,,,METAR,10.0
FGSL 040000Z 28004KT 9999 FEW010 25/24 Q1012 NOSIG,FGSL,2021-10-04T00:00:00Z,3.75,8.72,25.0,24.0,280,4,,6.21,29.88189,,,,,,TRUE,,,,,FEW,1000,,,,,,,VFR,,,,,,,,,,,,METAR,23.0
FEFF 040000Z 00000KT 8000 TS FEW010 FEW033CB 26/21 Q1011 BECMG NSW,FEFF,2021-10-04T00:00:00Z,4.4,18.52,26.0,21.0,0,0,,4.97,29.852362,,,,,,,,,,TS,FEW,1000,FEW,3300,,,,,MVFR,,,,,,,,,,,,SPECI,364.0
FDST 040000Z AUTO 06007KT //// // ////// 06/06 Q1020,FDST,2021-10-04T00:00:00Z,-26.43,31.95,6.0,6.0,60,7,,,30.11811,,,TRUE,,,,,,,,,,,,,,,,,,,,,,,,,,,,METAR,642.0
FDOT 040000Z AUTO 23004KT //// // ////// 14/12 Q1023,FDOT,2021-10-04T00:00:00Z,-26.7,31.43,14.0,12.0,230,4,,,30.206694,,,TRUE,,,,,,,,,,,,,,,,,,,,,,,,,,,,METAR,342.0
FCPP 040000Z 20007KT 9999 SCT008 OVC020 25/23 Q1012 NOSIG,FCPP,2021-10-04T00:00:00Z,-4.82,11.9,25.0,23.0,200,7,,6.21,29.88189,,,,,,TRUE,,,,,SCT,800,OVC,2000,,,,,MVFR,,,,,,,,,,,,METAR,18.0
FCBB 040000Z 21003KT 9000 FEW026CB 24/22 Q1013 NOSIG,FCBB,2021-10-04T00:00:00Z,-4.25,15.25,24.0,22.0,210,3,,5.59,29.911417,,,,,,TRUE,,,,,FEW,2600,,,,,,,VFR,,,,,,,,,,,,METAR,316.0
FBMN 040000Z 14005KT CAVOK 21/M06 Q1016,FBMN,2021-10-04T00:00:00Z,-19.97,23.42,21.0,-6.0,140,5,,6.21,30.0,,,,,,,,,,,CAVOK,,,,,,,,VFR,,,,,,,,,,,,METAR,946.0
FAWK 040000Z AUTO 16007KT //// // ////// 09/08 Q1022,FAWK,2021-10-04T00:00:00Z,-25.82,28.22,9.0,8.0,160,7,,,30.177166,,,TRUE,,,,,,,,,,,,,,,,,,,,,,,,,,,,SPECI,1496.0
FAVV 040000Z AUTO 04005KT //// // ////// 10/08 Q1022,FAVV,2021-10-04T00:00:00Z,-26.57,27.97,10.0,8.0,40,5,,,30.177166,,,TRUE,,,,,,,,,,,,,,,,,,,,,,,,,,,,SPECI,1480.0
FAOB 040000Z AUTO 29004KT //// // ////// 07/05 Q1026,FAOB,2021-10-04T00:00:00Z,-34.55,20.23,7.0,5.0,290,4,,,30.295275,,,TRUE,,,,,,,,,,,,,,,,,,,,,,,,,,,,METAR,15.0
FALW 040000Z AUTO 20005KT //// // ////// 08/04 Q1022,FALW,2021-10-04T00:00:00Z,-32.97,18.17,8.0,4.0,200,5,,,30.177166,,,TRUE,,,,,,,,,,,,,,,,,,,,,,,,,,,,SPECI,31.0
FALA 040000Z AUTO 10007KT //// // ////// 11/05 Q1021,FALA,2021-10-04T00:00:00Z,-25.93,27.92,11.0,5.0,100,7,,,30.147638,,,TRUE,,,,,,,,,,,,,,,,,,,,,,,,,,,,SPECI,1365.0
DXXX 040000Z 21007KT 9999 SCT012 27/25 Q1012 NOSIG,DXXX,2021-10-04T00:00:00Z,6.17,1.25,27.0,25.0,210,7,,6.21,29.88189,,,,,,TRUE,,,,,SCT,1200,,,,,,,VFR,,,,,,,,,,,,METAR,22.0
DXSK 040000Z 00000KT 9000 FEW010 BKN260 23/23 Q////,DXSK,2021-10-04T00:00:00Z,9.0,1.15,23.0,23.0,0,0,,5.59,,,,,,,,,,,,FEW,1000,BKN,26000,,,,,VFR,,,,,,,,,,,,METAR,381.0
DXNG 040000Z 24002KT 9999 FEW006 22/22 Q1015,DXNG,2021-10-04T00:00:00Z,9.77,1.1,22.0,22.0,240,2,,6.21,29.970472,,,,,,,,,,,FEW,600,,,,,,,VFR,,,,,,,,,,,,METAR,343.0
DTTF 040000Z 36008KT CAVOK 23/18 Q//// NOSIG,DTTF,2021-10-04T00:00:00Z,34.42,8.82,23.0,18.0,360,8,,6.21,,,,,,,TRUE,,,,,CAVOK,,,,,,,,VFR,,,,,,,,,,,,METAR,314.0
DIYO 040000Z 00000KT CAVOK 23/23 Q1013 NOSIG,DIYO,2021-10-04T00:00:00Z,6.9,-5.35,23.0,23.0,0,0,,6.21,29.911417,,,,,,TRUE,,,,,CAVOK,,,,,,,,VFR,,,,,,,,,,,,METAR,202.0
DIBK 040000Z 18004KT 8000 TS FEW011 FEW020CB 25/25 Q1014 NOSIG,DIBK,2021-10-04T00:00:00Z,7.73,-5.07,25.0,25.0,180,4,,4.97,29.940945,,,,,,TRUE,,,,TS,FEW,1100,FEW,2000,,,,,MVFR,,,,,,,,,,,,METAR,363.0
DGAA 040000Z 23008KT 9999 SCT010 27/24 Q1012 NOSIG,DGAA,2021-10-04T00:00:00Z,5.58,-0.17,27.0,24.0,230,8,,6.21,29.88189,,,,,,TRUE,,,,,SCT,1000,,,,,,,VFR,,,,,,,,,,,,METAR,68.0
DFFD 040000Z 20010KT CAVOK 27/23 Q1014 NOSIG,DFFD,2021-10-04T00:00:00Z,12.35,-1.52,27.0,23.0,200,10,,6.21,29.940945,,,,,,TRUE,,,,,CAVOK,,,,,,,,VFR,,,,,,,,,,,,METAR,309.0
DBBB 040000Z 20008KT 9999 SCT012 27/25 Q1012 TEMPO BKN008,DBBB,2021-10-04T00:00:00Z,6.35,2.38,27.0,25.0,200,8,,6.21,29.88189,,,,,,,,,,,SCT,1200,,,,,,,VFR,,,,,,,,,,,,METAR,4.0
DAOL 040000Z 24018KT 8000 FEW026 22/16 Q1017,DAOL,2021-10-04T00:00:00Z,35.53,-0.52,22.0,16.0,240,18,,4.97,30.029528,,,,,,,,,,,FEW,2600,,,,,,,MVFR,,,,,,,,,,,,METAR,103.0
DAAJ 040000Z 10008KT CAVOK 21/02 Q1020,DAAJ,2021-10-04T00:00:00Z,24.28,9.47,21.0,2.0,100,8,,6.21,30.11811,,,,,,,,,,,CAVOK,,,,,,,,VFR,,,,,,,,,,,,METAR,962.0
CZRP 040000Z AUTO 35019KT M05/M05 RMK AO1 SOG 17 3001 PK WND 34022/2354 SLP152 T10471054,CZRP,2021-10-04T00:00:00Z,75.37,-105.72,-4.7,-5.4,350,19,,,,1015.2,,TRUE,TRUE,,,,,,,,,,,,,,,,,,,,,,,,,,,METAR,6.0
CZPS 040000Z AUTO 04011KT 11/01 RMK AO1 T01060013,CZPS,2021-10-04T00:00:00Z,52.43,-113.6,10.6,1.3,40,11,,,,,,TRUE,TRUE,,,,,,,,,,,,,,,,,,,,,,,,,,,METAR,953.0
CZMU 040000Z AUTO 32008KT 11/M03 RMK AO1 PK WND 30017/2316 T01141030,CZMU,2021-10-04T00:00:00Z,53.57,-112.3,11.4,-3.0,320,8,,,,,,TRUE,TRUE,,,,,,,,,,,,,,,,,,,,,,,,,,,METAR,682.0
CYZW 040000Z 24005KT 220V280 30SM SCT047 BKN059 OVC220 05/M05 A2973 RMK SC4SC2CI2 LAST STFD OBS/NXT 041600Z SLP102,CYZW,2021-10-04T00:00:00Z,60.17,-132.75,5.0,-5.0,240,5,,30.0,29.731298,1010.2,,,,,,,,,,SCT,4700,BKN,5900,OVC,22000,,,VFR,,,,,,,,,,,,METAR,700.0
CYXZ 040000Z 05006KT 15SM OVC009 14/13 A2995 RMK ST8 LAST OBS/ NEXT 041100UTC SLP150 DENSITY ALT 1000FT,CYXZ,2021-10-04T00:00:00Z,47.97,-84.77,14.0,13.0,50,6,,15.0,29.949802,1015.0,,,,,,,,,,OVC,900,,,,,,,IFR,,,,,,,,,,,,METAR,287.0
CYRA 040000Z 22010G15KT 15SM -RA OVC010 03/02 A2927 RMK ST8 SNW CVR/NIL LAST STFD OBS/NEXT 041400 Z SLP925,CYRA,2021-10-04T00:00:00Z,64.12,-117.32,3.0,2.0,220,10,15,15.0,29.27067,,,,,,,,,,-RA,OVC,1000,,,,,,,MVFR,,,,,,,,,,,,METAR,232.0
CYLK 040000Z 18006KT 25SM FEW100 12/M02 A2943 RMK AC2 SNW CVR NIL LAST STFD OB NEXT 041400 SLP975 DENSITY ALT 900FT,CYLK,2021-10-04T00:00:00Z,62.42,-110.67,12.0,-2.0,180,6,,25.0,29.430119,,,,,,,,,,,FEW,10000,,,,,,,VFR,,,,,,,,,,,,METAR,183.0
CYLJ 040000Z 34013G18KT 15SM FEW100 15/M02 A2984 RMK AC1 AC TR LAST STFD OB/NXT 04 1200UTC SLP120 DENSITY ALT 2100FT,CYLJ,2021-10-04T00:00:00Z,54.12,-108.52,15.0,-2.0,340,13,18,15.0,29.840551,1012.0,,,,,,,,,,FEW,10000,,,,,,,VFR,,,,,,,,,,,,METAR,481.0
CYGE 040000Z VRB02KT 20SM FEW080 SCT220 11/05 A2996 RMK CU2CI1 LAST STFD OBS/NEXT 041200Z SLP160 DENSITY ALT 2700FT,CYGE,2021-10-04T00:00:00Z,51.3,-116.98,11.0,5.0,0,2,,20.0,29.958662,1016.0,,,,,,,,,,FEW,8000,SCT,22000,,,,,VFR,,,,,,,,,,,,METAR,786.0
CXYH 040000Z AUTO 07/M03 RMK AO1 19 SOG 01 1009 SLP982 T00651027,CXYH,2021-10-04T00:00:00Z,61.25,-123.75,6.5,-2.7,,,,,,998.2,,TRUE,TRUE,,,,,,,,,,,,,,,,,,,,,,,,,,,METAR,197.0
CXWB 040000Z AUTO 13018KT 04/03 RMK AO1 6PAST HR 6018 PK WND 13024/2325 SLP076 P0010 T00400033 50044,CXWB,2021-10-04T00:00:00Z,65.88,-89.45,4.0,3.3,130,18,,,,1007.6,,TRUE,TRUE,,,,,,,,,,,,,,,,4.4,,,,,0.1,,,,,,METAR,14.0
CXTV 040000Z AUTO 34013KT M00/M00 RMK AO1 SOG 02 1017 PK WND 35020/2301 SLP137 T10031001,CXTV,2021-10-04T00:00:00Z,68.75,-133.5,-0.3,-0.1,340,13,,,,1013.7,,TRUE,TRUE,,,,,,,,,,,,,,,,,,,,,,,,,,,METAR,91.0
CXTN 040000Z AUTO 04021G26KT M03/M03 RMK AO1 SOG 02 3012 PK WND 03026/2324 SLP047 T10261031,CXTN,2021-10-04T00:00:00Z,69.2,-122.35,-2.6,-3.1,40,21,26,,,1004.7,,TRUE,TRUE,,,,,,,,,,,,,,,,,,,,,,,,,,,METAR,564.0
CXSE 040000Z AUTO 04003KT M03/M04 RMK AO1 SOG 01 6007 SLP122 T10341039,CXSE,2021-10-04T00:00:00Z,73.77,-105.28,-3.4,-3.9,40,3,,,,1012.2,,TRUE,TRUE,,,,,,,,,,,,,,,,,,,,,,,,,,,METAR,11.0
CXLL 040000Z AUTO 26004KT 07/M02 RMK AO1 SOG 02 1018 SLP998 T00701023,CXLL,2021-10-04T00:00:00Z,61.12,-122.85,7.0,-2.3,260,4,,,,999.8,,TRUE,TRUE,,,,,,,,,,,,,,,,,,,,,,,,,,,METAR,180.0
CXDP 040000Z AUTO 27011KT 11/M07 RMK AO1 PK WND 29020/2310 T01111073,CXDP,2021-10-04T00:00:00Z,54.32,-113.92,11.1,-7.3,270,11,,,,,,TRUE,TRUE,,,,,,,,,,,,,,,,,,,,,,,,,,,METAR,613.0
CXDK 040000Z AUTO 05/M01 RMK AO1 SLP013 T00471009 51012,CXDK,2021-10-04T00:00:00Z,61.27,-124.47,4.7,-0.9,,,,,,1001.3,,TRUE,TRUE,,,,,,,,,,,,,,,,1.2,,,,,,,,,,,METAR,269.0
CWZW 040000Z AUTO 26005KT 05/M06 RMK AO1 SLP108 T00471058 51010,CWZW,2021-10-04T00:00:00Z,60.17,-132.73,4.7,-5.8,260,5,,,,1010.8,,TRUE,TRUE,,,,,,,,,,,,,,,,1.0,,,,,,,,,,,METAR,683.0
CWZL 040000Z AUTO 17011KT 09/ RMK AO1 SLP179 T0089 58007,CWZL,2021-10-04T00:00:00Z,53.03,-131.6,8.9,,170,11,,,,1017.9,,TRUE,TRUE,,,,,,,,,,,,,,,,-0.7,,,,,,,,,,,METAR,17.0
CWXC 040000Z AUTO 07001KT 06/04 RMK AO1 T00640038,CWXC,2021-10-04T00:00:00Z,48.88,-71.03,6.4,3.8,70,1,,,,,,TRUE,TRUE,,,,,,,,,,,,,,,,,,,,,,,,,,,METAR,306.0
CWWS 040000Z AUTO 16014G20KT 16/14 RMK AO1 PK WND 17020/2352 SLP094 T01600143 55006,CWWS,2021-10-04T00:00:00Z,52.82,-97.62,16.0,14.3,160,14,20,,,1009.4,,TRUE,TRUE,,,,,,,,,,,,,,,,-0.6,,,,,,,,,,,METAR,220.0
CWWL 040000Z AUTO 19016KT 10/04 RMK AO1 PK WND 18020/2338 SLP175 T01020038 58005,CWWL,2021-10-04T00:00:00Z,53.5,-130.63,10.2,3.8,190,16,,,,1017.5,,TRUE,TRUE,,,,,,,,,,,,,,,,-0.5,,,,,,,,,,,METAR,8.0
CWWK 040000Z AUTO 21002KT 14/10 RMK AO1 8010 SLP205 T01440104 50002,CWWK,2021-10-04T00:00:00Z,49.02,-122.78,14.4,10.4,210,2,,,,1020.5,,TRUE,TRUE,,,,,,,,,,,,,,,,0.2,,,,,,,,,,,METAR,10.0
CWSS 040000Z AUTO 35003KT 11/08 RMK AO1 SLP172 T01130079 52014,CWSS,2021-10-04T00:00:00Z,45.2,-67.25,11.3,7.9,350,3,,,,1017.2,,TRUE,TRUE,,,,,,,,,,,,,,,,1.4,,,,,,,,,,,METAR,27.0
CWSL 040000Z AUTO 23006G15KT 20/M02 RMK AO1 SLP149 T01961016 56006,CWSL,2021-10-04T00:00:00Z,50.7,-119.28,19.6,-1.6,230,6,15,,,1014.9,,TRUE,TRUE,,,,,,,,,,,,,,,,-0.6,,,,,,,,,,,METAR,353.0
CWRU 040000Z AUTO 27001KT 14/08 RMK AO1 8011 SLP215 T01370076 50012,CWRU,2021-10-04T00:00:00Z,50.12,-127.93,13.7,7.6,270,1,,,,1021.5,,TRUE,TRUE,,,,,,,,,,,,,,,,1.2,,,,,,,,,,,METAR,76.0
CWQS 040000Z AUTO 16015G24KT 08/05 RMK AO1 PK WND 19024/0000 SLP161 T00790048 56010,CWQS,2021-10-04T00:00:00Z,53.32,-132.77,7.9,4.8,160,15,24,,,1016.1,,TRUE,TRUE,,,,,,,,,,,,,,,,-1.0,,,,,,,,,,,METAR,10.0
CWND 040000Z AUTO 36014KT M01/M01 RMK AO1 PK WND 35017/2319 SLP137 T10071013 51015,CWND,2021-10-04T00:00:00Z,69.63,-135.43,-0.7,-1.3,360,14,,,,1013.7,,TRUE,TRUE,,,,,,,,,,,,,,,,1.5,,,,,,,,,,,METAR,14.0
CWMZ 040000Z AUTO 09013KT 17/16 RMK AO1 SLP123 T01700158 53009,CWMZ,2021-10-04T00:00:00Z,45.02,-80.37,17.0,15.8,90,13,,,,1012.3,,TRUE,TRUE,,,,,,,,,,,,,,,,0.9,,,,,,,,,,,METAR,175.0
CWME 040000Z AUTO 07001KT 08/07 RMK AO1 7010 SLP210 T00830068 50022,CWME,2021-10-04T00:00:00Z,52.18,-127.47,8.3,6.8,70,1,,,,1021.0,,TRUE,TRUE,,,,,,,,,,,,,,,,2.2,,,,,,,,,,,METAR,23.0
CWKD 040000Z AUTO 06011KT 06/03 RMK AO1 SLP225 T00600026 52016,CWKD,2021-10-04T00:00:00Z,50.73,-71.02,6.0,2.6,60,11,,,,1022.5,,TRUE,TRUE,,,,,,,,,,,,,,,,1.6,,,,,,,,,,,METAR,496.0
CWJO 040000Z AUTO 07002KT 10/06 RMK AO1 SLP208 T00960062 51013,CWJO,2021-10-04T00:00:00Z,48.43,-71.15,9.6,6.2,70,2,,,,1020.8,,TRUE,TRUE,,,,,,,,,,,,,,,,1.3,,,,,,,,,,,METAR,113.0
CWIX 040000Z AUTO 07008KT 10/05 RMK AO1 SLP193 T01040048 51009,CWIX,2021-10-04T00:00:00Z,48.6,-71.72,10.4,4.8,70,8,,,,1019.3,,TRUE,TRUE,,,,,,,,,,,,,,,,0.9,,,,,,,,,,,METAR,109.0
CWHP 040000Z AUTO 33006KT 08/06 RMK AO1 SLP156 T00770056 50006,CWHP,2021-10-04T00:00:00Z,49.08,-61.7,7.7,5.6,330,6,,,,1015.6,,TRUE,TRUE,,,,,,,,,,,,,,,,0.6,,,,,,,,,,,METAR,7.0
CWEF 040000Z AUTO 12/ RMK AO1 SLP134 T0116 50001,CWEF,2021-10-04T00:00:00Z,47.22,-60.13,11.6,,,,,,,1013.4,,TRUE,TRUE,,,,,,,,,,,,,,,,0.1,,,,,,,,,,,METAR,27.0
CWEE 040000Z AUTO 03/02 RMK AO1 SLP200 T00340021 52013,CWEE,2021-10-04T00:00:00Z,49.27,-73.35,3.4,2.1,,,,,,1020.0,,TRUE,TRUE,,,,,,,,,,,,,,,,1.3,,,,,,,,,,,METAR,302.0
CWDT 040000Z AUTO 33002KT RMK AO1 53013,CWDT,2021-10-04T00:00:00Z,49.83,-71.17,,,330,2,,,,,,TRUE,TRUE,,,,,,,,,,,,,,,,1.3,,,,,,,,,,,METAR,389.0
CWDO 040000Z AUTO 06006KT 07/04 RMK AO1 SLP122 T00670035 51002,CWDO,2021-10-04T00:00:00Z,49.68,-54.78,6.7,3.5,60,6,,,,1012.2,,TRUE,TRUE,,,,,,,,,,,,,,,,0.2,,,,,,,,,,,METAR,89.0
CWDM 040000Z AUTO 34006KT 05/04 RMK AO1 0009 SLP158 T00530040 50002,CWDM,2021-10-04T00:00:00Z,50.47,-59.63,5.3,4.0,340,6,,,,1015.8,,TRUE,TRUE,,,,,,,,,,,,,,,,0.2,,,,,,,,,,,METAR,2.0
CWDC 040000Z AUTO 24012G24KT 08/01 RMK AO1 PK WND 21024/2352 SLP034 T00750011 55001,CWDC,2021-10-04T00:00:00Z,59.57,-108.48,7.5,1.1,240,12,24,,,1003.4,,TRUE,TRUE,,,,,,,,,,,,,,,,-0.1,,,,,,,,,,,METAR,311.0
CWCI 040000Z AUTO 05014KT 15/14 RMK AO1 PK WND 05018/2321 SLP129 T01470138 51011,CWCI,2021-10-04T00:00:00Z,47.33,-85.82,14.7,13.8,50,14,,,,1012.9,,TRUE,TRUE,,,,,,,,,,,,,,,,1.1,,,,,,,,,,,METAR,167.0
CTRA 040000Z AUTO 16001KT 14/10 RMK AO1 SLP140 T01380096 52003,CTRA,2021-10-04T00:00:00Z,49.67,-93.73,13.8,9.6,160,1,,,,1014.0,,TRUE,TRUE,,,,,,,,,,,,,,,,0.3,,,,,,,,,,,METAR,432.0
MUCF 032359Z AUTO 06005KT 25/23 Q1013,MUCF,2021-10-03T23:59:00Z,22.15,-80.4,25.0,23.0,60,5,,,29.911417,,,TRUE,,,,,,,,,,,,,,,,,,,,,,,,,,,,METAR,35.0
PWAK 032358Z AUTO 08010KT 9999 FEW023 31/24 A2985 RMK AO2 SLP114 60000 T03100240 10312 20270 58008 $,PWAK,2021-10-03T23:58:00Z,19.28,166.62,31.0,24.0,80,10,,6.21,29.84941,1011.4,,TRUE,TRUE,TRUE,,,,,,FEW,2300,,,,,,,VFR,-0.8,31.2,27.0,,,,,0.005,,,,METAR,7.0
KFCS 032358Z AUTO 16005KT 10SM CLR 23/M01 A3017 RMK AO2 SLP186 T02251009 10245 20221 55002 $,KFCS,2021-10-03T23:58:00Z,38.67,-104.77,22.5,-0.9,160,5,,10.0,30.171259,1018.6,,TRUE,TRUE,TRUE,,,,,,CLR,,,,,,,,VFR,-0.2,24.5,22.1,,,,,,,,,METAR,1789.0
KBAB 032358Z AUTO 18004KT 10SM CLR 31/06 A2987 RMK AO2 SLP117 T03120056 10320 20246 57018 $,KBAB,2021-10-03T23:58:00Z,39.13,-121.43,31.2,5.6,180,4,,10.0,29.870079,1011.7,,TRUE,TRUE,TRUE,,,,,,CLR,,,,,,,,VFR,-1.8,32.0,24.6,,,,,,,,,METAR,31.0
K0J4 032358Z AUTO 00000KT 10SM -RA SCT060 SCT100 24/21 A3001 RMK AO2 RAB58 SLP160 6//// T02390206 10278 20233 53003 PNO $,K0J4,2021-10-03T23:58:00Z,31.05,-86.32,23.9,20.6,0,0,,10.0,30.008858,1016.0,,TRUE,TRUE,TRUE,,,,,-RA,SCT,6000,SCT,10000,,,,,VFR,0.3,27.8,23.3,,,,,,,,,METAR,96.0
PAII 032356Z AUTO 25010KT 10SM CLR 05/M03 A3020 RMK AO2 SLP226 T00501028 10056 20006 53003,PAII,2021-10-03T23:56:00Z,58.18,-157.38,5.0,-2.8,250,10,,10.0,30.200787,1022.6,,TRUE,TRUE,,,,,,,CLR,,,,,,,,VFR,0.3,5.6,0.6,,,,,,,,,METAR,31.0
KNUC 032356Z AUTO 23008KT 10SM CLR 21/18 A2989 RMK AO2 SLP120 T02110183 10272 20206 56009 $,KNUC,2021-10-03T23:56:00Z,33.02,-118.57,21.1,18.3,230,8,,10.0,29.890747,1012.0,,TRUE,TRUE,TRUE,,,,,,CLR,,,,,,,,VFR,-0.9,27.2,20.6,,,,,,,,,METAR,52.0
KNKT 032356Z 17005KT 10SM CLR 21/16 A3005 RMK AO2 SLP171 T02110156 10278 20200 53004,KNKT,2021-10-03T23:56:00Z,34.9,-76.88,21.1,15.6,170,5,,10.0,30.050198,1017.1,,,TRUE,,,,,,,CLR,,,,,,,,VFR,0.4,27.8,20.0,,,,,,,,,SPECI,8.0
KNDZ 032356Z 11003KT 10SM FEW030 BKN090 BKN250 24/23 A2999 RMK AO2 SLP139 T2 SET 6//// T02440228 10289 20233 55004 $,KNDZ,2021-10-03T23:56:00Z,30.7,-87.02,24.4,22.8,110,3,,10.0,29.991142,1013.9,,,TRUE,TRUE,,,,,,FEW,3000,BKN,9000,BKN,25000,,,VFR,-0.4,28.9,23.3,,,,,,,,,SPECI,51.0
KMJX 032356Z AUTO 18006KT 10SM 21/18 A2994 RMK AO2 SLP140 T02110183 10283 20211 53004 $,KMJX,2021-10-03T23:56:00Z,39.93,-74.3,21.1,18.3,180,6,,10.0,29.940945,1014.0,,TRUE,TRUE,TRUE,,,,,,,,,,,,,,,0.4,28.3,21.1,,,,,,,,,METAR,22.0
LIVP 032355Z 15015KT 0000 -RA FG VV/// 06/06 Q1023 RMK MON INVIS VAL INVIS VIS MIN 0000,LIVP,2021-10-03T23:55:00Z,46.15,11.03,6.0,6.0,150,15,,0.0,30.206694,,,,,,,,,,-RA FG,OVX,0,,,,,,,LIFR,,,,,,,,,,,,SPECI,2099.0
LIVM 032355Z AUTO VRB02KT //// 19/17 Q1018,LIVM,2021-10-03T23:55:00Z,44.45,12.3,19.0,17.0,0,2,,,30.059055,,,TRUE,,,,,,,,,,,,,,,,,,,,,,,,,,,,SPECI,6.0
LIVE 032355Z 16006KT 2000 BR BKN004 SCT008 10/10 Q1019 RMK OVC VIS MIN 2000,LIVE,2021-10-03T23:55:00Z,46.82,10.5,10.0,10.0,160,6,,1.24,30.088583,,,,,,,,,,BR,BKN,400,SCT,800,,,,,LIFR,,,,,,,,,,,,SPECI,1684.0
LIRK 032355Z AUTO 21003KT //// 09/07 Q1026,LIRK,2021-10-03T23:55:00Z,42.47,12.97,9.0,7.0,210,3,,,30.295275,,,TRUE,,,,,,,,,,,,,,,,,,,,,,,,,,,,SPECI,1721.0
LIRE 032355Z 10009KT CAVOK 21/19 Q1019 RMK SKC VIS MIN 9999 WIND THR13 11009KT WIND THR31 /////KT BLU,LIRE,2021-10-03T23:55:00Z,41.65,12.43,21.0,19.0,100,9,,6.21,30.088583,,,,,,,,,,,CAVOK,,,,,,,,VFR,,-0.9,,,,,,,,,,SPECI,16.0
LIQC 032355Z 00000KT CAVOK 22/18 Q1019 RMK SKC QUK / QUL / VIS MAR 20 KM VIS MIN 9999,LIQC,2021-10-03T23:55:00Z,40.55,14.2,22.0,18.0,0,0,,6.21,30.088583,,,,,,,,,,,CAVOK,,,,,,,,VFR,,,,,,,,,,,,SPECI,154.0
LIPS 032355Z 04004KT 7000 FEW030 BKN060 18/17 Q1019 RMK BKN VIS MIN 7000 WIND THR26 04004KT WIND THR08 04004KT BLK WHT,LIPS,2021-10-03T23:55:00Z,45.68,12.1,18.0,17.0,40,4,,4.35,30.088583,,,,,,,,,,,FEW,3000,BKN,6000,,,,,MVFR,,,,,,,,,,,,SPECI,42.0
LIPL 032355Z 08005KT CAVOK 20/18 Q1017 RMK SCT SCT120 VIS MIN 9999 WIND THR31 10005KT WIND THR13 08006KT BLU,LIPL,2021-10-03T23:55:00Z,45.42,10.27,20.0,18.0,80,5,,6.21,30.029528,,,,,,,,,,,CAVOK,,,,,,,,VFR,,0.5,,,,,,,,,,SPECI,96.0
LIMK 032355Z 20003KT 0100 FG VV/// 14/14 Q1018 RMK VAL INVIS VIS MIN 0100,LIMK,2021-10-03T23:55:00Z,45.02,7.72,14.0,14.0,200,3,,0.06,30.059055,,,,,,,,,,FG,OVX,0,,,,,,,LIFR,,,,,,,,,,,,SPECI,693.0
LIMH 032355Z 18015KT 0100 -SN FZFG VV/// M04/M04 Q1024 RMK MON INVIS VAL INVIS VIS MIN 0100,LIMH,2021-10-03T23:55:00Z,45.93,7.7,-4.0,-4.0,180,15,,0.06,30.236221,,,,,,,,,,-SN FZFG,OVX,0,,,,,,,LIFR,,,,,,,,,,,,SPECI,3473.0
LIED 032355Z 13012KT 9999 FEW020 SCT030 24/22 Q1014 RMK BKN VIS MIN 9999 WIND THR35 13012KT WIND THR17 13010KT BLU,LIED,2021-10-03T23:55:00Z,39.35,8.97,24.0,22.0,130,12,,6.21,29.940945,,,,,,,,,,,FEW,2000,SCT,3000,,,,,VFR,,,,,,,,,,,,SPECI,26.0
LIEB 032355Z 19018KT 9999 SCT020 23/23 Q1016 RMK SCT QUK / QUL / VIS MAR 20 KM MON INVIS VIS MIN 9999,LIEB,2021-10-03T23:55:00Z,39.93,9.72,23.0,23.0,190,18,,6.21,30.0,,,,,,,,,,,SCT,2000,,,,,,,VFR,,,,,,,,,,,,SPECI,126.0
LICZ 032355Z 24004KT CAVOK 19/19 Q1020 RMK SKC VIS MIN 9999 WIND THR28 25006KT WIND THR10 24006KT A3013 BLU,LICZ,2021-10-03T23:55:00Z,37.4,14.92,19.0,19.0,240,4,,6.21,30.11811,,,,,,,,,,,CAVOK,,,,,,,,VFR,,,,,,,,,,,,SPECI,22.0
LICF 032355Z 23004KT CAVOK 20/12 Q1019 RMK SKC QUK / QUL / VIS MAR 20 KM MON INVIS NC VIS MIN 9999,LICF,2021-10-03T23:55:00Z,38.2,15.55,20.0,12.0,230,4,,6.21,30.088583,,,,,,,,,,,CAVOK,,,,,,,,VFR,,,,,,,,,,,,SPECI,66.0
LIBV 032355Z 17006KT 8000 NSC 15/15 Q1020 RMK SKC VIS MIN 8000 WIND THR32 16007KT WIND THR14 VRB02KT BLU,LIBV,2021-10-03T23:55:00Z,40.77,16.93,15.0,15.0,170,6,,4.97,30.11811,,,,,,,,,,,CLR,,,,,,,,MVFR,,,,,,,,,,,,SPECI,344.0
LIBQ 032355Z 08004KT CAVOK 12/00 Q1026 RMK SKC MON LIB VAL NIL VIS MIN 9999,LIBQ,2021-10-03T23:55:00Z,39.32,16.38,12.0,0.0,80,4,,6.21,30.295275,,,,,,,,,,,CAVOK,,,,,,,,VFR,,,,,,,,,,,,SPECI,1660.0
LIBN 032355Z 11004KT CAVOK 16/16 Q1020 RMK SKC VIS MIN 9999 WIND THR14 13004KT WIND THR32 11003KT BLU,LIBN,2021-10-03T23:55:00Z,40.23,18.13,16.0,16.0,110,4,,6.21,30.11811,,,,,,,,,,,CAVOK,,,,,,,,VFR,,-0.3,,,,,,,,,,SPECI,46.0
